{"type":"Feature","properties":{"GID_2":"DZA.33.8_1","GID_0":"DZA","country":"Algeria","GID_1":"DZA.33_1","province":"Ouargla","NL_NAME_1":"ورقلة","county":"HassiMessaoud","VARNAME_2":"HāssīMas`ūd","NL_NAME_2":"NA","TYPE_2":"Commune","ENGTYPE_2":"Commune","CC_2":"3004","HASC_2":"DZ.OG.HM","name":"Hassi_Messaoud.county"},
"geometry":{"type": "MultiPolygon","coordinates": [[[[4.0345,30.5996,281.059],[3.9997,30.5041,285.1161],[3.8271,30.0098,335.439],[3.823,30.0003,337.0925],[3.8168,29.9982,336.7361],[3.7507,29.807,285.3661],[3.7305,29.8016,297.7169],[3.7155,29.7915,303.0362],[3.7123,29.7859,296.0594],[3.6914,29.7749,292.256],[3.6789,29.7652,294.2822],[3.6812,29.754,325.1379],[3.6698,29.7281,321.3792],[3.6672,29.7159,312.506],[3.3672,29.219,387.1691],[3.3291,29.2033,425.933],[2.9988,29.0784,482.6474],[3.0831,29.0184,507.4413],[3.1388,28.9757,496.8602],[3.768,28.5138,500.3934],[3.7612,28.4982,473.2538],[4.0013,28.6581,529.2233],[4.1475,28.7577,469.8486],[4.2113,28.7989,453.7357],[4.5281,28.9998,373.6791],[4.9629,29.2791,365.5602],[5.0244,29.3145,405.2514],[5.0654,29.3403,286.4739],[5.3658,29.5324,267.4818],[5.7234,29.7583,251.9058],[5.9915,29.8757,252.1769],[6.0011,29.8821,239.6833],[6.259,30.0002,233.7867],[6.4505,30.0839,228.9219],[6.5746,30.0448,230.9802],[7.0641,30.1372,220.7142],[6.7269,30.941,174.1434],[6.7015,31.0522,173.5615],[6.5901,31.5953,146.9144],[6.5781,31.9858,143.8835],[6.5854,32.0275,137.5842],[6.578,32.221,125.3519],[6.5787,32.2342,119.7555],[6.3176,32.3313,116.3098],[6.1025,32.6181,112.6987],[6.102,32.4291,118.9725],[6.1007,32.3849,119.0489],[6.0843,32.2273,131.0513],[6.0373,32.0433,159.7569],[6.0242,31.9995,170.2745],[6.0177,31.9861,169.2786],[5.9989,31.9165,165.7472],[5.9973,31.9056,161.5694],[5.9776,31.8281,139.7107],[5.8005,31.7192,145.4016],[5.6745,31.6396,158.4191],[5.4799,31.5121,144.8894],[5.1094,31.3424,161.6349],[4.8616,31.2324,193.2468],[4.5308,31.0826,175.5624],[4.2519,31.2206,236.4191],[4.151,30.9379,270.3705],[4.0593,30.6759,278.1827],[4.0345,30.5996,281.059]]]]}}