{"type": "Feature","bbox": [0.0488,34.9274,0.2281,35.0712],"geometry": {"type": "MultiPolygon","coordinates": [[[[0.1548,35.0702,1001.9734],[0.1451,35.0644,937.1631],[0.1253,35.0675,878.1439],[0.1213,35.0712,765.6202],[0.1033,35.0691,593.9349],[0.0956,35.0566,686.6643],[0.0981,35.051,833.3114],[0.0987,35.0433,809.778],[0.0782,35.0344,616.3036],[0.0772,35.0242,547.2447],[0.0657,35.0245,533.7589],[0.0666,35.0173,547.6279],[0.0652,35.0096,573.6942],[0.0599,35.0009,590.9622],[0.0528,34.9954,616.6947],[0.0495,34.99,624.2183],[0.0488,34.984,639.8804],[0.0517,34.9705,670.1331],[0.0661,34.963,731.7719],[0.0687,34.9584,834.0339],[0.0754,34.9521,892.8494],[0.0775,34.9433,937.8145],[0.082,34.9376,957.6058],[0.0831,34.9285,989.423],[0.089,34.9274,1028.9829],[0.1095,34.93,990.2533],[0.1194,34.939,912.3539],[0.1245,34.9355,891.5171],[0.1407,34.9343,716.744],[0.1561,34.9396,662.1577],[0.1673,34.9493,649.728],[0.1718,34.9444,660.5005],[0.1839,34.9395,696.2469],[0.196,34.9372,716.9536],[0.2021,34.939,721.1206],[0.2016,34.9437,725.3588],[0.1976,34.9485,703.5387],[0.2176,34.9545,805.4594],[0.2136,34.9582,777.6619],[0.2135,34.9634,729.6766],[0.2172,34.9691,721.5452],[0.2281,34.9764,754.3619],[0.2157,34.9904,802.7576],[0.2116,34.9931,752.5153],[0.2145,34.9976,771.436],[0.2091,35.0061,843.4957],[0.2134,35.0117,929.1298],[0.2089,35.0149,886.8403],[0.2012,35.0142,923.3651],[0.1933,35.0218,998.314],[0.1845,35.0272,1050.8234],[0.1805,35.0324,944.1481],[0.1679,35.0363,928.2868],[0.1754,35.0525,1020.0508],[0.1658,35.0562,952.2112],[0.1548,35.0702,1001.9734]]]]}
,"properties": {"GID_2": "DZA.36.13_1","GID_0": "DZA","country": "Algeria","GID_1": "DZA.36_1","province": "Saïda","NL_NAME_1": "ولايةسعيدة","county": "SidiAmar","VARNAME_2": "SīdīAmar","NL_NAME_2": "NA","TYPE_2": "Commune","ENGTYPE_2": "Commune","CC_2": "2008","HASC_2": "DZ.SD.SR","name": "Sidi_Amar.county","area_km2": 167.8548,"hist_schema_id": "Elevation0-9000","hist_area_km2": {"525": 0.1215,"550": 2.3961,"575": 5.9559,"600": 9.3078,"625": 13.5122,"650": 18.0135,"675": 16.7283,"700": 16.6247,"725": 12.0722,"750": 9.6218,"775": 8.5804,"800": 8.8583,"825": 7.608,"850": 7.4689,"875": 6.8436,"900": 6.6701,"925": 6.0617,"950": 4.689,"975": 3.178,"1000": 1.8584,"1025": 1.2849,"1050": 0.2953,"1075": 0.1042}}}