{"type":"Feature","properties":{"GID_2":"DZA.13.20_1","GID_0":"DZA","country":"Algeria","GID_1":"DZA.13_1","province":"Boumerdès","NL_NAME_1":"ولايةبومرداس","county":"Leghata","VARNAME_2":"Laghata","NL_NAME_2":"NA","TYPE_2":"Commune-Cotiere","ENGTYPE_2":"Commune-Cotiere","CC_2":"3529","HASC_2":"DZ.BM.LE","name":"Leghata.county"},
"geometry":{"type": "MultiPolygon","coordinates": [[[[3.7107,36.8101,10.6928],[3.7062,36.816,8.7727],[3.7007,36.8186,7.7618],[3.6953,36.8173,8.1086],[3.6904,36.813,6.4372],[3.6893,36.8188,5.3954],[3.6927,36.8256,18.529],[3.6844,36.8282,2.7808],[3.6726,36.8383,1.077],[3.6671,36.8399,0.0],[3.6473,36.8287,1.9735],[3.6414,36.8239,2.6976],[3.642,36.8185,9.1853],[3.6536,36.7978,107.1458],[3.6546,36.7774,118.3935],[3.6377,36.7588,99.127],[3.6473,36.7512,59.7843],[3.6556,36.7476,66.7865],[3.6653,36.7404,25.0831],[3.6699,36.74,22.267],[3.6769,36.7407,22.181],[3.6842,36.743899999999996,21.246],[3.6934,36.7494,21.2167],[3.7024,36.7577,18.9611],[3.7131,36.7622,19.2088],[3.7075,36.764,18.609],[3.7122,36.7697,17.2534],[3.708,36.7726,16.1468],[3.712,36.7744,15.4457],[3.7178,36.7744,15.3307],[3.7171,36.7791,27.4356],[3.7126,36.783,13.6177],[3.7177,36.7875,40.4932],[3.7079,36.7973,11.1445],[3.7107,36.8101,10.6928]]]]}}