{"type": "Feature","bbox": [6.5689,35.4618,6.7949,35.6497],"geometry": {"type": "MultiPolygon","coordinates": [[[[6.5689,35.5575,956.7183],[6.5784,35.5357,1006.3305],[6.5838,35.5313,1019.2848],[6.5865,35.5243,1045.6654],[6.5989,35.5121,1095.1383],[6.6022,35.5007,1060.2166],[6.6067,35.497,1037.7084],[6.6181,35.4937,1023.1396],[6.6105,35.4834,1039.4319],[6.6149,35.4809,1038.2451],[6.6123,35.4759,1044.7229],[6.6193,35.4711,1042.1982],[6.614,35.4618,1059.1741],[6.6185,35.4627,1049.9795],[6.6233,35.4674,1051.8369],[6.6309,35.4701,1042.2471],[6.6367,35.469,1044.288],[6.6407,35.4731,1061.0466],[6.6463,35.4843,1035.5605],[6.6775,35.4883,1028.5256],[6.6826,35.4909,989.1843],[6.7202,35.4843,1053.6823],[6.7329,35.4887,1020.2627],[6.7379,35.4975,983.6155],[6.7575,35.5019,939.9764],[6.7619,35.5047,926.3165],[6.7626,35.5177,901.7719],[6.7692,35.5222,897.7275],[6.7821,35.5482,881.9886],[6.7939,35.5593,877.1227],[6.7949,35.5637,876.0413],[6.7939,35.5743,871.396],[6.791,35.5803,871.4083],[6.7868,35.5847,869.6451],[6.7824,35.5946,867.2568],[6.7709,35.6027,864.929],[6.7631,35.6217,870.6288],[6.7623,35.6319,867.9332],[6.7684,35.6497,859.5312],[6.747,35.6479,870.9474],[6.7424,35.6451,860.6629],[6.7431,35.6379,862.2173],[6.7399,35.6333,861.056],[6.7193,35.6126,861.8766],[6.6955,35.5919,872.1642],[6.6799,35.5752,914.8087],[6.6718,35.5696,923.0536],[6.6667,35.5676,923.013],[6.6432,35.5747,956.0386],[6.6299,35.5825,923.3194],[6.6248,35.5826,937.5261],[6.6066,35.577,972.8197],[6.6015,35.5731,992.1368],[6.5993,35.568,1020.8929],[6.5935,35.5618,1011.1122],[6.5802,35.5669,974.2019],[6.5689,35.5575,956.7183]]]]}
,"properties": {"GID_2": "DZA.6.43_1","GID_0": "DZA","country": "Algeria","GID_1": "DZA.6_1","province": "Batna","NL_NAME_1": "ولايةباتنة","county": "OuledFadhel","VARNAME_2": "OuledFadel","NL_NAME_2": "NA","TYPE_2": "Commune","ENGTYPE_2": "Commune","CC_2": "549","HASC_2": "DZ.BT.OF","name": "Ouled_Fadhel.county","area_km2": 207.8749,"hist_schema_id": "Elevation0-9000","hist_area_km2": {"850": 11.1682,"875": 42.9006,"900": 20.0446,"925": 24.6896,"950": 24.4498,"975": 21.9824,"1000": 23.2952,"1025": 19.6044,"1050": 10.3367,"1075": 6.0562,"1100": 2.5881,"1125": 0.6729,"1150": 0.0863}}}