{"type": "Feature","bbox": [1.0976,35.5243,1.2506,35.6746],"geometry": {"type": "MultiPolygon","coordinates": [[[[1.1179,35.6334,434.3918],[1.1074,35.6269,467.676],[1.1026,35.6267,476.7097],[1.0998,35.6213,595.2731],[1.0976,35.6029,694.1683],[1.1018,35.6,640.3423],[1.1027,35.5949,664.4524],[1.1064,35.5899,726.4604],[1.1119,35.5892,696.9128],[1.1156,35.5731,561.4075],[1.1278,35.5607,699.3391],[1.1292,35.5543,730.6578],[1.136,35.5415,780.5521],[1.1423,35.5439,863.6566],[1.152,35.5374,838.6458],[1.1574,35.5359,848.4543],[1.1624,35.5365,840.826],[1.1747,35.5297,576.4348],[1.1777,35.5259,587.8174],[1.1856,35.5254,779.8129],[1.1926,35.5272,717.6485],[1.2021,35.5243,680.53],[1.2178,35.525,614.3934],[1.2323,35.534,606.7646],[1.2367,35.5444,469.4372],[1.2458,35.5519,452.559],[1.244,35.5573,428.6881],[1.2476,35.5605,442.6461],[1.2506,35.5665,501.6075],[1.2486,35.5732,533.5092],[1.245,35.5778,482.6339],[1.2389,35.5806,427.4338],[1.2314,35.5804,376.517],[1.232,35.5854,406.9466],[1.236,35.5916,437.4762],[1.2357,35.5982,470.2873],[1.2305,35.6013,462.8769],[1.226,35.6018,430.028],[1.233,35.6129,546.3241],[1.2384,35.6157,562.038],[1.2363,35.6296,681.8513],[1.2377,35.6364,752.7518],[1.2428,35.6505,791.7802],[1.2472,35.6544,745.7206],[1.2439,35.6609,630.3163],[1.2364,35.6622,711.3781],[1.2321,35.6667,696.7896],[1.2308,35.6709,647.6217],[1.2237,35.6746,421.2032],[1.219,35.664,647.9194],[1.1889,35.6628,573.04],[1.1807,35.6554,456.7335],[1.1814,35.6506,516.0318],[1.1765,35.6455,393.9256],[1.1708,35.6356,430.334],[1.1609,35.6263,627.042],[1.1344,35.624,632.4895],[1.1292,35.6215,583.9503],[1.1237,35.6223,563.9216],[1.1233,35.6323,395.2383],[1.1179,35.6334,434.3918]]]]}
,"properties": {"GID_2": "DZA.43.33_1","GID_0": "DZA","country": "Algeria","GID_1": "DZA.43_1","province": "Tiaret","NL_NAME_1": "ولايةتيارت","county": "SidiAliMellal","VARNAME_2": "NA","NL_NAME_2": "NA","TYPE_2": "Commune","ENGTYPE_2": "Commune","CC_2": "1404","HASC_2": "DZ.TR.SM","name": "Sidi_Ali_Mellal.county","area_km2": 142.9638,"hist_schema_id": "Elevation0-9000","hist_area_km2": {"300": 0.6376,"325": 3.7748,"350": 6.7411,"375": 7.4143,"400": 8.3285,"425": 9.1389,"450": 9.5179,"475": 9.69,"500": 10.1724,"525": 10.7241,"550": 10.189,"575": 8.4995,"600": 8.7234,"625": 6.965,"650": 6.5683,"675": 6.327,"700": 4.7754,"725": 3.6203,"750": 2.7757,"775": 2.0863,"800": 1.8968,"825": 1.3796,"850": 1.3279,"875": 0.7932,"900": 0.6555,"925": 0.2242,"950": 0.0173}}}