{"type": "Feature","bbox": [-3.9839,26.4048,0.5171,27.0653],"geometry": {"type": "MultiPolygon","coordinates": [[[[-3.1045,26.8903,430.0651],[-3.1038,26.8854,440.7235],[-3.108,26.8671,435.2586],[-3.1736,26.8239,438.3757],[-3.1792,26.8221,436.0838],[-3.2472,26.8202,427.1621],[-3.3292,26.8208,438.3052],[-3.3626,26.825,436.6502],[-3.4366,26.8251,435.731],[-3.4732,26.8334,439.3343],[-3.4881,26.8322,441.0828],[-3.5078,26.833,445.7881],[-3.5208,26.8312,443.3312],[-3.5315,26.8257,445.9394],[-3.547,26.8205,448.864],[-3.5882,26.8111,454.0182],[-3.6063,26.8048,461.5121],[-3.6366,26.7825,466.2168],[-3.6751,26.7703,471.1989],[-3.6895,26.7599,474.9851],[-3.7446,26.7113,478.4497],[-3.7556,26.7051,478.1291],[-3.765,26.695,477.7182],[-3.7845,26.6792,474.4653],[-3.7915,26.6613,472.7782],[-3.8003,26.6477,471.1227],[-3.8136,26.6347,470.8236],[-3.8378,26.601,465.4825],[-3.8464,26.5918,464.0505],[-3.9839,26.4058,462.8683],[-3.6424,26.4913,460.0029],[-3.2965,26.4774,405.3103],[-2.4968,26.4542,320.1815],[-1.9983,26.4359,290.6135],[-1.906,26.435,287.5354],[-1.5078,26.4048,274.2073],[-0.726,26.6121,243.8639],[-0.235,26.7614,182.7539],[0.0043,26.8307,164.0529],[0.0173,26.8315,176.527],[0.0485,26.8444,227.3558],[0.5171,26.9953,295.2159],[0.4763,27.0653,295.3267],[0.2839,27.0421,297.3824],[0.0681,27.0389,285.6223],[-0.043,27.0161,259.1207],[-0.0701,27.0162,218.895],[-0.2076,26.9975,150.9152],[-0.2545,26.9936,150.4592],[-1.1131,26.9336,280.2848],[-1.4988,26.9302,295.4433],[-1.9964,26.9198,327.7763],[-2.4936,26.9089,320.0397],[-2.9917,26.8956,402.1558],[-3.0133,26.8913,405.4691],[-3.1045,26.8903,430.0651]]]]}
,"properties": {"GID_2": "DZA.1.17_1","GID_0": "DZA","country": "Algeria","GID_1": "DZA.1_1","province": "Adrar","NL_NAME_1": "ولايةأدرا","county": "Sali","VARNAME_2": "NA","NL_NAME_2": "NA","TYPE_2": "Commune","ENGTYPE_2": "Commune","CC_2": "118","HASC_2": "DZ.AR.SA","name": "Sali.county","area_km2": 17535.24,"hist_schema_id": "Elevation0-9000","hist_area_km2": {"150": 528.71,"175": 199.77,"200": 300.61,"225": 887.57,"250": 814.77,"275": 2181.5,"300": 4396.39,"325": 2248.11,"350": 1234.17,"375": 769.6,"400": 1064.53,"425": 1455.91,"450": 869.96,"475": 521.33,"500": 47.1,"525": 10.83,"550": 1.9,"575": 1.08,"600": 1.01,"625": 0.38}}}