{"type":"Feature","properties":{"GID_2":"DZA.47.30_1","GID_0":"DZA","country":"Algeria","GID_1":"DZA.47_1","province":"TiziOuzou","NL_NAME_1":"ولايةغليزان","county":"Bouzeguene","VARNAME_2":"Bouzguen|Buzqan","NL_NAME_2":"NA","TYPE_2":"Commune","ENGTYPE_2":"Commune","CC_2":"1534","HASC_2":"DZ.TO.BO","name":"Bouzeguene.county"},
"geometry":{"type": "MultiPolygon","coordinates": [[[[4.564,36.6385,1490.2069],[4.5467,36.6336,1280.2731],[4.5283,36.6347,1232.9819],[4.5109,36.6331,1233.6704],[4.5022,36.6381,1136.7854],[4.4924,36.647,1015.2527],[4.4704,36.6476,773.6719],[4.4652,36.659,474.7373],[4.461,36.6544,432.903],[4.4437,36.651,379.6407],[4.4349,36.6458,315.6779],[4.4275,36.6339,338.9138],[4.4219,36.6324,317.0292],[4.4182,36.6282,249.0862],[4.4334,36.614,275.6991],[4.4354,36.6089,287.0187],[4.4453,36.5976,341.866],[4.4678,36.5854,479.4238],[4.4846,36.5883,552.1992],[4.4956,36.5819,619.723],[4.5123,36.5797,811.855],[4.527,36.5846,1026.531],[4.5406,36.5768,1317.6086],[4.5454,36.5767,1335.323],[4.5495,36.5798,1287.6335],[4.5527,36.5849,1309.0167],[4.5603,36.5896,1297.1757],[4.5549,36.593,1399.599],[4.55,36.6031,1483.7773],[4.5433,36.609,1445.222],[4.5407,36.614,1391.1129],[4.5438,36.6174,1357.099],[4.5658,36.6276,1574.2971],[4.5698,36.6318,1581.6398],[4.5681,36.636,1531.7809],[4.564,36.6385,1490.2069]]]]}}