{"type": "Feature","bbox": [2.9632,36.5165,3.0694,36.6221],"geometry": {"type": "MultiPolygon","coordinates": [[[[2.9632,36.5897,43.8048],[2.9645,36.5776,47.8008],[2.982,36.5592,59.219],[2.988,36.5565,62.1905],[3.0065,36.5428,75.1183],[3.0061,36.5366,82.3609],[3.0204,36.5323,87.7669],[3.0223,36.5257,98.2696],[3.0417,36.5173,182.634],[3.0692,36.5165,115.8912],[3.0694,36.5227,116.1176],[3.06,36.5493,87.1707],[3.0629,36.5654,75.4521],[3.0609,36.5763,65.2484],[3.0617,36.582,62.8356],[3.059,36.588,56.8872],[3.0597,36.6005,48.8982],[3.0642,36.6164,37.7961],[3.0638,36.6221,30.0749],[3.0528,36.6219,36.9524],[3.0395,36.6181,36.4702],[3.0313,36.6096,40.772],[3.0318,36.6042,43.9778],[3.0231,36.5996,47.0899],[3.0117,36.5961,49.5042],[3.0085,36.5903,50.2259],[3.0017,36.5892,49.3235],[2.9925,36.5848,48.3979],[2.9877,36.5898,45.6275],[2.9817,36.5909,43.2823],[2.9784,36.5947,42.3634],[2.973,36.5956,41.2989],[2.9672,36.5937,42.803],[2.9632,36.5897,43.8048]]]]}
,"properties": {"GID_2": "DZA.10.10_1","GID_0": "DZA","country": "Algeria","GID_1": "DZA.10_1","province": "Blida","NL_NAME_1": "البليدة","county": "Chebli","VARNAME_2": "Shabli","NL_NAME_2": "NA","TYPE_2": "Commune","ENGTYPE_2": "Commune","CC_2": "902","HASC_2": "DZ.BL.CB","name": "Chebli.county","area_km2": 61.4906,"hist_schema_id": "Elevation0-9000","hist_area_km2": {"25": 0.73176,"50": 28.90749,"75": 21.73147,"100": 8.67155,"125": 0.97122,"150": 0.23855,"175": 0.18744,"200": 0.05112}}}