{"type":"Feature","properties":{"GID_2":"DZA.12.16_1","GID_0":"DZA","country":"Algeria","GID_1":"DZA.12_1","province":"Bouira","NL_NAME_1":"ولايةالبويرة","county":"Boukram","VARNAME_2":"NA","NL_NAME_2":"NA","TYPE_2":"Commune","ENGTYPE_2":"Commune","CC_2":"1034","HASC_2":"DZ.BU.BK","name":"Boukram.county"},
"geometry":{"type": "MultiPolygon","coordinates": [[[[3.2993,36.547,253.6345],[3.2982,36.5422,275.3212],[3.3005,36.5354,317.6978],[3.305,36.5294,301.6178],[3.3022,36.5252,299.1292],[3.2962,36.5214,351.4449],[3.2946,36.5124,443.255],[3.2968,36.5024,739.7759],[3.301,36.495,464.1644],[3.3109,36.4954,439.9956],[3.33,36.4797,660.2554],[3.3456,36.472,1044.6877],[3.3558,36.4725,1053.1185],[3.3605,36.4707,1068.4624],[3.3638,36.4825,884.9821],[3.3635,36.493,586.1705],[3.3692,36.4959,723.4724],[3.3735,36.5004,761.4559],[3.3761,36.4968,904.4415],[3.3859,36.4964,811.0046],[3.3905,36.4941,641.4215],[3.4075,36.4987,501.8598],[3.4081,36.4936,665.7977],[3.4114,36.4889,785.7557],[3.4178,36.4933,786.5318],[3.4218,36.4989,549.0897],[3.4297,36.5054,319.011],[3.4325,36.5115,300.915],[3.4453,36.5229,273.777],[3.4347,36.5296,334.1923],[3.4419,36.5398,542.3982],[3.4436,36.5462,655.6861],[3.4411,36.5508,848.5674],[3.4324,36.5553,847.1736],[3.4323,36.5657,565.0056],[3.424,36.5665,590.6865],[3.4184,36.5652,605.6064],[3.4081,36.5498,933.77],[3.4034,36.5542,899.9245],[3.3987,36.5553,967.1503],[3.3871,36.5574,825.3552],[3.3841,36.5536,884.4556],[3.3798,36.5524,927.5345],[3.3731,36.556,696.2427],[3.3587,36.5596,527.0353],[3.354,36.5629,414.6414],[3.35,36.5598,380.1404],[3.3322,36.5641,556.4896],[3.3272,36.5628,607.3288],[3.3225,36.5593,442.9166],[3.3131,36.5577,281.2133],[3.3049,36.548,246.3891],[3.2993,36.547,253.6345]]]]}}