{"type":"Feature","properties":{"GID_2":"DZA.37.58_1","GID_0":"DZA","country":"Algeria","GID_1":"DZA.37_1","province":"Sétif","NL_NAME_1":"ولايةسطيف","county":"Taya","VARNAME_2":"NA","NL_NAME_2":"NA","TYPE_2":"Commune","ENGTYPE_2":"Commune","CC_2":"1958","HASC_2":"DZ.SF.TY","name":"Taya.county"},
"geometry":{"type": "MultiPolygon","coordinates": [[[[5.9682,35.8921,884.8596],[5.9684,35.9023,894.7281],[5.9714,35.9064,903.8504],[5.9842,35.91,919.9227],[6.001,35.9184,923.7964],[6.0097,35.9278,907.1399],[6.0248,35.9398,919.9225],[6.0219,35.9457,924.7626],[6.0162,35.949,925.7555],[5.992,35.9577,912.0012],[5.9917,35.9635,918.7374],[5.9943,35.9698,931.9893],[5.9911,35.9774,948.9343],[5.9877,35.9802,954.0143],[5.9826,35.9814,948.6624],[5.9749,35.9881,957.8304],[5.9797,35.9923,961.7594],[5.9905,35.9967,988.7432],[5.9935,36.0012,991.3353],[5.9869,36.0044,968.5961],[5.9805,36.0107,986.1752],[5.9242,36.0245,1041.3198],[5.9161,36.0113,948.5261],[5.9046,36.0006,916.1116],[5.9034,35.9954,903.9561],[5.9032,35.9827,907.3876],[5.9008,35.9782,942.734],[5.9021,35.9643,938.1267],[5.8969,35.9391,909.5626],[5.8922,35.9367,902.8071],[5.8945,35.9323,906.7159],[5.8945,35.9267,901.5812],[5.8918,35.9137,900.2104],[5.9059,35.9072,896.8687],[5.8861,35.8936,893.9493],[5.8832,35.8885,903.0375],[5.8861,35.8692,928.4586],[5.8858,35.857,928.2517],[5.8894,35.8499,940.3609],[5.8943,35.8448,935.5041],[5.9393,35.8268,946.168],[5.9381,35.8353,1001.1079],[5.9394,35.8499,1162.1526],[5.9216,35.8622,1090.5575],[5.9212,35.8684,1030.766],[5.9236,35.8735,1071.478],[5.9506,35.8807,922.658],[5.9682,35.8921,884.8596]]]]}}