{"type":"Feature","properties":{"GID_2":"DZA.47.61_1","GID_0":"DZA","country":"Algeria","GID_1":"DZA.47_1","province":"TiziOuzou","NL_NAME_1":"ولايةغليزان","county":"Tizi-Ghenif","VARNAME_2":"TiziGhenif","NL_NAME_2":"NA","TYPE_2":"Commune","ENGTYPE_2":"Commune","CC_2":"1511","HASC_2":"DZ.TO.TG","name":"Tizi-Ghenif.county"},
"geometry":{"type": "MultiPolygon","coordinates": [[[[3.7464,36.556,764.9773],[3.7619,36.5738,580.1247],[3.7713,36.5702,516.9068],[3.7891,36.5685,346.5106],[3.7944,36.5703,337.1847],[3.806,36.5676,355.2474],[3.8111,36.5709,397.4445],[3.8023,36.5768,325.2339],[3.8042,36.5823,295.0853],[3.8133,36.5886,305.188],[3.8245,36.5907,295.6113],[3.827,36.5963,297.7371],[3.8312,36.5983,306.0784],[3.8332,36.6028,265.5751],[3.8223,36.6125,343.1291],[3.8171,36.6123,319.8608],[3.804,36.6175,471.8902],[3.7924,36.6164,552.3596],[3.7842,36.6218,373.9114],[3.779,36.6191,338.8579],[3.7756,36.613,394.2702],[3.7691,36.6094,238.026],[3.7508,36.6201,181.5331],[3.748,36.6162,189.6357],[3.7473,36.6112,208.9759],[3.7371,36.6084,235.7546],[3.7375,36.6035,243.7526],[3.7346,36.5988,291.1071],[3.733,36.5882,545.2479],[3.7309,36.5844,594.6779],[3.7262,36.5834,624.2499],[3.7243,36.5779,706.627],[3.7323,36.5618,873.7727],[3.7417,36.5545,793.2025],[3.7464,36.556,764.9773]]]]}}