{"type": "Feature","bbox": [5.8628,36.721,5.9531,36.8276],"geometry": {"type": "MultiPolygon","coordinates": [[[[5.9512,36.721,111.4802],[5.9531,36.7249,101.0214],[5.9434,36.7504,39.0581],[5.9425,36.7657,43.5962],[5.9392,36.7704,30.1004],[5.9345,36.7718,26.5911],[5.9316,36.7768,24.2024],[5.9267,36.7811,21.1104],[5.9304,36.7945,15.0635],[5.935,36.7972,15.696],[5.9308,36.8081,10.5151],[5.9318,36.8135,9.0964],[5.9407,36.8234,6.7266],[5.945,36.826,10.5373],[5.9396,36.8276,0.4647],[5.9028,36.8198,7.8441],[5.898,36.822,0.1942],[5.8949,36.8176,2.7594],[5.8921,36.821,2.7735],[5.8879,36.8185,1.8613],[5.8795,36.819,2.6708],[5.8628,36.8141,1.8246],[5.8711,36.8058,3.5099],[5.8764,36.8053,4.7571],[5.8817,36.7932,7.1302],[5.8822,36.7844,30.2916],[5.8869,36.7802,41.8361],[5.8857,36.7683,56.1609],[5.867,36.7565,25.4381],[5.8672,36.7508,31.3861],[5.8641,36.7413,27.6661],[5.8668,36.7366,61.2904],[5.8738,36.7362,115.1397],[5.8766,36.7328,68.1022],[5.8843,36.7335,160.0913],[5.8887,36.7371,134.4427],[5.9162,36.7261,166.128],[5.9323,36.7263,190.1759],[5.936,36.7226,222.6652],[5.9512,36.721,111.4802]]]]}
,"properties": {"GID_2": "DZA.23.26_1","GID_0": "DZA","country": "Algeria","GID_1": "DZA.23_1","province": "Jijel","NL_NAME_1": "ولايةجيجل","county": "Taher","VARNAME_2": "Tahar","NL_NAME_2": "NA","TYPE_2": "Commune-Cotiere","ENGTYPE_2": "Commune-Cotiere","CC_2": "1805","HASC_2": "DZ.JJ.TA","name": "Taher.county","area_km2": 57.84577,"hist_schema_id": "Elevation0-9000","hist_area_km2": {"0": 6.65411,"25": 19.78279,"50": 15.72789,"75": 7.13473,"100": 3.82258,"125": 2.10692,"150": 1.17242,"175": 0.6287,"200": 0.35684,"225": 0.23789,"250": 0.13593,"275": 0.05098,"300": 0.03398}}}