{"type": "Feature","bbox": [4.2821,36.4614,4.3487,36.546],"geometry": {"type": "MultiPolygon","coordinates": [[[[4.3398,36.478,1893.4351],[4.346,36.4808,1785.4342],[4.3487,36.4873,1608.8198],[4.3431,36.4886,1450.6057],[4.3338,36.5039,920.9445],[4.3354,36.517,768.851],[4.3286,36.5319,664.3292],[4.3153,36.5407,624.525],[4.3111,36.5456,574.4501],[4.3038,36.546,547.4976],[4.2963,36.5433,511.6535],[4.289,36.5439,475.3265],[4.283,36.5421,461.9955],[4.289,36.5366,492.2898],[4.2948,36.5355,523.8021],[4.2974,36.5317,515.3446],[4.2925,36.5227,547.5063],[4.2853,36.5164,620.4352],[4.2841,36.5104,623.6382],[4.2873,36.5047,667.5867],[4.2833,36.4978,758.3114],[4.2849,36.4913,780.1151],[4.2821,36.469,1253.5381],[4.2884,36.4657,1538.5327],[4.2906,36.4614,1810.9745],[4.2972,36.4617,1876.0385],[4.3072,36.4664,1676.8206],[4.3326,36.4678,1686.2351],[4.3355,36.476,1877.4752],[4.3398,36.478,1893.4351]]]]}
,"properties": {"GID_2": "DZA.47.17_1","GID_0": "DZA","country": "Algeria","GID_1": "DZA.47_1","province": "TiziOuzou","NL_NAME_1": "ولايةغليزان","county": "Akbil","VARNAME_2": "NA","NL_NAME_2": "NA","TYPE_2": "Commune","ENGTYPE_2": "Commune","CC_2": "1503","HASC_2": "DZ.TO.AL","name": "Akbil.county","area_km2": 37.05227,"hist_schema_id": "Elevation0-9000","hist_area_km2": {"475": 0.03407,"500": 0.11924,"525": 0.22146,"550": 0.35776,"575": 0.49403,"600": 0.46,"625": 0.74961,"650": 0.63037,"675": 0.81783,"700": 0.86896,"725": 0.78377,"750": 1.03941,"775": 0.90306,"800": 0.93715,"825": 1.1246,"850": 1.10758,"875": 1.26101,"900": 1.09061,"925": 1.12473,"950": 0.98843,"975": 1.24408,"1000": 0.93734,"1025": 0.93735,"1050": 0.90331,"1075": 0.78403,"1100": 0.69887,"1125": 0.69886,"1150": 0.69888,"1175": 0.63069,"1200": 0.64778,"1225": 0.75005,"1250": 0.57959,"1275": 0.63073,"1300": 0.68187,"1325": 0.5796,"1350": 0.66484,"1375": 0.76711,"1400": 0.63075,"1425": 0.63074,"1450": 0.76713,"1475": 0.69894,"1500": 0.75008,"1525": 0.54551,"1550": 0.69897,"1575": 0.68189,"1600": 0.57963,"1625": 0.47734,"1650": 0.68194,"1675": 0.37506,"1700": 0.28984,"1725": 0.32394,"1750": 0.15344,"1775": 0.15345,"1800": 0.15345,"1825": 0.10229,"1850": 0.1364,"1875": 0.0682,"1900": 0.15345,"1925": 0.05115}}}