{"type":"Feature","properties":{"GID_2":"DZA.32.19_1","GID_0":"DZA","country":"Algeria","GID_1":"DZA.32_1","province":"Oran","NL_NAME_1":"ولايةوهران","county":"MarsatElHadjadj","VARNAME_2":"NA","NL_NAME_2":"NA","TYPE_2":"Commune-Cotiere","ENGTYPE_2":"Commune-Cotiere","CC_2":"3108","HASC_2":"DZ.OR.MH","name":"Marsat_El_Hadjadj.county"},
"geometry":{"type": "MultiPolygon","coordinates": [[[[-0.114,35.7831,1.4708],[-0.1127,35.7879,6.5107],[-0.1577,35.791,1.0243],[-0.1625,35.7968,2.4065],[-0.1768,35.8004,3.7645],[-0.2027,35.8022,2.0204],[-0.2036,35.791,92.0124],[-0.2101,35.7883,140.0588],[-0.2077,35.7839,137.1843],[-0.2099,35.7778,127.8689],[-0.2192,35.7735,112.8185],[-0.2068,35.7564,139.7298],[-0.2014,35.7406,158.1078],[-0.1973,35.7348,141.6065],[-0.2042,35.7263,138.491],[-0.2049,35.7212,132.7135],[-0.1998,35.7143,39.6325],[-0.1904,35.6945,4.2387],[-0.1863,35.6986,1.6506],[-0.1854,35.7035,1.3822],[-0.1873,35.7099,3.22],[-0.181,35.7112,2.1592],[-0.1681,35.727,0.9286],[-0.1477,35.7399,1.0447],[-0.1429,35.7465,0.6936],[-0.1324,35.7558,0.8426],[-0.1212,35.7748,0.9662],[-0.114,35.7831,1.4708]]]]}}