{"type":"Feature","properties":{"GID_2":"DZA.45.1_1","GID_0":"DZA","country":"Algeria","GID_1":"DZA.45_1","province":"Tipaza","NL_NAME_1":"ولايةتيبازة","county":"Aghbal","VARNAME_2":"NA","NL_NAME_2":"NA","TYPE_2":"Commune","ENGTYPE_2":"Commune","CC_2":"4207","HASC_2":"DZ.TP.AG","name":"Aghbal.county"},
"geometry":{"type": "MultiPolygon","coordinates": [[[[1.8868,36.4996,462.5555],[1.8772,36.509,261.9741],[1.8758,36.5221,180.7267],[1.8621,36.5245,326.247],[1.8573,36.5288,305.6845],[1.852,36.5428,350.2402],[1.8387,36.5418,262.4994],[1.833,36.5387,207.3171],[1.8338,36.5324,154.8116],[1.8293,36.5225,199.021],[1.8199,36.5135,341.5866],[1.8054,36.511,553.0096],[1.8035,36.5009,590.5013],[1.8063,36.4952,692.5364],[1.8119,36.4946,523.9335],[1.8187,36.4973,415.893],[1.8247,36.4946,411.2158],[1.8332,36.4757,639.2706],[1.8455,36.4766,690.9075],[1.85,36.4786,701.6077],[1.8545,36.477,622.89],[1.8602,36.4788,822.5836],[1.8607,36.4832,705.8721],[1.8853,36.4939,341.8784],[1.8868,36.4996,462.5555]]]]}}