{"type": "Feature","bbox": [5.2005,36.4136,5.3533,36.5318],"geometry": {"type": "MultiPolygon","coordinates": [[[[5.3053,36.5318,1316.6614],[5.2887,36.5267,342.4404],[5.2712,36.5303,808.338],[5.2406,36.5221,1123.2126],[5.2272,36.5196,1525.9933],[5.2134,36.519,1756.3167],[5.2025,36.5068,1177.5298],[5.203,36.5013,1033.8822],[5.2005,36.4957,880.7847],[5.2159,36.4807,652.9092],[5.2184,36.474,582.6621],[5.2222,36.4685,618.6298],[5.2278,36.4643,552.757],[5.2289,36.4602,532.7333],[5.2329,36.4624,522.1744],[5.2491,36.4635,512.0],[5.2643,36.4704,512.0],[5.2711,36.4704,512.0],[5.295,36.4576,517.3406],[5.2997,36.4536,519.9217],[5.3015,36.4498,523.1725],[5.2896,36.4408,538.9387],[5.2841,36.4391,533.849],[5.2755,36.4295,558.5197],[5.2779,36.4238,652.6213],[5.2826,36.4205,690.6656],[5.2888,36.4172,844.2749],[5.2962,36.4166,961.12],[5.3019,36.4136,998.785],[5.3134,36.4256,784.3063],[5.3135,36.4308,715.4886],[5.3171,36.4347,711.007],[5.3236,36.4356,663.9817],[5.3268,36.4465,764.9266],[5.3368,36.4491,810.8988],[5.3403,36.4533,761.8722],[5.3354,36.4588,560.2821],[5.3461,36.4621,602.1873],[5.3503,36.4653,557.5508],[5.3533,36.4719,683.4796],[5.3454,36.4936,1142.9773],[5.345,36.4994,1140.295],[5.3502,36.5031,1069.4927],[5.3477,36.507,1175.6296],[5.3423,36.5094,1394.6658],[5.3292,36.5098,1123.6882],[5.3192,36.5164,1444.311],[5.3183,36.5266,1511.9104],[5.3053,36.5318,1316.6614]]]]}
,"properties": {"GID_2": "DZA.8.28_1","GID_0": "DZA","country": "Algeria","GID_1": "DZA.8_1","province": "Béjaïa","NL_NAME_1": "بجاية","county": "Kherrata","VARNAME_2": "NA","NL_NAME_2": "NA","TYPE_2": "Commune","ENGTYPE_2": "Commune","CC_2": "644","HASC_2": "DZ.BJ.KH","name": "Kherrata.county","area_km2": 96.86021,"hist_schema_id": "Elevation0-9000","hist_area_km2": {"225": 0.01704,"250": 0.05111,"275": 0.10223,"300": 0.11927,"325": 0.20447,"350": 0.15335,"375": 0.32375,"400": 0.27264,"425": 0.40898,"450": 0.88625,"475": 1.09081,"500": 2.23316,"525": 3.56335,"550": 4.38185,"575": 4.19411,"600": 4.36459,"625": 4.26233,"650": 4.31353,"675": 4.02367,"700": 3.85327,"725": 3.90443,"750": 3.88726,"775": 3.87033,"800": 3.68266,"825": 3.59713,"850": 2.88096,"875": 2.71036,"900": 2.81268,"925": 2.64216,"950": 2.52272,"975": 2.18176,"1000": 2.04522,"1025": 2.0963,"1050": 1.87474,"1075": 1.53385,"1100": 1.67018,"1125": 1.6361,"1150": 1.5679,"1175": 1.43158,"1200": 1.51676,"1225": 1.12478,"1250": 1.15884,"1275": 0.83507,"1300": 0.80097,"1325": 0.51124,"1350": 0.6987,"1375": 0.54533,"1400": 0.39194,"1425": 0.35788,"1450": 0.27266,"1475": 0.17041,"1500": 0.20447,"1525": 0.15335,"1550": 0.11927,"1575": 0.0852,"1600": 0.13631,"1625": 0.13631,"1650": 0.11927,"1675": 0.05112,"1700": 0.03408,"1725": 0.01704,"1750": 0.03408,"1800": 0.01704}}}