{"type": "Feature","bbox": [4.7225,20.8951,6.6675,23.6492],"geometry": {"type": "MultiPolygon","coordinates": [[[[4.7432,21.2092,584.1377],[4.7486,21.211,590.5558],[4.7666,21.2039,599.7273],[4.7695,21.2007,594.8513],[4.7872,21.1931,603.4515],[4.8023,21.1936,608.4919],[4.8115,21.1964,611.5544],[4.8228,21.19,625.2026],[4.8346,21.1921,635.4955],[4.8378,21.1892,644.4912],[4.8571,21.186,632.8638],[4.9529,21.1782,650.5899],[5.0459,21.1559,687.3248],[5.3843,21.0426,607.3147],[5.7151,21.0223,618.0979],[5.7151,21.0113,610.2878],[5.7196,20.9934,603.7417],[5.7293,20.9674,600.957],[5.747,20.9509,578.1559],[5.759,20.9329,589.2953],[5.9262,20.9075,558.3354],[6.2562,20.8951,515.6707],[6.2613,20.8978,517.014],[6.2712,20.9122,520.0948],[6.2801,20.939,521.7956],[6.2838,20.9601,524.8867],[6.2856,20.9874,529.564],[6.2858,20.9998,530.1599],[6.2835,21.0041,530.9053],[6.2824,21.0172,531.9688],[6.2873,21.0318,533.1208],[6.2952,21.0437,534.9125],[6.3015,21.0471,534.97],[6.3142,21.058,535.3685],[6.3165,21.0675,536.1523],[6.3136,21.0734,536.5112],[6.3184,21.0936,538.0139],[6.3218,21.1191,540.2376],[6.3252,21.1307,542.0411],[6.3364,21.1519,544.5964],[6.3395,21.1642,546.0668],[6.3499,21.1754,546.0836],[6.3717,21.1851,547.4719],[6.3786,21.1894,547.7755],[6.3882,21.1987,548.7556],[6.4005,21.221,550.3455],[6.4101,21.2468,552.9743],[6.4199,21.258,554.1459],[6.4225,21.2636,554.9106],[6.4242,21.2776,555.5328],[6.4271,21.2836,556.3146],[6.4313,21.2894,557.681],[6.4457,21.2995,558.7567],[6.4644,21.3174,560.665],[6.4781,21.3328,562.1462],[6.4846,21.3426,563.7072],[6.4871,21.3631,565.809],[6.48,21.3854,570.1491],[6.4802,21.3951,571.0768],[6.4897,21.4291,574.548],[6.5,21.4441,576.8898],[6.5013,21.4506,577.5099],[6.5,21.4631,578.9011],[6.5026,21.475,580.4182],[6.5135,21.487,581.1697],[6.5354,21.4994,589.4022],[6.5374,21.5035,588.2743],[6.5376,21.5213,596.8933],[6.5308,21.5336,587.2557],[6.5211,21.5402,589.1313],[6.5074,21.5425,588.6373],[6.5024,21.5456,591.6766],[6.5126,21.5814,593.4346],[6.5277,21.5924,595.2214],[6.5457,21.5989,597.2361],[6.5603,21.6103,599.0181],[6.5691,21.6263,601.4385],[6.5745,21.6436,605.0343],[6.577,21.6795,613.0828],[6.581,21.697,616.8914],[6.5902,21.7129,621.5898],[6.5964,21.7299,626.4531],[6.6068,21.7451,631.3052],[6.6117,21.7622,635.5624],[6.6149,21.7787,640.6416],[6.6108,21.796,650.1986],[6.6173,21.8123,649.3006],[6.6142,21.8297,656.5566],[6.604,21.845,662.8499],[6.5746,21.8678,676.7924],[6.6019,21.9342,793.1105],[6.62,21.9661,777.1522],[6.6241,22.0004,752.1479],[6.6335,22.0372,728.3829],[6.6348,22.055,720.9135],[6.6272,22.0697,716.9592],[6.6311,22.0874,712.5151],[6.6247,22.1405,695.9311],[6.6367,22.1536,779.8134],[6.6556,22.1548,691.1255],[6.6675,22.1687,693.8928],[6.6654,22.1859,698.4684],[6.6597,22.203,703.05],[6.6528,22.2197,707.6747],[6.6369,22.2287,732.3615],[6.6278,22.2408,719.4772],[6.622,22.2935,731.4745],[6.6111,22.3065,766.9788],[6.5977,22.3159,748.5881],[6.5778,22.3648,758.7605],[6.5562,22.3944,771.2213],[6.5409,22.4047,777.1989],[6.5229,22.4112,784.8698],[6.5195,22.428,789.5728],[6.5126,22.4436,796.1072],[6.4773,22.4547,808.6731],[6.4465,22.4411,825.4252],[6.4287,22.4473,828.6901],[6.4141,22.4579,836.7675],[6.3977,22.4631,843.4902],[6.3835,22.4748,855.8032],[6.3323,22.5251,892.6027],[6.3178,22.5527,897.6505],[6.3202,22.5646,943.4612],[6.3094,22.5796,912.2012],[6.3043,22.5969,924.5945],[6.297,22.6132,932.4363],[6.283,22.625,940.6041],[6.2672,22.6293,949.8536],[6.2742,22.6452,963.2975],[6.2649,22.6602,969.9264],[6.241,22.6881,1001.5652],[6.2233,22.6907,995.1881],[6.2216,22.7261,1028.3115],[6.2231,22.7432,1026.6187],[6.1972,22.8034,1074.4991],[6.1824,22.8116,1118.821],[6.1745,22.8277,1103.8002],[6.1747,22.8445,1122.7281],[6.1801,22.8783,1150.6985],[6.179,22.8958,1170.8269],[6.1701,22.9092,1207.2325],[6.1653,22.9223,1216.9282],[6.1384,22.9481,1259.4579],[6.1293,22.964,1271.9849],[6.1182,22.9788,1307.8439],[6.118,23.0088,1362.8317],[6.0989,23.0355,1432.1396],[6.1011,23.0525,1474.7914],[6.0985,23.1024,1577.9596],[6.0952,23.118,1595.8467],[6.0875,23.1306,1641.9744],[6.0863,23.148,1698.34],[6.0763,23.1626,1765.6744],[6.0781,23.1785,1900.843],[6.0749,23.1958,1903.9958],[6.0758,23.2133,1942.6143],[6.0635,23.224,1969.1028],[6.0453,23.2287,2126.7117],[6.0322,23.2171,1916.465],[6.0224,23.2029,1710.7974],[6.0066,23.1931,1663.7908],[5.9937,23.2,1688.7909],[5.9953,23.2178,1694.1957],[5.9857,23.233,1711.0496],[5.9729,23.2466,1745.6278],[5.9641,23.2628,1794.2205],[5.9497,23.2714,2024.9084],[5.8524,23.265,2157.5027],[5.8331,23.2659,2410.0029],[5.8214,23.278,2199.6416],[5.8181,23.2951,2168.1438],[5.8212,23.3114,2127.0288],[5.8114,23.3258,2155.6655],[5.7915,23.3352,2059.8994],[5.7836,23.3516,2024.7356],[5.7752,23.3597,2005.6255],[5.7707,23.3858,1978.6073],[5.7719,23.3913,1976.4718],[5.7702,23.3988,1966.8844],[5.7655,23.4053,1962.174],[5.7654,23.4151,1952.9764],[5.7583,23.4205,1939.3065],[5.7557,23.4256,1929.9041],[5.741,23.4312,1928.1017],[5.7328,23.427,1916.3383],[5.7288,23.4289,1805.6143],[5.7288,23.4245,1833.7382],[5.7234,23.4246,1800.8806],[5.6987,23.4382,1713.0394],[5.6903,23.4366,1738.4047],[5.6836,23.4436,1727.892],[5.679,23.4447,1662.299],[5.676,23.4417,1656.96],[5.6633,23.4588,1631.1614],[5.6514,23.4708,1615.3215],[5.6472,23.4804,1577.8783],[5.6411,23.4885,1578.6423],[5.6327,23.5136,1541.3234],[5.6263,23.5145,1485.8116],[5.6241,23.5199,1499.4753],[5.6214,23.5359,1460.4427],[5.6161,23.542,1439.024],[5.6004,23.54,1424.6265],[5.5954,23.5431,1418.4076],[5.5903,23.5587,1417.2727],[5.5793,23.5629,1392.6448],[5.5731,23.5764,1381.4644],[5.5679,23.584,1372.0938],[5.5628,23.5883,1376.2568],[5.5617,23.5961,1359.1923],[5.5639,23.6012,1351.4432],[5.5684,23.6017,1363.042],[5.572,23.6069,1341.7966],[5.5717,23.6198,1323.3904],[5.5648,23.6267,1320.9437],[5.5688,23.6286,1307.6591],[5.5676,23.6334,1303.2227],[5.5614,23.6305,1301.4565],[5.5395,23.6287,1282.5555],[5.5349,23.6304,1280.3329],[5.5233,23.6391,1268.458],[5.5128,23.6325,1262.9481],[5.5042,23.6302,1259.2354],[5.4981,23.6319,1251.6458],[5.4922,23.6419,1246.5621],[5.4868,23.6453,1257.0592],[5.4654,23.6476,1241.4248],[5.4259,23.6401,1216.7644],[5.4057,23.6441,1185.8893],[5.3903,23.6492,1172.1775],[5.3992,23.6092,1199.7817],[5.4064,23.5988,1211.3461],[5.4098,23.5909,1219.0051],[5.4177,23.5827,1231.0393],[5.4203,23.5695,1242.1406],[5.424,23.5631,1250.4132],[5.323,23.5008,1386.8455],[5.1837,23.445,1199.4412],[5.1459,23.4327,1048.0825],[5.141,23.4363,1056.5507],[5.1151,23.4463,1017.8879],[5.0911,23.4431,999.7264],[5.0946,23.4215,1006.5967],[5.1167,23.3799,1034.2892],[5.1228,23.3591,1009.095],[5.1291,23.3242,1028.0226],[5.1305,23.2989,1045.5964],[5.1398,23.2491,1050.3832],[5.1406,23.2145,1036.4303],[5.1439,23.2056,1041.4554],[5.1475,23.1836,1062.0159],[5.164,23.1484,1091.1946],[5.1666,23.1289,1066.9894],[5.1823,23.1006,1075.4385],[5.2022,23.0712,1096.491],[5.2089,23.0402,1116.4969],[5.2231,23.007,1156.0707],[5.2214,22.9996,1150.6172],[5.212,22.9889,1135.3889],[5.1934,22.9837,1129.9797],[5.1726,22.9831,1096.5592],[5.1594,22.9856,1080.6536],[5.1455,22.981,1068.9802],[5.1469,22.9518,1061.2202],[5.1715,22.9399,1092.0284],[5.1475,22.9342,1066.2874],[5.1671,22.9204,1090.0143],[5.1864,22.8995,1107.5525],[5.1982,22.8896,1118.795],[5.2034,22.8794,1133.1372],[5.2024,22.8715,1146.7155],[5.2046,22.8492,1124.1471],[5.2004,22.8444,1112.8817],[5.1938,22.8426,1096.8243],[5.182,22.8322,1086.5278],[5.1902,22.8229,1093.9519],[5.1963,22.8221,1092.5878],[5.2027,22.8186,1158.4813],[5.2052,22.8054,1180.9828],[5.2054,22.7896,1223.5549],[5.2036,22.7797,1222.0715],[5.1102,22.7069,1170.4586],[5.1576,22.6653,1227.0669],[5.1087,22.5933,1107.403],[5.1079,22.5852,1105.0625],[5.1109,22.5785,1079.3268],[5.1102,22.573,1063.8606],[5.1005,22.5653,1049.7812],[5.0968,22.5539,1029.6017],[5.0755,22.5121,962.1979],[5.0818,22.504,963.6096],[5.079,22.4975,951.4146],[5.0786,22.4841,949.2266],[5.0628,22.4567,905.7665],[5.059,22.4319,882.1716],[5.0528,22.4213,873.5084],[5.0529,22.4081,865.4125],[5.0414,22.3833,848.4691],[5.0249,22.3612,833.9216],[5.0204,22.3502,865.9443],[5.0121,22.3125,850.1372],[4.994,22.2724,809.6825],[4.9943,22.2678,806.4072],[4.9915,22.2625,803.9568],[4.9905,22.251,800.2138],[4.9708,22.2323,795.7527],[4.9684,22.2272,795.5602],[4.9609,22.2221,794.5458],[4.9581,22.2163,799.908],[4.9592,22.2103,784.3511],[4.9468,22.1907,775.9739],[4.9359,22.1669,769.344],[4.9294,22.1444,760.9716],[4.9252,22.1409,762.6167],[4.9157,22.1257,755.1235],[4.9117,22.1227,754.7227],[4.9106,22.1078,749.9461],[4.917,22.0987,747.0444],[4.9204,22.0865,743.514],[4.9205,22.0793,741.1748],[4.9154,22.0682,737.193],[4.9044,22.0523,732.2245],[4.8998,22.0377,728.4455],[4.891,22.0185,721.4753],[4.8804,22.0015,715.9515],[4.8668,21.991,711.9812],[4.8479,21.9795,707.5609],[4.8453,21.9743,707.0457],[4.8236,21.7407,668.6538],[4.8157,21.7178,663.8273],[4.8074,21.7101,662.1786],[4.8033,21.6988,660.8346],[4.8025,21.6946,660.5278],[4.8066,21.6809,656.1812],[4.8012,21.6718,653.6678],[4.799,21.6626,652.741],[4.7935,21.6592,651.7618],[4.7873,21.6492,649.1454],[4.7782,21.6404,647.8779],[4.7743,21.6336,644.9602],[4.7702,21.6173,646.0889],[4.7694,21.6102,640.2675],[4.7782,21.6064,638.2322],[4.7796,21.602,639.0666],[4.778,21.5897,635.7354],[4.7834,21.5772,632.8781],[4.7832,21.57,631.0626],[4.7699,21.5466,627.0288],[4.7682,21.5001,619.6996],[4.7661,21.4892,618.4747],[4.7674,21.4814,617.5084],[4.7661,21.4745,616.7984],[4.7581,21.4649,615.1714],[4.7561,21.4592,614.2457],[4.7566,21.4528,613.7164],[4.7536,21.4416,611.8842],[4.7536,21.4221,609.6817],[4.7509,21.4027,609.3332],[4.747,21.3971,606.5327],[4.7335,21.3852,603.6073],[4.7312,21.3799,602.8212],[4.7304,21.3743,602.2353],[4.732,21.3626,600.4815],[4.73,21.3464,598.6113],[4.7227,21.3236,595.1608],[4.7225,21.3127,594.0526],[4.7335,21.2929,592.5318],[4.7476,21.272,589.2225],[4.7496,21.265,588.7326],[4.7485,21.2483,586.5858],[4.7421,21.2189,583.8564],[4.7432,21.2092,584.1377]]]]}
,"properties": {"GID_2": "DZA.41.8_1","GID_0": "DZA","country": "Algeria","GID_1": "DZA.41_1","province": "Tamanghasset","NL_NAME_1": "ولايةتمنراست","county": "Tamenghasset","VARNAME_2": "Tamanrasset|Tamanghāsat","NL_NAME_2": "NA","TYPE_2": "Chef-Lieu-Wilaya","ENGTYPE_2": "Chef-Lieu-Wilaya","CC_2": "1101","HASC_2": "DZ.TM.TM","name": "Tamenghasset.county","area_km2": 39106.44,"hist_schema_id": "Elevation0-9000","hist_area_km2": {"500": 19.62,"525": 146.76,"550": 660.03,"575": 1391.22,"600": 2267.65,"625": 2719.88,"650": 2896.74,"675": 2517.31,"700": 2185.65,"725": 1963.92,"750": 1793.72,"775": 1525.78,"800": 1323.15,"825": 1029.48,"850": 957.16,"875": 841.59,"900": 690.47,"925": 621.56,"950": 560.4,"975": 518.41,"1000": 486.42,"1025": 489.45,"1050": 490.3,"1075": 456.68,"1100": 412.5,"1125": 379.75,"1150": 387.94,"1175": 393.54,"1200": 411.66,"1225": 445.07,"1250": 497.59,"1275": 515.64,"1300": 534.0,"1325": 520.94,"1350": 480.25,"1375": 420.31,"1400": 337.04,"1425": 316.82,"1450": 274.93,"1475": 235.57,"1500": 198.92,"1525": 185.25,"1550": 196.81,"1575": 208.12,"1600": 205.07,"1625": 196.68,"1650": 200.01,"1675": 202.58,"1700": 187.07,"1725": 152.54,"1750": 137.8,"1775": 121.03,"1800": 105.45,"1825": 108.58,"1850": 107.45,"1875": 94.78,"1900": 87.5,"1925": 77.92,"1950": 82.81,"1975": 79.55,"2000": 76.31,"2025": 77.29,"2050": 79.05,"2075": 80.46,"2100": 80.66,"2125": 78.15,"2150": 74.72,"2175": 70.43,"2200": 62.54,"2225": 56.32,"2250": 51.1,"2275": 49.52,"2300": 42.8,"2325": 38.16,"2350": 31.85,"2375": 25.34,"2400": 20.69,"2425": 15.33,"2450": 11.61,"2475": 9.21,"2500": 6.86,"2525": 4.48,"2550": 3.37,"2575": 1.85,"2600": 1.23,"2625": 0.99,"2650": 1.25,"2675": 1.09,"2700": 0.51}}}