{"type":"Feature","properties":{"GID_2":"DZA.27.47_1","GID_0":"DZA","country":"Algeria","GID_1":"DZA.27_1","province":"Mascara","NL_NAME_1":"ولايةمعسكر","county":"Zelmata","VARNAME_2":"NA","NL_NAME_2":"NA","TYPE_2":"Commune","ENGTYPE_2":"Commune","CC_2":"2909","HASC_2":"#N/A","name":"Zelmata.county"},
"geometry":{"type": "MultiPolygon","coordinates": [[[[0.4264,35.3577,525.7579],[0.4237,35.3421,559.0461],[0.4201,35.336,577.8701],[0.416,35.322,633.0015],[0.4102,35.3121,690.4537],[0.4105,35.3074,714.9756],[0.4178,35.299,748.0824],[0.4383,35.2839,813.3939],[0.4459,35.2714,775.4808],[0.4466,35.2539,822.0643],[0.4445,35.2379,815.668],[0.4404,35.2365,823.3802],[0.4368,35.2322,835.9235],[0.4366,35.2265,857.1078],[0.4457,35.2106,980.119],[0.4628,35.1977,816.0814],[0.4699,35.1963,760.4594],[0.505,35.2099,661.5601],[0.5125,35.2102,647.9394],[0.5347,35.2057,615.6025],[0.5278,35.1962,637.7809],[0.526,35.1898,633.6987],[0.5302,35.1872,624.3441],[0.5417,35.1879,605.6987],[0.5462,35.185,605.0001],[0.5516,35.1798,590.5681],[0.5521,35.1727,593.1559],[0.5696,35.1759,575.1767],[0.5798,35.1817,567.0122],[0.588,35.1909,550.9171],[0.5926,35.1916,546.948],[0.6005,35.208,537.3986],[0.6082,35.2107,530.9938],[0.5961,35.222,561.9955],[0.5951,35.2275,549.29],[0.5993,35.2461,536.6213],[0.6091,35.2534,521.1069],[0.6259,35.2594,492.3271],[0.6208,35.2624,509.7759],[0.6196,35.2677,517.9813],[0.6241,35.2708,503.1523],[0.63,35.272,485.754],[0.6213,35.2794,520.9744],[0.6277,35.2834,507.3246],[0.6309,35.2888,518.4191],[0.6277,35.2954,530.8487],[0.6056,35.314,713.3863],[0.6046,35.3184,805.9895],[0.5865,35.3218,825.4582],[0.563,35.3223,738.7159],[0.5623,35.3266,723.6455],[0.5581,35.3295,716.7631],[0.5524,35.3305,687.5863],[0.5354,35.3295,666.0825],[0.5157,35.3237,668.7198],[0.5085,35.3265,647.8209],[0.505,35.3313,592.0199],[0.5017,35.3283,608.4511],[0.4881,35.3256,658.2995],[0.474,35.3296,643.4008],[0.4554,35.3382,595.268],[0.4381,35.348,584.4957],[0.4264,35.3577,525.7579]]]]}}