{"type": "Feature","bbox": [6.4272,35.2323,6.6385,35.323],"geometry": {"type": "MultiPolygon","coordinates": [[[[6.4272,35.2504,1511.887],[6.4284,35.2413,1601.1624],[6.4365,35.2323,1865.8273],[6.4874,35.2442,1905.0475],[6.4955,35.2426,1914.1931],[6.5038,35.2483,1904.6907],[6.5099,35.2415,1596.9983],[6.5187,35.2452,1642.4359],[6.5272,35.2352,1464.3914],[6.5307,35.2382,1476.488],[6.538,35.2391,1458.8975],[6.5508,35.236,1418.2375],[6.5555,35.2395,1420.4255],[6.5598,35.2347,1395.0764],[6.5624,35.2478,1454.5044],[6.5655,35.2527,1467.0029],[6.5606,35.2639,1839.707],[6.5758,35.2713,1851.1477],[6.5804,35.272,1814.5667],[6.5855,35.276,1880.2448],[6.6138,35.2855,1950.5774],[6.6122,35.291,1748.4983],[6.6138,35.3027,1905.3408],[6.6186,35.3028,1806.7852],[6.6268,35.3068,1935.9062],[6.6312,35.3071,1976.0332],[6.6331,35.3127,2163.9431],[6.6385,35.317,2234.6094],[6.6261,35.323,2009.0432],[6.6206,35.3212,2031.8771],[6.6136,35.3144,2114.6448],[6.5961,35.316,1948.5521],[6.5478,35.3059,1445.1128],[6.538,35.2946,1429.2195],[6.5311,35.2942,1494.9735],[6.4971,35.2721,1343.7197],[6.463,35.2624,1461.5107],[6.4587,35.2644,1303.8265],[6.4505,35.2583,1462.6157],[6.4272,35.2504,1511.887]]]]}
,"properties": {"GID_2": "DZA.6.27_1","GID_0": "DZA","country": "Algeria","GID_1": "DZA.6_1","province": "Batna","NL_NAME_1": "ولايةباتنة","county": "Inoughissen","VARNAME_2": "Inoughissene","NL_NAME_2": "NA","TYPE_2": "Commune","ENGTYPE_2": "Commune","CC_2": "511","HASC_2": "DZ.BT.IN","name": "Inoughissen.county","area_km2": 73.0298,"hist_schema_id": "Elevation0-9000","hist_area_km2": {"1300": 0.06924,"1325": 0.46735,"1350": 1.03855,"1375": 1.52317,"1400": 2.42329,"1425": 2.90813,"1450": 3.7392,"1475": 4.53543,"1500": 3.75643,"1525": 3.51415,"1550": 3.56615,"1575": 3.42763,"1600": 3.53152,"1625": 3.09862,"1650": 3.30629,"1675": 3.66968,"1700": 3.56574,"1725": 2.89071,"1750": 2.35415,"1775": 2.33688,"1800": 2.51002,"1825": 2.0599,"1850": 2.33685,"1875": 2.0078,"1900": 1.69627,"1925": 1.78268,"1950": 1.3672,"1975": 0.744,"2000": 0.60554,"2025": 0.48443,"2050": 0.55364,"2075": 0.38062,"2100": 0.20761,"2125": 0.17301,"2150": 0.0692,"2175": 0.0692,"2200": 0.0865,"2225": 0.0865,"2250": 0.0692,"2275": 0.0173}}}