{"type":"Feature","properties":{"GID_2":"DZA.16.11_1","GID_0":"DZA","country":"Algeria","GID_1":"DZA.16_1","province":"Djelfa","NL_NAME_1":"ولايةالجلفة","county":"Charef","VARNAME_2":"Sha-rif","NL_NAME_2":"NA","TYPE_2":"Commune","ENGTYPE_2":"Commune","CC_2":"1726","HASC_2":"DZ.DJ.CH","name":"Charef.county"},
"geometry":{"type": "MultiPolygon","coordinates": [[[[2.8624,34.5559,1369.8188],[2.869,34.573,1294.9894],[2.8715,34.5887,1226.3666],[2.8796,34.608,1169.2208],[2.88,34.6267,1101.6606],[2.8734,34.6357,1077.9045],[2.8647,34.6411,1057.8708],[2.8591,34.6417,1085.7609],[2.8628,34.6552,1109.3912],[2.8668,34.6583,1104.8055],[2.8667,34.6629,1094.137],[2.8632,34.6662,1065.1235],[2.861,34.6715,1065.2671],[2.8584,34.6826,1065.6809],[2.8435,34.689,1011.7164],[2.8479,34.7026,1005.6487],[2.8452,34.7249,961.7451],[2.843,34.7302,953.2827],[2.8223,34.737,941.5562],[2.8107,34.7331,943.5133],[2.7977,34.7437,933.9958],[2.7923,34.7456,927.5089],[2.7816,34.7345,936.1769],[2.7734,34.7284,939.1107],[2.7472,34.7152,933.3156],[2.718,34.6959,925.7551],[2.6929,34.6632,985.1467],[2.6883,34.6493,1014.8748],[2.6821,34.6429,1020.0323],[2.6673,34.6295,1026.2915],[2.6396,34.6106,1038.5369],[2.6201,34.5931,1075.2626],[2.5934,34.5794,1022.4703],[2.5903,34.5761,1031.8749],[2.5914,34.5501,1067.6882],[2.5909,34.5379,1095.2737],[2.5872,34.5271,1095.5029],[2.5886,34.5216,1099.0425],[2.5866,34.517,1111.7454],[2.5869,34.5114,1127.0498],[2.5838,34.5049,1227.9661],[2.5779,34.4979,1267.803],[2.5828,34.4932,1212.0859],[2.6113,34.4796,1126.6949],[2.6198,34.4649,1133.4814],[2.6446,34.4728,1148.0103],[2.6397,34.4558,1149.3231],[2.6181,34.4452,1109.3805],[2.6125,34.4376,1102.3336],[2.6097,34.4183,1110.7518],[2.631,34.4155,1137.8313],[2.6515,34.4005,1216.0096],[2.6524,34.3961,1206.1812],[2.674,34.3949,1225.8499],[2.68,34.3991,1200.1472],[2.684,34.4045,1209.8269],[2.7048,34.4108,1214.3727],[2.7081,34.4298,1250.6254],[2.7073,34.4409,1237.2972],[2.7137,34.4493,1257.8633],[2.7226,34.4569,1262.5143],[2.7303,34.4797,1283.9187],[2.7402,34.4822,1297.9509],[2.7668,34.4851,1346.1348],[2.7745,34.4881,1337.8855],[2.7776,34.4929,1337.4562],[2.7975,34.5063,1388.4869],[2.8032,34.5073,1353.5302],[2.8068,34.5048,1371.1611],[2.8164,34.5089,1375.6958],[2.8283,34.5185,1375.8816],[2.8394,34.5199,1373.0273],[2.8584,34.5541,1418.7954],[2.8624,34.5559,1369.8188]]]]}}