{"type":"Feature","properties":{"GID_2":"DZA.42.3_1","GID_0":"DZA","country":"Algeria","GID_1":"DZA.42_1","province":"Tébessa","NL_NAME_1":"ولايةتبسة","county":"Bekkaria","VARNAME_2":"NA","NL_NAME_2":"NA","TYPE_2":"Commune","ENGTYPE_2":"Commune","CC_2":"1217","HASC_2":"DZ.TB.BK","name":"Bekkaria.county"},
"geometry":{"type": "MultiPolygon","coordinates": [[[[8.3189,35.3283,1143.1799],[8.3209,35.343,1082.7559],[8.3174,35.3598,1033.8937],[8.3185,35.3678,1001.3345],[8.3166,35.3774,993.0974],[8.3293,35.3995,938.7947],[8.3313,35.4057,929.1813],[8.3298,35.4112,925.7939],[8.324,35.4139,941.3127],[8.3186,35.4141,975.2171],[8.3178,35.4151,988.948],[8.3195,35.4159,1015.7818],[8.2872,35.4351,976.8619],[8.2757,35.4383,920.3835],[8.2628,35.4353,900.3056],[8.2571,35.4362,894.8716],[8.2147,35.4103,850.0984],[8.2018,35.4118,841.9039],[8.197,35.4087,837.5738],[8.1915,35.409,835.7817],[8.1841,35.4129,830.6666],[8.177,35.4138,826.937],[8.1633,35.412,820.62],[8.1792,35.3999,834.8134],[8.1967,35.3735,891.1459],[8.1967,35.3682,901.0663],[8.1884,35.3585,934.4471],[8.1855,35.3425,996.6803],[8.1702,35.3348,1124.4564],[8.1668,35.3298,1237.6289],[8.1791,35.3253,1347.8811],[8.1857,35.326,1193.5938],[8.1937,35.3293,1141.2583],[8.2012,35.3295,1168.5583],[8.2085,35.3269,1248.3662],[8.2328,35.325,1293.903],[8.2402,35.327,1282.8784],[8.2451,35.3302,1155.3163],[8.2573,35.3444,1050.9854],[8.2658,35.3457,1054.1511],[8.2942,35.3392,1066.4243],[8.3189,35.3283,1143.1799]]]]}}