{"type": "Feature","bbox": [6.1166,36.6414,6.2614,36.7401],"geometry": {"type": "MultiPolygon","coordinates": [[[[6.1166,36.6509,1176.1886],[6.1213,36.6428,1104.7942],[6.1346,36.6414,1004.0676],[6.1414,36.6432,892.6184],[6.1509,36.6517,994.9693],[6.1564,36.6529,1093.441],[6.1619,36.6617,1126.7363],[6.1658,36.6638,1050.558],[6.1717,36.6647,1069.0076],[6.1872,36.6589,1308.8625],[6.2089,36.6601,1219.6342],[6.2131,36.6634,1181.6235],[6.2253,36.6643,983.4608],[6.2411,36.6689,887.5974],[6.2459,36.6684,772.6064],[6.2614,36.6771,249.4184],[6.256,36.6799,421.2374],[6.261,36.6879,222.4087],[6.2613,36.6938,202.4574],[6.2523,36.7044,159.5205],[6.2483,36.7134,170.9942],[6.2447,36.7165,141.8954],[6.2297,36.7163,291.4524],[6.2244,36.7178,291.4355],[6.224,36.7296,230.5996],[6.2179,36.7292,295.7849],[6.202,36.7332,302.0433],[6.2013,36.7383,323.1291],[6.1881,36.7401,309.9562],[6.1817,36.7362,230.372],[6.1624,36.7318,314.1172],[6.1575,36.7178,204.5428],[6.1573,36.7129,224.8992],[6.1507,36.7018,257.4599],[6.1409,36.703,265.1581],[6.135,36.7012,277.9054],[6.1255,36.6916,399.2739],[6.1273,36.682,538.9117],[6.1266,36.676,596.8348],[6.1187,36.6628,977.5186],[6.1166,36.6509,1176.1886]]]]}
,"properties": {"GID_2": "DZA.23.21_1","GID_0": "DZA","country": "Algeria","GID_1": "DZA.23_1","province": "Jijel","NL_NAME_1": "ولايةجيجل","county": "OuledYahiaKhadrouche","VARNAME_2": "NA","NL_NAME_2": "NA","TYPE_2": "Commune","ENGTYPE_2": "Commune","CC_2": "1821","HASC_2": "DZ.JJ.OY","name": "Ouled_Yahia_Khadrouche.county","area_km2": 82.08348,"hist_schema_id": "Elevation0-9000","hist_area_km2": {"125": 0.03399,"150": 0.18693,"175": 0.39089,"200": 0.69684,"225": 1.18973,"250": 1.98856,"275": 2.56642,"300": 3.2973,"325": 3.65413,"350": 3.87512,"375": 3.48441,"400": 3.11068,"425": 2.85583,"450": 3.38288,"475": 3.34892,"500": 3.04301,"525": 2.72015,"550": 2.75427,"575": 2.7033,"600": 2.22732,"625": 2.63546,"650": 2.19338,"675": 2.22749,"700": 1.83645,"725": 1.71742,"750": 1.59845,"775": 1.54745,"800": 1.54751,"825": 1.53051,"850": 1.68358,"875": 1.73464,"900": 1.58165,"925": 1.70071,"950": 1.47965,"975": 1.87086,"1000": 1.41169,"1025": 1.15654,"1050": 1.10548,"1075": 0.8504,"1100": 0.64631,"1125": 0.69733,"1150": 0.42519,"1175": 0.47622,"1200": 0.32315,"1225": 0.25512,"1250": 0.17008,"1275": 0.08504,"1300": 0.08504}}}