{"type": "Feature","bbox": [5.9951,36.7082,6.094,36.7896],"geometry": {"type": "MultiPolygon","coordinates": [[[[6.094,36.7641,122.4433],[6.0843,36.7635,193.7605],[6.0804,36.7615,157.5943],[6.0702,36.7772,381.9615],[6.0618,36.7808,504.4966],[6.0568,36.7852,726.9055],[6.0514,36.7847,777.9963],[6.0473,36.7879,673.1575],[6.043,36.7871,745.0166],[6.0393,36.7896,746.9485],[6.0319,36.7882,917.9742],[6.0246,36.7835,672.8961],[6.0091,36.7774,432.4675],[6.003,36.7741,272.0952],[5.9951,36.76,309.8205],[5.9989,36.7568,211.7971],[6.0252,36.7455,738.929],[6.0232,36.7417,807.2159],[6.0115,36.7375,811.5759],[6.0045,36.7303,633.9575],[5.9985,36.719,705.4744],[6.0,36.715,532.7265],[6.0076,36.7086,313.8252],[6.0137,36.7177,343.2654],[6.0294,36.7285,502.3378],[6.0353,36.7259,661.1857],[6.0335,36.7179,540.4529],[6.0361,36.7134,682.7221],[6.0403,36.7102,618.8181],[6.0513,36.7131,251.5432],[6.0582,36.7127,302.522],[6.0632,36.7082,375.2067],[6.0681,36.7132,546.2478],[6.0653,36.7182,488.4253],[6.0722,36.7206,644.6215],[6.0743,36.726,515.9893],[6.0799,36.7271,617.9584],[6.0843,36.7393,429.2787],[6.0911,36.7401,480.5463],[6.0896,36.7441,419.8174],[6.094,36.7641,122.4433]]]]}
,"properties": {"GID_2": "DZA.23.1_1","GID_0": "DZA","country": "Algeria","GID_1": "DZA.23_1","province": "Jijel","NL_NAME_1": "ولايةجيجل","county": "BordjTahar","VARNAME_2": "BordjTaher","NL_NAME_2": "NA","TYPE_2": "Commune","ENGTYPE_2": "Commune","CC_2": "1826","HASC_2": "DZ.JJ.BT","name": "Bordj_Tahar.county","area_km2": 50.30273,"hist_schema_id": "Elevation0-9000","hist_area_km2": {"100": 0.03397,"125": 0.44166,"150": 0.69652,"175": 0.95137,"200": 1.35919,"225": 1.49503,"250": 1.80082,"275": 1.6649,"300": 1.97079,"325": 2.17457,"350": 2.32753,"375": 2.41246,"400": 2.34443,"425": 2.54827,"450": 2.51438,"475": 2.6503,"500": 2.65017,"525": 2.56534,"550": 2.17457,"575": 2.31035,"600": 1.88574,"625": 1.86869,"650": 1.76674,"675": 1.93666,"700": 1.32505,"725": 1.68168,"750": 1.12109,"775": 0.76429,"800": 0.4416,"825": 0.23777,"850": 0.03397,"875": 0.10188,"900": 0.03396,"925": 0.01698}}}