{"type":"Feature","properties":{"GID_2":"DZA.21.29_1","GID_0":"DZA","country":"Algeria","GID_1":"DZA.21_1","province":"Guelma","NL_NAME_1":"ولايةقالمة","county":"OuedFragha","VARNAME_2":"NA","NL_NAME_2":"NA","TYPE_2":"Commune","ENGTYPE_2":"Commune","CC_2":"2406","HASC_2":"DZ.GL.OF","name":"Oued_Fragha.county"},
"geometry":{"type": "MultiPolygon","coordinates": [[[[7.769,36.61,82.3677],[7.7445,36.6008,113.9596],[7.7326,36.6003,156.2623],[7.7285,36.5959,169.2405],[7.7162,36.5903,265.0413],[7.7076,36.5808,292.3051],[7.6911,36.5762,201.0371],[7.6822,36.5668,143.1068],[7.6777,36.5552,259.7363],[7.6623,36.5444,385.4436],[7.6518,36.5395,354.0479],[7.6452,36.5418,283.9522],[7.6399,36.5407,272.0111],[7.6217,36.5327,341.6744],[7.6088,36.5205,516.5679],[7.6071,36.5161,677.6838],[7.6084,36.5115,805.8347],[7.613,36.5147,712.8093],[7.6249,36.513,667.5007],[7.6291,36.5148,594.6498],[7.6314,36.5195,642.919],[7.6359,36.522,601.5351],[7.6634,36.5305,537.955],[7.669,36.527,533.8035],[7.6701,36.5188,460.1805],[7.6769,36.5004,326.0757],[7.6837,36.4976,286.2861],[7.6944,36.4868,186.9406],[7.6943,36.4745,224.5928],[7.7011,36.477,131.1225],[7.7108,36.4931,133.778],[7.716,36.498,99.3162],[7.7221,36.4984,87.3983],[7.7247,36.5153,97.95],[7.7228,36.5204,96.0275],[7.709,36.531,76.6043],[7.7147,36.5344,70.4177],[7.7203,36.5322,74.9398],[7.7238,36.536,77.5065],[7.72,36.5398,72.5794],[7.7188,36.5503,65.8817],[7.7227,36.5531,65.7514],[7.7244,36.5487,63.0032],[7.7284,36.5466,61.3605],[7.7386,36.5474,59.4645],[7.7434,36.5494,94.5248],[7.7635,36.5505,289.7752],[7.7848,36.5558,168.7407],[7.7782,36.565,95.8696],[7.7794,36.5842,50.3411],[7.7728,36.5899,46.7483],[7.7739,36.5954,47.8764],[7.769,36.61,82.3677]]]]}}