{"type":"Feature","properties":{"GID_2":"DZA.43.16_1","GID_0":"DZA","country":"Algeria","GID_1":"DZA.43_1","province":"Tiaret","NL_NAME_1":"ولايةتيارت","county":"Madna","VARNAME_2":"NA","NL_NAME_2":"NA","TYPE_2":"Commune","ENGTYPE_2":"Commune","CC_2":"1410","HASC_2":"DZ.TR.MN","name":"Madna.county"},
"geometry":{"type": "MultiPolygon","coordinates": [[[[0.8139,34.6173,1078.1819],[0.8479,34.6159,1047.5887],[0.8974,34.6208,1021.282],[0.92,34.6275,1012.2156],[0.9461,34.6573,1012.1176],[0.9707,34.6926,1019.6455],[0.9796,34.6978,1021.2549],[1.0221,34.7333,1064.1672],[1.0341,34.7372,1054.2769],[1.0445,34.7429,1067.6782],[1.0501,34.7926,1059.5735],[1.0577,34.8097,1077.7632],[1.0569,34.8224,1094.0833],[1.0603,34.8355,1087.2925],[1.0701,34.8555,1136.3615],[1.072,34.8632,1135.1001],[1.0337,34.8749,1076.7288],[1.013,34.8784,1064.7952],[0.968,34.8784,1013.9806],[0.9614,34.8804,1007.3745],[0.9564,34.876,993.4799],[0.9397,34.8679,966.5432],[0.9274,34.8504,951.0843],[0.9169,34.84,959.361],[0.9122,34.8084,1056.6589],[0.8428,34.7732,1037.6565],[0.7328,34.7286,1092.6165],[0.694,34.7111,1124.8413],[0.7431,34.6445,1045.2423],[0.7929,34.6626,1062.8768],[0.7948,34.6562,1062.0446],[0.7943,34.643,1058.6606],[0.8048,34.6275,1082.2325],[0.8139,34.6173,1078.1819]]]]}}