{"type":"Feature","properties":{"GID_2":"DZA.48.15_1","GID_0":"DZA","country":"Algeria","GID_1":"DZA.48_1","province":"Tlemcen","NL_NAME_1":"تلمسان","county":"BeniOuarsous","VARNAME_2":"NA","NL_NAME_2":"NA","TYPE_2":"Commune","ENGTYPE_2":"Commune","CC_2":"1336","HASC_2":"DZ.TL.BO","name":"Beni_Ouarsous.county"},
"geometry":{"type": "MultiPolygon","coordinates": [[[[-1.6239,35.0584,247.1637],[-1.6184,35.0592,254.2676],[-1.6144,35.0569,207.41],[-1.6032,35.0571,235.4307],[-1.5955,35.0651,249.0638],[-1.5903,35.0649,221.8803],[-1.5847,35.0567,168.0811],[-1.5784,35.0562,164.5134],[-1.5765,35.052,214.591],[-1.5704,35.0494,228.2487],[-1.5432,35.0436,235.89],[-1.537,35.0406,194.852],[-1.5335,35.0366,129.4831],[-1.5275,35.0358,143.8277],[-1.5239,35.0309,127.5162],[-1.5191,35.0295,125.4561],[-1.5148,35.0339,116.4682],[-1.516,35.0387,113.7636],[-1.5114,35.0439,110.208],[-1.5063,35.0434,109.3843],[-1.5067,35.05,109.2692],[-1.5009,35.0586,119.9582],[-1.5016,35.0655,153.287],[-1.4952,35.0684,142.88],[-1.4837,35.0691,107.9957],[-1.4805,35.0736,114.2819],[-1.4842,35.0809,179.5016],[-1.4825,35.0919,175.9442],[-1.4838,35.0976,217.1653],[-1.4759,35.1153,187.7411],[-1.483,35.1246,125.8207],[-1.4677,35.1399,79.2704],[-1.4673,35.1449,56.7634],[-1.4706,35.1508,44.1863],[-1.5024,35.1293,249.4626],[-1.5122,35.128,283.4082],[-1.5218,35.1328,278.4221],[-1.5246,35.1419,161.0252],[-1.5322,35.1434,227.1704],[-1.5398,35.1472,251.3848],[-1.5445,35.1482,306.9494],[-1.5651,35.1466,383.962],[-1.5808,35.1536,247.0835],[-1.5901,35.1505,405.869],[-1.6056,35.149,754.6679],[-1.6227,35.1572,422.6262],[-1.6281,35.142,654.5313],[-1.6346,35.1352,620.0674],[-1.6389,35.1278,647.4885],[-1.643,35.1158,643.5913],[-1.6468,35.1121,680.5447],[-1.6538,35.1162,344.3396],[-1.6575,35.1229,240.4982],[-1.6671,35.1248,344.4884],[-1.6783,35.1214,459.3403],[-1.6822,35.1174,589.9298],[-1.6883,35.1168,555.9396],[-1.6942,35.1098,469.4844],[-1.6996,35.1067,357.3072],[-1.6945,35.0955,453.4646],[-1.6913,35.0923,424.3815],[-1.6813,35.0978,524.7416],[-1.6764,35.095,687.5627],[-1.6786,35.0899,740.9691],[-1.6721,35.0862,478.6255],[-1.6493,35.0646,287.8712],[-1.6434,35.062,234.3683],[-1.6308,35.0632,251.3728],[-1.6239,35.0584,247.1637]]]]}}