{"type": "Feature","bbox": [8.0157,36.5875,8.1975,36.754],"geometry": {"type": "MultiPolygon","coordinates": [[[[8.1767,36.6272,373.6811],[8.1772,36.6342,377.6777],[8.1865,36.6431,403.3311],[8.1889,36.6483,397.0417],[8.1878,36.6527,467.4794],[8.1904,36.6629,431.1022],[8.1904,36.6734,389.3471],[8.1939,36.6784,346.4937],[8.183,36.6869,152.2578],[8.1922,36.6924,104.9949],[8.1955,36.6965,71.0215],[8.1975,36.7027,74.5938],[8.1955,36.708,50.3787],[8.1881,36.716,240.9462],[8.1829,36.718,226.7861],[8.1722,36.7345,118.5102],[8.1614,36.7377,18.5172],[8.1514,36.7383,180.5414],[8.1534,36.7431,107.5962],[8.1513,36.7479,240.0033],[8.1466,36.7498,343.1404],[8.1414,36.7487,290.5338],[8.1328,36.754,351.4686],[8.1253,36.7465,295.8979],[8.1097,36.7413,291.1073],[8.0867,36.7268,287.2977],[8.0852,36.7209,323.3756],[8.0736,36.7113,384.3627],[8.0691,36.7092,431.7867],[8.0639,36.7116,436.3308],[8.0548,36.7058,431.5726],[8.049,36.7001,504.6006],[8.0481,36.6953,649.7037],[8.044,36.6936,687.4962],[8.0413,36.6896,643.3089],[8.0325,36.6834,614.0356],[8.0321,36.6789,612.8824],[8.023,36.6693,538.6514],[8.0211,36.6632,531.1309],[8.0157,36.6559,475.9256],[8.0168,36.64,465.9491],[8.0212,36.6231,444.517],[8.0301,36.6144,320.1589],[8.0333,36.6083,166.6998],[8.0389,36.6071,140.184],[8.0511,36.6107,158.0],[8.062,36.6111,158.0],[8.0726,36.6053,167.7664],[8.0775,36.6055,158.88],[8.0778,36.5993,163.8894],[8.081,36.5927,162.7108],[8.0874,36.5875,167.72],[8.092,36.5897,234.735],[8.118,36.5876,549.2324],[8.1221,36.5898,539.6175],[8.1186,36.5954,538.3803],[8.1202,36.6005,410.3337],[8.1242,36.6051,307.4302],[8.1503,36.6183,393.2633],[8.1559,36.6269,378.1176],[8.162,36.6248,357.9708],[8.1701,36.6247,371.8816],[8.1767,36.6272,373.6811]]]]}
,"properties": {"GID_2": "DZA.19.11_1","GID_0": "DZA","country": "Algeria","GID_1": "DZA.19_1","province": "ElTarf","NL_NAME_1": "ولايةالطارف","county": "Chefia","VARNAME_2": "NA","NL_NAME_2": "NA","TYPE_2": "Commune","ENGTYPE_2": "Commune","CC_2": "3612","HASC_2": "DZ.ET.CF","name": "Chefia.county","area_km2": 191.9698,"hist_schema_id": "Elevation0-9000","hist_area_km2": {"25": 3.603,"50": 13.4298,"75": 13.1083,"100": 12.0725,"125": 12.2259,"150": 19.5609,"175": 14.7797,"200": 12.96,"225": 10.6464,"250": 10.7484,"275": 9.643,"300": 8.6567,"325": 7.8582,"350": 6.4805,"375": 9.0328,"400": 9.5938,"425": 5.6129,"450": 3.5718,"475": 2.4493,"500": 1.82,"525": 1.4969,"550": 1.0888,"575": 0.4081,"600": 0.4081,"625": 0.34,"650": 0.187,"675": 0.136,"700": 0.051}}}