{"type":"Feature","properties":{"GID_2":"DZA.48.3_1","GID_0":"DZA","country":"Algeria","GID_1":"DZA.48_1","province":"Tlemcen","NL_NAME_1":"تلمسان","county":"AinGhoraba","VARNAME_2":"NA","NL_NAME_2":"NA","TYPE_2":"Commune","ENGTYPE_2":"Commune","CC_2":"1349","HASC_2":"DZ.TL.AG","name":"Ain_Ghoraba.county"},
"geometry":{"type": "MultiPolygon","coordinates": [[[[-1.3227,34.6967,1247.2642],[-1.3244,34.702,1172.8611],[-1.3389,34.7179,1146.1774],[-1.3478,34.7487,1341.9156],[-1.3475,34.7699,1443.491],[-1.35,34.7758,1355.6863],[-1.359,34.7831,1426.829],[-1.391,34.8007,1174.3567],[-1.4056,34.8022,1201.9293],[-1.4115,34.8012,1242.035],[-1.4269,34.7837,1303.7277],[-1.4323,34.7814,1306.7234],[-1.4381,34.7745,1224.5824],[-1.4385,34.7676,1160.6409],[-1.4461,34.7582,1223.675],[-1.4458,34.751,1156.3503],[-1.449,34.7419,1119.4669],[-1.4408,34.7312,1001.9729],[-1.4362,34.73,978.1151],[-1.4245,34.7316,879.9152],[-1.4178,34.7287,783.0744],[-1.4202,34.7153,760.7468],[-1.423,34.7108,723.7061],[-1.4306,34.7039,731.4399],[-1.427,34.7003,712.554],[-1.4236,34.703,717.1238],[-1.4126,34.7025,730.5514],[-1.396,34.7043,766.6562],[-1.3872,34.703,764.2993],[-1.3818,34.7004,774.4765],[-1.3749,34.6911,922.1497],[-1.3691,34.6884,957.3197],[-1.3638,34.683,1018.5267],[-1.363,34.6771,1009.3967],[-1.3598,34.6734,1019.5877],[-1.3534,34.6718,1031.692],[-1.3399,34.6729,850.7239],[-1.333,34.6756,893.8704],[-1.3257,34.6891,1076.2021],[-1.3212,34.6927,1211.6667],[-1.3227,34.6967,1247.2642]]]]}}