{"type": "Feature","bbox": [0.6926,35.8513,1.7214,36.5546],"geometry": {"type": "MultiPolygon","coordinates": [[[[1.7109,35.9563,735.4335],[1.7065,35.9639,936.4793],[1.7214,35.9794,988.1947],[1.7213,35.9839,847.2476],[1.716,35.9894,717.2169],[1.7099,35.9885,700.4816],[1.7021,36.0055,804.5881],[1.687,36.0141,749.8973],[1.6823,36.0197,692.4308],[1.6763,36.023,541.2202],[1.6613,36.0214,552.7888],[1.6711,36.0324,666.9892],[1.6682,36.0359,659.7925],[1.663,36.0366,592.8218],[1.6552,36.0431,663.8203],[1.6512,36.0576,654.0045],[1.6288,36.0833,420.3921],[1.627,36.0954,297.4578],[1.6302,36.0992,322.7422],[1.6303,36.1043,367.7937],[1.6356,36.1133,390.0069],[1.6393,36.1248,481.2346],[1.6329,36.1247,473.5799],[1.6242,36.1208,456.9312],[1.6153,36.1244,361.317],[1.6025,36.1189,313.5305],[1.5943,36.1248,308.1095],[1.5847,36.1252,261.2564],[1.5874,36.1306,292.5282],[1.5857,36.1348,257.5266],[1.5719,36.1467,247.7001],[1.5768,36.1517,255.4741],[1.5703,36.1532,241.4544],[1.5673,36.1589,237.0991],[1.5744,36.1608,244.7834],[1.5827,36.1596,273.567],[1.585,36.1667,287.2962],[1.58,36.17,296.1625],[1.5783,36.174,343.3088],[1.5734,36.1749,274.9211],[1.569,36.1786,219.3112],[1.5696,36.1842,192.9859],[1.5833,36.1891,182.6841],[1.5994,36.1868,252.7453],[1.6137,36.1991,439.2675],[1.6264,36.2029,506.5243],[1.633,36.2102,423.8353],[1.6339,36.2149,249.3857],[1.6313,36.2189,150.2171],[1.6253,36.2186,154.2973],[1.6203,36.2206,147.0102],[1.6225,36.2357,147.2795],[1.6166,36.2376,147.0517],[1.6068,36.2401,146.2366],[1.6062,36.2354,145.9772],[1.6079,36.2295,145.7395],[1.6032,36.231,145.8145],[1.6007,36.2359,145.6104],[1.5944,36.2361,145.7203],[1.5897,36.2384,145.1983],[1.5849,36.2353,144.9217],[1.5767,36.2419,144.7844],[1.5704,36.2397,144.3429],[1.5677,36.2352,144.6578],[1.5629,36.2323,144.2426],[1.5566,36.2361,178.6007],[1.5488,36.2378,153.4162],[1.5462,36.2412,203.6878],[1.5553,36.2492,348.6279],[1.5788,36.2537,203.9905],[1.5813,36.2576,293.3023],[1.5827,36.2675,413.0971],[1.5931,36.2744,330.0626],[1.597,36.2847,255.9073],[1.6006,36.2874,313.3631],[1.5904,36.291,322.0381],[1.5912,36.2957,268.5686],[1.581,36.2948,288.6913],[1.5767,36.2977,306.2723],[1.5671,36.2997,362.461],[1.5579,36.3165,399.026],[1.5498,36.3225,360.5822],[1.5403,36.3335,346.7919],[1.5376,36.3465,313.0673],[1.5324,36.3473,333.6329],[1.535,36.352,290.4197],[1.5321,36.3572,315.3973],[1.5322,36.3634,267.5009],[1.5292,36.3692,226.9408],[1.5294,36.3812,198.2308],[1.5345,36.3851,203.9988],[1.5377,36.3913,185.2604],[1.5437,36.395,197.6926],[1.5476,36.3998,210.103],[1.5522,36.3981,198.6348],[1.5546,36.4025,167.9494],[1.5762,36.4098,174.2423],[1.5835,36.4179,127.1803],[1.5914,36.4167,121.8104],[1.6033,36.4245,111.7669],[1.6101,36.4246,112.6576],[1.614,36.4226,108.2367],[1.6234,36.4345,110.1936],[1.6282,36.4485,86.5506],[1.6346,36.4475,81.1756],[1.6392,36.4503,99.5935],[1.6405,36.4557,73.9077],[1.6451,36.4558,89.0985],[1.6482,36.4681,94.4453],[1.6461,36.4732,84.3563],[1.6523,36.4752,61.6967],[1.6565,36.4807,73.5219],[1.667,36.4848,44.8778],[1.6744,36.4899,71.6213],[1.6694,36.4926,37.7214],[1.6742,36.4963,91.0362],[1.675,36.5009,60.3194],[1.6722,36.5119,57.2629],[1.6803,36.5213,22.4411],[1.6817,36.5261,15.24],[1.6876,36.5294,14.0455],[1.6901,36.533,13.926],[1.6907,36.5384,9.7597],[1.6955,36.5417,6.6933],[1.6939,36.5519,1.1734],[1.672,36.5517,17.5162],[1.6595,36.5546,16.2262],[1.6509,36.5538,0.0],[1.6343,36.5484,27.7674],[1.6261,36.5432,12.0276],[1.6172,36.5441,3.7883],[1.6026,36.5366,42.135],[1.5881,36.5374,9.8604],[1.5825,36.535,0.969],[1.5747,36.5344,1.2934],[1.5534,36.5413,35.3046],[1.5411,36.5385,27.9437],[1.5306,36.539,21.7923],[1.5243,36.5415,13.8103],[1.5189,36.5329,4.901],[1.5131,36.53,10.8957],[1.4895,36.5278,1.9394],[1.4718,36.5322,0.0],[1.4664,36.5402,13.1338],[1.4586,36.5415,70.3137],[1.4387,36.5365,1.366],[1.4305,36.539,2.3043],[1.4234,36.5383,46.0325],[1.417,36.5353,104.1186],[1.4112,36.5385,13.6035],[1.3978,36.5371,0.0],[1.3933,36.5376,0.0],[1.3893,36.5409,4.6526],[1.3886,36.5463,5.3878],[1.3847,36.5514,21.43],[1.367,36.5507,0.0],[1.3622,36.553,21.3402],[1.3554,36.5526,19.7464],[1.3409,36.5499,78.7814],[1.3372,36.5434,21.1813],[1.3317,36.5387,60.2087],[1.3294,36.5332,4.3414],[1.3186,36.5252,0.0],[1.3152,36.5181,1.3895],[1.2842,36.5073,0.0],[1.2656,36.5066,14.4116],[1.2529,36.5039,1.7098],[1.2303,36.5046,5.7098],[1.2096,36.5113,0.0],[1.1979,36.5117,13.4472],[1.1924,36.5145,13.1102],[1.1848,36.5144,12.0632],[1.1386,36.493,4.7735],[1.1035,36.4908,0.0],[1.0998,36.4939,1.5195],[1.0954,36.4948,10.2901],[1.0832,36.493,7.1405],[1.0734,36.4879,3.983],[1.0617,36.4869,13.474],[1.0386,36.4755,0.0],[1.0136,36.4661,1.458],[0.9962,36.4611,5.6632],[0.9861,36.4603,7.7296],[0.9625,36.4518,15.7099],[0.9417,36.4494,1.7183],[0.9357,36.4463,10.7012],[0.9337,36.4414,11.6845],[0.9262,36.4346,0.0],[0.9209,36.4147,15.7305],[0.9117,36.3999,8.7362],[0.8958,36.3864,2.2322],[0.8725,36.3743,1.5569],[0.8398,36.3635,4.5827],[0.8249,36.3608,3.3055],[0.816,36.365,7.1971],[0.8051,36.3656,0.0],[0.7962,36.3569,42.0786],[0.7814,36.3496,12.5264],[0.7778,36.3449,4.1669],[0.772,36.3412,4.3311],[0.7603,36.3357,0.767],[0.7399,36.3322,1.8623],[0.7334,36.3176,104.9059],[0.7198,36.2721,440.9554],[0.7132,36.2617,388.0982],[0.6948,36.2404,371.4743],[0.6926,36.2071,100.5],[0.699,36.2069,100.5427],[0.7084,36.2003,107.9559],[0.7185,36.2011,127.1967],[0.7282,36.1965,127.3252],[0.7332,36.1994,135.2867],[0.7395,36.1972,150.4891],[0.7566,36.1975,204.4318],[0.7661,36.1923,176.3401],[0.7927,36.1968,205.9595],[0.7977,36.2008,226.978],[0.8049,36.2012,221.8786],[0.8198,36.2114,265.2899],[0.8368,36.2166,307.6286],[0.8419,36.2198,349.1671],[0.8436,36.2107,524.4265],[0.8499,36.2117,492.6068],[0.8608,36.2193,553.4146],[0.8714,36.2237,604.996],[0.8883,36.2274,493.6514],[0.895,36.2263,405.2242],[0.9027,36.2165,346.3306],[0.9133,36.2079,334.4453],[0.9124,36.2028,328.7673],[0.909,36.1985,325.199],[0.9156,36.1938,374.2978],[0.9178,36.1822,476.9358],[0.9228,36.1746,582.533],[0.9196,36.1599,592.6423],[0.9205,36.1527,540.643],[0.934,36.1564,550.3576],[0.9411,36.1549,530.6404],[0.9445,36.1519,510.1125],[0.9354,36.1451,505.2163],[0.9385,36.1376,465.0531],[0.937,36.1298,379.0237],[0.9429,36.1338,457.7263],[0.9459,36.1289,389.3164],[0.9466,36.1243,356.5864],[0.9367,36.1176,338.96],[0.9187,36.0973,221.8612],[0.9094,36.0902,188.9279],[0.9068,36.0841,205.7893],[0.9209,36.0932,286.0464],[0.9291,36.0927,339.0644],[0.9276,36.0871,316.1092],[0.9281,36.075,247.8129],[0.9258,36.0693,192.4323],[0.9308,36.069,208.8383],[0.9365,36.061,178.0337],[0.9453,36.062,175.1453],[0.9509,36.0567,154.9703],[0.9551,36.0499,98.0125],[0.9538,36.0443,99.2237],[0.9566,36.0336,57.8634],[0.9541,36.0206,57.5789],[0.957,36.0158,61.3753],[0.9785,36.017,61.5944],[0.9855,36.0148,64.232],[0.9915,36.0182,63.6253],[1.0045,36.0214,64.4439],[1.0068,36.0251,63.5631],[1.0016,36.0326,64.5022],[1.0176,36.0399,96.3175],[1.0335,36.0403,124.3913],[1.0247,36.0318,83.1229],[1.03,36.0269,69.6996],[1.04,36.0229,80.1229],[1.0512,36.0294,81.4872],[1.0669,36.005,360.0219],[1.0785,35.9941,470.8142],[1.0813,35.9857,499.8869],[1.1088,35.9779,370.3396],[1.1108,35.9723,407.2098],[1.1156,35.9697,462.0092],[1.1283,35.9689,620.3269],[1.1379,35.964,558.3124],[1.1445,35.9587,756.8876],[1.1515,35.9485,895.057],[1.1571,35.9462,795.9758],[1.1842,35.9446,818.8917],[1.1918,35.9468,698.4489],[1.196,35.9511,583.4865],[1.2091,35.9528,424.4043],[1.2135,35.9564,417.0594],[1.2158,35.9608,456.9168],[1.2213,35.9622,464.6212],[1.2253,35.9601,500.0924],[1.2407,35.9612,485.844],[1.2506,35.9626,413.5366],[1.2613,35.9665,375.2627],[1.2731,35.9661,362.4084],[1.2883,35.9777,314.4207],[1.2981,35.9712,475.3889],[1.301,35.9666,293.4239],[1.3005,35.954,274.7687],[1.3036,35.9423,302.4659],[1.3096,35.9397,254.0],[1.3139,35.9297,340.5797],[1.3211,35.9301,397.5591],[1.3331,35.9249,617.1262],[1.3419,35.9133,966.2083],[1.3434,35.9074,1066.1608],[1.3412,35.9028,1117.4395],[1.3422,35.8969,986.9938],[1.3455,35.8922,975.5731],[1.3524,35.8891,758.0194],[1.3671,35.8748,466.7802],[1.3736,35.8658,430.7988],[1.3703,35.8605,433.6685],[1.384,35.8532,491.2851],[1.3919,35.8513,441.8326],[1.4071,35.866,544.0767],[1.4089,35.8727,661.5336],[1.409,35.8775,732.1597],[1.4039,35.8787,639.7512],[1.3965,35.8831,581.3994],[1.3913,35.8816,495.9901],[1.3906,35.8867,583.535],[1.3956,35.899,648.9866],[1.3989,35.9018,675.1896],[1.3962,35.9054,718.4004],[1.4056,35.9106,733.9999],[1.4106,35.9187,531.0347],[1.4154,35.9183,498.9578],[1.4178,35.9218,438.4555],[1.4032,35.9324,521.1121],[1.4109,35.9342,518.0062],[1.4233,35.9332,667.882],[1.4307,35.935,672.0295],[1.4278,35.9389,713.2613],[1.4332,35.9405,645.1498],[1.4481,35.9401,543.9337],[1.4529,35.9372,437.3198],[1.4582,35.9367,532.181],[1.4896,35.9472,924.6171],[1.5068,35.9563,783.9357],[1.5078,35.9622,728.8489],[1.5133,35.9661,792.2939],[1.5162,35.972,767.0973],[1.5101,35.9838,789.4176],[1.5117,35.9891,770.2083],[1.5217,35.9871,718.0385],[1.5254,35.9846,670.844],[1.5317,35.9926,666.2869],[1.5362,35.9941,711.574],[1.5401,35.9977,660.9333],[1.5474,36.0133,624.399],[1.5518,36.0173,598.3726],[1.5553,36.0303,613.8782],[1.5626,36.0332,588.301],[1.5679,36.0342,683.8394],[1.5672,36.0279,493.6],[1.5622,36.0194,546.5535],[1.5718,36.0138,458.1815],[1.5788,36.0154,376.3576],[1.5802,36.01,360.0],[1.5843,36.0062,382.2693],[1.5893,36.0046,364.7114],[1.5891,35.9992,370.3301],[1.5924,35.9958,368.386],[1.6131,35.9876,427.9633],[1.6157,35.9756,397.9113],[1.6185,35.9708,446.9772],[1.6149,35.9678,403.6949],[1.6185,35.9635,406.6902],[1.6276,35.9599,449.8675],[1.6352,35.9506,429.1327],[1.6409,35.949,476.4281],[1.6497,35.9397,451.4017],[1.6636,35.9359,463.0041],[1.6695,35.9368,459.8918],[1.6715,35.9311,498.3958],[1.6795,35.9286,471.3412],[1.6852,35.9241,531.558],[1.7074,35.9174,523.6182],[1.7074,35.9299,722.8309],[1.7032,35.9354,811.0051],[1.7054,35.9397,912.1718],[1.7153,35.9483,987.2227],[1.7109,35.9563,735.4335]]]]}
,"properties": {"GID_1": "DZA.14_1","GID_0": "DZA","country": "Algeria","province": "Chlef","VARNAME_1": "ElAsnam|Orléansville|EchChelif","NL_NAME_1": "ولايةالشلف","TYPE_1": "Wilaya","ENGTYPE_1": "Province","CC_1": "2","HASC_1": "DZ.CH","ISO_1": "DZ-02","name": "Chlef.province","area_km2": 4075.243,"hist_schema_id": "Elevation0-9000","hist_area_km2": {"0": 10.877,"25": 24.776,"50": 32.286,"75": 148.475,"100": 186.219,"125": 140.342,"150": 183.951,"175": 189.179,"200": 190.214,"225": 206.181,"250": 216.14,"275": 212.579,"300": 212.129,"325": 204.738,"350": 206.807,"375": 197.069,"400": 189.623,"425": 181.912,"450": 172.792,"475": 153.067,"500": 147.223,"525": 126.737,"550": 102.837,"575": 81.991,"600": 66.63,"625": 51.735,"650": 44.414,"675": 38.177,"700": 29.697,"725": 24.5,"750": 19.744,"775": 17.782,"800": 13.335,"825": 10.959,"850": 8.786,"875": 7.414,"900": 5.908,"925": 4.76,"950": 3.766,"975": 3.166,"1000": 2.189,"1025": 1.675,"1050": 1.163,"1075": 0.632,"1100": 0.376,"1125": 0.171,"1150": 0.103}}}