{"type": "Feature","id": "2200","bbox": [0.70237,35.84156,1.7192,36.54792],"geometry": {"type": "Polygon","coordinates": [[[1.70096,36.54719,12.4156],[1.70094,36.54719,12.4156],[1.51743,36.53872,0.0],[1.47633,36.52896,37.1481],[1.45281,36.52802,83.8793],[1.42954,36.53221,244.0334],[1.386,36.54515,121.5192],[1.36769,36.54792,178.7283],[1.34669,36.54499,165.5246],[1.28826,36.52123,0.0],[1.26547,36.51533,0.0],[1.24545,36.51358,0.0],[1.20265,36.51439,0.0],[1.17872,36.51089,13.6849],[1.13885,36.49339,4.7735],[1.11695,36.48713,70.1461],[1.04477,36.48688,0.0],[1.00709,36.46686,0.0],[0.96258,36.45816,0.0],[0.94557,36.45234,0.0],[0.93629,36.44359,26.4757],[0.93214,36.43456,29.9642],[0.92954,36.42593,130.7025],[0.92514,36.41816,40.5968],[0.91383,36.40913,0.0],[0.89088,36.39639,0.0],[0.88054,36.38715,0.0],[0.86476,36.37739,0.0],[0.80226,36.36359,0.0],[0.76873,36.34471,0.0],[0.75327,36.33861,0.0],[0.74045,36.33776,0.0],[0.7405,36.33264,1.8623],[0.74128,36.3174,95.5313],[0.73911,36.29908,239.3051],[0.73508,36.28549,387.9178],[0.70237,36.20694,108.0543],[0.70407,36.18653,165.3375],[0.73477,36.17534,257.7579],[0.75404,36.17433,393.0407],[0.77017,36.17516,224.6593],[0.81052,36.18813,392.3987],[0.87011,36.20087,320.8165],[0.88654,36.20136,330.4658],[0.89739,36.19764,319.3246],[0.90018,36.18942,335.2862],[0.90545,36.16131,481.1119],[0.90871,36.15159,553.4259],[0.92705,36.11004,260.897],[0.92783,36.10234,277.1693],[0.92643,36.09573,342.3564],[0.91863,36.08167,305.9985],[0.91832,36.07449,243.9161],[0.92054,36.06524,156.2929],[0.94814,36.03201,52.909],[0.95636,36.02708,63.3954],[0.96643,36.02504,62.4771],[1.00447,36.02767,64.3643],[1.04095,36.02545,77.0549],[1.04808,36.02235,91.8551],[1.05428,36.01757,147.3212],[1.06622,36.00096,399.1772],[1.07227,35.98984,508.3978],[1.07924,35.98261,502.714],[1.08844,35.97749,421.5897],[1.10394,35.97114,467.7519],[1.14038,35.95124,822.9345],[1.15934,35.94597,785.991],[1.17515,35.94442,847.4761],[1.26998,35.96744,376.4672],[1.28052,35.96902,321.8476],[1.28889,35.96587,352.3203],[1.29478,35.9606,321.3567],[1.31654,35.92039,439.4003],[1.32445,35.90835,803.444],[1.34057,35.89184,946.8268],[1.34631,35.88481,690.7666],[1.35623,35.86815,535.7181],[1.36739,35.85833,481.5493],[1.37705,35.85316,529.4881],[1.41162,35.84156,519.7016],[1.40728,35.85352,601.8253],[1.4079,35.85864,566.5048],[1.41054,35.86476,575.7782],[1.41969,35.87078,735.0828],[1.45105,35.88654,863.0103],[1.454,35.89316,855.7552],[1.45121,35.90132,919.4996],[1.44749,35.90835,806.1512],[1.44795,35.91427,647.3348],[1.45508,35.91838,738.4291],[1.49854,35.93137,634.4609],[1.5049,35.93522,573.6056],[1.50924,35.94101,621.8863],[1.51265,35.94835,599.1604],[1.51482,35.96757,796.6104],[1.51854,35.97274,787.261],[1.53513,35.98514,608.1477],[1.54433,35.9976,545.4052],[1.54542,35.99987,515.8517],[1.54635,36.00139,533.032],[1.54836,36.00395,600.9439],[1.55332,36.00566,505.0195],[1.56231,36.00483,495.117],[1.58743,35.98804,531.6345],[1.59337,35.9816,674.1294],[1.5957,35.97605,836.9991],[1.59678,35.97072,655.0087],[1.59973,35.9606,614.9082],[1.60221,35.9561,644.9866],[1.60608,35.95176,548.2318],[1.61213,35.94721,700.9225],[1.63848,35.93429,563.1678],[1.67466,35.9207,617.9744],[1.68613,35.91876,552.9862],[1.71269,35.92341,574.5053],[1.70975,35.9422,943.0334],[1.7144,35.95538,873.7668],[1.7192,35.96478,756.5082],[1.71719,35.97321,925.1078],[1.71052,35.98266,857.0917],[1.68706,36.00163,846.3445],[1.65466,36.05454,599.8652],[1.6483,36.07175,641.3723],[1.64675,36.09728,397.4109],[1.64143,36.10333,328.1079],[1.61849,36.11345,389.8387],[1.60469,36.12327,340.7719],[1.58851,36.1433,258.4659],[1.58495,36.15485,277.7013],[1.58851,36.16412,303.8226],[1.59864,36.16865,324.1605],[1.61151,36.17216,262.5508],[1.62159,36.178,256.0204],[1.62872,36.18841,317.5968],[1.62872,36.21149,400.8003],[1.62438,36.22185,148.1117],[1.61383,36.22825,146.0938],[1.60407,36.23004,146.1541],[1.59492,36.23438,145.5376],[1.59477,36.24316,147.3963],[1.60515,36.26936,222.1279],[1.60329,36.27908,265.0575],[1.58278,36.30114,326.602],[1.5696,36.31985,452.5387],[1.55472,36.35132,511.4776],[1.55317,36.36768,575.5039],[1.55952,36.38098,633.0935],[1.63073,36.4247,185.1639],[1.64779,36.44315,294.6833],[1.65187,36.46108,247.3617],[1.67915,36.49674,151.5713],[1.68908,36.51514,173.9867],[1.70096,36.54719,12.4156]]]}
,"properties": {"ISO3166-1-Alpha-3": "DZA","country": "Algeria","fill": "#FF0","name": "Chlef","area_km2": 4308.17,"hist_schema_id": "Elevation0-9000","hist_area_km2": {"0": 43.224,"25": 22.423,"50": 28.043,"75": 149.097,"100": 189.37,"125": 144.363,"150": 187.594,"175": 193.934,"200": 195.686,"225": 212.285,"250": 225.79,"275": 221.459,"300": 220.325,"325": 216.305,"350": 219.245,"375": 206.652,"400": 198.508,"425": 190.183,"450": 181.17,"475": 162.304,"500": 156.376,"525": 136.064,"550": 111.567,"575": 89.986,"600": 74.934,"625": 58.068,"650": 50.182,"675": 42.761,"700": 34.041,"725": 28.278,"750": 22.663,"775": 20.41,"800": 15.225,"825": 12.299,"850": 10.039,"875": 8.702,"900": 6.939,"925": 5.807,"950": 4.453,"975": 3.63,"1000": 2.756,"1025": 1.83,"1050": 1.386,"1075": 0.839,"1100": 0.496,"1125": 0.291,"1150": 0.155,"1175": 0.034}}}