{"type":"Feature","properties":{"GID_2":"DZA.27.44_1","GID_0":"DZA","country":"Algeria","GID_1":"DZA.27_1","province":"Mascara","NL_NAME_1":"ولايةمعسكر","county":"Tighenif","VARNAME_2":"Tighennif|Tīghīnnīf","NL_NAME_2":"NA","TYPE_2":"Commune","ENGTYPE_2":"Commune","CC_2":"2906","HASC_2":"DZ.MC.TG","name":"Tighenif.county"},
"geometry":{"type": "MultiPolygon","coordinates": [[[[0.2786,35.4341,531.6069],[0.2782,35.422,517.5404],[0.2739,35.4183,518.3934],[0.2749,35.4064,512.8747],[0.27,35.4027,506.0514],[0.2671,35.3978,503.0912],[0.267,35.3934,500.8328],[0.2696,35.387,498.1025],[0.2678,35.3795,496.7482],[0.2682,35.3721,493.5707],[0.2705,35.3657,492.0713],[0.2766,35.3621,489.6423],[0.2944,35.3601,486.1479],[0.3199,35.3618,488.3179],[0.3321,35.3665,490.3427],[0.3418,35.3736,491.1656],[0.3563,35.3769,491.5962],[0.3617,35.3812,492.0977],[0.4061,35.3771,492.2249],[0.4243,35.3958,499.0834],[0.4203,35.4081,483.141],[0.4171,35.4143,481.0622],[0.4129,35.4179,485.662],[0.4068,35.4191,509.1519],[0.3962,35.4254,502.8813],[0.3989,35.429,501.934],[0.3661,35.4496,536.6551],[0.3603,35.4548,553.5701],[0.3494,35.458,598.7629],[0.3456,35.4534,597.9188],[0.3394,35.451,580.5652],[0.3268,35.4527,601.714],[0.3223,35.4503,601.4172],[0.3168,35.4499,594.8611],[0.307,35.4355,551.7211],[0.2994,35.4343,559.7563],[0.2833,35.4376,537.2565],[0.2786,35.4341,531.6069]]]]}}