{"type": "Feature","bbox": [3.7219,36.2914,3.8516,36.4282],"geometry": {"type": "MultiPolygon","coordinates": [[[[3.7248,36.3493,656.1909],[3.7526,36.3436,688.7621],[3.7638,36.3377,692.3107],[3.7851,36.3308,585.6213],[3.8004,36.3284,602.137],[3.8031,36.3164,725.3766],[3.8023,36.3104,712.2063],[3.8134,36.2946,641.2618],[3.8174,36.2914,595.8242],[3.8209,36.2951,592.6552],[3.8253,36.2966,596.3394],[3.8282,36.3012,581.8683],[3.8344,36.3051,576.5925],[3.8434,36.3155,561.3915],[3.8516,36.3196,564.0226],[3.8471,36.3237,554.5675],[3.8418,36.3319,544.5741],[3.8365,36.3494,541.8206],[3.8293,36.3611,594.7782],[3.8257,36.3709,597.7227],[3.8174,36.3824,665.6824],[3.8163,36.3892,661.8456],[3.812,36.3932,649.929],[3.8006,36.3973,603.603],[3.8003,36.4086,511.5747],[3.7985,36.4136,484.2717],[3.7919,36.415,485.8571],[3.791,36.4199,436.6793],[3.7818,36.4265,486.0319],[3.7759,36.4282,508.4194],[3.7701,36.4188,773.4276],[3.7657,36.4165,813.0927],[3.7621,36.4052,682.2933],[3.7562,36.3997,661.0359],[3.7591,36.3888,689.7885],[3.7568,36.377,683.8031],[3.7531,36.3727,695.8959],[3.7367,36.3661,693.9749],[3.732,36.3607,709.6603],[3.7219,36.3556,687.3881],[3.7248,36.3493,656.1909]]]]}
,"properties": {"GID_2": "DZA.12.5_1","GID_0": "DZA","country": "Algeria","GID_1": "DZA.12_1","province": "Bouira","NL_NAME_1": "ولايةالبويرة","county": "AinElHadjar","VARNAME_2": "NA","NL_NAME_2": "NA","TYPE_2": "Commune","ENGTYPE_2": "Commune","CC_2": "1025","HASC_2": "DZ.BU.AH","name": "Ain_El_Hadjar.county","area_km2": 73.55689,"hist_schema_id": "Elevation0-9000","hist_area_km2": {"425": 0.01706,"450": 0.23886,"475": 0.4095,"500": 0.73371,"525": 1.31422,"550": 6.23234,"575": 10.24557,"600": 12.89215,"625": 12.70416,"650": 11.08142,"675": 8.7081,"700": 5.51486,"725": 1.98029,"750": 0.66564,"775": 0.29007,"800": 0.29006,"825": 0.20475,"850": 0.03412}}}