{"type":"Feature","properties":{"GID_2":"DZA.37.29_1","GID_0":"DZA","country":"Algeria","GID_1":"DZA.37_1","province":"Sétif","NL_NAME_1":"ولايةسطيف","county":"Dehamcha","VARNAME_2":"NA","NL_NAME_2":"NA","TYPE_2":"Commune","ENGTYPE_2":"Commune","CC_2":"1915","HASC_2":"DZ.SF.DE","name":"Dehamcha.county"},
"geometry":{"type": "MultiPolygon","coordinates": [[[[5.5537,36.3312,1112.688],[5.5594,36.3291,1165.0099],[5.5781,36.3289,945.9772],[5.6029,36.3172,1067.7244],[5.6097,36.3169,1049.4089],[5.6274,36.3219,790.5884],[5.6332,36.3213,707.0292],[5.6376,36.3235,699.4681],[5.64,36.3304,689.0295],[5.6498,36.3383,691.8051],[5.659,36.3331,811.0929],[5.6617,36.3392,780.2344],[5.6681,36.3462,814.1578],[5.673,36.3472,876.1188],[5.6728,36.3516,938.4125],[5.6675,36.3535,799.7255],[5.6644,36.359,771.6718],[5.6677,36.3632,755.93],[5.6784,36.3632,895.3668],[5.6785,36.3678,780.4545],[5.6764,36.3781,773.8734],[5.6716,36.3866,741.3967],[5.6707,36.3922,741.9665],[5.6675,36.3957,673.7272],[5.6584,36.3948,645.4973],[5.6571,36.4009,714.3876],[5.6467,36.4141,618.7191],[5.6512,36.4196,553.0858],[5.6501,36.4247,593.6262],[5.6459,36.4289,630.2173],[5.6373,36.4321,580.2129],[5.6223,36.4338,588.6372],[5.6123,36.4371,623.4791],[5.6088,36.4398,602.2693],[5.5971,36.4398,601.6689],[5.592,36.4413,636.6092],[5.5835,36.4334,627.1241],[5.5825,36.427,647.0358],[5.574,36.4146,656.9573],[5.5682,36.4019,684.2534],[5.5531,36.3962,741.354],[5.559,36.3832,797.1304],[5.5714,36.3643,1157.2433],[5.5797,36.3655,1175.4336],[5.5858,36.3614,1013.4128],[5.5691,36.3508,878.629],[5.5582,36.339,930.3677],[5.5537,36.3312,1112.688]]]]}}