{"type": "Feature","bbox": [3.0181,35.8128,3.1185,35.9199],"geometry": {"type": "MultiPolygon","coordinates": [[[[3.06,35.9123,1194.0829],[3.0424,35.9199,1178.9875],[3.0297,35.9107,1246.5649],[3.0213,35.8985,1192.7604],[3.0181,35.8847,1118.4648],[3.0188,35.8717,1025.0646],[3.0214,35.868,1042.6893],[3.0307,35.863,980.7693],[3.0453,35.8491,895.4565],[3.0517,35.8456,892.2647],[3.0651,35.8319,836.8934],[3.0678,35.8262,828.3701],[3.0672,35.8214,824.0433],[3.0712,35.8128,814.1804],[3.0794,35.816,827.6583],[3.098,35.8293,808.2178],[3.1024,35.8253,808.6639],[3.1033,35.821,803.2586],[3.1146,35.8232,821.1339],[3.1162,35.8273,834.183],[3.1048,35.8423,850.8547],[3.1137,35.8424,890.2931],[3.1152,35.8492,946.1511],[3.1185,35.8532,865.2203],[3.1152,35.8577,860.0798],[3.1171,35.8768,918.234],[3.113,35.8869,1059.0046],[3.1091,35.8894,1035.5878],[3.1022,35.8907,1103.6593],[3.098,35.8797,920.4952],[3.0926,35.8781,906.0935],[3.0815,35.9011,1050.886],[3.06,35.9123,1194.0829]]]]}
,"properties": {"GID_2": "DZA.28.27_1","GID_0": "DZA","country": "Algeria","GID_1": "DZA.28_1","province": "Médéa","NL_NAME_1": "ولايةالمدية","county": "ElOuinet","VARNAME_2": "ElAouinet","NL_NAME_2": "NA","TYPE_2": "Commune","ENGTYPE_2": "Commune","CC_2": "2657","HASC_2": "DZ.MD.EN","name": "El_Ouinet.county","area_km2": 63.24516,"hist_schema_id": "Elevation0-9000","hist_area_km2": {"800": 1.08299,"825": 6.1366,"850": 7.02943,"875": 7.78431,"900": 5.82495,"925": 4.39847,"950": 4.26079,"975": 3.84835,"1000": 3.2126,"1025": 3.88247,"1050": 2.92025,"1075": 2.67959,"1100": 2.19852,"1125": 1.75191,"1150": 1.16788,"1175": 0.87587,"1200": 0.89303,"1225": 1.01322,"1250": 0.91015,"1275": 0.60102,"1300": 0.39496,"1325": 0.22324,"1350": 0.10303,"1375": 0.05152}}}