{"type": "Feature","bbox": [-0.3157,27.7689,-0.0475,28.1651],"geometry": {"type": "MultiPolygon","coordinates": [[[[-0.1485,27.7689,285.5918],[-0.1,27.8297,300.319],[-0.077,27.9964,285.602],[-0.0817,28.0091,291.8359],[-0.0475,28.1651,291.7264],[-0.283,28.0604,259.5536],[-0.3119,27.9974,257.0432],[-0.2951,27.8919,259.8479],[-0.3111,27.8738,252.4035],[-0.3157,27.8608,241.3138],[-0.3008,27.8476,245.7915],[-0.2957,27.8512,247.6991],[-0.2644,27.8561,259.8497],[-0.2517,27.851,263.4839],[-0.2152,27.8232,270.2383],[-0.1969,27.8122,278.4248],[-0.178,27.7983,279.9225],[-0.152,27.7754,282.9046],[-0.1485,27.7689,285.5918]]]]}
,"properties": {"GID_2": "DZA.1.1_1","GID_0": "DZA","country": "Algeria","GID_1": "DZA.1_1","province": "Adrar","NL_NAME_1": "ولايةأدرا","county": "Adrar","VARNAME_2": "Adrār","NL_NAME_2": "NA","TYPE_2": "Chef-Lieu-Wilaya","ENGTYPE_2": "Chef-Lieu-Wilaya","CC_2": "101","HASC_2": "DZ.AR.AD","name": "Adrar.county","area_km2": 691.1399,"hist_schema_id": "Elevation0-9000","hist_area_km2": {"250": 88.5547,"275": 547.0811,"300": 55.504}}}