{"type": "Feature","bbox": [1.8727,35.7172,2.2138,35.9747],"geometry": {"type": "MultiPolygon","coordinates": [[[[1.8727,35.8653,869.3094],[1.8782,35.8663,906.5971],[1.8897,35.8746,960.817],[1.9022,35.8783,1065.0768],[1.91,35.8772,1172.3044],[1.9159,35.873,1317.5226],[1.9231,35.8731,1463.3521],[1.9269,35.8698,1512.8726],[1.936,35.8677,1616.8569],[1.941,35.8638,1647.51],[1.9437,35.8584,1611.6028],[1.9493,35.8566,1595.9744],[1.9535,35.8525,1624.8311],[1.9576,35.8517,1523.0229],[1.9617,35.8557,1533.7078],[1.9801,35.8492,1452.2493],[1.9865,35.8533,1393.1165],[1.9977,35.8551,1464.6847],[2.0084,35.8409,1315.5593],[2.0154,35.836,1268.6027],[2.0125,35.8292,1178.1301],[2.0155,35.8235,1030.1732],[2.0197,35.8185,1029.1344],[2.0289,35.8135,1018.9597],[2.0325,35.8089,998.215],[2.0309,35.7973,966.6097],[2.0331,35.7926,938.9317],[2.0306,35.7855,884.6606],[2.035,35.7848,915.8665],[2.045,35.7927,998.8711],[2.0642,35.7938,1145.646],[2.0729,35.7917,1075.0303],[2.0883,35.7796,971.0413],[2.1044,35.7628,902.3454],[2.1087,35.7609,916.919],[2.1114,35.7543,881.3723],[2.1197,35.7428,857.9771],[2.1243,35.7275,844.9654],[2.1311,35.7236,846.3826],[2.1419,35.7221,860.3362],[2.1459,35.7172,841.5665],[2.1562,35.733,850.6531],[2.1615,35.7349,879.1346],[2.1749,35.7349,848.3447],[2.1933,35.738,849.0735],[2.2013,35.7367,810.6853],[2.2138,35.7306,809.4509],[2.213,35.7427,816.3577],[2.2098,35.7468,822.2782],[2.1971,35.7582,872.506],[2.1784,35.77,982.993],[2.1732,35.7746,1065.4409],[2.1711,35.7789,1175.527],[2.1699,35.7884,1154.4905],[2.171,35.7929,1217.1689],[2.18,35.8012,1164.5081],[2.1819,35.8128,1292.9181],[2.1726,35.8202,1195.7058],[2.1699,35.8267,1169.1776],[2.1623,35.8325,1158.0031],[2.1562,35.8285,1067.4126],[2.1502,35.832,1080.3348],[2.1317,35.83,991.085],[2.1255,35.8388,1064.9268],[2.1161,35.8438,1103.8772],[2.1086,35.853,1124.0269],[2.0989,35.8566,1129.6458],[2.0995,35.8626,1128.666],[2.0962,35.8718,1163.2329],[2.0907,35.881,1209.8552],[2.0823,35.8836,1287.1587],[2.0764,35.9043,1113.1733],[2.072,35.9064,1059.5338],[2.0574,35.9189,1110.8446],[2.0534,35.931,1109.8281],[2.0485,35.9331,1094.9155],[2.0556,35.9459,965.7994],[2.0503,35.9475,969.8365],[2.0437,35.9458,976.9396],[2.0376,35.9421,1008.9327],[2.0354,35.9383,1074.2883],[2.0256,35.9341,1156.422],[2.0201,35.9334,1192.9524],[2.0146,35.934,1346.2244],[2.0023,35.9408,1341.7783],[1.994,35.9409,1291.5071],[1.9891,35.9564,1105.0696],[1.995,35.9691,915.5519],[1.9919,35.9747,757.3132],[1.9859,35.9699,823.1531],[1.9863,35.9634,911.6575],[1.978,35.9551,843.5214],[1.9709,35.952,813.9353],[1.9488,35.9468,624.0301],[1.9399,35.9401,656.8561],[1.9254,35.9246,677.348],[1.9149,35.9208,696.4277],[1.9104,35.9174,715.3276],[1.9025,35.9037,830.4525],[1.8979,35.9003,811.787],[1.8802,35.8961,1014.9855],[1.8797,35.8905,1082.4226],[1.8757,35.8864,1064.7834],[1.8727,35.8653,869.3094]]]]}
,"properties": {"GID_2": "DZA.46.21_1","GID_0": "DZA","country": "Algeria","GID_1": "DZA.46_1","province": "Tissemsilt","NL_NAME_1": "ولايةتسمسيلت","county": "ThenietElHad","VARNAME_2": "Thanīyat-al-Had","NL_NAME_2": "NA","TYPE_2": "Commune","ENGTYPE_2": "Commune","CC_2": "3803","HASC_2": "DZ.TS.TH","name": "Theniet_El_Had.county","area_km2": 288.5134,"hist_schema_id": "Elevation0-9000","hist_area_km2": {"600": 0.103,"625": 0.2918,"650": 0.8755,"675": 1.3905,"700": 1.5966,"725": 1.7854,"750": 1.8026,"775": 1.7684,"800": 2.646,"825": 4.1432,"850": 8.4108,"875": 12.7632,"900": 11.6252,"925": 10.8132,"950": 12.8244,"975": 13.0982,"1000": 13.1998,"1025": 14.9692,"1050": 16.619,"1075": 17.9574,"1100": 17.6307,"1125": 19.2623,"1150": 17.2507,"1175": 15.0521,"1200": 13.1614,"1225": 10.3092,"1250": 8.402,"1275": 6.8729,"1300": 5.567,"1325": 4.0551,"1350": 3.4705,"1375": 3.1096,"1400": 2.5427,"1425": 2.1819,"1450": 1.8384,"1475": 1.5978,"1500": 1.1168,"1525": 0.8591,"1550": 0.8419,"1575": 0.8763,"1600": 0.7732,"1625": 0.7217,"1650": 0.6014,"1675": 0.6529,"1700": 0.4296,"1725": 0.3437,"1750": 0.2577,"1775": 0.0515}}}