{"type":"Feature","properties":{"GID_2":"DZA.9.21_1","GID_0":"DZA","country":"Algeria","GID_1":"DZA.9_1","province":"Biskra","NL_NAME_1":"ولايةبسكرة","county":"Lioua","VARNAME_2":"NA","NL_NAME_2":"NA","TYPE_2":"Commune","ENGTYPE_2":"Commune","CC_2":"722","HASC_2":"DZ.BS.LI","name":"Lioua.county"},
"geometry":{"type": "MultiPolygon","coordinates": [[[[5.3456,34.6813,122.9709],[5.3427,34.663,117.1702],[5.3323,34.6253,126.0236],[5.3361,34.5985,112.1435],[5.3304,34.5942,115.2911],[5.331,34.59,115.8907],[5.3263,34.5865,120.5325],[5.3108,34.5859,121.8362],[5.2767,34.5404,156.947],[5.2863,34.5218,133.6041],[5.2997,34.5008,153.5912],[5.3446,34.476,144.3632],[5.3971,34.4503,142.5093],[5.3837,34.4725,137.8869],[5.414,34.5303,124.853],[5.4418,34.5881,110.017],[5.4529,34.6336,92.4992],[5.4525,34.6389,91.7101],[5.4395,34.6758,109.4292],[5.4396,34.6837,110.4099],[5.4276,34.6927,114.1499],[5.4195,34.6792,114.6344],[5.3456,34.6813,122.9709]]]]}}