{"type":"Feature","properties":{"GID_2":"DZA.14.30_1","GID_0":"DZA","country":"Algeria","GID_1":"DZA.14_1","province":"Chlef","NL_NAME_1":"ولايةالشلف","county":"Sobha","VARNAME_2":"NA","NL_NAME_2":"NA","TYPE_2":"Commune","ENGTYPE_2":"Commune","CC_2":"208","HASC_2":"DZ.CH.SO","name":"Sobha.county"},
"geometry":{"type": "MultiPolygon","coordinates": [[[[0.9466,36.1243,356.5864],[0.9367,36.1176,338.96],[0.9187,36.0973,221.8612],[0.9094,36.0902,188.9279],[0.9068,36.0841,205.7893],[0.9209,36.0932,286.0464],[0.9291,36.0927,339.0644],[0.9276,36.0871,316.1092],[0.9281,36.075,247.8129],[0.9258,36.0693,192.4323],[0.9308,36.069,208.8383],[0.9365,36.061,178.0337],[0.9453,36.062,175.1453],[0.9509,36.0567,154.9703],[0.9551,36.0499,98.0125],[0.9538,36.0443,99.2237],[0.9566,36.0336,57.8634],[0.9633,36.0331,56.9944],[0.9676,36.0343,58.4287],[0.9693,36.0412,61.77],[0.9754,36.0462,60.9048],[0.9759,36.0396,61.4638],[0.9877,36.0363,60.7222],[0.9925,36.037,59.0435],[0.9918,36.0434,60.8525],[0.9968,36.0464,59.854],[1.0023,36.0427,61.2887],[1.0078,36.0458,64.3553],[1.0104,36.0507,67.5582],[1.0102,36.0554,66.6774],[1.0051,36.0547,59.4273],[1.0052,36.0605,63.2992],[1.0099,36.0648,61.4316],[1.0163,36.0639,69.1794],[1.0203,36.0606,60.8581],[1.0334,36.0641,68.7736],[1.0325,36.0684,69.4291],[1.0291,36.0711,64.7088],[1.0382,36.0765,67.0545],[1.0407,36.0833,63.1321],[1.0462,36.0814,64.0472],[1.0508,36.0835,70.7914],[1.0554,36.0901,66.9827],[1.0614,36.0893,67.0435],[1.0663,36.0915,73.0056],[1.0697,36.096,71.9906],[1.0755,36.0973,67.995],[1.0813,36.0921,66.4951],[1.0872,36.0928,67.7749],[1.0931,36.0914,67.37],[1.1056,36.0958,68.7368],[1.1215,36.0923,69.526],[1.1278,36.0954,74.0145],[1.1404,36.0964,71.6095],[1.1397,36.102,78.9745],[1.1428,36.1073,73.3441],[1.1477,36.1107,79.8875],[1.1462,36.1182,81.0144],[1.1475,36.1249,81.4072],[1.1603,36.1303,72.6711],[1.1653,36.1274,73.1884],[1.1695,36.1289,78.0501],[1.1734,36.1329,75.9039],[1.175,36.1467,84.5405],[1.1718,36.161,88.0007],[1.1637,36.1778,138.8369],[1.1514,36.1786,189.1512],[1.1452,36.1773,215.6578],[1.1413,36.174,222.3109],[1.125,36.1725,167.7827],[1.1138,36.1684,128.6446],[1.1106,36.173,125.6989],[1.1055,36.1762,99.0208],[1.0927,36.1738,210.2874],[1.087,36.1753,251.0307],[1.0817,36.1727,244.6351],[1.0606,36.168,451.2912],[1.0433,36.1672,415.892],[1.0373,36.168,471.573],[1.0244,36.1771,557.8807],[1.0235,36.1628,434.9022],[1.0212,36.1583,412.8875],[1.0219,36.1524,361.9711],[1.0318,36.1349,278.5319],[1.0239,36.1283,263.8725],[1.0213,36.1216,217.4335],[1.0065,36.12,206.2745],[0.9939,36.1157,248.7887],[0.9896,36.1185,287.6844],[0.9808,36.1309,527.6047],[0.9651,36.1323,413.5999],[0.9466,36.1243,356.5864]]]]}}