{"type": "Feature","bbox": [2.4395,36.4137,2.5529,36.5429],"geometry": {"type": "MultiPolygon","coordinates": [[[[2.4805,36.4137,534.2798],[2.4983,36.4256,541.5284],[2.5092,36.426,552.6516],[2.5138,36.4344,593.2756],[2.5233,36.443,571.3052],[2.5175,36.4475,511.4362],[2.5142,36.453,342.4137],[2.5158,36.4603,240.1281],[2.5299,36.4686,143.2999],[2.5352,36.465,207.0203],[2.5413,36.467,260.0659],[2.5442,36.4726,112.1625],[2.5365,36.4793,94.0959],[2.5385,36.4863,81.0101],[2.5384,36.4951,74.0621],[2.5404,36.4996,70.407],[2.5458,36.5049,67.7907],[2.5435,36.5107,64.6682],[2.5529,36.5288,56.5709],[2.5415,36.5343,53.7919],[2.5328,36.5424,53.5448],[2.5206,36.5429,55.7804],[2.5155,36.5414,56.8346],[2.5106,36.5392,57.5963],[2.509,36.5347,60.561],[2.5045,36.5334,63.3476],[2.4742,36.5329,68.6446],[2.4678,36.5203,78.4509],[2.463,36.5203,76.9064],[2.4512,36.507,84.9918],[2.4457,36.5075,80.4629],[2.4395,36.501,94.2975],[2.4677,36.4817,119.6201],[2.4729,36.4803,123.8445],[2.478,36.4756,139.733],[2.4638,36.4474,356.0323],[2.461,36.4312,253.1715],[2.4632,36.4245,471.8177],[2.4694,36.4173,486.3588],[2.4805,36.4137,534.2798]]]]}
,"properties": {"GID_2": "DZA.45.6_1","GID_0": "DZA","country": "Algeria","GID_1": "DZA.45_1","province": "Tipaza","NL_NAME_1": "ولايةتيبازة","county": "Bourkika","VARNAME_2": "NA","NL_NAME_2": "NA","TYPE_2": "Commune","ENGTYPE_2": "Commune","CC_2": "4205","HASC_2": "DZ.TP.BO","name": "Bourkika.county","area_km2": 79.84701,"hist_schema_id": "Elevation0-9000","hist_area_km2": {"50": 8.56974,"75": 24.43704,"100": 14.42035,"125": 4.58599,"150": 2.30173,"175": 2.04607,"200": 2.13143,"225": 1.73931,"250": 1.24487,"275": 1.02325,"300": 1.26209,"325": 1.41562,"350": 1.56918,"375": 1.33042,"400": 1.51807,"425": 1.56926,"450": 1.65457,"475": 1.36463,"500": 1.19407,"525": 1.26232,"550": 1.09176,"575": 1.14292,"600": 0.68235,"625": 0.22174,"650": 0.06823}}}