{"type":"Feature","properties":{"GID_2":"DZA.14.22_1","GID_0":"DZA","country":"Algeria","GID_1":"DZA.14_1","province":"Chlef","NL_NAME_1":"ولايةالشلف","county":"OuedSly","VARNAME_2":"WādīSali","NL_NAME_2":"NA","TYPE_2":"Commune","ENGTYPE_2":"Commune","CC_2":"221","HASC_2":"DZ.CH.OS","name":"Oued_Sly.county"},
"geometry":{"type": "MultiPolygon","coordinates": [[[[1.2236,36.0125,394.4015],[1.2318,36.0218,333.9663],[1.2284,36.0284,392.4666],[1.2326,36.0334,314.1586],[1.2296,36.0369,273.347],[1.2327,36.0435,308.7251],[1.2503,36.056,118.6535],[1.2503,36.0626,116.5478],[1.2552,36.0709,137.4377],[1.2761,36.0813,319.9011],[1.2882,36.0834,284.675],[1.2926,36.086,279.291],[1.2942,36.0916,282.2739],[1.2914,36.1097,188.8642],[1.2946,36.114,209.3447],[1.2928,36.1193,202.6887],[1.2948,36.1251,142.2679],[1.2764,36.1401,101.017],[1.2653,36.1412,89.7217],[1.2584,36.1393,92.1949],[1.2533,36.1422,88.4777],[1.2482,36.1427,81.9882],[1.246,36.1382,82.4976],[1.241,36.1336,96.503],[1.2358,36.1323,85.6836],[1.2345,36.127,92.1645],[1.2244,36.1288,81.4697],[1.2198,36.1326,87.8173],[1.2255,36.1376,86.8455],[1.2207,36.1387,75.8939],[1.2152,36.1371,76.5703],[1.2121,36.1413,76.3368],[1.2064,36.1419,75.6398],[1.2012,36.1385,79.0097],[1.1973,36.1328,78.1852],[1.1917,36.1297,85.6631],[1.1734,36.1329,75.9039],[1.1695,36.1289,78.0501],[1.1653,36.1274,73.1884],[1.1603,36.1303,72.6711],[1.1475,36.1249,81.4072],[1.1462,36.1182,81.0144],[1.1477,36.1107,79.8875],[1.1428,36.1073,73.3441],[1.1397,36.102,78.9745],[1.1404,36.0964,71.6095],[1.1476,36.0958,73.5981],[1.1562,36.0972,80.4071],[1.162,36.1008,73.6905],[1.1625,36.0962,76.2341],[1.1651,36.0921,83.3501],[1.1737,36.0881,85.8295],[1.1789,36.09,89.9545],[1.1823,36.0868,100.7851],[1.1918,36.0729,174.1677],[1.2005,36.0466,325.8526],[1.2074,36.0386,373.9789],[1.1996,36.0293,268.005],[1.2056,36.0244,305.4815],[1.2197,36.0172,458.5185],[1.2236,36.0125,394.4015]]]]}}