{"type": "Feature","bbox": [0.9508,35.9553,1.0881,36.0403],"geometry": {"type": "MultiPolygon","coordinates": [[[[0.957,36.0158,61.3753],[0.9508,36.0096,60.2214],[0.9509,36.0049,58.9831],[0.9617,35.9991,63.5],[0.9792,35.9927,66.9096],[0.9686,35.9871,71.4873],[0.9649,35.982,93.1319],[0.9721,35.9663,266.004],[1.0018,35.9602,560.5568],[1.008,35.9568,611.4188],[1.0231,35.9553,610.9628],[1.035,35.9576,645.6107],[1.0548,35.9655,643.442],[1.0648,35.9713,609.4745],[1.0756,35.9726,547.0291],[1.0801,35.9782,485.9346],[1.0881,35.984,490.0923],[1.0813,35.9857,499.8869],[1.0785,35.9941,470.8142],[1.0669,36.005,360.0219],[1.0512,36.0294,81.4872],[1.04,36.0229,80.1229],[1.03,36.0269,69.6996],[1.0247,36.0318,83.1229],[1.0335,36.0403,124.3913],[1.0176,36.0399,96.3175],[1.0016,36.0326,64.5022],[1.0068,36.0251,63.5631],[1.0045,36.0214,64.4439],[0.9915,36.0182,63.6253],[0.9855,36.0148,64.232],[0.9785,36.017,61.5944],[0.957,36.0158,61.3753]]]]}
,"properties": {"GID_2": "DZA.35.22_1","GID_0": "DZA","country": "Algeria","GID_1": "DZA.35_1","province": "Relizane","NL_NAME_1": "ولايةغليزان","county": "MerdjaSidiAbed","VARNAME_2": "MerdjetSidiAbed","NL_NAME_2": "NA","TYPE_2": "Commune","ENGTYPE_2": "Commune","CC_2": "4837","HASC_2": "DZ.RE.MS","name": "Merdja_Sidi_Abed.county","area_km2": 67.67378,"hist_schema_id": "Elevation0-9000","hist_area_km2": {"50": 2.58973,"75": 17.27042,"100": 3.3615,"125": 2.50419,"150": 1.74965,"175": 2.14427,"200": 1.9041,"225": 1.97276,"250": 1.97279,"275": 1.86993,"300": 1.54397,"325": 1.78416,"350": 1.66404,"375": 1.83569,"400": 2.05875,"425": 1.81856,"450": 2.17891,"475": 2.50491,"500": 3.08828,"525": 3.15702,"550": 2.24782,"575": 2.28224,"600": 1.71603,"625": 1.1841,"650": 0.90954,"675": 0.36039}}}