{"type":"Feature","properties":{"GID_2":"DZA.35.20_1","GID_0":"DZA","country":"Algeria","GID_1":"DZA.35_1","province":"Relizane","NL_NAME_1":"ولايةغليزان","county":"Mediouna","VARNAME_2":"NA","NL_NAME_2":"NA","TYPE_2":"Commune","ENGTYPE_2":"Commune","CC_2":"4809","HASC_2":"DZ.RE.MD","name":"Mediouna.county"},
"geometry":{"type": "MultiPolygon","coordinates": [[[[0.6926,36.2071,100.5],[0.6946,36.2025,138.8999],[0.6914,36.1911,199.288],[0.6795,36.1876,297.9608],[0.6754,36.1851,354.6642],[0.6728,36.1796,358.3095],[0.66,36.1733,241.8416],[0.6614,36.155,234.8995],[0.6652,36.1509,292.359],[0.6697,36.149,274.0757],[0.6793,36.1332,344.6706],[0.6915,36.1288,445.0275],[0.717,36.1235,481.6255],[0.7201,36.1206,455.2982],[0.7215,36.1108,354.4313],[0.7205,36.0864,220.1676],[0.7263,36.0778,255.2065],[0.727,36.0725,180.5492],[0.7308,36.0757,195.3865],[0.7359,36.077,237.3389],[0.7406,36.0749,215.064],[0.7471,36.0753,234.876],[0.7634,36.0851,283.5978],[0.7698,36.0833,325.7654],[0.7856,36.0942,364.068],[0.8015,36.1002,422.9451],[0.8167,36.1005,571.7075],[0.8284,36.1077,562.9934],[0.8308,36.1119,535.8828],[0.8308,36.1231,446.3515],[0.8279,36.1276,432.9477],[0.8194,36.1324,437.1671],[0.817,36.1366,457.2193],[0.8322,36.165,374.9922],[0.8314,36.1872,276.2786],[0.8219,36.1919,276.493],[0.8099,36.2047,252.8993],[0.8049,36.2012,221.8786],[0.7977,36.2008,226.978],[0.7927,36.1968,205.9595],[0.7661,36.1923,176.3401],[0.7566,36.1975,204.4318],[0.7395,36.1972,150.4891],[0.7332,36.1994,135.2867],[0.7282,36.1965,127.3252],[0.7185,36.2011,127.1967],[0.7084,36.2003,107.9559],[0.699,36.2069,100.5427],[0.6926,36.2071,100.5]]]]}}