{"type": "Feature","bbox": [7.7213,36.2847,7.8551,36.4207],"geometry": {"type": "MultiPolygon","coordinates": [[[[7.7322,36.2988,924.2278],[7.7384,36.2968,980.8707],[7.7432,36.2991,934.1987],[7.7604,36.2859,907.2311],[7.7652,36.2847,1042.738],[7.7708,36.2862,1054.7788],[7.7797,36.2928,1110.9519],[7.7856,36.2941,1048.8187],[7.7993,36.2924,1025.4558],[7.8068,36.2992,900.6133],[7.8356,36.3013,1061.6482],[7.8485,36.3099,1121.641],[7.8551,36.3177,1123.8557],[7.8394,36.3386,1052.9188],[7.8404,36.3498,864.3796],[7.8318,36.3513,815.3644],[7.827,36.3607,758.978],[7.8093,36.3754,584.0472],[7.8157,36.3847,396.414],[7.8155,36.3896,411.0978],[7.8118,36.3928,326.2795],[7.8034,36.3929,410.0364],[7.7997,36.3996,441.9343],[7.7938,36.4026,457.2507],[7.7878,36.4167,304.3011],[7.7824,36.4203,205.7969],[7.7776,36.4207,169.8744],[7.7731,36.4092,225.6627],[7.7543,36.4,327.3772],[7.7449,36.3976,390.3347],[7.7337,36.3855,264.3047],[7.7261,36.3814,321.2057],[7.722,36.3771,292.4427],[7.7213,36.3722,369.7063],[7.7362,36.3713,532.174],[7.7472,36.3622,513.3687],[7.7546,36.3582,469.6232],[7.7525,36.335,818.4319],[7.7389,36.3083,1039.6028],[7.7322,36.2988,924.2278]]]]}
,"properties": {"GID_2": "DZA.21.28_1","GID_0": "DZA","country": "Algeria","GID_1": "DZA.21_1","province": "Guelma","NL_NAME_1": "ولايةقالمة","county": "OuedCheham","VARNAME_2": "NA","NL_NAME_2": "NA","TYPE_2": "Commune","ENGTYPE_2": "Commune","CC_2": "2433","HASC_2": "DZ.GL.OC","name": "Oued_Cheham.county","area_km2": 97.27303,"hist_schema_id": "Elevation0-9000","hist_area_km2": {"175": 0.01706,"200": 0.10237,"225": 0.08531,"250": 0.11944,"275": 0.22183,"300": 0.42661,"325": 0.56314,"350": 0.66554,"375": 1.05808,"400": 1.263,"425": 1.87767,"450": 3.05559,"475": 5.73571,"500": 8.75746,"525": 9.031,"550": 6.64146,"575": 3.92725,"600": 2.30551,"625": 2.23733,"650": 2.23734,"675": 2.37405,"700": 2.39121,"725": 2.04967,"750": 2.35725,"775": 2.3059,"800": 2.5451,"825": 2.10116,"850": 2.80167,"875": 2.93844,"900": 3.29731,"925": 3.09238,"950": 2.92143,"975": 3.29734,"1000": 2.42602,"1025": 2.25526,"1050": 2.03307,"1075": 1.38385,"1100": 1.02498,"1125": 0.82001,"1150": 0.88833,"1175": 0.4783,"1200": 0.59787,"1225": 0.52954,"1250": 0.03416}}}