{"type":"Feature","properties":{"GID_2":"DZA.28.42_1","GID_0":"DZA","country":"Algeria","GID_1":"DZA.28_1","province":"Médéa","NL_NAME_1":"ولايةالمدية","county":"OuledBouachra","VARNAME_2":"NA","NL_NAME_2":"NA","TYPE_2":"Commune","ENGTYPE_2":"Commune","CC_2":"2627","HASC_2":"DZ.MD.OC","name":"Ouled_Bouachra.county"},
"geometry":{"type": "MultiPolygon","coordinates": [[[[2.6147,36.0626,685.0544],[2.6265,36.064,689.8448],[2.6389,36.0621,642.8065],[2.6517,36.0586,620.472],[2.6557,36.0554,675.3427],[2.6662,36.0565,783.0426],[2.6736,36.0595,748.2814],[2.6928,36.0588,744.1968],[2.7025,36.0631,789.4323],[2.7095,36.0641,844.9878],[2.7385,36.0546,948.7159],[2.7474,36.0544,938.2458],[2.7514,36.0576,988.8781],[2.7526,36.0629,1048.8474],[2.7481,36.0654,1014.9913],[2.74,36.0742,764.3803],[2.7392,36.0785,901.655],[2.743,36.0821,992.2635],[2.7497,36.0834,973.0396],[2.7605,36.0834,995.0942],[2.7709,36.0805,890.473],[2.7799,36.0904,849.436],[2.7815,36.096,819.3027],[2.7807,36.1043,700.0597],[2.7956,36.1085,722.0787],[2.7968,36.1175,786.5386],[2.7871,36.1346,784.8171],[2.7868,36.147,652.6856],[2.7738,36.1444,606.3899],[2.7414,36.1434,562.8506],[2.7217,36.1387,541.296],[2.7047,36.1319,519.1954],[2.6857,36.1327,513.2866],[2.677,36.1287,483.5759],[2.6666,36.1281,490.8243],[2.6617,36.1227,466.0561],[2.6544,36.1187,456.6411],[2.6486,36.1198,465.4399],[2.6343,36.1161,454.8253],[2.6312,36.1131,436.1926],[2.6314,36.1082,447.0859],[2.6342,36.1042,434.9543],[2.6303,36.0949,439.6859],[2.6356,36.0884,468.6354],[2.6417,36.0861,455.7294],[2.6328,36.0771,556.8701],[2.6238,36.0737,580.3746],[2.6147,36.0626,685.0544]]]]}}