{"type":"Feature","properties":{"GID_2":"DZA.39.3_1","GID_0":"DZA","country":"Algeria","GID_1":"DZA.39_1","province":"Skikda","NL_NAME_1":"سكيكدة","county":"AinKechra","VARNAME_2":"NA","NL_NAME_2":"NA","TYPE_2":"Commune","ENGTYPE_2":"Commune","CC_2":"2127","HASC_2":"DZ.SK.AK","name":"Ain_Kechra.county"},
"geometry":{"type": "MultiPolygon","coordinates": [[[[6.3676,36.7554,94.1021],[6.3715,36.7513,81.8028],[6.3732,36.7458,95.8428],[6.368,36.7408,102.1964],[6.3669,36.7365,105.945],[6.3709,36.7272,110.059],[6.3971,36.7248,130.2536],[6.4039,36.716,216.8581],[6.4058,36.7111,306.2262],[6.4098,36.7079,337.6403],[6.4106,36.7143,269.0678],[6.4091,36.7206,197.4708],[6.4037,36.7236,179.0487],[6.4014,36.7286,125.7292],[6.4026,36.7335,106.2542],[6.4076,36.73,124.2687],[6.4142,36.73,122.4497],[6.4196,36.7279,131.9442],[6.4464,36.7305,162.1923],[6.4569,36.7288,267.5655],[6.4629,36.7294,228.1611],[6.4765,36.7348,290.1572],[6.4872,36.7362,346.8876],[6.5008,36.7419,285.8354],[6.5104,36.7483,254.9348],[6.5154,36.759,224.5693],[6.5215,36.7628,215.2632],[6.5116,36.7705,384.1905],[6.5083,36.7806,259.4683],[6.5029,36.7881,271.5264],[6.4978,36.7898,205.5163],[6.4936,36.7954,192.4999],[6.4879,36.7982,194.3883],[6.4917,36.8118,196.4718],[6.4923,36.8202,131.4249],[6.4904,36.827,182.2447],[6.5043,36.8414,109.0983],[6.5042,36.8489,166.3071],[6.5005,36.8562,142.4375],[6.4848,36.8575,219.1373],[6.4785,36.8604,230.9597],[6.467,36.8626,325.2424],[6.4438,36.8586,644.2953],[6.439,36.8641,747.9913],[6.4384,36.8687,683.1803],[6.4347,36.8725,679.138],[6.4335,36.8773,702.2407],[6.4019,36.8868,685.7698],[6.3982,36.8901,668.7076],[6.3989,36.8958,597.2817],[6.3838,36.8936,657.5412],[6.3591,36.8796,298.8428],[6.3538,36.8802,222.3059],[6.3469,36.8759,341.7901],[6.3558,36.8713,262.5537],[6.3654,36.8713,327.2431],[6.3742,36.868,323.1206],[6.3814,36.8695,426.1801],[6.3865,36.8733,431.0581],[6.3913,36.8719,467.5006],[6.3898,36.8619,333.7997],[6.3989,36.8429,198.9472],[6.399,36.8385,295.0954],[6.3967,36.8339,370.629],[6.4084,36.8377,311.9892],[6.4134,36.8356,591.8881],[6.4124,36.8309,664.3622],[6.4148,36.8261,812.2373],[6.4319,36.8175,666.9865],[6.4363,36.8131,705.6332],[6.4393,36.8039,582.3018],[6.4294,36.7966,530.8506],[6.4304,36.7909,672.1866],[6.4291,36.7839,596.6161],[6.4126,36.7754,480.0788],[6.4062,36.7664,260.0167],[6.3749,36.7656,84.5809],[6.37,36.7672,78.8675],[6.3673,36.7623,73.5],[6.3676,36.7554,94.1021]]]]}}