{"type":"Feature","properties":{"GID_2":"DZA.47.5_1","GID_0":"DZA","country":"Algeria","GID_1":"DZA.47_1","province":"TiziOuzou","NL_NAME_1":"ولايةغليزان","county":"Ain-Zaouia","VARNAME_2":"AinZaouia","NL_NAME_2":"NA","TYPE_2":"Commune","ENGTYPE_2":"Commune","CC_2":"1525","HASC_2":"DZ.TO.AN","name":"Ain-Zaouia.county"},
"geometry":{"type": "MultiPolygon","coordinates": [[[[3.9447,36.5712,232.297],[3.9425,36.5778,183.9837],[3.9421,36.5867,183.6187],[3.933,36.5939,171.1327],[3.9298,36.6001,159.9509],[3.9337,36.6047,149.2578],[3.9312,36.6105,136.4403],[3.9203,36.6184,135.0135],[3.9289,36.6338,148.831],[3.9174,36.6329,329.241],[3.9129,36.6291,405.3322],[3.9081,36.6286,386.5887],[3.8999,36.6225,423.2625],[3.8912,36.6094,425.3609],[3.8859,36.6063,370.4254],[3.8792,36.5982,383.7638],[3.8744,36.5953,394.0083],[3.8722,36.5908,467.7339],[3.875,36.5845,450.1472],[3.8662,36.576,381.1539],[3.8677,36.5707,338.5035],[3.8711,36.5667,269.7516],[3.8805,36.5598,230.7206],[3.8728,36.5493,257.5756],[3.8672,36.5321,304.5],[3.8769,36.5344,326.8303],[3.8904,36.5323,313.2673],[3.901,36.5283,320.4161],[3.9023,36.5242,331.3591],[3.9057,36.5213,357.2671],[3.9189,36.5193,424.168],[3.9209,36.5271,346.7034],[3.9271,36.53,346.0548],[3.9267,36.547,339.9432],[3.9352,36.549,332.9826],[3.9489,36.5561,210.0446],[3.9499,36.5607,211.3845],[3.9447,36.5712,232.297]]]]}}