{"type":"Feature","properties":{"GID_2":"DZA.45.20_1","GID_0":"DZA","country":"Algeria","GID_1":"DZA.45_1","province":"Tipaza","NL_NAME_1":"ولايةتيبازة","county":"Messelmoun","VARNAME_2":"NA","NL_NAME_2":"NA","TYPE_2":"Commune-Cotiere","ENGTYPE_2":"Commune-Cotiere","CC_2":"4222","HASC_2":"DZ.TP.MS","name":"Messelmoun.county"},
"geometry":{"type": "MultiPolygon","coordinates": [[[[1.814,36.4276,740.0532],[1.8189,36.4284,775.2983],[1.8222,36.4313,821.6255],[1.8484,36.4317,990.6067],[1.8592,36.4333,915.8257],[1.8934,36.4302,964.9203],[1.9075,36.4323,995.1478],[1.9199,36.4297,968.0385],[1.9512,36.4286,1018.058],[1.9566,36.4189,943.3692],[1.9747,36.4138,989.8048],[1.9785,36.4109,942.8212],[1.9998,36.4134,978.7772],[2.0096,36.4171,936.3984],[2.0209,36.4158,910.1207],[2.028,36.4188,935.8489],[2.0326,36.4251,1026.5065],[2.038,36.4255,985.8589],[2.0476,36.4202,1063.5258],[2.0571,36.4173,961.9839],[2.0629,36.4186,999.0494],[2.0582,36.4217,753.085],[2.0406,36.4444,497.2799],[2.0432,36.4506,394.1852],[2.0568,36.4613,279.5588],[2.0605,36.47,256.0858],[2.0605,36.4796,205.0443],[2.057,36.4974,167.7876],[2.0615,36.5075,152.3723],[2.0569,36.5116,84.6304],[2.0583,36.5179,85.6288],[2.0441,36.5231,64.0647],[2.0447,36.5337,112.5833],[2.0415,36.5383,50.2017],[2.0354,36.5357,66.9471],[2.0241,36.5431,64.9812],[2.0258,36.5531,86.63],[2.021,36.5544,59.2466],[2.0175,36.5588,29.5161],[2.0162,36.5643,106.3144],[2.0119,36.5677,1.161],[1.9989,36.5659,2.1558],[1.9798,36.566,1.8252],[1.9792,36.56,159.7803],[1.9818,36.555,205.8028],[1.9759,36.554,92.0155],[1.9714,36.5502,32.0292],[1.972,36.5443,103.8231],[1.9773,36.5325,96.4124],[1.9756,36.5248,73.5982],[1.9775,36.5197,96.3842],[1.9755,36.5049,191.2734],[1.9645,36.5003,145.3244],[1.9592,36.4898,160.9384],[1.9537,36.4875,273.8107],[1.938,36.4864,231.4188],[1.9085,36.4959,633.2859],[1.9006,36.4944,587.0382],[1.8931,36.4954,452.8229],[1.8868,36.4996,462.5555],[1.8853,36.4939,341.8784],[1.8607,36.4832,705.8721],[1.8602,36.4788,822.5836],[1.8545,36.477,622.89],[1.85,36.4786,701.6077],[1.8455,36.4766,690.9075],[1.8332,36.4757,639.2706],[1.8224,36.4713,542.6459],[1.8154,36.464,494.4656],[1.7914,36.4515,459.431],[1.7972,36.4399,609.6949],[1.801,36.4366,670.1715],[1.8116,36.4338,757.558],[1.814,36.4276,740.0532]]]]}}