{"type":"Feature","properties":{"GID_2":"DZA.40.9_1","GID_0":"DZA","country":"Algeria","GID_1":"DZA.40_1","province":"SoukAhras","NL_NAME_1":"ولايةسوقأهراس","county":"M'Daourouche","VARNAME_2":"Mdaourouche|Madawrūsh","NL_NAME_2":"NA","TYPE_2":"Commune","ENGTYPE_2":"Commune","CC_2":"4115","HASC_2":"DZ.SA.MD","name":"M'Daourouche.county"},
"geometry":{"type": "MultiPolygon","coordinates": [[[[7.7839,36.1219,967.5694],[7.7695,36.1143,1003.2308],[7.7574,36.1115,977.363],[7.7525,36.1054,920.1125],[7.7476,36.0908,958.4381],[7.7415,36.0798,898.6941],[7.7286,36.0681,897.2515],[7.7274,36.0494,906.5549],[7.7194,36.0185,946.1967],[7.7227,36.0088,897.4752],[7.7281,36.0049,856.2515],[7.7777,36.013,791.4829],[7.7869,36.0158,783.3811],[7.807,36.0178,773.6132],[7.846,36.0281,780.3843],[7.8655,36.0382,796.6895],[7.8849,36.0565,963.6357],[7.927,36.069,955.0271],[7.922,36.0734,966.4558],[7.9108,36.0793,934.5084],[7.8927,36.0804,893.6487],[7.8735,36.0887,878.0426],[7.8576,36.0911,868.7011],[7.8291,36.1005,856.2952],[7.8117,36.1085,869.9686],[7.7955,36.1183,926.665],[7.7839,36.1219,967.5694]]]]}}