{"type":"Feature","properties":{"GID_2":"DZA.10.23_1","GID_0":"DZA","country":"Algeria","GID_1":"DZA.10_1","province":"Blida","NL_NAME_1":"البليدة","county":"OuledYaich","VARNAME_2":"OuledYaiche","NL_NAME_2":"NA","TYPE_2":"Commune","ENGTYPE_2":"Commune","CC_2":"905","HASC_2":"DZ.BL.OY","name":"Ouled_Yaich.county"},
"geometry":{"type": "MultiPolygon","coordinates": [[[[2.8478,36.498,195.5457],[2.8497,36.4928,209.9748],[2.8597,36.4884,247.376],[2.8636,36.4837,297.706],[2.8649,36.478,336.9373],[2.864,36.4718,438.5251],[2.8675,36.4662,620.9135],[2.8729,36.4623,614.283],[2.8824,36.4494,825.1419],[2.8876,36.4461,1132.0205],[2.8908,36.452,1171.6907],[2.8811,36.4608,855.3501],[2.877,36.4681,762.6897],[2.8778,36.4812,457.7559],[2.8703,36.4922,263.423],[2.8761,36.4971,231.5133],[2.8865,36.5006,216.0115],[2.8856,36.5084,193.1823],[2.8813,36.5205,150.0691],[2.8751,36.526,135.9283],[2.8685,36.5243,138.3369],[2.8574,36.5131,167.3127],[2.8478,36.498,195.5457]]]]}}