{"type": "Feature","bbox": [-0.8008,34.6375,-0.6708,34.7951],"geometry": {"type": "MultiPolygon","coordinates": [[[[-0.6708,34.7546,927.2296],[-0.6724,34.7594,923.2175],[-0.6855,34.7739,899.2649],[-0.6896,34.7857,877.4425],[-0.6951,34.7885,886.5896],[-0.6998,34.7864,883.5042],[-0.7047,34.7923,879.8015],[-0.7097,34.7951,862.8124],[-0.7146,34.7911,876.0524],[-0.7138,34.784,883.8795],[-0.7151,34.7775,875.8851],[-0.7191,34.7744,888.0103],[-0.7356,34.7672,900.7647],[-0.7334,34.7607,921.8451],[-0.7384,34.7633,905.1285],[-0.7441,34.7697,891.1401],[-0.7491,34.7726,889.3138],[-0.7598,34.7696,877.1907],[-0.7666,34.7648,881.3557],[-0.7663,34.7592,886.728],[-0.7642,34.7553,890.5453],[-0.7752,34.7572,874.5145],[-0.7774,34.7515,875.0009],[-0.7675,34.7322,932.7888],[-0.7675,34.7237,903.678],[-0.7646,34.7154,922.2767],[-0.773,34.7235,951.0761],[-0.7784,34.722,950.0471],[-0.7861,34.7134,987.1807],[-0.7867,34.6963,1042.4641],[-0.7758,34.6877,992.0461],[-0.7813,34.6755,976.0724],[-0.7994,34.6577,990.5298],[-0.8008,34.6526,993.495],[-0.7974,34.6491,977.395],[-0.799,34.6391,998.6183],[-0.7925,34.6375,1018.0916],[-0.7784,34.6549,999.5204],[-0.7638,34.6605,1006.7496],[-0.7602,34.6677,992.9886],[-0.7529,34.6754,989.2355],[-0.7482,34.6789,989.2046],[-0.7359,34.6827,1016.338],[-0.7321,34.6863,1007.2581],[-0.7379,34.6999,963.5242],[-0.7375,34.7043,955.4159],[-0.7207,34.7106,973.1371],[-0.7114,34.7228,965.7064],[-0.6832,34.7431,943.9158],[-0.6708,34.7546,927.2296]],
[[-0.7642,34.7553,890.5453],[-0.7574,34.752,901.0234],[-0.7617,34.7503,910.2124],[-0.7642,34.7553,890.5453]]]]}
,"properties": {"GID_2": "DZA.38.16_1","GID_0": "DZA","country": "Algeria","GID_1": "DZA.38_1","province": "SidiBelAbbès","NL_NAME_1": "ولايةسيديبلعباس","county": "ElHacaiba","VARNAME_2": "NA","NL_NAME_2": "NA","TYPE_2": "Commune","ENGTYPE_2": "Commune","CC_2": "2219","HASC_2": "DZ.SB.EH","name": "El_Hacaiba.county","area_km2": 78.90332,"hist_schema_id": "Elevation0-9000","hist_area_km2": {"875": 3.03019,"900": 10.5898,"925": 14.84315,"950": 17.13054,"975": 16.89017,"1000": 9.90123,"1025": 4.02592,"1050": 1.56851,"1075": 0.71464,"1100": 0.20917}}}