{"type": "Feature","bbox": [0.3452,35.4768,0.5048,35.5789],"geometry": {"type": "MultiPolygon","coordinates": [[[[0.4328,35.4882,421.9366],[0.4393,35.4832,517.3066],[0.4403,35.4768,519.9417],[0.4585,35.4794,449.3845],[0.4628,35.4854,448.4924],[0.4654,35.4932,389.6753],[0.4605,35.5046,356.8703],[0.4704,35.5007,423.0681],[0.5048,35.5101,558.9139],[0.4967,35.5291,290.9121],[0.4879,35.5371,389.6718],[0.4813,35.5488,426.5276],[0.4675,35.5588,491.0808],[0.4497,35.5627,371.7341],[0.4461,35.5673,407.4404],[0.4466,35.5734,332.9775],[0.4449,35.5789,286.5864],[0.4401,35.5757,315.0162],[0.4361,35.5699,370.595],[0.4249,35.5628,421.0582],[0.42,35.5659,428.1432],[0.4027,35.5599,537.3494],[0.4017,35.5674,501.619],[0.3955,35.5748,455.3422],[0.3839,35.5761,556.8832],[0.38,35.5712,676.5917],[0.3788,35.5646,712.9065],[0.3752,35.5619,757.0352],[0.3666,35.5581,722.847],[0.362,35.5608,700.5178],[0.355,35.5593,692.7044],[0.3452,35.5501,707.2461],[0.3479,35.5448,724.7881],[0.3709,35.5311,746.9772],[0.375,35.5224,778.0267],[0.3966,35.5062,593.6351],[0.4046,35.4979,545.6433],[0.4269,35.4915,455.0601],[0.4328,35.4882,421.9366]]]]}
,"properties": {"GID_2": "DZA.27.19_1","GID_0": "DZA","country": "Algeria","GID_1": "DZA.27_1","province": "Mascara","NL_NAME_1": "ولايةمعسكر","county": "ElMenaouer","VARNAME_2": "NA","NL_NAME_2": "NA","TYPE_2": "Commune","ENGTYPE_2": "Commune","CC_2": "2921","HASC_2": "DZ.MC.EN","name": "El_Menaouer.county","area_km2": 86.01355,"hist_schema_id": "Elevation0-9000","hist_area_km2": {"250": 0.03451,"275": 0.51766,"300": 1.46659,"325": 2.53659,"350": 3.50306,"375": 4.6594,"400": 5.48775,"425": 6.26407,"450": 6.0398,"475": 5.40108,"500": 4.7623,"525": 4.46867,"550": 5.05508,"575": 5.40048,"600": 4.2447,"625": 2.74357,"650": 2.26021,"675": 1.86317,"700": 2.4497,"725": 3.98501,"750": 4.39927,"775": 5.45177,"800": 2.96735,"825": 0.05176}}}