{"type": "Feature","bbox": [8.5695,36.792,8.6831,36.8569],"geometry": {"type": "MultiPolygon","coordinates": [[[[8.5908,36.792,341.9446],[8.604,36.7992,460.9711],[8.6127,36.793,462.3566],[8.6179,36.7929,420.1932],[8.6223,36.7955,442.4214],[8.6273,36.8025,473.0624],[8.6356,36.8026,403.6584],[8.6632,36.8139,545.0679],[8.6756,36.8218,509.3687],[8.6769,36.8264,541.3605],[8.6822,36.8336,504.0564],[8.6831,36.8402,452.4171],[8.6751,36.844,393.6241],[8.6662,36.8529,178.7929],[8.657,36.8504,148.8292],[8.6488,36.8541,272.8651],[8.6338,36.8569,405.5943],[8.6089,36.8545,277.2953],[8.6032,36.8518,327.0363],[8.5981,36.8464,346.1473],[8.5897,36.8424,454.688],[8.5947,36.8361,348.6766],[8.5925,36.8313,272.3504],[8.5801,36.8207,255.031],[8.5695,36.7992,300.8806],[8.5908,36.792,341.9446]]]]}
,"properties": {"GID_2": "DZA.19.15_1","GID_0": "DZA","country": "Algeria","GID_1": "DZA.19_1","province": "ElTarf","NL_NAME_1": "ولايةالطارف","county": "ElAioun","VARNAME_2": "NA","NL_NAME_2": "NA","TYPE_2": "Commune","ENGTYPE_2": "Commune","CC_2": "3607","HASC_2": "DZ.ET.EA","name": "El_Aioun.county","area_km2": 46.34937,"hist_schema_id": "Elevation0-9000","hist_area_km2": {"125": 0.03393,"150": 0.37327,"175": 1.13686,"200": 1.91758,"225": 3.20765,"250": 4.49775,"275": 5.95741,"300": 6.19473,"325": 4.65012,"350": 3.15668,"375": 2.97001,"400": 2.8682,"425": 2.39306,"450": 1.91769,"475": 1.59535,"500": 1.13713,"525": 1.1031,"550": 1.12007,"575": 0.11878}}}