{"type": "Feature","bbox": [1.5943,35.8653,1.7661,35.9397],"geometry": {"type": "MultiPolygon","coordinates": [[[[1.7074,35.9174,523.6182],[1.6852,35.9241,531.558],[1.6795,35.9286,471.3412],[1.6715,35.9311,498.3958],[1.6695,35.9368,459.8918],[1.6636,35.9359,463.0041],[1.6497,35.9397,451.4017],[1.6396,35.935,495.114],[1.6177,35.9206,942.6232],[1.6183,35.916,952.2422],[1.6132,35.9026,989.747],[1.6007,35.9007,1172.3657],[1.5943,35.887,985.3838],[1.5976,35.883,1087.8899],[1.6072,35.8812,1220.7655],[1.6202,35.8812,1368.9266],[1.6261,35.88,1610.0979],[1.6319,35.8761,1888.4709],[1.637,35.8767,1560.0356],[1.6424,35.8808,1457.6204],[1.643,35.8861,1683.4486],[1.6484,35.8892,1588.3672],[1.6548,35.89,1555.1593],[1.6807,35.8842,1367.1755],[1.6879,35.8941,1008.3987],[1.6926,35.8964,941.1412],[1.6975,35.8985,935.5016],[1.7083,35.898,688.017],[1.7187,35.8949,584.0159],[1.729,35.876,581.6023],[1.7339,35.8764,593.2502],[1.7392,35.8736,570.9651],[1.7413,35.8683,633.7648],[1.7576,35.8653,818.2559],[1.7634,35.8687,830.6693],[1.7621,35.8743,832.2369],[1.765,35.8775,812.7424],[1.7661,35.8891,922.1388],[1.7629,35.8989,1036.6464],[1.7583,35.9033,969.1475],[1.7577,35.9087,868.8339],[1.7458,35.9132,730.2651],[1.744,35.9171,718.2556],[1.7347,35.9194,658.6778],[1.7318,35.923,655.795],[1.7216,35.9262,718.2075],[1.717,35.925,552.4208],[1.7074,35.9174,523.6182]]]]}
,"properties": {"GID_2": "DZA.46.6_1","GID_0": "DZA","country": "Algeria","GID_1": "DZA.46_1","province": "Tissemsilt","NL_NAME_1": "ولايةتسمسيلت","county": "BouCaid","VARNAME_2": "Boucaid","NL_NAME_2": "NA","TYPE_2": "Commune","ENGTYPE_2": "Commune","CC_2": "3821","HASC_2": "DZ.TS.BD","name": "Bou_Caid.county","area_km2": 64.60849,"hist_schema_id": "Elevation0-9000","hist_area_km2": {"425": 0.03433,"450": 0.60084,"475": 0.96144,"500": 1.32211,"525": 1.68279,"550": 1.5282,"575": 1.6141,"600": 2.4212,"625": 2.47282,"650": 2.49006,"675": 2.61031,"700": 2.61035,"725": 2.74775,"750": 2.52451,"775": 2.66196,"800": 2.76507,"825": 3.21155,"850": 2.49029,"875": 2.74793,"900": 2.7136,"925": 2.43875,"950": 1.92356,"975": 1.7003,"1000": 1.76903,"1025": 1.32248,"1050": 1.25381,"1075": 1.3397,"1100": 1.2882,"1125": 1.35692,"1150": 1.3054,"1175": 1.0821,"1200": 0.77295,"1225": 0.58403,"1250": 0.48096,"1275": 0.30919,"1300": 0.49814,"1325": 0.17177,"1350": 0.30919,"1375": 0.29202,"1400": 0.25766,"1425": 0.24049,"1450": 0.18895,"1475": 0.25767,"1500": 0.22332,"1525": 0.18896,"1550": 0.1546,"1575": 0.12025,"1600": 0.10307,"1625": 0.08589,"1650": 0.10307,"1675": 0.05153,"1700": 0.08589,"1750": 0.03436,"1775": 0.03436,"1800": 0.03436,"1825": 0.01718,"1850": 0.01718}}}