{"type": "Feature","bbox": [-2.5626,31.6958,-2.0194,31.9911],"geometry": {"type": "MultiPolygon","coordinates": [[[[-2.0519,31.9911,1005.6082],[-2.3286,31.9754,949.0377],[-2.3547,31.9124,950.6989],[-2.4781,31.8242,783.9235],[-2.5626,31.7892,806.9796],[-2.4049,31.6958,869.8556],[-2.0194,31.9007,962.1917],[-2.0519,31.9911,1005.6082]]]]}
,"properties": {"GID_2": "DZA.7.13_1","GID_0": "DZA","country": "Algeria","GID_1": "DZA.7_1","province": "Béchar","NL_NAME_1": "ولايةبشار","county": "Lahmar","VARNAME_2": "NA","NL_NAME_2": "NA","TYPE_2": "Commune","ENGTYPE_2": "Commune","CC_2": "806","HASC_2": "DZ.BC.LA","name": "Lahmar.county","area_km2": 818.3922,"hist_schema_id": "Elevation0-9000","hist_area_km2": {"775": 3.1527,"800": 126.0673,"825": 134.1213,"850": 153.1232,"875": 88.1674,"900": 39.2746,"925": 32.3543,"950": 47.6102,"975": 55.9212,"1000": 69.7303,"1025": 26.3382,"1050": 8.2608,"1075": 5.5614,"1100": 4.4457,"1125": 3.2039,"1150": 3.3839,"1175": 2.376,"1200": 2.448,"1225": 2.052,"1250": 1.872,"1275": 1.9979,"1300": 1.53,"1325": 1.422,"1350": 1.4039,"1375": 1.2239,"1400": 0.9179,"1425": 0.396,"1450": 0.036}}}