{"type":"Feature","properties":{"GID_2":"DZA.29.5_1","GID_0":"DZA","country":"Algeria","GID_1":"DZA.29_1","province":"Mila","NL_NAME_1":"ولايةميلة","county":"AmiratArres","VARNAME_2":"AmiraArres","NL_NAME_2":"NA","TYPE_2":"Commune","ENGTYPE_2":"Commune","CC_2":"4322","HASC_2":"DZ.ML.AA","name":"Amirat_Arres.county"},
"geometry":{"type": "MultiPolygon","coordinates": [[[[6.0421,36.6119,956.8177],[6.0428,36.6056,822.4485],[6.0376,36.5992,830.738],[6.0308,36.5956,860.1461],[6.0078,36.5948,1159.7791],[6.0046,36.5909,1072.5641],[6.0058,36.5854,988.9311],[6.0164,36.5785,872.3975],[6.0237,36.5631,1061.6316],[6.0236,36.5578,1067.3284],[6.0361,36.5558,1070.7709],[6.0278,36.5499,893.7437],[6.0276,36.545,801.2784],[6.0324,36.5422,884.7888],[6.0287,36.5306,646.7197],[6.0237,36.5265,577.8378],[6.0291,36.5151,635.6993],[6.038,36.5118,546.2974],[6.0412,36.5088,489.4735],[6.045,36.4989,385.1673],[6.0458,36.4916,224.466],[6.0588,36.4884,216.4894],[6.065,36.4904,212.8561],[6.0756,36.4886,305.0706],[6.0816,36.4926,206.4891],[6.0953,36.4972,208.7114],[6.1169,36.4988,203.1705],[6.1191,36.5056,359.5681],[6.1153,36.5084,334.7062],[6.1023,36.5074,392.9081],[6.0915,36.513,373.589],[6.0898,36.5221,556.8655],[6.0916,36.5263,591.578],[6.0996,36.5338,675.1891],[6.0986,36.5393,729.4075],[6.0862,36.5411,834.1525],[6.0828,36.5468,946.5854],[6.088,36.5616,1219.4531],[6.118,36.5679,1029.8105],[6.1217,36.5735,948.7994],[6.109,36.5827,778.0837],[6.1063,36.6012,557.5901],[6.0657,36.602,732.0303],[6.0539,36.6142,1021.2587],[6.0421,36.6119,956.8177]]]]}}