{"type":"Feature","properties":{"ISO3166-1-Alpha-3":"DZA","country":"Algeria","fill":"#00F","id":"2202","name":"Mostaganem"},
"geometry":{"type": "Polygon","coordinates": [[[0.70407,36.18653,165.3375],[0.70237,36.20694,108.0543],[0.73508,36.28549,387.9178],[0.73911,36.29908,239.3051],[0.74128,36.3174,95.5313],[0.7405,36.33264,1.8623],[0.74045,36.33776,0.0],[0.74041,36.33775,0.0],[0.66326,36.33259,0.0],[0.64405,36.32884,0.0],[0.62721,36.31924,0.0],[0.61183,36.30549,0.0],[0.59457,36.29316,0.0],[0.55665,36.28408,0.0],[0.48316,36.2436,0.0],[0.46827,36.23225,0.0],[0.45135,36.22321,0.0],[0.4284,36.21963,0.0],[0.38445,36.21796,0.0],[0.36004,36.21385,0.0],[0.3423,36.20596,0.0],[0.33758,36.1975,0.0],[0.33277,36.17381,0.0],[0.32927,36.16498,2.0658],[0.32106,36.15888,0.0],[0.29908,36.14741,0.0],[0.29444,36.14077,0.0],[0.28346,36.13443,0.0],[0.21949,36.11652,2.4219],[0.20216,36.10651,0.0],[0.15398,36.06501,0.0],[0.14552,36.05996,0.0],[0.13559,36.05561,0.0],[0.12729,36.05077,0.0],[0.12379,36.04458,0.0],[0.12241,36.03335,0.0],[0.11402,36.0102,0.0],[0.08017,35.94701,0.0],[0.06996,35.92182,36.7121],[0.03452,35.86327,48.6678],[0.00294,35.83804,40.2955],[-0.03848,35.8133,20.693],[-0.08308,35.79438,78.8038],[-0.11367,35.78881,0.0],[-0.11438,35.78376,2.5604],[-0.1134,35.77709,2.1383],[-0.1119,35.77337,1.9907],[-0.10921,35.76929,2.1059],[-0.10632,35.76578,1.8171],[-0.10358,35.76335,1.8001],[-0.1011,35.76076,1.8138],[-0.09888,35.75735,2.0049],[-0.09903,35.7527,2.3003],[-0.10043,35.74746,3.1672],[-0.09815,35.74128,3.505],[-0.09133,35.735,3.8177],[-0.05278,35.71978,5.5644],[-0.04792,35.71715,5.8707],[-0.044,35.71446,5.9943],[-0.03862,35.71351,6.1724],[-0.02963,35.7127,7.2281],[-0.0101,35.71524,8.031],[0.03651,35.72627,11.0016],[0.06613,35.73655,10.9377],[0.09548,35.75286,12.5171],[0.10447,35.75673,16.9243],[0.1099,35.75544,17.9132],[0.11827,35.75102,20.1452],[0.12741,35.73797,19.2692],[0.13243,35.72878,19.0483],[0.14824,35.68658,41.1184],[0.15212,35.68263,43.4292],[0.15584,35.68206,46.3687],[0.16498,35.68627,44.0017],[0.17041,35.68971,42.3562],[0.18173,35.69361,42.9],[0.18979,35.6955,45.6228],[0.22937,35.69594,162.7669],[0.23588,35.71193,116.8184],[0.25175,35.72423,101.7506],[0.26415,35.73177,188.6413],[0.27454,35.74355,153.2123],[0.30575,35.76686,220.8501],[0.318,35.77389,207.2503],[0.32978,35.77906,206.5459],[0.33722,35.78087,212.1831],[0.3459,35.78092,231.7888],[0.36301,35.77932,182.8849],[0.37789,35.7826,153.6379],[0.39246,35.79086,109.1794],[0.41293,35.80681,143.9885],[0.42398,35.81763,234.518],[0.43127,35.82681,344.8057],[0.43484,35.83443,390.0857],[0.44894,35.88559,232.6577],[0.44941,35.88959,210.1653],[0.44863,35.89233,196.4039],[0.44615,35.89448,191.6945],[0.44212,35.8968,221.3751],[0.43422,35.90039,313.466],[0.43112,35.90365,346.3796],[0.4305,35.90887,348.87],[0.43344,35.9205,334.2709],[0.43887,35.93176,330.6384],[0.45174,35.95197,327.7017],[0.46243,35.95783,277.8929],[0.47194,35.96003,255.7224],[0.48078,35.9591,261.7696],[0.50837,35.96153,114.8993],[0.51736,35.96328,51.9488],[0.52904,35.96806,36.3254],[0.53385,35.97284,37.257],[0.53602,35.98013,35.3243],[0.53617,35.98953,38.5341],[0.53726,35.99946,62.8596],[0.54005,36.00731,144.8602],[0.54129,36.01431,85.7211],[0.54067,36.03723,308.4344],[0.54284,36.04896,365.3316],[0.54827,36.05475,272.0657],[0.55757,36.0594,191.529],[0.58351,36.06638,162.225],[0.59715,36.07232,185.5912],[0.60521,36.07992,295.6749],[0.61622,36.10129,334.4708],[0.62304,36.1101,376.6729],[0.65875,36.13707,481.4547],[0.67053,36.1502,301.4355],[0.6817,36.16666,381.1894],[0.70407,36.18653,165.3375]]]}}