{"type": "Feature","bbox": [5.4518,34.4283,5.5797,34.6961],"geometry": {"type": "MultiPolygon","coordinates": [[[[5.4723,34.685,98.318],[5.4957,34.6528,86.3438],[5.5094,34.6479,81.9174],[5.5146,34.623,86.0386],[5.4616,34.4742,117.2823],[5.4518,34.4451,127.3997],[5.4522,34.4405,128.252],[5.4771,34.4359,123.3652],[5.5166,34.4336,110.2976],[5.5489,34.4283,102.3993],[5.5797,34.485,91.1068],[5.5463,34.6491,77.5033],[5.5327,34.6644,82.5103],[5.5133,34.6788,82.0075],[5.5132,34.6961,82.7583],[5.4723,34.685,98.318]]]]}
,"properties": {"GID_2": "DZA.9.28_1","GID_0": "DZA","country": "Algeria","GID_1": "DZA.9_1","province": "Biskra","NL_NAME_1": "ولايةبسكرة","county": "Ourlal","VARNAME_2": "Oughlal","NL_NAME_2": "NA","TYPE_2": "Commune","ENGTYPE_2": "Commune","CC_2": "724","HASC_2": "DZ.BS.OR","name": "Ourlal.county","area_km2": 190.379,"hist_schema_id": "Elevation0-9000","hist_area_km2": {"75": 43.2157,"100": 127.2868,"125": 19.8765}}}