{"type": "Feature","bbox": [2.721,35.1652,3.0112,35.8274],"geometry": {"type": "MultiPolygon","coordinates": [[[[2.9215,35.8022,768.1418],[2.9262,35.8053,764.7274],[2.9019,35.8089,772.8531],[2.8999,35.814,720.169],[2.891,35.8119,740.8273],[2.8832,35.8099,738.2719],[2.8735,35.8043,718.1589],[2.8743,35.7988,735.1003],[2.8688,35.7885,698.2251],[2.881,35.7762,715.8097],[2.8804,35.7715,705.1274],[2.8831,35.7673,704.3856],[2.884,35.7621,694.6597],[2.8827,35.7549,691.3807],[2.8866,35.7283,676.4036],[2.8827,35.7194,666.6291],[2.882,35.714,663.7891],[2.8845,35.7087,659.7026],[2.8894,35.7047,660.4253],[2.8991,35.7048,663.9954],[2.9012,35.6995,660.8972],[2.9018,35.6841,652.5064],[2.9,35.6768,650.1097],[2.8974,35.6683,646.8666],[2.8901,35.6548,641.9301],[2.9042,35.6395,633.2914],[2.8983,35.6358,633.6018],[2.8925,35.6343,630.8111],[2.887,35.6264,632.7318],[2.8881,35.6219,633.7374],[2.8965,35.6116,634.7799],[2.8934,35.6078,633.5103],[2.8848,35.6133,629.1096],[2.8832,35.6175,629.3525],[2.8787,35.6169,629.7063],[2.8756,35.6211,628.8373],[2.8695,35.6212,629.4269],[2.864,35.6183,631.7596],[2.8603,35.614,631.3936],[2.8597,35.6095,630.3305],[2.8556,35.6117,628.9141],[2.8462,35.607,629.8533],[2.8434,35.601,630.4235],[2.8268,35.5843,629.8022],[2.822,35.5862,629.6393],[2.8205,35.5813,630.7858],[2.8129,35.5772,631.5156],[2.8107,35.5732,630.3091],[2.8069,35.5758,628.5935],[2.802,35.5747,630.0077],[2.7967,35.5697,633.1495],[2.8015,35.5656,637.2042],[2.8232,35.5535,640.5328],[2.8218,35.5473,642.0815],[2.7882,35.4825,663.244],[2.7357,35.4747,687.1531],[2.7296,35.4726,697.7335],[2.7252,35.4703,696.8485],[2.7226,35.466,701.2384],[2.721,35.4561,702.985],[2.7249,35.4371,729.0146],[2.7297,35.4356,719.8533],[2.7448,35.4346,698.6813],[2.7824,35.4446,699.7318],[2.8117,35.4478,684.746],[2.8316,35.443,682.7272],[2.8364,35.44,686.0084],[2.8403,35.4262,699.2896],[2.8397,35.4204,706.7396],[2.843,35.4049,720.2314],[2.8207,35.392,722.4149],[2.8024,35.3884,713.7889],[2.7659,35.3412,783.3372],[2.7403,35.3128,794.7236],[2.734,35.3027,819.9479],[2.7446,35.2941,808.1263],[2.8863,35.2045,889.9845],[2.9311,35.1795,888.4966],[2.9479,35.1652,880.4519],[2.9531,35.1699,876.2],[2.9615,35.1855,849.3784],[2.966,35.189,853.6238],[2.9696,35.1952,856.7283],[2.9749,35.1994,850.3379],[2.9834,35.2106,835.0339],[3.0001,35.2184,814.9387],[3.0112,35.229,810.0203],[2.9977,35.2356,802.5065],[2.995,35.2411,792.7228],[2.9999,35.2454,791.2982],[3.0063,35.2549,784.0558],[3.0076,35.2595,781.9602],[3.0055,35.2686,776.6016],[2.9755,35.2774,785.5568],[2.9724,35.2807,784.9099],[2.9686,35.2993,758.2667],[2.9726,35.3146,765.2905],[2.9658,35.3236,756.8128],[2.9646,35.3282,753.9293],[2.9528,35.4128,714.2376],[2.9543,35.4282,711.9047],[2.9659,35.4332,726.5812],[2.9744,35.4397,732.9836],[2.9859,35.4611,731.7163],[2.9738,35.4665,711.4312],[2.9682,35.4663,716.4419],[2.9405,35.4603,685.7192],[2.9279,35.4543,700.2166],[2.9126,35.4558,679.6448],[2.9047,35.5888,653.7736],[2.9072,35.5929,655.0499],[2.9152,35.5996,680.017],[2.9202,35.6009,669.0187],[2.9213,35.6064,662.5486],[2.922,35.6778,660.6326],[2.9436,35.6833,666.9436],[2.9491,35.6864,667.5612],[2.9445,35.7008,668.5244],[2.9268,35.6963,664.5767],[2.9211,35.6962,664.7788],[2.9209,35.734,691.1749],[2.9228,35.7496,708.1813],[2.9253,35.7538,715.7826],[2.9251,35.7584,720.1125],[2.9193,35.766,726.748],[2.918,35.7722,722.2418],[2.9183,35.7974,770.4349],[2.9215,35.8022,768.1418]]],
[[[2.9879,35.8248,943.1397],[2.9753,35.8274,918.9478],[2.9718,35.821,880.6895],[2.9612,35.8136,884.705],[2.953,35.8132,849.9847],[2.9423,35.8083,796.1782],[2.9388,35.8048,788.7346],[2.9463,35.8013,782.7921],[2.9449,35.7959,784.528],[2.9553,35.7909,780.2842],[2.9581,35.7872,766.2195],[2.9603,35.7782,754.058],[2.964,35.7741,751.8294],[2.9622,35.7698,743.0466],[2.9643,35.7585,745.4366],[2.9626,35.7543,732.1614],[2.9625,35.745,729.8102],[2.9668,35.7363,711.8494],[2.9676,35.7237,696.1587],[2.9717,35.7275,704.8731],[2.9733,35.7319,712.9291],[2.9885,35.738,709.8533],[2.9828,35.753,719.1249],[2.986,35.7639,730.4734],[2.9791,35.7887,765.9397],[2.9795,35.7931,775.7494],[2.9843,35.8041,812.0006],[2.995,35.8122,857.929],[2.9954,35.8263,938.7219],[2.9879,35.8248,943.1397]]]]}
,"properties": {"GID_2": "DZA.16.5_1","GID_0": "DZA","country": "Algeria","GID_1": "DZA.16_1","province": "Djelfa","NL_NAME_1": "ولايةالجلفة","county": "AinOussera","VARNAME_2": "AinOuessara|`AynWissārah","NL_NAME_2": "NA","TYPE_2": "Commune","ENGTYPE_2": "Commune","CC_2": "1731","HASC_2": "DZ.DJ.AO","name": "Ain_Oussera.county","area_km2": 738.7299,"hist_schema_id": "Elevation0-9000","hist_area_km2": {"625": 41.328,"650": 108.3538,"675": 71.4372,"700": 71.4672,"725": 81.6869,"750": 96.4256,"775": 100.4607,"800": 86.6302,"825": 43.9175,"850": 29.3488,"875": 6.6078,"900": 0.6537,"925": 0.3438,"950": 0.0688}}}