{"type": "Feature","bbox": [-1.7262,34.9627,-1.6239,35.0899],"geometry": {"type": "MultiPolygon","coordinates": [[[[-1.6571,35.0201,462.9408],[-1.6555,35.0262,460.6275],[-1.6486,35.0261,443.2607],[-1.6429,35.0282,438.024],[-1.6401,35.0331,409.6185],[-1.6402,35.0447,334.4357],[-1.6239,35.0584,247.1637],[-1.6308,35.0632,251.3728],[-1.6434,35.062,234.3683],[-1.6493,35.0646,287.8712],[-1.6721,35.0862,478.6255],[-1.6786,35.0899,740.9691],[-1.6801,35.0856,627.4917],[-1.6848,35.0823,622.5644],[-1.6983,35.0778,614.2301],[-1.7091,35.0707,495.5565],[-1.7153,35.0581,327.4464],[-1.7119,35.0447,602.098],[-1.7069,35.0431,535.3247],[-1.7043,35.0392,609.2476],[-1.7154,35.0243,549.647],[-1.7255,35.0203,550.1127],[-1.7231,35.0161,571.3818],[-1.7226,35.0044,666.9304],[-1.7243,34.998,779.7443],[-1.7234,34.9921,874.1226],[-1.7262,34.9882,964.4414],[-1.7212,34.9866,969.2319],[-1.713,34.9637,651.6967],[-1.703,34.966,667.6294],[-1.6857,34.9627,474.0682],[-1.6738,34.9631,388.6075],[-1.6765,34.9666,413.6407],[-1.6898,34.9718,465.6239],[-1.6758,34.9827,761.4863],[-1.6769,34.9874,689.8029],[-1.676,34.9926,682.3849],[-1.672,34.997,733.3027],[-1.6669,35.0106,589.6547],[-1.6571,35.0201,462.9408]]]]}
,"properties": {"GID_2": "DZA.48.4_1","GID_0": "DZA","country": "Algeria","GID_1": "DZA.48_1","province": "Tlemcen","NL_NAME_1": "تلمسان","county": "AinKebira","VARNAME_2": "NA","NL_NAME_2": "NA","TYPE_2": "Commune","ENGTYPE_2": "Commune","CC_2": "1353","HASC_2": "DZ.TL.AK","name": "Ain_Kebira.county","area_km2": 68.0409,"hist_schema_id": "Elevation0-9000","hist_area_km2": {"225": 0.32974,"250": 0.86775,"275": 1.18015,"300": 2.69009,"325": 2.98516,"350": 3.55784,"375": 3.57533,"400": 3.55821,"425": 3.94029,"450": 3.40221,"475": 3.15953,"500": 2.93399,"525": 3.78487,"550": 3.87188,"575": 2.76069,"600": 2.53519,"625": 2.18808,"650": 2.69197,"675": 2.46631,"700": 2.44904,"725": 2.53583,"750": 1.61521,"775": 1.18095,"800": 0.79891,"825": 1.09414,"850": 0.72941,"875": 0.78153,"900": 0.85102,"925": 0.62523,"950": 0.72944,"975": 0.53842,"1000": 0.5905,"1025": 0.39945,"1050": 0.36471,"1075": 0.1563,"1100": 0.08683,"1125": 0.03473}}}