{"type": "Feature","bbox": [3.4802,36.0665,3.6736,36.2066],"geometry": {"type": "MultiPolygon","coordinates": [[[[3.5594,36.2052,709.4913],[3.546,36.2066,881.5043],[3.5408,36.2051,902.7853],[3.5373,36.2022,825.1105],[3.5266,36.1999,742.3393],[3.5127,36.2008,817.3726],[3.5026,36.1979,827.8097],[3.4935,36.193,864.0398],[3.4898,36.19,879.752],[3.488,36.1779,1091.3812],[3.4837,36.1724,1108.4099],[3.4802,36.1582,1172.5228],[3.4873,36.1493,1164.2451],[3.4966,36.1482,1168.6011],[3.499,36.1446,1119.7671],[3.4991,36.1344,1070.9773],[3.5082,36.1185,1199.0941],[3.5188,36.1165,1287.239],[3.5376,36.1038,1156.4539],[3.5412,36.0949,1140.7949],[3.5385,36.0785,1299.4023],[3.5396,36.0735,1265.9387],[3.5467,36.07,1120.5776],[3.5692,36.0732,1383.056],[3.5865,36.0679,1421.4246],[3.6043,36.0665,1435.2214],[3.623,36.0696,1455.1552],[3.6258,36.0751,1538.3479],[3.6253,36.0841,1713.17],[3.6373,36.0854,1741.3655],[3.6257,36.0966,1437.3552],[3.6241,36.1074,1207.4008],[3.6214,36.1115,1157.6743],[3.6113,36.1176,1004.1614],[3.6056,36.1162,981.1675],[3.6062,36.1214,1031.5947],[3.6166,36.1339,1196.0742],[3.6217,36.1365,1298.4824],[3.6379,36.1404,1173.2008],[3.64,36.1456,1144.8097],[3.6349,36.1546,1126.8137],[3.6415,36.1598,1108.2581],[3.6479,36.171,984.4319],[3.6622,36.1823,909.6652],[3.6689,36.1961,823.4185],[3.673,36.1989,845.991],[3.6736,36.2047,820.7238],[3.6612,36.2012,904.4236],[3.6507,36.2005,933.0104],[3.6378,36.2019,832.8361],[3.6322,36.1981,956.9479],[3.6256,36.2016,905.2017],[3.6233,36.1923,953.2925],[3.6106,36.1845,1190.0698],[3.602,36.1828,968.5792],[3.6,36.1762,1121.0208],[3.6051,36.1695,1332.3328],[3.5918,36.162,1276.1326],[3.577,36.1591,1037.3125],[3.5698,36.1595,924.7505],[3.5677,36.1651,866.6895],[3.5659,36.1945,744.3585],[3.5594,36.2052,709.4913]]]]}
,"properties": {"GID_2": "DZA.12.18_1","GID_0": "DZA","country": "Algeria","GID_1": "DZA.12_1","province": "Bouira","NL_NAME_1": "ولايةالبويرة","county": "Dechmia","VARNAME_2": "NA","NL_NAME_2": "NA","TYPE_2": "Commune","ENGTYPE_2": "Commune","CC_2": "1031","HASC_2": "DZ.BU.DE","name": "Dechmia.county","area_km2": 150.2639,"hist_schema_id": "Elevation0-9000","hist_area_km2": {"675": 0.1369,"700": 0.3593,"725": 0.6673,"750": 1.0609,"775": 1.0952,"800": 1.5058,"825": 2.002,"850": 3.1659,"875": 3.4402,"900": 4.8955,"925": 6.9673,"950": 7.43,"975": 8.1495,"1000": 9.3481,"1025": 9.2971,"1050": 9.9477,"1075": 9.5539,"1100": 8.3041,"1125": 8.133,"1150": 8.0133,"1175": 7.5856,"1200": 6.0449,"1225": 5.7367,"1250": 5.0178,"1275": 4.2131,"1300": 3.6994,"1325": 3.4258,"1350": 2.8265,"1375": 2.0043,"1400": 1.3362,"1425": 0.7883,"1450": 0.8054,"1475": 0.5826,"1500": 0.3941,"1525": 0.3941,"1550": 0.3256,"1575": 0.2399,"1600": 0.257,"1625": 0.2742,"1650": 0.257,"1675": 0.2056,"1700": 0.1713,"1725": 0.1371,"1750": 0.0343,"1775": 0.0343}}}