{"type": "Feature","bbox": [-1.6804,34.7398,-1.4429,34.8754],"geometry": {"type": "MultiPolygon","coordinates": [[[[-1.4429,34.7629,1229.3635],[-1.4622,34.7702,1213.1658],[-1.4741,34.781,1137.9177],[-1.4921,34.79,1167.0887],[-1.5017,34.7934,988.2072],[-1.5182,34.7933,1077.5076],[-1.5403,34.8082,629.949],[-1.5521,34.8063,582.444],[-1.5671,34.8168,525.8409],[-1.5731,34.8178,519.4732],[-1.5761,34.8223,511.8314],[-1.5765,34.8277,485.1974],[-1.5833,34.8297,514.7778],[-1.5864,34.8469,473.1525],[-1.5926,34.85,454.8208],[-1.5977,34.8569,431.2603],[-1.597,34.8635,410.3328],[-1.6091,34.8643,463.4493],[-1.6178,34.8717,378.2933],[-1.6329,34.8701,353.5289],[-1.6417,34.8754,305.1804],[-1.6464,34.8748,302.0],[-1.6514,34.8682,302.0],[-1.661,34.867,356.4562],[-1.6619,34.8551,425.2197],[-1.6804,34.8216,402.6125],[-1.678,34.8103,426.2687],[-1.668,34.812,433.571],[-1.653,34.8116,319.7382],[-1.6369,34.8061,401.7696],[-1.629,34.7988,433.9897],[-1.6231,34.798,465.6114],[-1.6215,34.7938,466.7611],[-1.6036,34.7715,466.5442],[-1.5831,34.7651,691.0183],[-1.5623,34.7549,889.4773],[-1.5457,34.7491,1067.08],[-1.5397,34.7518,1121.2421],[-1.5336,34.7583,1014.2936],[-1.5255,34.754,1023.7689],[-1.5153,34.7536,1171.7229],[-1.5072,34.7508,1111.0627],[-1.4944,34.741,1257.4916],[-1.4816,34.7421,1200.1058],[-1.4672,34.7398,1290.8405],[-1.4549,34.7399,1183.3005],[-1.449,34.7419,1119.4669],[-1.4458,34.751,1156.3503],[-1.4461,34.7582,1223.675],[-1.4429,34.7629,1229.3635]]]]}
,"properties": {"GID_2": "DZA.48.19_1","GID_0": "DZA","country": "Algeria","GID_1": "DZA.48_1","province": "Tlemcen","NL_NAME_1": "تلمسان","county": "Bouhlou","VARNAME_2": "NA","NL_NAME_2": "NA","TYPE_2": "Commune","ENGTYPE_2": "Commune","CC_2": "1347","HASC_2": "DZ.TL.BH","name": "Bouhlou.county","area_km2": 128.71214,"hist_schema_id": "Elevation0-9000","hist_area_km2": {"300": 5.82905,"325": 4.48972,"350": 5.81217,"375": 5.56868,"400": 5.23815,"425": 5.70802,"450": 6.43926,"475": 8.33716,"500": 8.44295,"525": 7.50353,"550": 5.20558,"575": 3.34308,"600": 2.42036,"625": 2.36824,"650": 2.50749,"675": 1.91553,"700": 2.2987,"725": 2.54259,"750": 2.14209,"775": 2.07247,"800": 1.98544,"825": 1.86354,"850": 1.61973,"875": 1.18436,"900": 1.61973,"925": 1.01013,"950": 0.92305,"975": 0.94047,"1000": 0.97528,"1025": 0.90564,"1050": 1.13207,"1075": 1.75912,"1100": 2.40362,"1125": 2.85646,"1150": 4.18031,"1175": 3.55322,"1200": 3.67525,"1225": 3.55337,"1250": 1.6549,"1275": 0.6968,"1300": 0.03484}}}