{"type":"Feature","properties":{"GID_2":"DZA.47.67_1","GID_0":"DZA","country":"Algeria","GID_1":"DZA.47_1","province":"TiziOuzou","NL_NAME_1":"ولايةغليزان","county":"Zekri","VARNAME_2":"NA","NL_NAME_2":"NA","TYPE_2":"Commune","ENGTYPE_2":"Commune","CC_2":"1523","HASC_2":"DZ.TO.ZE","name":"Zekri.county"},
"geometry":{"type": "MultiPolygon","coordinates": [[[[4.6504,36.7919,966.2933],[4.6533,36.7964,895.3912],[4.6493,36.8059,630.1519],[4.6449,36.8066,562.2742],[4.6239,36.8182,304.1137],[4.6238,36.8338,154.9901],[4.6187,36.8373,251.5297],[4.607,36.8402,408.7746],[4.5996,36.8486,423.374],[4.5941,36.8491,338.8437],[4.5946,36.8447,421.0744],[4.5987,36.8392,551.0439],[4.5965,36.8329,763.931],[4.5916,36.8302,844.7984],[4.5851,36.8313,773.7249],[4.5765,36.8369,813.5504],[4.5715,36.8378,779.6918],[4.5612,36.8335,481.058],[4.5543,36.8235,247.5584],[4.5594,36.8197,264.0591],[4.5595,36.8152,284.8427],[4.5561,36.8058,485.7762],[4.5574,36.8002,590.4788],[4.5565,36.7856,850.7413],[4.551,36.7863,874.5797],[4.5472,36.7842,897.615],[4.5289,36.7805,916.8123],[4.5172,36.7821,932.0743],[4.5123,36.7779,776.9447],[4.5072,36.7675,457.7209],[4.5166,36.7648,351.0576],[4.5221,36.7574,371.2332],[4.5281,36.755,361.8593],[4.5316,36.7486,452.1165],[4.539,36.7416,526.7383],[4.5473,36.7476,402.2448],[4.5921,36.7501,556.3432],[4.6037,36.7457,810.9431],[4.6076,36.7407,844.9235],[4.6096,36.7344,804.9987],[4.6171,36.7304,975.0314],[4.6296,36.7423,601.4288],[4.6397,36.7476,607.6205],[4.6398,36.7527,530.1707],[4.6497,36.7549,466.2847],[4.6488,36.7605,586.5974],[4.6415,36.7684,812.6122],[4.639,36.7823,962.4975],[4.6419,36.7862,1004.1616],[4.6504,36.7919,966.2933]]]]}}