{"type":"Feature","properties":{"GID_2":"DZA.45.3_1","GID_0":"DZA","country":"Algeria","GID_1":"DZA.45_1","province":"Tipaza","NL_NAME_1":"ولايةتيبازة","county":"AinTagourait","VARNAME_2":"NA","NL_NAME_2":"NA","TYPE_2":"Commune-Cotiere","ENGTYPE_2":"Commune-Cotiere","CC_2":"4213","HASC_2":"DZ.TP.AT","name":"Ain_Tagourait.county"},
"geometry":{"type": "MultiPolygon","coordinates": [[[[2.6791,36.6028,254.5489],[2.675,36.6089,210.1499],[2.6699,36.6081,202.4672],[2.6719,36.6126,192.8517],[2.6683,36.6164,167.1305],[2.667,36.6225,114.5683],[2.6703,36.628,54.966],[2.6671,36.6321,0.688],[2.6543,36.6269,0.6759],[2.6503,36.6216,20.4037],[2.6032,36.6016,8.9327],[2.5976,36.6017,7.7137],[2.5587,36.5932,2.8597],[2.5356,36.5912,2.5684],[2.5186,36.5922,0.0],[2.5155,36.5861,51.0894],[2.5099,36.5818,149.8161],[2.5102,36.5755,181.1964],[2.515,36.5774,171.9289],[2.5297,36.5764,164.2139],[2.535,36.5785,156.8824],[2.5619,36.5766,228.8764],[2.5921,36.5805,180.872],[2.6104,36.5807,232.3903],[2.6282,36.5865,232.0729],[2.6333,36.5868,235.7348],[2.6501,36.5938,258.7104],[2.6571,36.5929,266.3481],[2.6633,36.5946,260.5479],[2.6791,36.6028,254.5489]]]]}}