{"type": "Feature","bbox": [6.1526,35.3912,6.3273,35.5494],"geometry": {"type": "MultiPolygon","coordinates": [[[[6.217,35.512,1125.4799],[6.2148,35.505,1266.6229],[6.2092,35.4997,1246.3574],[6.2043,35.4995,1274.863],[6.1961,35.5039,1381.6891],[6.1897,35.5043,1423.1093],[6.1845,35.5,1457.3174],[6.1802,35.4986,1513.9517],[6.1547,35.4958,1714.1559],[6.1526,35.4913,1714.6382],[6.1534,35.4863,1795.593],[6.159,35.4867,1764.066],[6.1644,35.4835,1733.219],[6.1798,35.485,1695.9337],[6.2065,35.479,1480.217],[6.2315,35.4644,1621.1005],[6.2332,35.4551,1675.6848],[6.2301,35.4407,1754.7981],[6.2364,35.4292,1798.1263],[6.2433,35.4208,1781.1025],[6.2297,35.4075,1546.6938],[6.2189,35.4,1594.3766],[6.215,35.3941,1536.2333],[6.2309,35.3912,1680.1648],[6.2398,35.3981,1667.3376],[6.2448,35.3972,1649.5781],[6.2707,35.4103,1835.6213],[6.2765,35.4103,1854.8075],[6.2707,35.4191,1845.4247],[6.2692,35.4242,1838.3381],[6.2778,35.4306,1712.1346],[6.2772,35.4371,1665.1254],[6.2741,35.4431,1569.6097],[6.2772,35.4538,1390.3044],[6.2814,35.4561,1352.9608],[6.286,35.4559,1352.8323],[6.2904,35.4627,1313.1555],[6.3043,35.471,1281.5979],[6.3176,35.4725,1247.7211],[6.3229,35.4752,1247.5955],[6.3273,35.4783,1230.4664],[6.3268,35.4839,1240.979],[6.3018,35.4845,1254.5189],[6.3037,35.489,1247.0842],[6.3095,35.4948,1221.9989],[6.3059,35.5016,1243.5508],[6.2824,35.5176,1179.4346],[6.2821,35.5304,1140.8513],[6.2843,35.5391,1140.5093],[6.2788,35.5487,1147.2699],[6.2732,35.5494,1135.093],[6.2601,35.5461,1128.3054],[6.2348,35.5427,1102.2817],[6.23,35.5402,1093.2489],[6.217,35.512,1125.4799]]]]}
,"properties": {"GID_2": "DZA.6.55_1","GID_0": "DZA","country": "Algeria","GID_1": "DZA.6_1","province": "Batna","NL_NAME_1": "ولايةباتنة","county": "Tazoult","VARNAME_2": "Tazult","NL_NAME_2": "NA","TYPE_2": "Commune","ENGTYPE_2": "Commune","CC_2": "508","HASC_2": "DZ.BT.TZ","name": "Tazoult.county","area_km2": 102.6069,"hist_schema_id": "Elevation0-9000","hist_area_km2": {"1075": 0.36237,"1100": 6.00478,"1125": 10.80221,"1150": 7.45556,"1175": 8.49218,"1200": 7.06012,"1225": 5.4897,"1250": 5.83537,"1275": 4.41996,"1300": 3.21152,"1325": 2.34826,"1350": 2.55548,"1375": 2.17558,"1400": 1.70939,"1425": 1.83024,"1450": 1.76128,"1475": 2.17585,"1500": 1.81324,"1525": 1.76143,"1550": 1.9343,"1575": 2.02087,"1600": 1.77908,"1625": 2.0038299999999998,"1650": 2.14203,"1675": 1.91735,"1700": 1.76198,"1725": 1.84835,"1750": 1.53747,"1775": 1.98701,"1800": 2.93722,"1825": 2.5744,"1850": 0.84668,"1875": 0.05184}}}