{"type": "Feature","bbox": [4.51,36.5045,4.6466,36.5896],"geometry": {"type": "MultiPolygon","coordinates": [[[[4.6051,36.5051,130.5439],[4.6229,36.5287,122.1762],[4.6338,36.5303,118.9414],[4.6378,36.5334,163.1119],[4.6405,36.5381,154.1189],[4.6427,36.5489,113.6189],[4.6466,36.5555,111.8448],[4.6406,36.5679,142.3325],[4.6295,36.5651,198.9972],[4.6137,36.5653,336.8428],[4.6018,36.5698,475.8175],[4.5926,36.5771,576.6779],[4.5666,36.5848,1160.8954],[4.5603,36.5896,1297.1757],[4.5527,36.5849,1309.0167],[4.5495,36.5798,1287.6335],[4.5454,36.5767,1335.323],[4.5406,36.5768,1317.6086],[4.5314,36.5628,1331.9749],[4.5172,36.5533,1498.4335],[4.5152,36.548,1449.7742],[4.51,36.5435,1485.8625],[4.5204,36.5374,1478.6028],[4.5252,36.5407,1404.9204],[4.5348,36.5367,1144.6989],[4.5459,36.5273,966.9943],[4.5515,36.525,817.5837],[4.5689,36.5265,476.8265],[4.5739,36.5245,435.953],[4.579,36.5194,264.5867],[4.5773,36.5138,286.0534],[4.5992,36.5045,134.2434],[4.6051,36.5051,130.5439]]]]}
,"properties": {"GID_2": "DZA.8.31_1","GID_0": "DZA","country": "Algeria","GID_1": "DZA.8_1","province": "Béjaïa","NL_NAME_1": "بجاية","county": "Ouzzelaguen","VARNAME_2": "Ouzellaguen|Ûz-al-Laqin","NL_NAME_2": "NA","TYPE_2": "Commune","ENGTYPE_2": "Commune","CC_2": "636","HASC_2": "DZ.BJ.OU","name": "Ouzzelaguen.county","area_km2": 61.59122,"hist_schema_id": "Elevation0-9000","hist_area_km2": {"100": 1.26029,"125": 7.2405,"150": 4.63398,"175": 2.23157,"200": 1.7376,"225": 1.58416,"250": 1.72035,"275": 1.85664,"300": 1.3626,"325": 1.32853,"350": 1.20932,"375": 1.12415,"400": 1.19224,"425": 1.073,"450": 1.00491,"475": 0.93676,"500": 1.1582,"525": 1.02188,"550": 1.03897,"575": 1.03897,"600": 1.19223,"625": 1.05602,"650": 1.05598,"675": 0.97086,"700": 1.15822,"725": 0.91972,"750": 0.98786,"775": 0.85157,"800": 0.78349,"825": 0.80049,"850": 0.76642,"875": 0.88565,"900": 0.69829,"925": 0.73236,"950": 0.71528,"975": 0.68123,"1000": 0.64719,"1025": 0.80047,"1050": 0.6642,"1075": 0.90261,"1100": 0.93668,"1125": 0.69823,"1150": 0.78339,"1175": 0.61305,"1200": 0.71524,"1225": 0.54494,"1250": 0.54491,"1275": 0.52791,"1300": 0.52791,"1325": 0.35766,"1350": 0.28954,"1375": 0.2555,"1400": 0.11924,"1425": 0.39177,"1450": 0.76651,"1475": 0.4088,"1500": 0.08517}}}