{"type": "Feature","bbox": [3.2838,36.3042,3.414,36.3907],"geometry": {"type": "MultiPolygon","coordinates": [[[[3.2974,36.3455,468.8889],[3.3025,36.3423,543.6223],[3.304,36.3304,593.8721],[3.3017,36.3186,602.6671],[3.3063,36.3142,651.5952],[3.3394,36.3106,527.3316],[3.3629,36.3042,498.5449],[3.3707,36.3047,446.2048],[3.3903,36.3125,534.0836],[3.3946,36.3122,574.856],[3.3995,36.3089,577.5706],[3.414,36.3174,432.5438],[3.4124,36.3224,456.0716],[3.3965,36.3343,439.1448],[3.3928,36.3396,510.7709],[3.3766,36.3466,522.304],[3.37,36.3579,471.023],[3.3789,36.3643,501.1492],[3.3826,36.3715,602.0291],[3.3804,36.3802,367.4637],[3.3721,36.3834,351.124],[3.3702,36.3898,377.1323],[3.3651,36.3907,365.7635],[3.3607,36.3879,366.1458],[3.3564,36.3898,356.756],[3.3456,36.3894,366.5336],[3.3266,36.3795,373.503],[3.3204,36.3791,391.8208],[3.3061,36.3822,382.8019],[3.2878,36.3807,408.8959],[3.2878,36.3763,406.9868],[3.2846,36.3722,399.9002],[3.2864,36.3668,419.0485],[3.2912,36.3644,427.1974],[3.2838,36.358,444.8303],[3.2854,36.3521,439.7101],[3.2922,36.3507,427.6548],[3.2974,36.3455,468.8889]]]]}
,"properties": {"GID_2": "DZA.28.36_1","GID_0": "DZA","country": "Algeria","GID_1": "DZA.28_1","province": "Médéa","NL_NAME_1": "ولايةالمدية","county": "Mezrenna","VARNAME_2": "NA","NL_NAME_2": "NA","TYPE_2": "Commune","ENGTYPE_2": "Commune","CC_2": "2611","HASC_2": "#N/A","name": "Mezrenna.county","area_km2": 69.72702,"hist_schema_id": "Elevation0-9000","hist_area_km2": {"350": 1.28018,"375": 3.312,"400": 5.34446,"425": 6.14777,"450": 6.95029,"475": 7.44574,"500": 8.09498,"525": 8.24894,"550": 7.73668,"575": 6.69473,"600": 3.91117,"625": 2.61307,"650": 1.34926,"675": 0.52946,"700": 0.03414,"725": 0.03414}}}