{"type":"Feature","properties":{"GID_2":"DZA.21.32_1","GID_0":"DZA","country":"Algeria","GID_1":"DZA.21_1","province":"Guelma","NL_NAME_1":"ولايةقالمة","county":"Roknia","VARNAME_2":"NA","NL_NAME_2":"NA","TYPE_2":"Commune","ENGTYPE_2":"Commune","CC_2":"2428","HASC_2":"DZ.GL.RO","name":"Roknia.county"},
"geometry":{"type": "MultiPolygon","coordinates": [[[[7.2374,36.5049,344.9758],[7.24,36.51,441.9021],[7.2498,36.516,592.5888],[7.2617,36.5194,697.8981],[7.2873,36.5223,966.8643],[7.2916,36.5215,1033.5879],[7.3019,36.5246,1002.6832],[7.3079,36.5344,595.5251],[7.296,36.5591,593.3862],[7.2951,36.5647,540.9011],[7.2913,36.5689,524.0476],[7.2719,36.5807,341.8675],[7.2722,36.5852,353.8571],[7.2817,36.5918,345.1914],[7.2854,36.5989,384.5493],[7.2924,36.6032,406.6258],[7.295,36.6091,348.4976],[7.3068,36.6152,300.3871],[7.3136,36.6225,170.1464],[7.3077,36.6276,217.9062],[7.3026,36.6405,154.1837],[7.3039,36.6523,81.0],[7.3,36.657,83.2501],[7.2959,36.6591,81.0],[7.291,36.6543,81.0],[7.2849,36.6359,82.1831],[7.2702,36.625,95.7631],[7.2622,36.6228,91.4643],[7.2585,36.6197,95.3919],[7.2394,36.6193,108.5851],[7.2281,36.6138,112.5929],[7.2185,36.6133,153.39],[7.1956,36.6059,349.1766],[7.1859,36.5988,504.529],[7.1757,36.5997,497.4945],[7.1669,36.5973,610.9682],[7.1634,36.6021,639.9044],[7.1508,36.6016,655.457],[7.1445,36.5975,600.1987],[7.14,36.5921,610.9761],[7.1355,36.5899,631.6559],[7.1229,36.586,616.8763],[7.0984,36.5818,657.2305],[7.0915,36.5744,732.5533],[7.0856,36.5716,771.5699],[7.0806,36.5662,745.6384],[7.0744,36.5624,788.2762],[7.0773,36.5561,667.5734],[7.0746,36.5523,757.2051],[7.0679,36.551,809.051],[7.066,36.5458,855.5206],[7.0685,36.5347,726.0419],[7.0875,36.52,966.1571],[7.0855,36.5069,1184.4081],[7.1034,36.5055,1030.3059],[7.1237,36.5102,952.6672],[7.1569,36.5133,766.227],[7.1583,36.5187,652.0998],[7.1631,36.5228,553.9302],[7.1695,36.5224,574.14],[7.1877,36.5138,407.0514],[7.2151,36.5127,341.4715],[7.2236,36.5059,347.007],[7.2374,36.5049,344.9758]]]]}}