{"type": "Feature","bbox": [-1.0829,35.4667,-0.9565,35.6087],"geometry": {"type": "MultiPolygon","coordinates": [[[[-1.0829,35.5778,199.062],[-1.067,35.5631,187.5015],[-1.0622,35.5555,258.1157],[-1.0549,35.5483,190.7663],[-1.0423,35.5409,164.7186],[-1.0397,35.5344,123.4671],[-1.0412,35.5278,109.4923],[-1.0396,35.5137,111.9097],[-1.0413,35.5082,109.2712],[-1.0512,35.5041,133.0214],[-1.0564,35.4952,163.4707],[-1.0595,35.4776,238.9408],[-1.0626,35.4722,229.5922],[-1.0581,35.4703,208.2113],[-1.0475,35.4713,204.0753],[-1.0175,35.4667,81.0],[-1.0137,35.4828,81.0],[-1.018,35.4949,82.0025],[-1.0156,35.5067,85.4477],[-0.9965,35.5058,82.9323],[-0.9881,35.5072,81.0],[-0.9734,35.5172,81.0],[-0.9672,35.5353,81.0],[-0.9587,35.5408,81.8475],[-0.9565,35.5566,106.257],[-0.9632,35.5656,193.3044],[-0.9698,35.5657,221.8787],[-0.9967,35.5583,202.0668],[-1.002,35.5584,205.2953],[-0.9984,35.5651,196.9576],[-0.9948,35.5824,171.053],[-1.007,35.5878,166.3665],[-1.0132,35.5967,158.3333],[-1.0216,35.5995,140.998],[-1.0282,35.6087,137.9784],[-1.0399,35.6058,180.1695],[-1.0567,35.5969,301.2079],[-1.0648,35.5969,245.9854],[-1.0719,35.5949,206.9582],[-1.0801,35.5879,228.6468],[-1.0802,35.5827,211.3957],[-1.0829,35.5778,199.062]]]]}
,"properties": {"GID_2": "DZA.3.11_1","GID_0": "DZA","country": "Algeria","GID_1": "DZA.3_1","province": "AïnTémouchent","NL_NAME_1": "ولايةعينتموشنت","county": "ElAmria","VARNAME_2": "al-Amriyah","NL_NAME_2": "NA","TYPE_2": "Commune","ENGTYPE_2": "Commune","CC_2": "4619","HASC_2": "DZ.AT.EA","name": "El_Amria.county","area_km2": 88.88122,"hist_schema_id": "Elevation0-9000","hist_area_km2": {"75": 9.69893,"100": 16.08403,"125": 8.31723,"150": 9.03995,"175": 9.72954,"200": 8.79741,"225": 10.98772,"250": 7.03607,"275": 5.2765,"300": 3.60351,"325": 0.31033}}}