{"type":"Feature","properties":{"GID_2":"DZA.21.26_1","GID_0":"DZA","country":"Algeria","GID_1":"DZA.21_1","province":"Guelma","NL_NAME_1":"ولايةقالمة","county":"MedjazSfa","VARNAME_2":"MedjezSfa","NL_NAME_2":"NA","TYPE_2":"Commune","ENGTYPE_2":"Commune","CC_2":"2430","HASC_2":"DZ.GL.MS","name":"Medjaz_Sfa.county"},
"geometry":{"type": "MultiPolygon","coordinates": [[[[7.9399,36.4917,649.0911],[7.9228,36.4889,626.9298],[7.9091,36.4909,693.2169],[7.9059,36.4943,713.8707],[7.9002,36.494,718.2368],[7.8774,36.4994,703.4567],[7.862,36.4891,613.2714],[7.8515,36.4849,537.95],[7.8345,36.4821,585.9439],[7.828,36.4784,409.0398],[7.8209,36.478,438.9023],[7.8015,36.4847,564.2254],[7.7922,36.4911,443.1289],[7.7669,36.4757,159.5662],[7.7624,36.4621,219.113],[7.7519,36.4538,287.3453],[7.7457,36.4501,158.2703],[7.7338,36.4506,154.4769],[7.7268,36.4479,116.8043],[7.7314,36.4376,223.5225],[7.7297,36.4318,284.5925],[7.7153,36.4286,194.7544],[7.7077,36.4122,405.4967],[7.7065,36.4048,412.0997],[7.7193,36.4023,472.5203],[7.7695,36.4128,194.1631],[7.7745,36.4154,300.8951],[7.7776,36.4207,169.8744],[7.7824,36.4203,205.7969],[7.7878,36.4167,304.3011],[7.7938,36.4026,457.2507],[7.7997,36.3996,441.9343],[7.8034,36.3929,410.0364],[7.8118,36.3928,326.2795],[7.8121,36.4066,262.0934],[7.8214,36.423,248.9051],[7.8376,36.4205,376.3254],[7.8543,36.4108,628.0526],[7.8679,36.4065,797.0089],[7.8754,36.4158,560.6446],[7.8808,36.4168,510.6489],[7.8851,36.4203,416.4652],[7.8876,36.4259,397.7471],[7.9017,36.4356,430.3768],[7.9217,36.4401,491.9568],[7.9403,36.4553,483.0654],[7.9548,36.4586,537.6424],[7.9614,36.4618,531.9812],[7.9399,36.4917,649.0911]]]]}}