{"type": "Feature","bbox": [4.3488,35.2048,4.6088,35.4181],"geometry": {"type": "MultiPolygon","coordinates": [[[[4.4119,35.4176,395.98],[4.3943,35.393,397.3366],[4.3816,35.3432,416.8592],[4.3488,35.2814,454.5721],[4.3823,35.2739,449.6175],[4.3934,35.2759,450.834],[4.4158,35.2623,458.5214],[4.4269,35.2541,465.0828],[4.4334,35.2385,478.1424],[4.4329,35.2264,492.2406],[4.4359,35.2212,503.5573],[4.4414,35.219,506.2273],[4.4488,35.2193,518.2656],[4.4543,35.2166,522.1829],[4.4765,35.2119,553.9744],[4.4896,35.2114,558.0605],[4.5111,35.2048,603.5548],[4.5174,35.2053,616.6868],[4.5392,35.2185,572.0589],[4.5494,35.2211,599.7212],[4.5654,35.2303,533.8508],[4.5927,35.2301,519.831],[4.6002,35.2322,521.3225],[4.6088,35.2416,772.6896],[4.5885,35.2939,457.4729],[4.5942,35.2972,439.0797],[4.5967,35.305,438.0342],[4.5965,35.3482,396.3917],[4.6,35.3507,393.165],[4.5852,35.3647,393.8011],[4.5823,35.3705,392.9916],[4.5645,35.3847,393.1716],[4.5573,35.3939,393.2875],[4.5341,35.393,393.574],[4.5238,35.3946,393.6967],[4.4956,35.4016,394.0242],[4.449,35.4181,395.2322],[4.4119,35.4176,395.98]]]]}
,"properties": {"GID_2": "DZA.26.21_1","GID_0": "DZA","country": "Algeria","GID_1": "DZA.26_1","province": "M'Sila","NL_NAME_1": "ولايةالمسيلة","county": "Khoubana","VARNAME_2": "NA","NL_NAME_2": "NA","TYPE_2": "Commune","ENGTYPE_2": "Commune","CC_2": "2807","HASC_2": "DZ.MS.KH","name": "Khoubana.county","area_km2": 378.3277,"hist_schema_id": "Elevation0-9000","hist_area_km2": {"400": 127.8159,"425": 53.7984,"450": 94.6414,"475": 12.4639,"500": 11.2012,"525": 9.8351,"550": 15.8103,"575": 13.6795,"600": 9.7831,"625": 8.502,"650": 6.6839,"675": 6.5109,"700": 2.8401,"725": 1.3681,"750": 0.7447,"775": 0.6061,"800": 0.3463,"825": 0.5368,"850": 0.5541,"875": 0.5195,"900": 0.0866}}}