{"type": "Feature","bbox": [-0.2398,35.2305,0.0031,35.3763],"geometry": {"type": "MultiPolygon","coordinates": [[[[0.0008,35.2614,619.2737],[0.0016,35.267,682.04],[0.0004,35.2723,679.0958],[-0.0096,35.2778,534.0312],[-0.0126,35.2823,478.6409],[-0.019,35.2862,422.5471],[-0.0252,35.287,379.2887],[-0.0313,35.2903,357.507],[-0.0218,35.2962,374.5161],[-0.0217,35.3007,438.3581],[-0.0239,35.305,334.2173],[-0.0221,35.3111,383.2343],[-0.0108,35.3323,301.975],[-0.0109,35.3486,350.5302],[-0.0095,35.3535,291.1328],[-0.0018,35.3622,319.4134],[-0.0046,35.3663,301.4081],[-0.0043,35.3726,442.14],[-0.0087,35.3758,344.8593],[-0.0199,35.3688,257.433],[-0.0411,35.3667,188.3559],[-0.0578,35.3684,268.7492],[-0.1082,35.3654,661.8633],[-0.1268,35.3707,552.8891],[-0.1397,35.3763,592.222],[-0.1477,35.3763,700.1695],[-0.1507,35.3661,669.458],[-0.1598,35.3558,659.1784],[-0.1597,35.3464,783.2932],[-0.1704,35.3431,670.3095],[-0.1694,35.3384,752.9398],[-0.1631,35.3369,791.0777],[-0.1629,35.3301,733.4076],[-0.1735,35.32,687.4926],[-0.177,35.3122,672.9373],[-0.1784,35.3001,688.3833],[-0.1841,35.2969,681.3174],[-0.1946,35.2867,693.0325],[-0.2096,35.2836,723.7152],[-0.2218,35.2848,754.6312],[-0.229,35.2731,732.5947],[-0.2388,35.266,758.5762],[-0.2398,35.2617,734.2005],[-0.2385,35.2571,707.025],[-0.2298,35.2449,602.88],[-0.2245,35.2448,559.9091],[-0.2191,35.2468,552.8658],[-0.2149,35.2549,578.5142],[-0.2016,35.2598,588.5016],[-0.1981,35.2634,603.7964],[-0.192,35.2635,585.8828],[-0.1806,35.2673,537.4193],[-0.1773,35.2748,550.6671],[-0.1701,35.283,566.4958],[-0.1499,35.2833,441.8767],[-0.1398,35.2793,432.9101],[-0.1288,35.2719,378.6403],[-0.1304,35.2677,372.2264],[-0.1285,35.2628,406.5952],[-0.1081,35.258,439.2425],[-0.0867,35.2487,295.5894],[-0.0669,35.2445,385.5511],[-0.0443,35.234,489.1668],[-0.0416,35.2305,518.453],[-0.0359,35.2311,526.4631],[-0.0316,35.2351,589.6901],[-0.0165,35.2394,650.6697],[-0.0116,35.2438,691.2283],[-0.0059,35.2452,658.9877],[0.0009,35.2513,664.5987],[0.0031,35.2563,557.394],[0.0008,35.2614,619.2737]]]]}
,"properties": {"GID_2": "DZA.27.9_1","GID_0": "DZA","country": "Algeria","GID_1": "DZA.27_1","province": "Mascara","NL_NAME_1": "ولايةمعسكر","county": "Bouhanifia","VARNAME_2": "BūKhanifiyāh","NL_NAME_2": "NA","TYPE_2": "Commune","ENGTYPE_2": "Commune","CC_2": "2902","HASC_2": "DZ.MC.BO","name": "Bouhanifia.county","area_km2": 199.2058,"hist_schema_id": "Elevation0-9000","hist_area_km2": {"200": 4.3406,"225": 7.9564,"250": 10.2405,"275": 14.6896,"300": 13.8763,"325": 15.0189,"350": 14.3446,"375": 14.1552,"400": 10.9713,"425": 9.6733,"450": 8.808,"475": 6.7483,"500": 6.3674,"525": 6.1422,"550": 6.5231,"575": 6.9727,"600": 7.6655,"625": 8.6002,"650": 8.5657,"675": 7.4757,"700": 5.0703,"725": 2.8547,"750": 1.6437,"775": 0.3805,"800": 0.1211}}}