{"type":"Feature","properties":{"GID_2":"DZA.32.7_1","GID_0":"DZA","country":"Algeria","GID_1":"DZA.32_1","province":"Oran","NL_NAME_1":"ولايةوهران","county":"BirElDjir","VARNAME_2":"Bi`r-al-Jir","NL_NAME_2":"NA","TYPE_2":"Commune-Cotiere","ENGTYPE_2":"Commune-Cotiere","CC_2":"3103","HASC_2":"DZ.OR.BD","name":"Bir_El_Djir.county"},
"geometry":{"type": "MultiPolygon","coordinates": [[[[-0.5103,35.7148,130.5726],[-0.5195,35.7258,167.2543],[-0.5173,35.7306,179.3979],[-0.5222,35.7359,179.9968],[-0.5181,35.7389,189.815],[-0.5175,35.745,202.1573],[-0.5132,35.7489,222.4331],[-0.5104,35.7546,260.3032],[-0.515,35.7592,327.9173],[-0.5183,35.767,270.0136],[-0.5135,35.773,117.2833],[-0.5176,35.7765,13.2321],[-0.5264,35.7703,15.864],[-0.5362,35.7669,15.442],[-0.547,35.7697,1.003],[-0.5524,35.7744,70.3424],[-0.5598,35.7708,35.9028],[-0.553,35.7671,191.5681],[-0.5505,35.7512,201.6604],[-0.5825,35.7288,156.9656],[-0.5831,35.7206,174.9769],[-0.5941,35.7149,170.8235],[-0.5946,35.7044,134.5791],[-0.5933,35.6976,127.3499],[-0.5847,35.6964,120.4628],[-0.5726,35.696,128.7276],[-0.5635,35.6984,129.3449],[-0.5429,35.6975,110.1997],[-0.5371,35.6998,111.91],[-0.5321,35.7042,122.6196],[-0.5318,35.7097,128.5534],[-0.5103,35.7148,130.5726]]]]}}