{"type": "Feature","bbox": [3.0984,36.0578,3.3739,36.1694],"geometry": {"type": "MultiPolygon","coordinates": [[[[3.2673,36.1694,755.6934],[3.2658,36.1572,833.1194],[3.261,36.1549,935.8915],[3.2413,36.1592,911.7765],[3.2273,36.1352,1055.3442],[3.2225,36.1325,972.9789],[3.2089,36.1278,926.9934],[3.1949,36.1252,878.4503],[3.1888,36.1258,760.8196],[3.1823,36.1231,686.7881],[3.1829,36.1189,692.5595],[3.1792,36.1155,677.7303],[3.1838,36.1126,695.6559],[3.1849,36.1075,732.9333],[3.1739,36.1029,704.2668],[3.1747,36.0967,717.6267],[3.1682,36.099,742.2056],[3.1586,36.1074,754.1049],[3.1523,36.1077,738.8781],[3.1414,36.111,759.3181],[3.1356,36.1168,837.8975],[3.1332,36.1217,891.3558],[3.1232,36.123,910.8061],[3.1033,36.1226,918.3224],[3.0991,36.1174,912.6429],[3.0984,36.1112,840.8649],[3.1012,36.1064,824.9635],[3.1151,36.0964,819.6445],[3.119,36.0911,845.8298],[3.1303,36.0882,886.1391],[3.1328,36.092,889.7317],[3.1478,36.0844,829.4862],[3.153,36.084,818.8147],[3.1621,36.0767,778.3859],[3.1696,36.075,732.8594],[3.1702,36.069,740.1891],[3.1683,36.0647,770.5948],[3.1717,36.0601,839.4369],[3.185,36.0578,753.5222],[3.193,36.0584,745.5901],[3.191,36.0695,728.0856],[3.1944,36.0737,732.571],[3.2025,36.0713,789.3572],[3.2088,36.0716,819.6899],[3.2141,36.0684,891.7531],[3.2216,36.0692,844.4392],[3.2266,36.0715,859.3771],[3.2292,36.0762,801.4085],[3.2303,36.0826,761.4633],[3.2362,36.0831,782.5654],[3.2432,36.0814,789.6668],[3.2564,36.0741,825.9769],[3.2707,36.0699,833.0482],[3.2821,36.0828,936.8382],[3.3079,36.0988,867.0184],[3.3189,36.1157,855.3285],[3.3198,36.1203,869.1739],[3.3249,36.1198,828.5927],[3.3276,36.115,904.6765],[3.3334,36.119,842.4312],[3.3393,36.1158,863.4698],[3.346,36.1168,870.2374],[3.3509,36.1126,891.1598],[3.3596,36.1175,831.9885],[3.3625,36.114,820.3698],[3.3739,36.1229,811.8906],[3.3541,36.1445,713.3036],[3.3432,36.1475,715.0969],[3.3441,36.1517,744.5225],[3.3484,36.1567,722.1501],[3.3435,36.1611,746.0802],[3.3408,36.166,708.1705],[3.3286,36.1638,810.2878],[3.318,36.1658,785.4847],[3.294,36.163,864.3846],[3.2846,36.1636,796.2118],[3.2673,36.1694,755.6934]]]]}
,"properties": {"GID_2": "DZA.28.58_1","GID_0": "DZA","country": "Algeria","GID_1": "DZA.28_1","province": "Médéa","NL_NAME_1": "ولايةالمدية","county": "Souagui","VARNAME_2": "NA","NL_NAME_2": "NA","TYPE_2": "Commune","ENGTYPE_2": "Commune","CC_2": "2633","HASC_2": "DZ.MD.SO","name": "Souagui.county","area_km2": 137.8627,"hist_schema_id": "Elevation0-9000","hist_area_km2": {"675": 0.5821,"700": 3.6826,"725": 11.0323,"750": 13.3783,"775": 14.9019,"800": 17.7779,"825": 17.9659,"850": 16.1163,"875": 12.2114,"900": 9.266,"925": 6.8853,"950": 5.224,"975": 3.8711,"1000": 2.7064,"1025": 1.1819,"1050": 0.7194,"1075": 0.3083,"1100": 0.0514}}}