{"type":"Feature","properties":{"GID_2":"DZA.16.36_1","GID_0":"DZA","country":"Algeria","GID_1":"DZA.16_1","province":"Djelfa","NL_NAME_1":"ولايةالجلفة","county":"Zaccar","VARNAME_2":"Zakkar","NL_NAME_2":"NA","TYPE_2":"Commune","ENGTYPE_2":"Commune","CC_2":"1710","HASC_2":"DZ.DJ.ZC","name":"Zaccar.county"},
"geometry":{"type": "MultiPolygon","coordinates": [[[[3.303,34.3319,1093.5912],[3.3272,34.3276,1137.3574],[3.3287,34.3317,1148.6243],[3.3278,34.369,1110.45],[3.3546,34.4013,1132.2045],[3.3603,34.416,1100.4222],[3.3787,34.4375,1157.3257],[3.397,34.4668,1161.6295],[3.4062,34.4881,1224.0258],[3.4122,34.4964,1268.7717],[3.4204,34.5046,1322.5216],[3.4509,34.5217,1076.1458],[3.4499,34.5408,1139.3699],[3.4476,34.5451,1123.2926],[3.4293,34.564,1218.2103],[3.4237,34.5723,1273.37],[3.4154,34.5792,1288.8748],[3.3779,34.6029,1282.3057],[3.3293,34.5606,1291.6388],[3.3158,34.5541,1277.2317],[3.3107,34.5444,1288.5739],[3.3068,34.5407,1282.4808],[3.311,34.5342,1303.1118],[3.3123,34.5145,1311.3135],[3.3114,34.5039,1287.3612],[3.316,34.4864,1296.9551],[3.3046,34.4758,1272.4712],[3.2991,34.4667,1269.0261],[3.2902,34.4604,1265.9365],[3.2764,34.4553,1270.1718],[3.2477,34.4513,1196.8019],[3.2488,34.445,1178.6781],[3.2524,34.4392,1166.5101],[3.2696,34.4408,1165.7535],[3.2748,34.44,1156.1041],[3.2832,34.4167,1121.8971],[3.3015,34.3902,1080.4811],[3.3025,34.3847,1075.4709],[3.2983,34.3798,1064.5481],[3.2923,34.3617,1046.6733],[3.3017,34.35,1101.0437],[3.303,34.3319,1093.5912]]]]}}