{"type": "Feature","bbox": [-1.0132,35.1842,-0.8571,35.3104],"geometry": {"type": "MultiPolygon","coordinates": [[[[-0.9909,35.2452,281.3291],[-0.9858,35.2472,312.4144],[-0.9597,35.2435,339.322],[-0.9276,35.2262,403.0329],[-0.9235,35.2168,415.3083],[-0.9254,35.2074,432.9312],[-0.9241,35.1905,487.9843],[-0.922,35.1842,524.1889],[-0.8975,35.1868,625.5762],[-0.8927,35.1892,597.9313],[-0.8955,35.1955,617.0529],[-0.8946,35.2015,617.8983],[-0.885,35.2042,649.7452],[-0.8847,35.2096,637.3208],[-0.8907,35.2206,651.2078],[-0.8917,35.2266,655.0377],[-0.8973,35.2299,576.9432],[-0.901,35.2345,475.4676],[-0.9011,35.2394,423.6425],[-0.9037,35.2441,435.6987],[-0.9042,35.2622,364.2303],[-0.9004,35.2659,374.8344],[-0.8885,35.2572,447.6875],[-0.8822,35.2553,523.0239],[-0.8741,35.2597,521.1628],[-0.8748,35.2706,484.4157],[-0.8731,35.2772,439.5059],[-0.8644,35.2853,373.8765],[-0.8621,35.2916,353.89],[-0.8571,35.2971,350.2809],[-0.8584,35.3019,418.692],[-0.8619,35.306,452.2654],[-0.8676,35.3077,403.6112],[-0.8769,35.3051,390.0467],[-0.8834,35.3053,338.574],[-0.8966,35.3104,292.7068],[-0.8952,35.3044,306.4863],[-0.8987,35.2955,326.8097],[-0.9004,35.2839,361.4295],[-0.9043,35.2817,352.0861],[-0.9196,35.2843,326.4122],[-0.9444,35.2914,239.6744],[-0.9745,35.2942,248.2685],[-0.9849,35.2975,217.8933],[-1.0029,35.2958,198.7404],[-1.0025,35.2914,206.0314],[-1.005,35.2866,221.4545],[-1.0097,35.2837,212.4917],[-1.0094,35.2783,221.2579],[-1.0132,35.2737,227.3929],[-1.012,35.2668,237.3],[-1.0076,35.2595,245.6564],[-1.0025,35.2578,263.9497],[-1.0003,35.2534,264.5149],[-0.9909,35.2452,281.3291]]]]}
,"properties": {"GID_2": "DZA.3.16_1","GID_0": "DZA","country": "Algeria","GID_1": "DZA.3_1","province": "AïnTémouchent","NL_NAME_1": "ولايةعينتموشنت","county": "Hassasna","VARNAME_2": "NA","NL_NAME_2": "NA","TYPE_2": "Commune","ENGTYPE_2": "Commune","CC_2": "4621","HASC_2": "DZ.AT.HA","name": "Hassasna.county","area_km2": 85.97534,"hist_schema_id": "Elevation0-9000","hist_area_km2": {"200": 0.24227,"225": 2.50943,"250": 4.58638,"275": 6.14456,"300": 5.74679,"325": 6.11044,"350": 6.90673,"375": 7.47828,"400": 7.91157,"425": 7.80804,"450": 7.79108,"475": 5.69667,"500": 4.38098,"525": 3.60227,"550": 2.59825,"575": 2.39056,"600": 1.92295,"625": 1.05676,"650": 0.90077,"675": 0.19055}}}