{"type": "Feature","bbox": [3.3708,34.5696,3.9211,34.8675],"geometry": {"type": "MultiPolygon","coordinates": [[[[3.3718,34.7641,1189.2357],[3.4,34.759,1190.5691],[3.4189,34.7461,1178.2075],[3.4402,34.7503,1162.8999],[3.4526,34.7548,1157.9053],[3.4748,34.7344,1134.1954],[3.4858,34.7162,1194.0178],[3.4883,34.6988,1258.567],[3.4925,34.686,1233.9321],[3.4949,34.6529,1240.2739],[3.4987,34.6447,1255.755],[3.5025,34.64,1254.4764],[3.5279,34.6232,1264.338],[3.5434,34.6014,1195.2847],[3.5497,34.5955,1217.7905],[3.5686,34.6056,1248.4841],[3.617,34.6198,1242.4087],[3.6289,34.6119,1232.5001],[3.6466,34.5951,1202.3281],[3.6742,34.582,1159.8065],[3.6938,34.5696,1143.736],[3.7108,34.5725,1138.7311],[3.7135,34.579,1123.2],[3.7146,34.5889,1126.1866],[3.692,34.599,1157.7222],[3.6762,34.6131,1197.5012],[3.6779,34.6228,1224.0726],[3.6834,34.6283,1232.2544],[3.6892,34.6391,1275.6906],[3.6928,34.6428,1215.3992],[3.7173,34.636,1196.6736],[3.7228,34.6154,1147.3157],[3.7478,34.5993,1116.5076],[3.763,34.5942,1111.1267],[3.8157,34.6063,1067.8098],[3.8295,34.603,1052.2224],[3.8536,34.6001,1063.1737],[3.9211,34.6021,1062.1788],[3.9006,34.6612,1022.7148],[3.8913,34.7665,1232.2444],[3.8225,34.7811,1205.322],[3.8081,34.7798,1242.7122],[3.727,34.7903,1130.251],[3.7077,34.8083,1172.4441],[3.6986,34.8071,1200.3279],[3.6571,34.7887,1160.4679],[3.6409,34.7906,1210.0458],[3.6386,34.8021,1266.377],[3.6496,34.7999,1261.1353],[3.6395,34.8224,1214.2822],[3.6353,34.8272,1185.8171],[3.6301,34.8407,1145.7944],[3.6225,34.8439,1166.7498],[3.6264,34.8489,1174.0886],[3.6355,34.8549,1176.468],[3.6107,34.8671,1090.8616],[3.5681,34.8675,1227.8783],[3.5243,34.845,1180.5856],[3.5049,34.8367,1168.9956],[3.4934,34.8335,1153.662],[3.4705,34.8059,1124.4773],[3.4747,34.8,1112.0304],[3.4632,34.8047,1119.774],[3.4447,34.8068,1138.5516],[3.4191,34.8015,1155.4313],[3.3722,34.7774,1179.8451],[3.3708,34.7689,1175.9751],[3.3718,34.7641,1189.2357]]]]}
,"properties": {"GID_2": "DZA.16.26_1","GID_0": "DZA","country": "Algeria","GID_1": "DZA.16_1","province": "Djelfa","NL_NAME_1": "ولايةالجلفة","county": "M'Liliha","VARNAME_2": "Mliliha","NL_NAME_2": "NA","TYPE_2": "Commune","ENGTYPE_2": "Commune","CC_2": "1713","HASC_2": "DZ.DJ.ML","name": "M'Liliha.county","area_km2": 911.0023,"hist_schema_id": "Elevation0-9000","hist_area_km2": {"1025": 23.9111,"1050": 58.8331,"1075": 36.3731,"1100": 76.6663,"1125": 192.4256,"1150": 152.6868,"1175": 91.0364,"1200": 64.0656,"1225": 71.5798,"1250": 61.2064,"1275": 32.7495,"1300": 17.055,"1325": 9.1721,"1350": 6.7128,"1375": 5.7712,"1400": 5.0737,"1425": 3.5568,"1450": 1.7435,"1475": 0.3662,"1500": 0.0174}}}