{"type": "Feature","bbox": [6.7112,34.8426,7.1653,35.1794],"geometry": {"type": "MultiPolygon","coordinates": [[[[6.7112,34.8426,229.7577],[6.7258,34.843,253.6855],[6.7303,34.846,299.4766],[6.7346,34.8561,372.925],[6.7495,34.8703,456.7666],[6.7555,34.8802,604.0847],[6.76,34.8836,673.9695],[6.7723,34.9058,688.294],[6.7821,34.91,733.6036],[6.7884,34.9215,872.418],[6.8005,34.936,1028.7131],[6.8099,34.938,1095.6073],[6.8253,34.9535,1317.5964],[6.8335,34.9572,1353.2815],[6.8367,34.9613,1381.2178],[6.8409,34.9765,1591.7737],[6.8555,34.9989,1788.6675],[6.8613,35.001,1729.8911],[6.877,35.0174,1660.6576],[6.898,35.0329,1555.1355],[6.9135,35.0319,1432.5574],[6.9266,35.0277,1355.0229],[6.9319,35.0274,1323.8379],[6.9373,35.0291,1310.3668],[6.9512,35.0264,1249.6121],[6.9694,35.0352,1195.8535],[6.9757,35.0369,1177.2437],[6.9811,35.0357,1171.0728],[6.9846,35.0399,1175.738],[6.9856,35.0443,1194.7382],[6.9943,35.0596,1208.6732],[7.0042,35.0699,1184.4348],[7.0033,35.0752,1206.0426],[6.9978,35.0837,1308.7327],[7.0046,35.0879,1267.8633],[7.0062,35.0938,1270.6987],[7.0045,35.0984,1224.8375],[7.0188,35.1016,1312.3643],[7.0379,35.1084,1363.7437],[7.0545,35.1111,1406.1516],[7.0802,35.1228,1370.2761],[7.0887,35.1215,1273.986],[7.0989,35.114,1219.7223],[7.0878,35.0933,1197.702],[7.0975,35.0929,1218.2332],[7.1035,35.0906,1220.0846],[7.1092,35.0911,1221.8743],[7.1271,35.0963,1213.6464],[7.1393,35.1024,1201.5281],[7.1449,35.101,1181.3682],[7.1513,35.1022,1185.4137],[7.1548,35.1046,1201.6948],[7.1575,35.1102,1199.7463],[7.1637,35.1151,1252.5708],[7.1653,35.1201,1216.6626],[7.1431,35.1351,1225.5554],[7.1238,35.1568,1211.2974],[7.112,35.1615,1163.7559],[7.0828,35.1645,1049.0613],[7.0693,35.1674,1020.6702],[7.0629,35.1701,999.2819],[7.0533,35.1772,954.0847],[7.0463,35.1794,939.0],[7.0291,35.1703,939.0],[7.0211,35.1627,925.1816],[7.0151,35.1614,906.6571],[7.008,35.1556,901.7249],[7.0055,35.1517,892.1987],[6.9966,35.1472,887.1517],[6.9917,35.1397,884.1483],[6.984,35.1353,866.6566],[6.9794,35.1255,866.9756],[6.9751,35.1214,862.6783],[6.9697,35.1174,849.5431],[6.9649,35.1172,848.22],[6.9534,35.1092,840.1845],[6.9492,35.1078,834.6654],[6.9461,35.1127,841.4927],[6.9459,35.1184,847.9197],[6.9386,35.1204,858.4584],[6.9258,35.1179,838.8518],[6.9186,35.1282,856.8719],[6.913,35.1295,846.5571],[6.9072,35.1271,871.3862],[6.9014,35.1131,877.516],[6.8974,35.1078,879.3344],[6.8873,35.0991,860.5944],[6.8677,35.0888,839.3711],[6.8669,35.083,826.9776],[6.8701,35.0767,798.9412],[6.8694,35.0723,792.0259],[6.8568,35.0654,761.0913],[6.8353,35.0733,799.6612],[6.8221,35.0738,907.8988],[6.8015,35.0694,823.6265],[6.7626,35.057,828.6198],[6.7561,35.0585,780.9515],[6.7494,35.0579,872.0878],[6.7462,35.0387,699.5286],[6.7529,35.0249,650.2477],[6.7527,35.0196,659.8866],[6.746,35.0053,561.0816],[6.7425,35.0016,545.5622],[6.7248,34.9995,645.5705],[6.7198,34.9976,718.3397],[6.7226,34.9812,524.1299],[6.7221,34.9764,460.1778],[6.7186,34.9727,494.5777],[6.7201,34.9675,545.2495],[6.7345,34.9598,642.0095],[6.7431,34.9531,814.4866],[6.7433,34.9295,925.2421],[6.7384,34.9197,1032.1748],[6.7316,34.8977,916.6773],[6.7296,34.8819,762.0896],[6.7311,34.8769,692.0432],[6.7276,34.864,536.204],[6.728,34.8569,471.7361],[6.7112,34.8426,229.7577]]]]}
,"properties": {"GID_2": "DZA.24.14_1","GID_0": "DZA","country": "Algeria","GID_1": "DZA.24_1","province": "Khenchela","NL_NAME_1": "ولايةخنشلة","county": "Khirane","VARNAME_2": "NA","NL_NAME_2": "NA","TYPE_2": "Commune","ENGTYPE_2": "Commune","CC_2": "4020","HASC_2": "DZ.KH.KR","name": "Khirane.county","area_km2": 382.6494,"hist_schema_id": "Elevation0-9000","hist_area_km2": {"200": 0.0174,"225": 0.1392,"250": 0.174,"275": 0.2262,"300": 0.2784,"325": 0.348,"350": 0.261,"375": 0.2784,"400": 0.2436,"425": 0.3827,"450": 0.7131,"475": 1.1993,"500": 1.6683,"525": 2.8498,"550": 3.0752,"575": 3.1794,"600": 4.3604,"625": 5.1419,"650": 5.5762,"675": 6.1327,"700": 6.9829,"725": 7.8509,"750": 9.4127,"775": 11.2689,"800": 16.0069,"825": 20.8804,"850": 18.3461,"875": 15.0145,"900": 14.6143,"925": 13.6242,"950": 15.1828,"975": 14.1257,"1000": 12.9453,"1025": 11.9894,"1050": 10.2023,"1075": 10.0987,"1100": 8.0167,"1125": 6.282,"1150": 5.6923,"1175": 8.2772,"1200": 15.702,"1225": 18.8747,"1250": 12.8915,"1275": 10.3769,"1300": 8.8686,"1325": 8.3129,"1350": 6.3002,"1375": 5.1718,"1400": 4.7389,"1425": 3.3854,"1450": 3.0209,"1475": 2.5869,"1500": 2.3787,"1525": 1.8925,"1550": 1.1287,"1575": 0.8856,"1600": 0.3994,"1625": 0.4342,"1650": 0.4863,"1675": 0.4168,"1700": 0.2605,"1725": 0.33,"1750": 0.4515,"1775": 0.2258,"1800": 0.0695}}}