{"type": "Feature","bbox": [0.3436,35.8017,0.4697,35.9302],"geometry": {"type": "MultiPolygon","coordinates": [[[[0.3953,35.8018,160.9198],[0.405,35.8017,123.3191],[0.4089,35.8059,146.0128],[0.4064,35.811,174.9741],[0.4079,35.8181,236.2446],[0.413,35.8159,214.4899],[0.4218,35.8201,223.8298],[0.4332,35.8362,385.7524],[0.4389,35.8407,430.0469],[0.4447,35.8418,422.169],[0.453,35.85,369.4057],[0.4549,35.8558,400.2111],[0.4621,35.8634,355.5229],[0.4632,35.8686,361.8164],[0.4621,35.8731,413.3726],[0.4463,35.8836,254.8658],[0.4697,35.9043,173.2504],[0.4655,35.91,148.2592],[0.4637,35.9175,121.0349],[0.4691,35.9224,107.1024],[0.4559,35.9252,145.6482],[0.4443,35.9213,225.2048],[0.4399,35.9221,265.0913],[0.4394,35.9264,289.4437],[0.4356,35.9302,341.4984],[0.4237,35.9189,362.3157],[0.4181,35.9094,378.8299],[0.411,35.905,387.4651],[0.3991,35.9039,296.9904],[0.3825,35.8987,281.504],[0.3762,35.8952,309.4261],[0.368,35.8821,308.3521],[0.3577,35.8794,294.1899],[0.348,35.8733,295.0819],[0.3502,35.8635,325.952],[0.3534,35.8589,354.9427],[0.348,35.8589,320.281],[0.3475,35.8535,342.1434],[0.3438,35.8449,345.8279],[0.3436,35.8371,350.0363],[0.348,35.8336,393.745],[0.349,35.8289,418.2806],[0.3599,35.8296,420.4743],[0.3662,35.8277,402.1974],[0.366,35.8222,418.5719],[0.3699,35.8177,411.5044],[0.3823,35.8114,214.4117],[0.3892,35.8035,174.0961],[0.3953,35.8018,160.9198]]]]}
,"properties": {"GID_2": "DZA.30.22_1","GID_0": "DZA","country": "Algeria","GID_1": "DZA.30_1","province": "Mostaganem","NL_NAME_1": "ولايةمستغانم","county": "Safsaf","VARNAME_2": "NA","NL_NAME_2": "NA","TYPE_2": "Commune","ENGTYPE_2": "Commune","CC_2": "2730","HASC_2": "DZ.MG.SF","name": "Safsaf.county","area_km2": 91.37532,"hist_schema_id": "Elevation0-9000","hist_area_km2": {"100": 0.05151,"125": 0.82426,"150": 2.47357,"175": 2.69716,"200": 3.17863,"225": 3.24736,"250": 3.76295,"275": 4.03799,"300": 9.6555,"325": 9.10603,"350": 10.37771,"375": 12.85303,"400": 13.00815,"425": 10.49946,"450": 4.10713,"475": 1.25434,"500": 0.20619,"525": 0.03437}}}