{"type": "Feature","bbox": [4.3111,36.4873,4.3591,36.5633],"geometry": {"type": "MultiPolygon","coordinates": [[[[4.3488,36.5566,740.1797],[4.3424,36.5563,779.7819],[4.3375,36.5603,949.4919],[4.3322,36.5596,975.3344],[4.3275,36.5633,1118.135],[4.319,36.5581,1045.7897],[4.3169,36.5483,666.2043],[4.3111,36.5456,574.4501],[4.3153,36.5407,624.525],[4.3286,36.5319,664.3292],[4.3314,36.5275,721.8497],[4.3354,36.517,768.851],[4.3338,36.5039,920.9445],[4.3431,36.4886,1450.6057],[4.3487,36.4873,1608.8198],[4.3496,36.4936,1440.8237],[4.3591,36.5168,1196.5607],[4.3575,36.5266,1220.364],[4.3475,36.5476,898.2988],[4.3488,36.5566,740.1797]]]]}
,"properties": {"GID_2": "DZA.47.1_1","GID_0": "DZA","country": "Algeria","GID_1": "DZA.47_1","province": "TiziOuzou","NL_NAME_1": "ولايةغليزان","county": "AbiYoucef","VARNAME_2": "NA","NL_NAME_2": "NA","TYPE_2": "Commune","ENGTYPE_2": "Commune","CC_2": "1531","HASC_2": "DZ.TO.AU","name": "Abi_Youcef.county","area_km2": 17.25844,"hist_schema_id": "Elevation0-9000","hist_area_km2": {"600": 0.0511,"625": 0.06814,"650": 0.11925,"675": 0.18738,"700": 0.20442,"725": 0.34069,"750": 0.45996,"775": 0.54514,"800": 0.52809,"825": 0.61331,"850": 0.81771,"875": 0.69846,"900": 0.8007,"925": 0.88587,"950": 0.76662,"975": 0.93697,"1000": 0.64734,"1025": 0.80072,"1050": 0.85179,"1075": 0.83475,"1100": 0.91992,"1125": 0.85179,"1150": 0.68143,"1175": 0.56228,"1200": 0.3919,"1225": 0.39193,"1250": 0.13631,"1275": 0.23858,"1300": 0.13632,"1325": 0.13633,"1350": 0.20452,"1375": 0.06818,"1400": 0.06817,"1425": 0.20453,"1450": 0.17044,"1475": 0.06818,"1500": 0.23862,"1525": 0.10226,"1550": 0.08522,"1575": 0.1534,"1600": 0.06817,"1625": 0.08522,"1650": 0.06817,"1675": 0.03409,"1700": 0.03409}}}