{"type": "Feature","bbox": [7.2123,36.2895,7.3482,36.4106],"geometry": {"type": "MultiPolygon","coordinates": [[[[7.3482,36.3514,474.5714],[7.3425,36.3694,381.6471],[7.3374,36.3731,363.1207],[7.3262,36.3895,329.8066],[7.3156,36.3953,298.8596],[7.3164,36.3997,294.5791],[7.3095,36.3972,323.8634],[7.3022,36.3892,351.2452],[7.296,36.3871,409.8274],[7.285,36.3967,494.2858],[7.2639,36.4001,525.4508],[7.2511,36.3979,585.7479],[7.245,36.4002,660.4999],[7.2334,36.4106,931.676],[7.2163,36.4092,1032.4998],[7.2123,36.4073,1084.0776],[7.2149,36.3991,1092.7849],[7.2286,36.3815,771.361],[7.2367,36.3765,821.4396],[7.2417,36.3774,829.7661],[7.2507,36.376,866.0286],[7.2496,36.3695,909.2026],[7.2463,36.3645,841.4149],[7.232,36.3646,805.6192],[7.2291,36.3581,778.4494],[7.2287,36.3497,743.8547],[7.2343,36.3395,818.5549],[7.2264,36.3236,833.8469],[7.2206,36.3193,840.5054],[7.2183,36.3104,816.6286],[7.2191,36.3043,828.3285],[7.2269,36.2958,953.8578],[7.2324,36.2957,908.5441],[7.2356,36.2916,967.4327],[7.2475,36.2895,829.7252],[7.2553,36.2907,777.203],[7.2621,36.2939,743.2879],[7.262,36.3065,719.5255],[7.2585,36.3196,661.1015],[7.2647,36.3231,654.1034],[7.2736,36.3174,686.591],[7.2997,36.3144,578.8126],[7.3222,36.3179,485.0789],[7.3418,36.3379,438.5423],[7.3438,36.3472,435.2513],[7.3482,36.3514,474.5714]]]]}
,"properties": {"GID_2": "DZA.21.33_1","GID_0": "DZA","country": "Algeria","GID_1": "DZA.21_1","province": "Guelma","NL_NAME_1": "ولايةقالمة","county": "SelaouaAnnouna","VARNAME_2": "SeliaouaAnnouna","NL_NAME_2": "NA","TYPE_2": "Commune","ENGTYPE_2": "Commune","CC_2": "2429","HASC_2": "DZ.GL.SA","name": "Selaoua_Announa.county","area_km2": 96.34248,"hist_schema_id": "Elevation0-9000","hist_area_km2": {"300": 0.52907,"325": 0.68275,"350": 0.88764,"375": 1.04134,"400": 1.2974,"425": 1.69012,"450": 1.96332,"475": 2.42423,"500": 2.88531,"525": 2.52675,"550": 2.95365,"575": 3.72205,"600": 3.9784,"625": 4.11497,"650": 4.55893,"675": 6.04508,"700": 7.66785,"725": 8.19741,"750": 7.68489,"775": 7.15582,"800": 5.84089,"825": 4.86726,"850": 2.97159,"875": 2.4593,"900": 1.91273,"925": 1.69076,"950": 1.22962,"975": 1.10998,"1000": 0.95614,"1025": 0.5975,"1050": 0.42668,"1075": 0.27304}}}