{"type": "Feature","bbox": [2.1384,36.5162,2.3571,36.634],"geometry": {"type": "MultiPolygon","coordinates": [[[[2.3571,36.6267,386.437],[2.3501,36.6304,353.9701],[2.3431,36.6311,254.4609],[2.3369,36.6279,282.0721],[2.3286,36.6287,321.3356],[2.3158,36.6327,168.3073],[2.3089,36.6308,187.8696],[2.3046,36.634,76.8244],[2.2901,36.633,11.1507],[2.2716,36.6273,0.0],[2.2662,36.6267,8.384],[2.262,36.628,1.3006],[2.2572,36.6206,0.7727],[2.2517,36.6187,1.2642],[2.2388,36.6187,15.1934],[2.2269,36.6136,4.7271],[2.2102,36.6113,7.4637],[2.1959,36.6112,0.0],[2.1809,36.6055,0.0],[2.1735,36.6001,8.9069],[2.1646,36.5986,16.8178],[2.1607,36.6002,13.2306],[2.1534,36.5925,6.4714],[2.1566,36.5784,76.31],[2.1569,36.566,113.7259],[2.1532,36.5601,231.6688],[2.1461,36.557,245.728],[2.1405,36.5522,315.6893],[2.1384,36.5454,265.0386],[2.1433,36.5311,485.865],[2.1494,36.5212,409.6464],[2.1499,36.5162,383.4247],[2.166,36.5245,406.9025],[2.1931,36.525,256.7554],[2.2054,36.5289,239.5228],[2.2102,36.5284,193.0188],[2.2239,36.531,173.3332],[2.2287,36.5352,164.2827],[2.2267,36.5421,131.1007],[2.2288,36.5479,107.7514],[2.2325,36.5519,113.6895],[2.2348,36.5604,106.9107],[2.2361,36.5666,117.751],[2.2353,36.5781,76.5931],[2.2392,36.5814,46.9778],[2.2635,36.5869,37.1248],[2.2707,36.5837,71.3663],[2.274,36.589,22.9332],[2.2785,36.587,23.4563],[2.3016,36.5678,40.2549],[2.3073,36.5649,44.5581],[2.324,36.5693,93.242],[2.3296,36.5723,144.3466],[2.331,36.5797,228.5749],[2.3337,36.5836,236.2845],[2.3329,36.5878,286.8331],[2.3414,36.5996,478.3954],[2.3464,36.6195,557.2679],[2.3517,36.6178,600.1615],[2.3552,36.6213,470.9484],[2.3571,36.6267,386.437]]]]}
,"properties": {"GID_2": "DZA.45.8_1","GID_0": "DZA","country": "Algeria","GID_1": "DZA.45_1","province": "Tipaza","NL_NAME_1": "ولايةتيبازة","county": "Cherchel","VARNAME_2": "Cherchell|Shirsha-ll","NL_NAME_2": "NA","TYPE_2": "Commune-Cotiere","ENGTYPE_2": "Commune-Cotiere","CC_2": "4214","HASC_2": "DZ.TP.CR","name": "Cherchel.county","area_km2": 121.10123,"hist_schema_id": "Elevation0-9000","hist_area_km2": {"0": 2.91031,"25": 11.89819,"50": 7.42198,"75": 7.23476,"100": 6.51982,"125": 7.74591,"150": 7.98417,"175": 7.95063,"200": 7.84883,"225": 7.01493,"250": 6.18113,"275": 5.41445,"300": 5.3296,"325": 4.44437,"350": 3.95054,"375": 3.66115,"400": 3.57628,"425": 2.74198,"450": 2.67375,"475": 2.07771,"500": 1.87325,"525": 1.53261,"550": 0.69802,"575": 0.4596,"600": 0.39144,"625": 0.35741,"650": 0.37444,"675": 0.39146,"700": 0.18722,"725": 0.13616,"750": 0.0851,"800": 0.01702,"825": 0.01702}}}