{"type":"Feature","properties":{"GID_2":"DZA.7.11_1","GID_0":"DZA","country":"Algeria","GID_1":"DZA.7_1","province":"Béchar","NL_NAME_1":"ولايةبشار","county":"Kerzaz","VARNAME_2":"NA","NL_NAME_2":"NA","TYPE_2":"Commune","ENGTYPE_2":"Commune","CC_2":"818","HASC_2":"DZ.BC.KZ","name":"Kerzaz.county"},
"geometry":{"type": "MultiPolygon","coordinates": [[[[0.3846,30.7009,506.5568],[0.0758,30.7395,603.2552],[-0.1059,30.7147,569.1832],[-0.2973,30.7409,575.9542],[-0.5395,30.4789,564.6605],[-0.6318,30.4405,553.4092],[-0.9718,30.0917,501.5972],[-0.9763,30.0787,537.9749],[-0.9968,30.0376,509.4871],[-1.0006,30.0425,505.3148],[-1.0332,29.9713,505.5885],[-1.06,29.9171,514.6654],[-1.2191,29.7551,463.3514],[-1.5361,29.5179,399.9659],[-1.605,29.515,443.9656],[-1.7513,29.4879,468.6703],[-2.0017,29.3963,495.4555],[-2.0124,29.3941,470.4485],[-2.0971,29.4084,601.8066],[-2.2963,29.3621,541.9446],[-2.5648,29.3765,642.0752],[-2.5792,29.3835,611.1599],[-2.5962,29.3839,539.2426],[-2.6011,29.3818,534.2017],[-2.6145,29.3829,631.8851],[-2.6238,29.38,638.2078],[-2.6261,29.3731,619.6019],[-2.6318,29.3692,596.5696],[-2.6425,29.3683,653.1726],[-2.6733,29.3598,666.9125],[-2.6874,29.3585,674.1929],[-2.6992,29.3535,628.7266],[-2.7049,29.3564,702.7931],[-2.734,29.3565,634.2142],[-2.7587,29.3644,558.9459],[-2.7838,29.375,515.1662],[-2.4905,29.0342,526.7856],[-2.2319,29.1175,474.718],[-2.0003,29.2108,447.0665],[-1.8966,29.2551,439.6759],[-1.6271,29.2679,536.619],[-1.2997,29.3712,392.0682],[-1.1759,29.4512,419.3144],[-1.139,29.4685,416.6671],[-1.1024,29.483,416.3915],[-1.0119,29.5631,429.0975],[-0.9871,29.5815,433.4456],[-0.9179,29.6423,445.3881],[-0.8189,29.7165,445.8176],[-0.5824,30.0003,484.7646],[-0.5736,30.0086,507.4497],[-0.4647,30.1374,537.1603],[-0.2972,30.2825,511.965],[-0.1153,30.3414,532.3469],[-0.0478,30.3323,505.4954],[0.0052,30.3224,496.9636],[0.3846,30.7009,506.5568]]]]}}