{"type":"Feature","properties":{"GID_1":"DZA.12_1","GID_0":"DZA","country":"Algeria","province":"Bouira","VARNAME_1":"NA","NL_NAME_1":"ولايةالبويرة","TYPE_1":"Wilaya","ENGTYPE_1":"Province","CC_1":"10","HASC_1":"DZ.BU","ISO_1":"DZ-10","name":"Bouira.province"},
"geometry":{"type": "MultiPolygon","coordinates": [[[[4.1072,36.4648,1656.5593],[4.0896,36.4681,2078.4055],[4.0832,36.4644,1915.203],[4.0677,36.4617,1774.447],[4.0465,36.4652,2076.958],[4.0287,36.459,2054.9958],[4.0034,36.4615,1921.9019],[3.9923,36.4611,1933.5557],[3.9784,36.4572,1576.4692],[3.9631,36.4579,1509.4556],[3.9507,36.4525,1198.7753],[3.9374,36.4513,1106.1626],[3.9347,36.455,1201.609],[3.9294,36.4574,1265.1696],[3.9237,36.4584,1191.7598],[3.9167,36.4573,1189.1039],[3.8782,36.4709,1033.3715],[3.8635,36.4672,973.0142],[3.848,36.4692,670.3606],[3.8494,36.4753,625.0227],[3.8447,36.4851,626.4271],[3.84,36.4876,488.1714],[3.8345,36.4864,406.9954],[3.8307,36.4886,440.9022],[3.8243,36.4986,631.2592],[3.8181,36.5021,645.2955],[3.8144,36.5074,687.0146],[3.8134,36.513,579.7555],[3.8157,36.5179,585.1119],[3.8085,36.527,610.7008],[3.8065,36.5326,637.7864],[3.795,36.5351,575.9642],[3.7902,36.5327,572.4043],[3.779,36.5335,669.3853],[3.7728,36.5322,614.599],[3.7668,36.5348,559.235],[3.7548,36.5508,767.2007],[3.7464,36.556,764.9773],[3.7417,36.5545,793.2025],[3.7323,36.5618,873.7727],[3.7243,36.5779,706.627],[3.7262,36.5834,624.2499],[3.7143,36.5884,781.7698],[3.7062,36.5879,744.6344],[3.6974,36.5901,796.5806],[3.6802,36.5897,826.389],[3.6679,36.5857,805.0522],[3.6468,36.5878,914.0124],[3.635,36.5858,656.8423],[3.6256,36.5862,625.6215],[3.6131,36.588,546.4304],[3.6074,36.5902,519.8796],[3.5797,36.5926,241.0996],[3.5772,36.5988,112.2923],[3.5717,36.6021,351.9217],[3.5521,36.6009,592.0137],[3.5453,36.603,569.0588],[3.5328,36.6037,588.202],[3.5041,36.6122,685.3861],[3.4988,36.6112,760.6345],[3.4943,36.6079,763.3447],[3.4898,36.5979,621.9617],[3.4899,36.5926,490.7578],[3.4851,36.5892,427.4101],[3.4757,36.5859,566.4853],[3.4779,36.5802,649.7186],[3.4743,36.5758,627.5748],[3.4698,36.5773,526.1233],[3.4632,36.576,473.052],[3.4624,36.5718,543.612],[3.4502,36.5665,513.3851],[3.424,36.5665,590.6865],[3.4184,36.5652,605.6064],[3.4081,36.5498,933.77],[3.4034,36.5542,899.9245],[3.3871,36.5574,825.3552],[3.3841,36.5536,884.4556],[3.3798,36.5524,927.5345],[3.3731,36.556,696.2427],[3.3587,36.5596,527.0353],[3.354,36.5629,414.6414],[3.35,36.5598,380.1404],[3.3322,36.5641,556.4896],[3.3272,36.5628,607.3288],[3.3225,36.5593,442.9166],[3.3131,36.5577,281.2133],[3.3049,36.548,246.3891],[3.2993,36.547,253.6345],[3.2982,36.5422,275.3212],[3.3005,36.5354,317.6978],[3.305,36.5294,301.6178],[3.3022,36.5252,299.1292],[3.2962,36.5214,351.4449],[3.2947,36.5172,354.9573],[3.2968,36.5024,739.7759],[3.301,36.495,464.1644],[3.3109,36.4954,439.9956],[3.33,36.4797,660.2554],[3.3397,36.4747,957.1436],[3.3456,36.472,1044.6877],[3.3558,36.4725,1053.1185],[3.3605,36.4707,1068.4624],[3.3638,36.4656,1035.989],[3.3678,36.4629,912.3591],[3.3612,36.4561,900.1013],[3.3714,36.4534,685.0774],[3.3787,36.4335,1035.0696],[3.3888,36.4334,1094.8685],[3.3945,36.4306,938.1069],[3.4009,36.4205,687.7251],[3.4062,36.417,580.4298],[3.4115,36.416,454.4792],[3.4159,36.4123,385.7304],[3.4184,36.4071,325.8364],[3.4244,36.4035,319.6336],[3.4307,36.4024,315.0352],[3.4339,36.4053,315.8809],[3.4333,36.4095,310.0153],[3.4287,36.4122,310.2876],[3.4348,36.4142,305.9061],[3.4466,36.4122,299.4212],[3.4518,36.4229,298.5],[3.4655,36.4339,303.8938],[3.4712,36.4352,298.5],[3.4793,36.4333,348.4],[3.4843,36.4375,298.5],[3.4833,36.4431,312.5535],[3.477,36.4457,298.5],[3.4792,36.4499,298.5],[3.4843,36.4492,298.5],[3.4977,36.4561,298.5],[3.5028,36.4562,298.5],[3.5053,36.4498,298.5],[3.5119,36.445,342.4895],[3.5202,36.4453,553.7505],[3.5265,36.4427,575.4063],[3.535,36.4374,697.0095],[3.5428,36.4297,835.7089],[3.5616,36.4305,507.0364],[3.5661,36.4334,472.7558],[3.5635,36.4227,557.1141],[3.5649,36.4187,626.2449],[3.5626,36.4129,793.5215],[3.5466,36.4046,912.9068],[3.551,36.3947,956.8373],[3.5505,36.3893,940.8679],[3.5673,36.3697,861.1268],[3.5758,36.3629,673.6146],[3.5887,36.3557,616.4375],[3.592,36.3503,646.6052],[3.5851,36.3474,609.8965],[3.58,36.3404,689.8119],[3.5754,36.3381,682.1648],[3.5676,36.336,682.8961],[3.5581,36.3359,704.6311],[3.5388,36.3243,730.989],[3.538,36.3196,668.9763],[3.5482,36.318,650.5337],[3.5455,36.307,608.271],[3.5386,36.296,596.3793],[3.5344,36.2813,590.6628],[3.5203,36.2767,556.2578],[3.535,36.2727,557.4586],[3.541,36.2727,586.6986],[3.5473,36.2697,568.2524],[3.5557,36.2529,602.8917],[3.568,36.2383,626.139],[3.5682,36.2326,624.9679],[3.5673,36.2263,646.6385],[3.5573,36.2182,653.1317],[3.557,36.2119,690.0131],[3.5594,36.2052,709.4913],[3.546,36.2066,881.5043],[3.5408,36.2051,902.7853],[3.5373,36.2022,825.1105],[3.5266,36.1999,742.3393],[3.5127,36.2008,817.3726],[3.5026,36.1979,827.8097],[3.4898,36.19,879.752],[3.488,36.1779,1091.3812],[3.4837,36.1724,1108.4099],[3.4802,36.1582,1172.5228],[3.4873,36.1493,1164.2451],[3.4966,36.1482,1168.6011],[3.499,36.1446,1119.7671],[3.4991,36.1344,1070.9773],[3.5082,36.1185,1199.0941],[3.4996,36.112,1284.6316],[3.4907,36.1024,1288.425],[3.4837,36.1007,1259.7482],[3.4727,36.0939,1263.1681],[3.4621,36.0833,1271.6094],[3.4536,36.08,1311.8687],[3.4464,36.0654,1118.7766],[3.4278,36.0596,1068.6925],[3.4117,36.0623,1010.4154],[3.4094,36.066,940.8742],[3.4047,36.0668,920.585],[3.3985,36.0654,913.2502],[3.4042,36.0547,991.254],[3.4032,36.0495,922.9839],[3.4042,36.0441,938.3703],[3.4249,36.0327,1042.8104],[3.4395,36.0345,1028.1094],[3.4433,36.039,970.0854],[3.4549,36.0413,1192.3943],[3.4595,36.0404,1200.5972],[3.4657,36.0333,1189.4529],[3.4833,36.0336,1168.2484],[3.4971,36.0303,1210.8219],[3.5121,36.0227,1156.615],[3.528,36.0239,1181.5067],[3.5533,36.016,872.5081],[3.5651,35.994,868.2595],[3.5654,35.9882,867.6058],[3.5684,35.98,840.5248],[3.5674,35.9758,795.8865],[3.5749,35.9685,738.9345],[3.5894,35.9626,831.8234],[3.5869,35.9554,775.3583],[3.5893,35.9476,759.2071],[3.609,35.9308,709.0774],[3.6169,35.9211,697.7981],[3.6196,35.915,687.2883],[3.6238,35.9126,684.2751],[3.6315,35.9144,689.6482],[3.6363,35.9244,699.2767],[3.6365,35.9287,704.0424],[3.6331,35.933,715.2397],[3.6398,35.9406,755.8077],[3.6456,35.9439,787.9529],[3.7173,35.9357,730.1273],[3.731,35.9153,703.7039],[3.7373,35.9118,697.1874],[3.7477,35.9012,684.8055],[3.7565,35.8973,684.1238],[3.7614,35.8983,688.1544],[3.7664,35.9022,690.8241],[3.7735,35.902,673.9559],[3.7751,35.898,671.6666],[3.7974,35.8903,682.8185],[3.7992,35.8829,678.587],[3.792,35.873,653.4019],[3.7936,35.868899999999996,646.8226],[3.8155,35.8546,631.0118],[3.822,35.8634,641.9259],[3.8325,35.8653,662.9572],[3.8391,35.8628,653.951],[3.8431,35.8552,634.8433],[3.8504,35.852,628.4539],[3.8536,35.8572,638.3674],[3.8584,35.861,646.5613],[3.8917,35.8728,809.2262],[3.8938,35.8788,859.2192],[3.9025,35.8898,772.8123],[3.9126,35.8952,755.1619],[3.9187,35.8941,684.7152],[3.928,35.8885,717.2631],[3.9386,35.8929,670.5748],[3.9847,35.868899999999996,636.0706],[4.0323,35.8601,606.9753],[4.037,35.874,624.604],[4.0332,35.8769,626.6873],[4.0351,35.8813,629.5009],[4.0188,35.9017,646.0862],[4.0158,35.9085,665.1829],[4.0152,35.9158,682.9284],[4.0195,35.9209,675.2689],[4.0282,35.9256,685.7272],[4.0291,35.9357,703.7065],[4.0397,35.9515,719.0196],[4.0427,35.9601,733.534],[4.0425,35.9724,779.4023],[4.0495,35.9969,846.5855],[4.0557,36.004,851.7307],[4.0577,36.009,876.1559],[4.0672,36.0162,977.693],[4.0628,36.0229,993.7423],[4.0656,36.0318,1117.886],[4.0639,36.0364,1071.582],[4.0691,36.0386,1026.5675],[4.0713,36.0435,1142.9805],[4.076,36.0455,1189.7487],[4.0941,36.0473,1420.3795],[4.0992,36.05,1460.4119],[4.1059,36.057,1443.2607],[4.1074,36.0614,1515.8838],[4.1206,36.0691,1238.0317],[4.1386,36.084,1083.6117],[4.1427,36.0944,1003.1447],[4.1385,36.0992,1072.1384],[4.1419,36.1062,1191.376],[4.1436,36.1175,1213.4031],[4.1483,36.1229,1134.6237],[4.1562,36.1279,1103.8074],[4.1466,36.1314,1037.9657],[4.1507,36.1346,1062.5267],[4.1535,36.1404,1116.2863],[4.1534,36.1511,997.8017],[4.1568,36.1582,1012.7283],[4.1653,36.1684,894.6481],[4.1607,36.1711,890.3175],[4.1552,36.1715,883.6935],[4.1518,36.1744,887.5226],[4.1702,36.1795,945.684],[4.1746,36.1841,1021.6138],[4.1842,36.1889,1117.092],[4.1977,36.1903,1247.8029],[4.2112,36.1942,1125.6072],[4.2186,36.2009,1013.8737],[4.231,36.2066,921.6418],[4.2365,36.2241,773.2116],[4.2409,36.2272,746.6692],[4.2572,36.232,647.6508],[4.2647,36.2407,607.3981],[4.2693,36.2516,554.3116],[4.2732,36.2537,558.28],[4.285,36.2487,604.894],[4.3116,36.2445,589.8022],[4.3206,36.2483,544.5856],[4.3298,36.2481,524.0037],[4.3366,36.2504,515.1454],[4.3456,36.2585,497.6692],[4.3584,36.2801,390.2937],[4.3756,36.2869,341.0627],[4.3714,36.2966,334.2227],[4.3796,36.3074,320.7297],[4.3745,36.3095,335.5785],[4.3741,36.3163,330.8364],[4.3673,36.3181,301.9587],[4.3668,36.3243,306.1521],[4.3607,36.3266,289.143],[4.3567,36.3323,286.754],[4.3526,36.3444,279.8648],[4.353,36.3496,269.6685],[4.3552,36.3539,267.2002],[4.3686,36.3549,260.6886],[4.3875,36.365,251.9495],[4.3777,36.3738,282.6337],[4.3873,36.3825,337.8135],[4.396,36.4185,557.7346],[4.3933,36.4243,724.4496],[4.3947,36.431399999999996,849.3649],[4.3897,36.4362,1072.7031],[4.3728,36.4441,1426.8245],[4.3665,36.4556,1641.7089],[4.3633,36.4663,1819.8438],[4.3398,36.478,1893.4351],[4.3355,36.476,1877.4752],[4.3326,36.4678,1686.2351],[4.3072,36.4664,1676.8206],[4.2972,36.4617,1876.0385],[4.2619,36.4612,1782.4146],[4.2477,36.4582,1805.8445],[4.2424,36.4594,1846.0909],[4.2372,36.4724,1556.7743],[4.2304,36.4816,1620.4899],[4.2276,36.4787,1642.6116],[4.2065,36.4712,1672.7722],[4.1849,36.4608,1695.9739],[4.1727,36.4582,1506.235],[4.1667,36.4603,1787.2792],[4.166,36.4659,2031.7167],[4.1611,36.4707,1954.4202],[4.1568,36.469,2147.873],[4.1427,36.4688,2265.7417],[4.1376,36.4648,1837.09],[4.1189,36.468,1805.7517],[4.1072,36.4648,1656.5593]]]]}}