{"type": "Feature","bbox": [0.6427,36.2493,0.7399,36.3322],"geometry": {"type": "MultiPolygon","coordinates": [[[[0.7399,36.3322,1.8623],[0.7285,36.3305,3.8792],[0.6988,36.3296,4.4306],[0.6853,36.3312,9.5435],[0.6797,36.3298,20.9406],[0.6616,36.3311,9.316],[0.6458,36.3217,4.4073],[0.6427,36.3151,0.8691],[0.6488,36.3161,25.2471],[0.6561,36.3146,28.1043],[0.6724,36.3041,25.5955],[0.6718,36.2958,11.25],[0.6732,36.2897,17.0483],[0.6791,36.2793,23.742],[0.679,36.2721,29.1819],[0.6753,36.2576,77.8394],[0.6853,36.2568,77.4486],[0.6984,36.2524,145.9125],[0.7023,36.2493,160.8837],[0.7102,36.258,400.5925],[0.7198,36.2721,440.9554],[0.7334,36.3176,104.9059],[0.7399,36.3322,1.8623]]]]}
,"properties": {"GID_2": "DZA.30.20_1","GID_0": "DZA","country": "Algeria","GID_1": "DZA.30_1","province": "Mostaganem","NL_NAME_1": "ولايةمستغانم","county": "OuledBoughalem","VARNAME_2": "NA","NL_NAME_2": "NA","TYPE_2": "Commune-Cotiere","ENGTYPE_2": "Commune-Cotiere","CC_2": "2725","HASC_2": "DZ.MG.OB","name": "Ouled_Boughalem.county","area_km2": 42.83875,"hist_schema_id": "Elevation0-9000","hist_area_km2": {"0": 1.19575,"25": 5.53593,"50": 4.25421,"75": 6.37244,"100": 6.30457,"125": 6.15152,"150": 3.99905,"175": 1.9997,"200": 1.5212,"225": 1.57256,"250": 0.97438,"275": 0.76927,"300": 0.61542,"325": 0.51286,"350": 0.41028,"375": 0.25643,"400": 0.17096,"425": 0.13676,"450": 0.03419,"475": 0.01709,"500": 0.03419}}}