{"type": "Feature","bbox": [7.5275,36.8752,7.7205,37.0131],"geometry": {"type": "MultiPolygon","coordinates": [[[[7.7089,36.9498,0.0],[7.7039,36.9515,0.0],[7.702,36.9634,6.7765],[7.6955,36.9628,0.0],[7.6858,36.9657,0.0],[7.6809,36.9736,0.0],[7.6766,36.972,39.9816],[7.673,36.9677,0.0],[7.6647,36.9676,0.0],[7.6613,36.9708,0.0],[7.6603,36.9779,0.0],[7.6553,36.9786,0.7049],[7.6502,36.9698,4.772],[7.642,36.9657,0.0],[7.6275,36.9648,7.1073],[7.623,36.9628,0.5776],[7.6062,36.9696,0.0],[7.6001,36.9698,18.281],[7.594,36.9729,0.0],[7.5904,36.9772,0.0],[7.5674,36.9868,0.0],[7.558,36.9934,0.0],[7.554,37.0049,21.0397],[7.5392,37.0131,13.3787],[7.5386,37.0084,113.8511],[7.5302,36.998,377.6492],[7.5275,36.9795,374.7516],[7.5404,36.9706,524.5665],[7.5536,36.9666,726.7306],[7.5593,36.9626,574.4344],[7.5624,36.9439,692.1561],[7.561,36.9377,567.1587],[7.5655,36.9311,352.1322],[7.5703,36.9157,194.2842],[7.5744,36.9103,139.5526],[7.5716,36.9059,96.6094],[7.5651,36.9038,102.4433],[7.5713,36.8966,82.0498],[7.5769,36.8941,106.5149],[7.5964,36.8777,261.7756],[7.6019,36.8764,405.6776],[7.6068,36.8776,499.5956],[7.6156,36.8752,656.9736],[7.6207,36.8762,713.0483],[7.6432,36.888,874.1124],[7.6508,36.881,661.2782],[7.6636,36.8825,393.5678],[7.6663,36.8781,225.1169],[7.6707,36.8776,191.691],[7.6768,36.881,121.4113],[7.7116,36.8883,13.605],[7.7103,36.8943,121.2283],[7.7058,36.8953,172.4303],[7.7022,36.8996,199.462],[7.7075,36.9044,247.9414],[7.714,36.9061,304.2626],[7.7163,36.9113,267.1862],[7.7171,36.9233,352.5977],[7.7205,36.9332,452.7856],[7.7169,36.9445,129.7703],[7.7089,36.9498,0.0]]]]}
,"properties": {"GID_2": "DZA.5.10_1","GID_0": "DZA","country": "Algeria","GID_1": "DZA.5_1","province": "Annaba","NL_NAME_1": "ولايةعنابة","county": "Seraidi","VARNAME_2": "Saraydih","NL_NAME_2": "NA","TYPE_2": "Commune-Cotiere","ENGTYPE_2": "Commune-Cotiere","CC_2": "2308","HASC_2": "DZ.AN.SE","name": "Seraidi.county","area_km2": 138.4474,"hist_schema_id": "Elevation0-9000","hist_area_km2": {"0": 3.0153,"25": 1.9144,"50": 2.7446,"75": 3.1683,"100": 3.8633,"125": 4.5242,"150": 4.7108,"175": 4.8633,"200": 5.8806,"225": 5.9824,"250": 6.135,"275": 6.4742,"300": 6.813,"325": 6.2369,"350": 5.9317,"375": 5.83,"400": 5.7791,"425": 4.6266,"450": 4.4742,"475": 4.4572,"500": 4.1353,"525": 4.1016,"550": 3.8134,"575": 3.6781,"600": 3.2205,"625": 2.7969,"650": 2.4919,"675": 2.0683,"700": 1.9665,"725": 1.9666,"750": 2.0853,"775": 1.3733,"800": 1.3733,"825": 1.2546,"850": 1.2715,"875": 0.8478,"900": 0.7461,"925": 0.78,"950": 0.6274,"975": 0.4069,"1000": 0.017}}}