{"type": "Feature","bbox": [6.0928,36.2967,6.209,36.4201],"geometry": {"type": "MultiPolygon","coordinates": [[[[6.1641,36.4048,402.0673],[6.1602,36.4077,381.1494],[6.158,36.4135,362.1356],[6.1541,36.4166,333.4911],[6.1366,36.4112,403.8365],[6.13,36.4114,425.9141],[6.1199,36.408,409.4252],[6.1182,36.4135,370.6039],[6.1071,36.4143,445.8177],[6.0968,36.4201,343.6522],[6.0928,36.4024,477.5229],[6.0934,36.3895,537.6365],[6.0999,36.3866,477.4529],[6.0967,36.3808,491.9173],[6.0984,36.3748,558.1772],[6.095,36.3474,888.2154],[6.104,36.3302,1063.626],[6.104,36.3183,1079.9285],[6.1023,36.3117,1076.7156],[6.1165,36.2968,1017.799],[6.1219,36.297,999.9672],[6.1268,36.3009,983.0756],[6.1357,36.2994,967.8521],[6.1407,36.2967,945.0997],[6.1466,36.2996,970.0939],[6.1691,36.3006,967.6969],[6.1692,36.3117,1012.9706],[6.1666,36.317,1040.3965],[6.1624,36.3365,1032.7947],[6.1683,36.3393,967.0081],[6.1799,36.3376,945.3197],[6.193,36.3421,949.063],[6.1994,36.3417,939.1359],[6.203,36.3453,904.9893],[6.209,36.3576,727.0559],[6.2063,36.3639,680.8306],[6.2025,36.3678,697.1633],[6.1922,36.3719,638.5097],[6.1905,36.3766,531.2528],[6.1809,36.3823,472.8564],[6.1841,36.3879,433.6863],[6.1641,36.4048,402.0673]]]]}
,"properties": {"GID_2": "DZA.29.1_1","GID_0": "DZA","country": "Algeria","GID_1": "DZA.29_1","province": "Mila","NL_NAME_1": "ولايةميلة","county": "AhmedRachedi","VARNAME_2": "AhmedRachdi","NL_NAME_2": "NA","TYPE_2": "Commune","ENGTYPE_2": "Commune","CC_2": "4311","HASC_2": "DZ.ML.AR","name": "Ahmed_Rachedi.county","area_km2": 92.6124,"hist_schema_id": "Elevation0-9000","hist_area_km2": {"325": 0.1365,"350": 0.83608,"375": 1.82584,"400": 3.5324,"425": 6.24616,"450": 5.39321,"475": 5.23991,"500": 4.35273,"525": 3.56773,"550": 2.90211,"575": 2.49252,"600": 1.86093,"625": 2.06586,"650": 2.42445,"675": 2.18546,"700": 2.20258,"725": 2.32217,"750": 1.86119,"775": 1.87829,"800": 1.60512,"825": 1.571,"850": 1.55397,"875": 1.50277,"900": 1.6565,"925": 2.04932,"950": 2.04957,"975": 4.16805,"1000": 5.56907,"1025": 6.16693,"1050": 6.47436,"1075": 3.22854,"1100": 1.45195,"1125": 0.23912}}}