{"type":"Feature","properties":{"GID_2":"DZA.30.2_1","GID_0":"DZA","country":"Algeria","GID_1":"DZA.30_1","province":"Mostaganem","NL_NAME_1":"ولايةمستغانم","county":"AinBoudinar","VARNAME_2":"NA","NL_NAME_2":"NA","TYPE_2":"Commune","ENGTYPE_2":"Commune","CC_2":"2728","HASC_2":"DZ.MG.AB","name":"Ain_Boudinar.county"},
"geometry":{"type": "MultiPolygon","coordinates": [[[[0.2458,36.0258,11.5046],[0.2331,36.0236,9.1166],[0.2276,36.0261,9.9118],[0.2192,36.0256,9.286],[0.2122,36.0218,7.8928],[0.2098,36.0287,8.3638],[0.2057,36.0306,13.5224],[0.1961,36.0273,6.4296],[0.1915,36.0307,10.4253],[0.1792,36.0341,11.7757],[0.1746,36.0221,69.4359],[0.1742,36.0132,297.588],[0.1702,36.0109,276.1946],[0.1658,36.003,271.4388],[0.1988,35.9878,276.5025],[0.1932,35.9757,242.7169],[0.1848,35.9752,234.9658],[0.185,35.9693,215.7982],[0.1903,35.9658,226.8114],[0.1964,35.9652,223.377],[0.2085,35.9469,217.5414],[0.2389,35.9904,245.9392],[0.2431,35.9988,239.0053],[0.2452,36.0043,152.386],[0.2424,36.0093,84.9229],[0.2425,36.0147,82.7315],[0.2464,36.02,14.1013],[0.2458,36.0258,11.5046]]]]}}