{"type": "Feature","bbox": [1.2653,36.0916,1.4514,36.2484],"geometry": {"type": "MultiPolygon","coordinates": [[[[1.2653,36.1412,89.7217],[1.2764,36.1401,101.017],[1.2948,36.1251,142.2679],[1.2928,36.1193,202.6887],[1.2946,36.114,209.3447],[1.2914,36.1097,188.8642],[1.2942,36.0916,282.2739],[1.3072,36.097,374.6433],[1.3127,36.108,209.07],[1.3178,36.1108,232.7001],[1.3309,36.1072,268.7163],[1.3432,36.1071,219.4926],[1.3492,36.1088,200.5897],[1.3499,36.1148,193.0834],[1.3486,36.1189,197.3152],[1.3502,36.1299,158.2641],[1.3555,36.1329,148.2196],[1.362,36.1312,158.0994],[1.372,36.1384,175.6596],[1.3978,36.1406,221.4601],[1.404,36.1437,250.808],[1.4164,36.1433,265.1692],[1.4235,36.1415,281.2422],[1.4341,36.1343,309.9597],[1.4279,36.126,286.3882],[1.431,36.1217,259.3782],[1.4351,36.12,287.2231],[1.4491,36.1244,315.5636],[1.4514,36.1352,321.11],[1.4501,36.1526,322.223],[1.4372,36.1552,330.4764],[1.4237,36.1527,256.5126],[1.4181,36.1535,230.8475],[1.4062,36.1675,227.9664],[1.4049,36.1749,193.8808],[1.3986,36.1864,150.1823],[1.3886,36.1893,122.3985],[1.3723,36.1846,120.1983],[1.3665,36.1882,107.8836],[1.3657,36.1947,102.7412],[1.3625,36.2021,151.8289],[1.3653,36.2082,177.5136],[1.363,36.2133,142.7322],[1.3537,36.2106,134.8944],[1.3452,36.2174,146.1916],[1.3368,36.2312,243.9485],[1.3362,36.2479,480.1538],[1.3283,36.2484,492.6745],[1.3049,36.2403,428.1587],[1.2948,36.2272,340.6226],[1.2853,36.2197,264.9013],[1.2846,36.2135,230.3952],[1.2867,36.2087,157.1043],[1.2933,36.2019,117.3734],[1.2954,36.1971,107.6521],[1.2895,36.1941,100.0537],[1.2897,36.1864,97.8291],[1.2879,36.1805,142.782],[1.2753,36.1762,123.6127],[1.2722,36.17,93.7004],[1.2733,36.1637,92.9393],[1.2795,36.1515,83.4959],[1.2732,36.149,84.5914],[1.2653,36.1412,89.7217]]]]}
,"properties": {"GID_2": "DZA.14.11_1","GID_0": "DZA","country": "Algeria","GID_1": "DZA.14_1","province": "Chlef","NL_NAME_1": "ولايةالشلف","county": "Chlef","VARNAME_2": "ash-Shalif","NL_NAME_2": "NA","TYPE_2": "Chef-Lieu-Wilaya","ENGTYPE_2": "Chef-Lieu-Wilaya","CC_2": "201","HASC_2": "DZ.CH.CL","name": "Chlef.county","area_km2": 126.55968,"hist_schema_id": "Elevation0-9000","hist_area_km2": {"75": 1.60921,"100": 29.35228,"125": 20.60544,"150": 16.94478,"175": 15.85273,"200": 11.60828,"225": 8.49122,"250": 5.52888,"275": 5.11836,"300": 4.27936,"325": 3.18368,"350": 1.43739,"375": 0.70127,"400": 0.53012,"425": 0.47881,"450": 0.41039,"475": 0.25649,"500": 0.17099}}}