{"type": "Feature","bbox": [7.2039,36.7695,7.3908,36.9905],"geometry": {"type": "MultiPolygon","coordinates": [[[[7.3846,36.8762,3.4528],[7.38,36.8942,2.4806],[7.372,36.9023,9.8512],[7.3556,36.9081,2.922],[7.3455,36.9137,2.9369],[7.3343,36.9162,2.9191],[7.329,36.9191,3.7022],[7.3271,36.925,2.2728],[7.3011,36.931,9.4815],[7.2937,36.9304,1.2872],[7.2881,36.9328,5.8769],[7.2812,36.9331,1.2244],[7.2695,36.9379,0.7027],[7.2621,36.9488,50.633],[7.2645,36.9532,5.1615],[7.2677,36.9574,0.3231],[7.2788,36.9614,0.2802],[7.2871,36.9668,-0.1539],[7.2885,36.9721,0.0936],[7.2861,36.9785,-0.3123],[7.2785,36.9857,79.3722],[7.2713,36.9873,1.5782],[7.261,36.9872,0.0],[7.2544,36.9843,0.0],[7.2501,36.9905,8.9306],[7.244,36.9859,0.0],[7.23,36.9686,13.7452],[7.2039,36.945,6.038],[7.2083,36.9407,21.812],[7.2236,36.9318,44.7297],[7.228,36.928,30.7651],[7.2288,36.9234,32.89],[7.2329,36.92,31.162],[7.2521,36.9085,36.9488],[7.251,36.9038,35.6569],[7.2418,36.8879,27.2229],[7.2341,36.8789,37.1416],[7.2358,36.8747,24.4503],[7.2415,36.8725,27.728],[7.2391,36.8683,23.6207],[7.234,36.8635,31.818],[7.2117,36.8521,125.8535],[7.2141,36.848,260.9512],[7.2184,36.8479,213.3824],[7.2178,36.843,185.1133],[7.2214,36.8395,184.9229],[7.2255,36.8292,158.0574],[7.2289,36.8249,170.8336],[7.2257999999999996,36.8124,222.9183],[7.2224,36.8069,307.9183],[7.2285,36.805,252.5393],[7.2432,36.7952,138.6497],[7.2507,36.7939,150.1351],[7.2552,36.7961,171.6198],[7.2654,36.7963,215.8746],[7.2754,36.7873,104.7081],[7.2887,36.7832,22.3863],[7.2898,36.7767,67.0145],[7.2959,36.7708,56.3919],[7.3056,36.7695,24.3645],[7.3114,36.7714,23.9089],[7.3217,36.7713,24.5683],[7.3372,36.7695,21.4453],[7.3519,36.7757,19.0272],[7.364,36.7779,16.1909],[7.3745,36.7826,14.9458],[7.3814,36.7822,14.3025],[7.3876,36.7925,15.8028],[7.3908,36.805,15.5713],[7.385,36.8123,17.6085],[7.3806,36.8244,64.7966],[7.3739,36.8363,79.7533],[7.3771,36.8416,70.5583],[7.3802,36.8518,28.3473],[7.3779,36.8571,18.9159],[7.378,36.8639,4.1378],[7.3846,36.8762,3.4528]]]]}
,"properties": {"GID_2": "DZA.39.7_1","GID_0": "DZA","country": "Algeria","GID_1": "DZA.39_1","province": "Skikda","NL_NAME_1": "سكيكدة","county": "BenAzzouz","VARNAME_2": "NA","NL_NAME_2": "NA","TYPE_2": "Commune-Cotiere","ENGTYPE_2": "Commune-Cotiere","CC_2": "2108","HASC_2": "DZ.SK.BA","name": "Ben_Azzouz.county","area_km2": 238.8249,"hist_schema_id": "Elevation0-9000","hist_area_km2": {"0": 63.935,"25": 119.0903,"50": 27.3586,"75": 12.1306,"100": 5.7531,"125": 3.4965,"150": 2.4781,"175": 1.5785,"200": 1.5106,"225": 0.9165,"250": 0.4243,"275": 0.1188,"300": 0.0339}}}