{"type":"Feature","properties":{"GID_2":"DZA.40.14_1","GID_0":"DZA","country":"Algeria","GID_1":"DZA.40_1","province":"SoukAhras","NL_NAME_1":"ولايةسوقأهراس","county":"OuledDriss","VARNAME_2":"NA","NL_NAME_2":"NA","TYPE_2":"Commune","ENGTYPE_2":"Commune","CC_2":"4105","HASC_2":"DZ.SA.OD","name":"Ouled_Driss.county"},
"geometry":{"type": "MultiPolygon","coordinates": [[[[8.1249,36.4546,675.4273],[8.1127,36.4531,862.71],[8.0952,36.4395,839.1728],[8.0788,36.4379,846.6614],[8.0593,36.414,1072.2498],[8.0567,36.4073,1295.9183],[8.0471,36.4005,1241.3984],[8.0465,36.3963,1311.1365],[8.0438,36.3924,1258.9375],[8.0341,36.3909,1198.9478],[8.0253,36.394,1155.3777],[8.0207,36.398,1218.426],[8.0057,36.3875,1183.8884],[7.9953,36.3875,1304.6707],[7.9873,36.3819,1219.6022],[7.9859,36.362,1083.6725],[7.9728,36.3561,1096.3367],[7.9619,36.3423,1132.0518],[7.961,36.3367,1064.1415],[7.9632,36.3328,963.2625],[7.9629,36.3209,773.608],[7.9698,36.3092,559.6812],[7.9745,36.3072,524.6412],[7.9747,36.3029,512.936],[7.9778,36.2993,543.2563],[7.9818,36.2974,505.6957],[7.9873,36.2977,503.603],[7.9954,36.2925,513.751],[8.0008,36.2928,489.6413],[8.0054,36.2901,542.062],[8.0105,36.2954,548.2383],[8.0189,36.2996,478.8249],[8.0297,36.3005,479.4296],[8.0342,36.2985,477.8975],[8.0407,36.2997,482.314],[8.0439,36.3027,463.9966],[8.0489,36.3031,475.6575],[8.064,36.3139,458.654],[8.0694,36.313,453.0039],[8.0686,36.3191,505.9344],[8.0521,36.3263,687.8411],[8.048,36.3304,828.0079],[8.0479,36.3355,947.2177],[8.0516,36.339,963.5266],[8.0697,36.3473,1099.0494],[8.0778,36.3492,978.114],[8.0886,36.3429,697.6739],[8.1086,36.3495,1013.8389],[8.116,36.3499,1008.8871],[8.1225,36.3468,938.9796],[8.134,36.3459,836.6865],[8.1447,36.3417,702.035],[8.1596,36.3459,612.6332],[8.1639,36.3461,482.361],[8.1697,36.3438,394.8427],[8.1678,36.349,418.4367],[8.1635,36.3521,455.7109],[8.1507,36.3519,561.1843],[8.1458,36.3533,569.218],[8.133,36.3521,703.3336],[8.1129,36.3564,947.9223],[8.1218,36.3728,1024.9701],[8.1286,36.3739,970.6654],[8.1439,36.385,856.4713],[8.1428,36.3959,807.9061],[8.1253,36.4009,796.9436],[8.1199,36.4047,930.0421],[8.1249,36.411,775.0566],[8.1297,36.4245,455.8588],[8.1331,36.4295,424.7376],[8.1474,36.4423,378.0634],[8.1508,36.4475,395.6361],[8.1268,36.4498,630.3779],[8.1249,36.4546,675.4273]]]]}}