{"type": "Feature","bbox": [1.4407,36.1839,1.5488,36.2466],"geometry": {"type": "MultiPolygon","coordinates": [[[[1.5462,36.2412,203.6878],[1.5364,36.2464,170.6619],[1.5226,36.2446,179.7408],[1.517,36.242,149.8837],[1.5191,36.2376,135.2903],[1.5077,36.2363,139.8237],[1.5034,36.2377,138.4621],[1.5092,36.2444,157.9933],[1.5045,36.2466,140.7085],[1.5001,36.241,132.6666],[1.4945,36.2393,150.1866],[1.4879,36.2416,133.576],[1.4825,36.241,129.8134],[1.4781,36.2345,125.7805],[1.4602,36.2263,117.297],[1.4564,36.2302,117.3759],[1.4536,36.2247,121.5004],[1.4558,36.219,120.0133],[1.4497,36.2179,123.2264],[1.4443,36.2203,110.4641],[1.4407,36.2174,124.0992],[1.4442,36.2041,168.8466],[1.4473,36.1987,190.7432],[1.4465,36.1922,215.612],[1.4722,36.1911,247.7431],[1.4893,36.1839,206.1113],[1.4916,36.1884,228.4293],[1.5119,36.1959,322.7317],[1.5128,36.2015,317.0758],[1.5194,36.2111,309.7666],[1.531,36.2153,331.4223],[1.5377,36.2252,286.7758],[1.5421,36.2286,269.7683],[1.5488,36.2378,153.4162],[1.5462,36.2412,203.6878]]]]}
,"properties": {"GID_2": "DZA.14.23_1","GID_0": "DZA","country": "Algeria","GID_1": "DZA.14_1","province": "Chlef","NL_NAME_1": "ولايةالشلف","county": "OuledAbbes","VARNAME_2": "NA","NL_NAME_2": "NA","TYPE_2": "Commune","ENGTYPE_2": "Commune","CC_2": "218","HASC_2": "DZ.CH.OA","name": "Ouled_Abbes.county","area_km2": 38.06017,"hist_schema_id": "Elevation0-9000","hist_area_km2": {"100": 0.15395,"125": 3.7799,"150": 4.9258,"175": 6.26047,"200": 6.60312,"225": 6.43226,"250": 3.71212,"275": 2.51456,"300": 2.29231,"325": 1.21462,"350": 0.17107}}}