{"type": "Feature","bbox": [3.7579,36.6358,3.8288,36.6929],"geometry": {"type": "MultiPolygon","coordinates": [[[[3.782,36.6812,630.8012],[3.7689,36.6745,525.9667],[3.7657,36.6671,504.3987],[3.7579,36.6654,436.8405],[3.7623,36.6572,574.478],[3.7619,36.6498,248.9789],[3.77,36.6467,284.1458],[3.7754,36.6511,448.1419],[3.7814,36.6519,452.6219],[3.785,36.6565,578.6917],[3.7912,36.6523,495.4398],[3.7883,36.6421,396.6505],[3.8043,36.6358,521.3081],[3.8251,36.6363,374.2424],[3.8288,36.641,352.7406],[3.8181,36.6576,352.5886],[3.8198,36.6711,709.2121],[3.8177,36.6753,653.618],[3.8193,36.686,812.1332],[3.81,36.6929,647.2128],[3.796,36.6883,552.8951],[3.7873,36.6805,680.626],[3.782,36.6812,630.8012]]]]}
,"properties": {"GID_2": "DZA.13.31_1","GID_0": "DZA","country": "Algeria","GID_1": "DZA.13_1","province": "Boumerdès","NL_NAME_1": "ولايةبومرداس","county": "Timezrit","VARNAME_2": "Timazrit","NL_NAME_2": "NA","TYPE_2": "Commune","ENGTYPE_2": "Commune","CC_2": "3515","HASC_2": "DZ.BM.TM","name": "Timezrit.county","area_km2": 23.13046,"hist_schema_id": "Elevation0-9000","hist_area_km2": {"250": 0.01701,"275": 0.03402,"300": 0.08505,"325": 0.30619,"350": 0.35723,"375": 0.57835,"400": 0.8335,"425": 1.15669,"450": 1.46285,"475": 1.51389,"500": 1.82007,"525": 1.854,"550": 1.61579,"575": 1.46263,"600": 1.44559,"625": 1.27546,"650": 1.58157,"675": 1.32645,"700": 1.24138,"725": 1.00326,"750": 0.54414,"775": 0.44209,"800": 0.4591,"825": 0.47609,"850": 0.23805}}}