{"type":"Feature","properties":{"GID_2":"DZA.12.26_1","GID_0":"DZA","country":"Algeria","GID_1":"DZA.12_1","province":"Bouira","NL_NAME_1":"ولايةالبويرة","county":"ElMokrani|ElMadjen","VARNAME_2":"ElMokrani","NL_NAME_2":"NA","TYPE_2":"Commune","ENGTYPE_2":"Commune","CC_2":"1044","HASC_2":"DZ.BU.EM","name":"El_Mokrani_El_Madjen.county"},
"geometry":{"type": "MultiPolygon","coordinates": [[[[3.6462,36.4702,651.0643],[3.6374,36.4709,651.7927],[3.6313,36.4737,683.8329],[3.6211,36.4645,806.2086],[3.6169,36.4626,805.8274],[3.5984,36.4607,767.4488],[3.5918,36.4505,821.351],[3.5795,36.4433,624.6136],[3.5694,36.4413,459.4447],[3.57,36.4368,462.57],[3.5661,36.4334,472.7558],[3.5635,36.4227,557.1141],[3.5649,36.4187,626.2449],[3.5626,36.4129,793.5215],[3.5466,36.4046,912.9068],[3.551,36.3947,956.8373],[3.5505,36.3893,940.8679],[3.5544,36.3845,899.4446],[3.5606,36.3788,840.7838],[3.5869,36.3838,507.0667],[3.5856,36.3892,514.8752],[3.5899,36.3939,530.5358],[3.6023,36.3955,630.5065],[3.6089,36.4013,828.04],[3.6202,36.4029,831.8057],[3.6489,36.4222,726.9635],[3.6484,36.4365,495.8194],[3.6565,36.4442,292.0981],[3.6627,36.4458,291.8327],[3.6532,36.4534,405.9279],[3.6532,36.4583,531.6815],[3.6462,36.4702,651.0643]]]]}}