{"type":"Feature","properties":{"GID_2":"DZA.48.2_1","GID_0":"DZA","country":"Algeria","GID_1":"DZA.48_1","province":"Tlemcen","NL_NAME_1":"تلمسان","county":"AinFezza","VARNAME_2":"NA","NL_NAME_2":"NA","TYPE_2":"Commune","ENGTYPE_2":"Commune","CC_2":"1312","HASC_2":"DZ.TL.AF","name":"Ain_Fezza.county"},
"geometry":{"type": "MultiPolygon","coordinates": [[[[-1.0818,34.9338,606.5774],[-1.0916,34.9411,650.8325],[-1.1125,34.9478,741.9366],[-1.1334,34.9479,848.1112],[-1.1438,34.9442,903.0198],[-1.1577,34.9491,813.2769],[-1.1701,34.9418,1133.2385],[-1.1808,34.9391,1132.011],[-1.1933,34.931399999999996,1086.1199],[-1.2101,34.9382,762.809],[-1.212,34.9422,644.9243],[-1.2178,34.9404,659.9495],[-1.2249,34.946,620.1804],[-1.2314,34.9461,597.9498],[-1.2466,34.933,592.2632],[-1.236,34.9273,651.4747],[-1.2411,34.92,664.7073],[-1.236,34.9176,720.5264],[-1.2341,34.9135,881.7264],[-1.2538,34.9005,733.024],[-1.2581,34.8949,651.856],[-1.2614,34.8813,714.2073],[-1.2622,34.8653,881.1365],[-1.2512,34.862,1192.3744],[-1.2388,34.8477,1229.748],[-1.2402,34.8414,1177.9662],[-1.2489,34.8265,1383.635],[-1.2406,34.8274,1393.5439],[-1.2302,34.8313,1373.1721],[-1.2194,34.8282,1352.3512],[-1.2011,34.8325,1169.8397],[-1.1901,34.837,1010.8069],[-1.1776,34.852,924.0218],[-1.1743,34.8586,829.3326],[-1.1686,34.8643,789.9338],[-1.163,34.8673,770.868],[-1.1608,34.8799,798.818],[-1.1535,34.8795,771.1323],[-1.1319,34.8916,703.1494],[-1.1196,34.8915,668.6251],[-1.1144,34.8951,681.7509],[-1.1036,34.8972,669.6487],[-1.0994,34.9028,663.6936],[-1.1,34.9104,620.6],[-1.0958,34.9198,613.7493],[-1.0818,34.9338,606.5774]]]]}}