{"type":"Feature","properties":{"GID_2":"DZA.6.38_1","GID_0":"DZA","country":"Algeria","GID_1":"DZA.6_1","province":"Batna","NL_NAME_1":"ولايةباتنة","county":"OuedChaaba","VARNAME_2":"NA","NL_NAME_2":"NA","TYPE_2":"Commune","ENGTYPE_2":"Commune","CC_2":"537","HASC_2":"DZ.BT.OC","name":"Oued_Chaaba.county"},
"geometry":{"type": "MultiPolygon","coordinates": [[[[6.0379,35.4398,1318.653],[6.0541,35.4463,1343.2062],[6.0727,35.4504,1388.063],[6.0892,35.4615,1422.9783],[6.0925,35.4667,1539.6362],[6.1057,35.4712,1551.8284],[6.1093,35.4739,1554.9304],[6.1201,35.4705,1588.3862],[6.1244,35.4721,1569.7389],[6.1308,35.4711,1651.2633],[6.1375,35.4732,1692.1235],[6.1532,35.4816,1752.3687],[6.1526,35.4913,1714.6382],[6.1547,35.4958,1714.1559],[6.1802,35.4986,1513.9517],[6.1845,35.5,1457.3174],[6.1897,35.5043,1423.1093],[6.1961,35.5039,1381.6891],[6.2043,35.4995,1274.863],[6.2092,35.4997,1246.3574],[6.2148,35.505,1266.6229],[6.217,35.512,1125.4799],[6.2102,35.518,1094.9103],[6.1975,35.5216,1096.3508],[6.1772,35.5246,1144.0804],[6.1673,35.5231,1129.8861],[6.1606,35.5239,1114.8263],[6.1453,35.5311,1101.7896],[6.1402,35.5305,1109.4763],[6.1272,35.5233,1134.6149],[6.1216,35.5249,1091.4028],[6.0949,35.5394,1103.8633],[6.0896,35.5439,1127.9404],[6.0987,35.5489,1116.9751],[6.1222,35.5574,1114.9509],[6.1254,35.5622,1114.9163],[6.1267,35.5684,1132.9565],[6.1225,35.5701,1153.5807],[6.1196,35.582,1180.7726],[6.1218,35.5873,1194.4908],[6.12,35.5918,1262.7102],[6.1113,35.5975,1291.817],[6.1007,35.6017,1407.6836],[6.0987,35.6099,1746.0049],[6.0794,35.6041,1704.1556],[6.0686,35.5971,1721.2109],[6.0637,35.5956,1728.4913],[6.0566,35.5972,1820.4038],[6.052,35.5931,1798.5654],[6.0398,35.5868,1875.6052],[6.0331,35.588,1771.4265],[6.0153,35.5847,1990.084],[6.0099,35.5861,1940.925],[6.0043,35.5842,1979.3301],[5.9999,35.5846,1965.5055],[5.993,35.5768,1752.8076],[5.9921,35.5708,1780.0487],[5.9769,35.5632,1738.8433],[5.9704,35.5613,1782.2592],[5.9654,35.5617,1808.9336],[5.9609,35.558,1908.8667],[5.9681,35.5356,1684.2361],[5.9648,35.5317,1685.8271],[5.9504,35.5235,1614.5126],[5.947,35.5165,1529.5223],[5.9479,35.5099,1481.8135],[5.9523,35.5022,1612.3671],[5.9546,35.4916,1319.2867],[5.958,35.4884,1304.9149],[5.9633,35.4787,1183.6168],[5.9628,35.4744,1155.9669],[5.9593,35.4697,1182.5388],[5.9538,35.4673,1176.798],[5.9513,35.4627,1181.0862],[5.9526,35.4584,1161.1223],[5.9505,35.4538,1154.7916],[5.9539,35.4491,1049.7478],[6.0034,35.4522,1024.2668],[6.0221,35.4498,1110.3103],[6.0325,35.4445,1308.5281],[6.0379,35.4398,1318.653]]]]}}