{"type":"Feature","properties":{"GID_2":"DZA.1.12_1","GID_0":"DZA","country":"Algeria","GID_1":"DZA.1_1","province":"Adrar","NL_NAME_1":"ولايةأدرا","county":"Metarfa","VARNAME_2":"NA","NL_NAME_2":"NA","TYPE_2":"Commune","ENGTYPE_2":"Commune","CC_2":"120","HASC_2":"DZ.AR.ME","name":"Metarfa.county"},
"geometry":{"type": "MultiPolygon","coordinates": [[[[0.1394,28.6242,286.1709],[0.0435,28.715699999999998,267.2167],[-0.2156,28.7534,246.3076],[-0.265,28.5601,271.2152],[-0.2166,28.5251,249.808],[-0.0357,28.5068,276.2169],[0.0169,28.4827,283.8036],[0.3958,28.3819,361.9238],[0.39,28.5781,345.8505],[0.1394,28.6242,286.1709]]]]}}