{"type":"Feature","properties":{"GID_2":"DZA.9.27_1","GID_0":"DZA","country":"Algeria","GID_1":"DZA.9_1","province":"Biskra","NL_NAME_1":"ولايةبسكرة","county":"Oumache","VARNAME_2":"Ûm`āsh","NL_NAME_2":"NA","TYPE_2":"Commune","ENGTYPE_2":"Commune","CC_2":"702","HASC_2":"DZ.BS.OM","name":"Oumache.county"},
"geometry":{"type": "MultiPolygon","coordinates": [[[[5.7064,34.7873,73.3219],[5.6744,34.7879,72.7842],[5.645,34.7501,63.6268],[5.6271,34.7347,61.235],[5.629,34.7283,58.2594],[5.6605,34.6865,54.9054],[5.6761,34.6773,50.3832],[5.6753,34.6707,51.3942],[5.6698,34.6612,51.3165],[5.6695,34.6557,52.2043],[5.6657,34.6505,54.8484],[5.6719,34.6361,54.7277],[5.6768,34.6313,55.9277],[5.6913,34.628,53.8812],[5.6883,34.5484,62.1052],[5.6892,34.51,61.4581],[5.6817,34.4198,70.7197],[5.7054,34.4139,63.0083],[5.8149,34.4003,40.7905],[5.943,34.3857,11.5794],[5.9585,34.3858,0.9772],[5.9683,34.3932,-0.238],[5.9017,34.5306,20.4234],[5.9002,34.5354,16.2576],[5.9003,34.5451,20.7739],[5.8947,34.5692,18.4622],[5.8726,34.6406,22.5223],[5.8718,34.6514,21.7899],[5.8743,34.6564,21.5886],[5.8442,34.681,27.3186],[5.8416,34.6909,28.2812],[5.8274,34.6975,30.6932],[5.8147,34.7073,32.8101],[5.8107,34.7206,36.931],[5.8183,34.7458,45.4304],[5.8179,34.7578,49.7849],[5.8156,34.763,51.1201],[5.8059,34.7749,55.7416],[5.8033,34.7817,54.5234],[5.7968,34.7834,58.0199],[5.7064,34.7873,73.3219]]]]}}