{"type":"Feature","properties":{"GID_2":"DZA.42.1_1","GID_0":"DZA","country":"Algeria","GID_1":"DZA.42_1","province":"Tébessa","NL_NAME_1":"ولايةتبسة","county":"AinZerga","VARNAME_2":"NA","NL_NAME_2":"NA","TYPE_2":"Commune","ENGTYPE_2":"Commune","CC_2":"1223","HASC_2":"DZ.TB.AZ","name":"Ain_Zerga.county"},
"geometry":{"type": "MultiPolygon","coordinates": [[[[8.2661,35.7303,832.8787],[8.2593,35.7296,867.8467],[8.2487,35.7316,1024.2163],[8.2185,35.7267,706.8408],[8.2109,35.7227,715.7477],[8.1916,35.7181,733.2214],[8.1696,35.7094,751.7],[8.1652,35.7061,763.0084],[8.163,35.7019,768.9418],[8.1892,35.682,800.3297],[8.197,35.6732,809.6133],[8.1722,35.6569,888.3369],[8.1434,35.6529,1200.29],[8.1085,35.6224,1217.6974],[8.1136,35.6219,1288.8193],[8.1331,35.6094,1146.5161],[8.1302,35.6043,1199.7329],[8.1304,35.5979,1171.9916],[8.1287,35.5938,1191.8206],[8.129,35.5749,1298.8817],[8.1428,35.5786,1232.1025],[8.1471,35.5775,1174.8384],[8.146,35.5732,1190.1577],[8.1315,35.5577,1163.8917],[8.1212,35.5483,1072.7947],[8.1156,35.5453,1038.3267],[8.111,35.5396,913.6351],[8.1316,35.5447,992.1227],[8.1448,35.5421,1140.5547],[8.1483,35.539,1146.9631],[8.1477,35.5325,1210.9591],[8.1499,35.5267,1345.395],[8.1635,35.5252,1379.5011],[8.1711,35.5342,1324.8323],[8.1831,35.5418,1284.3235],[8.1859,35.5512,1197.9178],[8.1898,35.5533,1200.4462],[8.1998,35.5446,1289.0588],[8.2044,35.5464,1293.2643],[8.2385,35.5819,1133.6499],[8.2442,35.574,1077.824],[8.2462,35.5682,1053.313],[8.2398,35.5559,1101.1274],[8.2327,35.548,1093.4158],[8.2307,35.5427,1104.3237],[8.2398,35.5399,1128.4431],[8.2597,35.5272,1072.9589],[8.2775,35.5196,1027.0325],[8.2819,35.5205,1007.1678],[8.2926,35.5267,997.385],[8.3135,35.5289,962.2097],[8.3331,35.5366,938.3428],[8.3391,35.5383,930.5402],[8.3429,35.5361,923.1082],[8.3549,35.5414,910.9037],[8.3633,35.5432,904.1244],[8.3655,35.5484,904.7753],[8.3648,35.5537,907.2631],[8.3567,35.5797,953.616],[8.3553,35.6049,992.353],[8.3532,35.6124,1020.5436],[8.3591,35.6212,1011.1011],[8.3622,35.6454,975.5093],[8.3581,35.6533,962.9694],[8.3591,35.6564,951.3066],[8.3579,35.6698,928.1231],[8.3542,35.6749,935.7839],[8.339,35.6831,898.6165],[8.3332,35.6855,875.6649],[8.3202,35.6854,877.582],[8.3137,35.6918,848.0688],[8.3091,35.692,839.8456],[8.3003,35.7056,787.5018],[8.2805,35.7242,725.4052],[8.2661,35.7303,832.8787]]]]}}