{"type": "Feature","bbox": [5.046,36.4142,5.1884,36.4946],"geometry": {"type": "MultiPolygon","coordinates": [[[[5.1762,36.4946,896.8013],[5.1698,36.4923,767.8678],[5.1507,36.4911,802.0591],[5.1342,36.4837,789.7314],[5.1222,36.4761,961.8683],[5.0978,36.4739,1021.189],[5.0895,36.4769,806.6126],[5.0843,36.4768,733.4495],[5.0779,36.4704,797.9952],[5.0655,36.4688,674.7489],[5.0535,36.4639,642.0928],[5.046,36.4627,646.5764],[5.0506,36.4465,881.6717],[5.0583,36.4472,880.8239],[5.0599,36.4379,840.9623],[5.0674,36.4384,1034.0204],[5.0752,36.4444,1001.1292],[5.0804,36.4423,1019.1686],[5.0956,36.4408,1026.8077],[5.103,36.4363,1003.1394],[5.1104,36.4365,1046.6074],[5.1192,36.4327,1230.4144],[5.1402,36.4448,871.9844],[5.1419,36.4377,916.1327],[5.1459,36.4344,858.3132],[5.1621,36.4271,995.6858],[5.1726,36.4332,839.7042],[5.179,36.4142,963.0701],[5.1842,36.4177,914.9098],[5.1862,36.4225,1021.8516],[5.1866,36.4345,995.4886],[5.184,36.4481,739.3356],[5.188,36.454,730.4167],[5.1884,36.4604,642.6328],[5.1772,36.4631,625.8611],[5.173,36.468,702.2798],[5.1726,36.4745,782.6859],[5.1774,36.4899,780.0189],[5.1762,36.4946,896.8013]]]]}
,"properties": {"GID_2": "DZA.37.57_1","GID_0": "DZA","country": "Algeria","GID_1": "DZA.37_1","province": "Sétif","NL_NAME_1": "ولايةسطيف","county": "Tala-Ifacene","VARNAME_2": "TalaIfacene","NL_NAME_2": "NA","TYPE_2": "Commune","ENGTYPE_2": "Commune","CC_2": "1942","HASC_2": "DZ.SF.TI","name": "Tala-Ifacene.county","area_km2": 56.39413,"hist_schema_id": "Elevation0-9000","hist_area_km2": {"625": 0.83554,"650": 2.52366,"675": 3.64916,"700": 4.79158,"725": 4.5359,"750": 4.41652,"775": 4.33128,"800": 3.63216,"825": 4.09274,"850": 3.93935,"875": 3.3595,"900": 3.46192,"925": 3.05264,"950": 3.29128,"975": 2.18281,"1000": 1.3985,"1025": 1.00624,"1050": 0.597,"1075": 0.34114,"1100": 0.39232,"1125": 0.27292,"1150": 0.06823,"1175": 0.1194,"1200": 0.08529,"1225": 0.01706}}}