{"type": "Feature","bbox": [5.4038,35.1916,5.8562,35.4338],"geometry": {"type": "MultiPolygon","coordinates": [[[[5.8433,35.4299,1023.7449],[5.8363,35.4293,1011.8953],[5.8316,35.4338,1029.7469],[5.8253,35.4336,1025.392],[5.8115,35.4285,1019.1125],[5.795,35.4268,1000.3715],[5.7868,35.421,1005.4698],[5.767,35.4183,1030.5378],[5.7622,35.4142,1046.9921],[5.7537,35.4018,1214.8702],[5.7374,35.4,1148.0123],[5.7118,35.4013,912.8854],[5.7113,35.3944,858.8727],[5.7076,35.3911,850.494],[5.7013,35.3886,830.782],[5.6904,35.3866,797.7642],[5.6838,35.3791,777.6089],[5.6817,35.3739,766.9868],[5.6837,35.363,752.9426],[5.6791,35.3616,742.6168],[5.6754,35.3563,740.3975],[5.6824,35.3564,744.9471],[5.6889,35.3539,760.6284],[5.6925,35.3479,785.4716],[5.6876,35.3481,772.7089],[5.6855,35.3423,789.7375],[5.6885,35.3376,859.8231],[5.6743,35.3363,841.1193],[5.6631,35.3297,842.6759],[5.6493,35.3255,781.1444],[5.6444,35.322,904.0275],[5.6345,35.3201,823.0828],[5.6131,35.3118,855.4143],[5.5908,35.309,774.8648],[5.5867,35.3069,805.3226],[5.5852,35.2972,1041.7251],[5.5879,35.2873,927.054],[5.5826,35.2704,771.8698],[5.572,35.2656,760.386],[5.5643,35.2569,704.4739],[5.5507,35.2515,709.653],[5.5331,35.2619,950.316],[5.5253,35.2713,898.177],[5.5203,35.2817,816.4933],[5.5141,35.2843,733.8921],[5.4817,35.2735,776.5248],[5.4694,35.2635,740.5549],[5.4656,35.258,828.6223],[5.4579,35.2566,857.6066],[5.4349,35.2622,737.6708],[5.4259,35.2732,679.4049],[5.4105,35.2732,605.8636],[5.4038,35.2703,548.9857],[5.404,35.2656,530.267],[5.414,35.2416,567.0483],[5.4237,35.2323,561.2905],[5.4544,35.2151,569.4489],[5.461,35.2138,546.4045],[5.4777,35.2012,482.7707],[5.491,35.1957,522.7857],[5.5133,35.1923,501.9248],[5.5353,35.1916,496.0918],[5.5568,35.1936,491.261],[5.5817,35.1991,533.5952],[5.5898,35.2055,566.1331],[5.6024,35.2089,570.1246],[5.6124,35.2199,607.31],[5.6147,35.2249,649.4771],[5.6193,35.2279,697.5856],[5.6368,35.2347,758.4333],[5.6637,35.249,903.1256],[5.7049,35.2669,806.4125],[5.7223,35.277,768.3718],[5.7636,35.289,871.4243],[5.7737,35.2942,855.0712],[5.7801,35.2945,894.1031],[5.7964,35.3023,881.7678],[5.8079,35.3013,829.2928],[5.8196,35.312,803.4035],[5.8315,35.3157,851.1804],[5.8345,35.3211,813.5458],[5.832,35.3258,834.6125],[5.8344,35.3305,901.0305],[5.8323,35.3349,918.4769],[5.8273,35.3359,907.7955],[5.8244,35.3452,869.2609],[5.8258,35.3553,914.3268],[5.8236,35.3612,1005.2051],[5.8167,35.3676,1104.2336],[5.8193,35.3737,1064.4564],[5.8258,35.3805,1041.5203],[5.8337,35.3826,1075.803],[5.8341,35.3879,1125.226],[5.8379,35.3972,1209.3849],[5.8485,35.4,1007.0257],[5.8534,35.4032,973.5],[5.8562,35.4076,964.8425],[5.85,35.4281,1006.4218],[5.8433,35.4299,1023.7449]]]]}
,"properties": {"GID_2": "DZA.6.59_1","GID_0": "DZA","country": "Algeria","GID_1": "DZA.6_1","province": "Batna","NL_NAME_1": "ولايةباتنة","county": "Tilatou","VARNAME_2": "NA","NL_NAME_2": "NA","TYPE_2": "Commune","ENGTYPE_2": "Commune","CC_2": "518","HASC_2": "DZ.BT.TT","name": "Tilatou.county","area_km2": 384.8362,"hist_schema_id": "Elevation0-9000","hist_area_km2": {"475": 0.0866,"500": 5.4403,"525": 7.6742,"550": 6.5125,"575": 6.703,"600": 5.854,"625": 5.9578,"650": 6.2171,"675": 6.4247,"700": 7.3073,"725": 8.1554,"750": 10.2474,"775": 16.4552,"800": 24.7396,"825": 25.7936,"850": 24.7731,"875": 23.978,"900": 20.7788,"925": 18.6686,"950": 18.4938,"975": 18.8364,"1000": 21.568,"1025": 18.2327,"1050": 17.4399,"1075": 16.4536,"1100": 13.131,"1125": 7.9238,"1150": 6.2106,"1175": 3.7024,"1200": 2.8549,"1225": 2.2668,"1250": 1.6614,"1275": 1.1254,"1300": 0.9176,"1325": 0.7271,"1350": 0.6579,"1375": 0.2943,"1400": 0.277,"1425": 0.1212,"1450": 0.1212,"1475": 0.0519}}}