{"type": "Feature","bbox": [4.0175,36.6059,4.0605,36.6721],"geometry": {"type": "MultiPolygon","coordinates": [[[[4.0567,36.6318,566.8243],[4.0588,36.6375,566.8278],[4.0574,36.6435,501.3428],[4.0605,36.6566,400.485],[4.0544,36.6588,476.5609],[4.0545,36.6644,413.1418],[4.0514,36.6693,384.9808],[4.0385,36.6634,428.3198],[4.0341,36.665,326.6492],[4.0305,36.6694,262.8961],[4.0202,36.6721,176.3299],[4.0195,36.6648,250.0183],[4.0219,36.6518,278.8],[4.0218,36.6331,337.9942],[4.0178,36.6283,351.7958],[4.0175,36.6234,333.3058],[4.0215,36.6212,357.8412],[4.0283,36.6059,423.1558],[4.0525,36.6112,616.661],[4.0544,36.618,603.2479],[4.0534,36.6225,583.9379],[4.0567,36.6318,566.8243]]]]}
,"properties": {"GID_2": "DZA.47.26_1","GID_0": "DZA","country": "Algeria","GID_1": "DZA.47_1","province": "TiziOuzou","NL_NAME_1": "ولايةغليزان","county": "BeniZmenzer","VARNAME_2": "NA","NL_NAME_2": "NA","TYPE_2": "Commune","ENGTYPE_2": "Commune","CC_2": "1516","HASC_2": "DZ.TO.BZ","name": "Beni_Zmenzer.county","area_km2": 20.3644,"hist_schema_id": "Elevation0-9000","hist_area_km2": {"200": 0.03401,"225": 0.01701,"250": 0.17008,"275": 0.22111,"300": 0.28916,"325": 0.45927,"350": 0.59538,"375": 0.74857,"400": 0.85063,"425": 1.30992,"450": 1.37798,"475": 1.78627,"500": 1.82027,"525": 1.70122,"550": 1.68427,"575": 1.53123,"600": 1.53124,"625": 1.5483,"650": 1.51435,"675": 0.79976,"700": 0.35734,"725": 0.01701}}}