{"type": "Feature","bbox": [5.4569,36.3266,5.5858,36.4287],"geometry": {"type": "MultiPolygon","coordinates": [[[[5.511,36.4093,814.447],[5.5043,36.4106,783.4036],[5.496,36.41,868.3779],[5.4867,36.416,789.4623],[5.486,36.4204,785.0822],[5.4828,36.4244,773.7927],[5.4774,36.4274,781.3961],[5.4723,36.4287,753.4019],[5.4569,36.4282,726.8563],[5.4593,36.4172,841.7642],[5.4668,36.4128,991.0549],[5.4787,36.3958,1199.2378],[5.4792,36.3834,1212.1862],[5.4737,36.3687,1204.9496],[5.4763,36.3623,1273.5857],[5.4813,36.3595,1332.4097],[5.4901,36.3504,1111.2178],[5.49,36.3442,1044.7356],[5.4934,36.3406,1020.2322],[5.4978,36.3396,1035.2477],[5.5011,36.3362,986.7134],[5.5055,36.3368,1041.958],[5.5102,36.3407,953.2682],[5.5145,36.3377,1057.8784],[5.5165,36.333,1136.9198],[5.5161,36.327,1140.1628],[5.5261,36.3266,1200.3462],[5.5359,36.3298,1243.7004],[5.5537,36.3312,1112.688],[5.5582,36.339,930.3677],[5.5691,36.3508,878.629],[5.5858,36.3614,1013.4128],[5.5797,36.3655,1175.4336],[5.5714,36.3643,1157.2433],[5.559,36.3832,797.1304],[5.5531,36.3962,741.354],[5.541,36.4038,748.0189],[5.5327,36.406,737.0813],[5.5199,36.4062,787.8929],[5.511,36.4093,814.447]]]]}
,"properties": {"GID_2": "DZA.37.6_1","GID_0": "DZA","country": "Algeria","GID_1": "DZA.37_1","province": "Sétif","NL_NAME_1": "ولايةسطيف","county": "AinElKebira","VARNAME_2": "`Ayn-al-Khabīra","NL_NAME_2": "NA","TYPE_2": "Commune","ENGTYPE_2": "Commune","CC_2": "1902","HASC_2": "DZ.SF.AK","name": "Ain_El_Kebira.county","area_km2": 65.75859,"hist_schema_id": "Elevation0-9000","hist_area_km2": {"700": 0.4096,"725": 1.29701,"750": 1.60409,"775": 2.35503,"800": 3.4644,"825": 5.15439,"850": 5.87183,"875": 5.82111,"900": 5.42893,"925": 4.33637,"950": 3.96093,"975": 3.22681,"1000": 2.81702,"1025": 3.36352,"1050": 3.46619,"1075": 2.71468,"1100": 1.72444,"1125": 1.63914,"1150": 1.4684,"1175": 1.57085,"1200": 1.65634,"1225": 1.05867,"1250": 0.683,"1275": 0.37558,"1300": 0.15367,"1325": 0.0683,"1350": 0.0683}}}