{"type": "Feature","bbox": [5.179,36.0412,5.437,36.1644],"geometry": {"type": "MultiPolygon","coordinates": [[[[5.1879,36.0866,896.7805],[5.1959,36.0788,885.9437],[5.1887,36.0717,907.5539],[5.1848,36.058,926.6937],[5.1871,36.0536,921.1016],[5.214,36.0553,897.9389],[5.2267,36.0516,882.595],[5.2364,36.053,886.1103],[5.2535,36.0476,894.4584],[5.2564,36.0412,889.2881],[5.2845,36.0605,907.6046],[5.3214,36.0771,914.6655],[5.332,36.0943,923.8192],[5.3363,36.0935,923.4723],[5.3714,36.0746,929.0311],[5.3782,36.0843,936.5349],[5.3879,36.0927,949.5538],[5.3945,36.1016,958.0984],[5.3999,36.1058,959.9612],[5.4059,36.105,972.7062],[5.4152,36.1178,977.8687],[5.437,36.1339,1002.7007],[5.4333,36.1408,1001.4115],[5.4257,36.142,999.4957],[5.3833,36.1413,990.0178],[5.3775,36.1378,980.9836],[5.3689,36.1355,973.9547],[5.3682,36.1406,977.8565],[5.3566,36.1397,947.7674],[5.3512,36.1425,955.6382],[5.3543,36.1496,953.2596],[5.3513,36.1627,991.4592],[5.3462,36.1616,980.8257],[5.3372,36.164,1001.6105],[5.3264,36.1644,1002.8393],[5.3244,36.1588,993.0417],[5.3185,36.157,985.0083],[5.311,36.1471,975.1783],[5.3092,36.1415,968.2458],[5.3103,36.1359,963.4928],[5.3131,36.1313,958.6823],[5.3084,36.1276,961.8436],[5.3071,36.1207,948.8121],[5.301,36.1179,941.562],[5.2644,36.1096,924.0472],[5.256,36.1107,926.941],[5.2521,36.1152,897.4834],[5.235,36.1017,901.3856],[5.2146,36.1105,870.0225],[5.2078,36.1194,867.4489],[5.203,36.122,864.99],[5.1805,36.104,905.636],[5.179,36.1,880.2542],[5.185,36.0975,868.5663],[5.1875,36.0934,867.7622],[5.1917,36.0909,868.6212],[5.1879,36.0866,896.7805]]]]}
,"properties": {"GID_2": "DZA.37.46_1","GID_0": "DZA","country": "Algeria","GID_1": "DZA.37_1","province": "Sétif","NL_NAME_1": "ولايةسطيف","county": "Mezloug","VARNAME_2": "NA","NL_NAME_2": "NA","TYPE_2": "Commune","ENGTYPE_2": "Commune","CC_2": "1933","HASC_2": "DZ.SF.ME","name": "Mezloug.county","area_km2": 135.9687,"hist_schema_id": "Elevation0-9000","hist_area_km2": {"875": 14.153,"900": 34.6847,"925": 36.3539,"950": 24.7662,"975": 19.1106,"1000": 6.8661,"1025": 0.0342}}}