{"type":"Feature","properties":{"GID_2":"DZA.26.47_1","GID_0":"DZA","country":"Algeria","GID_1":"DZA.26_1","province":"M'Sila","NL_NAME_1":"ولايةالمسيلة","county":"Zarzour","VARNAME_2":"Zerzour","NL_NAME_2":"NA","TYPE_2":"Commune","ENGTYPE_2":"Commune","CC_2":"2833","HASC_2":"DZ.MS.ZA","name":"Zarzour.county"},
"geometry":{"type": "MultiPolygon","coordinates": [[[[4.7551,35.1459,506.1544],[4.7618,35.1331,512.4606],[4.7595,35.1199,517.0994],[4.7632,35.1062,524.7489],[4.761,35.0937,534.5352],[4.7488,35.0787,546.1388],[4.7477,35.0671,550.6578],[4.7431,35.0652,538.3674],[4.7463,35.0608,553.5185],[4.7455,35.0555,549.2114],[4.7428,35.0517,556.2432],[4.7377,35.0478,549.5804],[4.7317,35.0491,560.255],[4.7264,35.0468,559.5116],[4.7181,35.0384,567.0945],[4.7149,35.0252,567.3694],[4.7018,35.0131,573.581],[4.7195,34.9677,688.0785],[4.7217,34.9584,684.0504],[4.7556,34.9806,757.3607],[4.7612,34.9827,763.4778],[4.8039,34.9698,815.2814],[4.8083,34.9688,778.2689],[4.8122,34.9708,781.2005],[4.8138,34.977,758.0607],[4.802,34.9992,682.5918],[4.8263,34.992,724.4768],[4.8262,35.01,688.9498],[4.8725,35.0405,663.2933],[4.892,35.0205,671.509],[4.9048,35.0151,632.2991],[4.9116,35.0134,621.2743],[4.9164,35.0149,615.0441],[4.9264,35.011,599.9197],[4.9328,35.0111,591.8937],[4.9445,35.0073,572.641],[4.9497,35.0068,568.8516],[4.9544,35.0084,556.5666],[4.9668,35.0072,542.7595],[4.9884,34.9986,515.2777],[5.0064,35.0,498.1945],[5.0069,35.0124,518.4358],[5.0092,35.0174,528.8223],[5.0083,35.0219,538.0778],[5.0009,35.0369,597.0947],[5.0044,35.0397,618.0739],[5.0039,35.0768,576.5151],[5.0008,35.0811,577.7347],[4.9943,35.0847,621.7313],[4.9873,35.085,621.5674],[4.967,35.0926,641.1696],[4.9715,35.1111,683.0157],[4.8887,35.1412,728.285],[4.845,35.1452,706.4794],[4.7551,35.1459,506.1544]]]]}}