{"type": "Feature","bbox": [-5.6526,23.9958,1.4397,26.9953],"geometry": {"type": "MultiPolygon","coordinates": [[[[0.9048,26.2977,188.6291],[0.518,26.9229,293.1468],[0.5171,26.9953,295.2159],[0.0485,26.8444,227.3558],[0.0173,26.8315,176.527],[0.0043,26.8307,164.0529],[-0.235,26.7614,182.7539],[-0.726,26.6121,243.8639],[-1.5078,26.4048,274.2073],[-1.906,26.435,287.5354],[-1.9983,26.4359,290.6135],[-2.4968,26.4542,320.1815],[-3.2965,26.4774,405.3103],[-3.6424,26.4913,460.0029],[-3.9839,26.4058,462.8683],[-4.0211,26.3534,448.0875],[-4.0443,26.3344,441.8112],[-4.0764,26.2875,417.4019],[-4.0883,26.2635,410.7652],[-4.1006,26.2455,406.1741],[-4.1091,26.2276,404.2054],[-4.1237,26.2064,399.6489],[-4.1281,26.1835,395.2939],[-4.1425,26.1407,383.8423],[-4.1523,26.0974,378.5117],[-4.1943,26.0189,374.8314],[-4.8071,26.0002,430.7054],[-5.104,25.7129,372.9841],[-5.6526,25.5179,379.3897],[-5.5695,25.4669,393.4746],[-5.5382,25.4457,383.9577],[-5.4085,25.3664,345.0269],[-5.4059,25.363,357.3415],[-5.3465,25.3257,309.686],[-5.3356,25.3203,320.8566],[-5.1623,25.2089,346.9438],[-5.136,25.1939,262.178],[-5.0346,25.1274,242.9161],[-5.001,25.1079,278.965],[-4.8369,25.0028,218.0117],[-4.8331,24.9984,213.0219],[-4.0241,25.2426,256.6038],[-3.9986,25.2391,251.788],[-3.6727,25.1726,209.2885],[-3.2422,25.0806,255.2402],[-2.8537,25.0032,269.0213],[-2.8,24.9882,292.1149],[-2.6479,24.9592,281.2785],[-2.0433,24.8282,272.3412],[-1.3618,24.6762,269.1995],[-0.63,24.5011,294.8447],[0.0002,24.3637,313.8018],[0.0071,24.356,314.4835],[0.0244,24.3442,313.629],[0.0887,24.3247,317.2034],[0.3467,24.2578,321.0101],[0.8557,24.1389,331.3706],[1.4278,23.9967,379.3906],[1.4381,23.9958,379.895],[1.4397,24.0227,374.9108],[1.4377,24.1843,361.5536],[1.4397,24.8233,365.7441],[1.4387,24.9743,377.093],[1.4279,24.9921,376.8627],[1.4257,25.5255,199.3198],[1.0531,25.9998,175.9183],[0.9951,26.1109,170.179],[0.9048,26.2977,188.6291]]]]}
,"properties": {"GID_2": "DZA.1.16_1","GID_0": "DZA","country": "Algeria","GID_1": "DZA.1_1","province": "Adrar","NL_NAME_1": "ولايةأدرا","county": "Reggane","VARNAME_2": "Rijān","NL_NAME_2": "NA","TYPE_2": "Commune","ENGTYPE_2": "Commune","CC_2": "104","HASC_2": "DZ.AR.RE","name": "Reggane.county","area_km2": 124954.38,"hist_schema_id": "Elevation0-9000","hist_area_km2": {"125": 16.21,"150": 1099.45,"175": 2414.36,"200": 3203.75,"225": 6810.75,"250": 20902.01,"275": 30484.32,"300": 21923.56,"325": 15332.7,"350": 10873.32,"375": 6926.86,"400": 2947.36,"425": 1181.91,"450": 465.7,"475": 178.81,"500": 120.38,"525": 37.68,"550": 17.38,"575": 9.12,"600": 5.72,"625": 2.81}}}