{"type":"Feature","properties":{"GID_2":"DZA.26.10_1","GID_0":"DZA","country":"Algeria","GID_1":"DZA.26_1","province":"M'Sila","NL_NAME_1":"ولايةالمسيلة","county":"Berhoum","VARNAME_2":"NA","NL_NAME_2":"NA","TYPE_2":"Commune","ENGTYPE_2":"Commune","CC_2":"2812","HASC_2":"DZ.MS.BM","name":"Berhoum.county"},
"geometry":{"type": "MultiPolygon","coordinates": [[[[5.0355,35.5701,486.4785],[5.0441,35.5735,488.8113],[5.0454,35.5802,494.2742],[5.0458,35.593,509.1295],[5.0405,35.6022,515.0608],[5.0445,35.6218,541.4515],[5.0422,35.6326,565.7872],[5.0435,35.638,575.7482],[5.0502,35.6469,584.7579],[5.0502,35.6559,607.6063],[5.0604,35.6623,617.9431],[5.0683,35.6741,647.0569],[5.0735,35.6721,641.2085],[5.0731,35.6782,662.4308],[5.0548,35.6807,674.6234],[5.0592,35.6913,723.0237],[5.0519,35.706,734.3076],[5.018,35.6929,660.8379],[4.9931,35.6927,676.4152],[4.9822,35.701,715.5394],[4.976,35.6757,656.6803],[4.9732,35.6712,649.3425],[4.9617,35.6673,634.3757],[4.9523,35.6618,600.3119],[4.9529,35.6489,601.1985],[4.9461,35.6331,567.6886],[4.9408,35.6272,551.7095],[4.9288,35.6239,534.186],[4.934,35.6142,567.5811],[4.926,35.6041,504.4178],[4.9273,35.5961,489.7518],[4.9298,35.5913,504.7816],[4.9482,35.5999,535.4399],[4.9534,35.6004,532.6351],[4.9568,35.5739,488.5268],[4.9644,35.5716,487.2096],[4.9841,35.5869,500.7364],[4.9832,35.5968,511.2589],[4.9787,35.6065,538.8013],[4.99,35.6098,552.275],[4.9953,35.6072,527.9593],[5.0,35.593,506.0992],[5.0049,35.5921,511.9581],[5.009,35.5951,513.0908],[5.0144,35.5964,515.454],[5.0148,35.5913,495.1112],[5.0174,35.5862,486.5256],[5.0259,35.5845,495.5288],[5.0365,35.5764,492.4726],[5.0355,35.5701,486.4785]]]]}}