{"type":"Feature","properties":{"GID_2":"DZA.26.37_1","GID_0":"DZA","country":"Algeria","GID_1":"DZA.26_1","province":"M'Sila","NL_NAME_1":"ولايةالمسيلة","county":"OuledSlimane","VARNAME_2":"NA","NL_NAME_2":"NA","TYPE_2":"Commune","ENGTYPE_2":"Commune","CC_2":"2825","HASC_2":"DZ.MS.OS","name":"Ouled_Slimane.county"},
"geometry":{"type": "MultiPolygon","coordinates": [[[[4.9261,34.8587,483.5379],[4.9353,34.8636,469.9451],[4.9422,34.8704,491.8696],[4.9663,34.8723,555.9623],[4.9969,34.8945,567.1052],[4.9975,34.913,682.879],[5.0044,34.9334,555.6362],[5.0087,34.9357,572.0886],[5.0266,34.9312,513.4515],[5.0292,34.9356,537.3974],[5.0269,34.9402,496.6904],[5.0212,34.944,498.1367],[5.0076,34.946,509.7812],[5.0042,34.9499,519.2016],[5.0046,34.9581,514.5352],[5.0162,34.986,507.5126],[5.0109,34.9979,511.5894],[5.0064,35.0,498.1945],[4.9884,34.9986,515.2777],[4.9668,35.0072,542.7595],[4.9544,35.0084,556.5666],[4.9497,35.0068,568.8516],[4.9445,35.0073,572.641],[4.9328,35.0111,591.8937],[4.9264,35.011,599.9197],[4.9164,35.0149,615.0441],[4.9116,35.0134,621.2743],[4.8973,35.0178,657.3083],[4.892,35.0205,671.509],[4.8725,35.0405,663.2933],[4.8262,35.01,688.9498],[4.8263,34.992,724.4768],[4.802,34.9992,682.5918],[4.8138,34.977,758.0607],[4.8122,34.9708,781.2005],[4.8083,34.9688,778.2689],[4.8039,34.9698,815.2814],[4.7612,34.9827,763.4778],[4.7556,34.9806,757.3607],[4.7217,34.9584,684.0504],[4.7103,34.9438,649.8828],[4.7062,34.9335,617.8426],[4.7098,34.9281,620.1289],[4.7151,34.925,622.157],[4.7147,34.9184,626.6405],[4.7091,34.9166,631.9603],[4.7052,34.8963,708.6686],[4.6914,34.8612,777.2689],[4.6977,34.8403,1027.2371],[4.6954,34.8329,1091.9138],[4.7034,34.8269,966.3632],[4.7086,34.8187,835.4359],[4.7097,34.8139,819.7],[4.7158,34.8127,972.418],[4.7226,34.8137,1033.9727],[4.7336,34.8184,1008.1733],[4.7467,34.8207,973.0565],[4.7598,34.8299,969.9803],[4.7665,34.8284,909.8236],[4.7816,34.8305,776.3252],[4.7995,34.8301,768.6462],[4.8087,34.8391,725.3281],[4.8393,34.8473,700.8416],[4.8536,34.8465,810.0372],[4.8595,34.8477,791.9791],[4.8645,34.8464,758.8829],[4.8686,34.843,751.1837],[4.8746,34.8431,729.2958],[4.8892,34.8492,608.5863],[4.8969,34.8508,578.2915],[4.9054,34.8614,571.1104],[4.9261,34.8587,483.5379]]]]}}