{"type":"Feature","properties":{"GID_2":"DZA.14.9_1","GID_0":"DZA","country":"Algeria","GID_1":"DZA.14_1","province":"Chlef","NL_NAME_1":"ولايةالشلف","county":"Breira","VARNAME_2":"NA","NL_NAME_2":"NA","TYPE_2":"Commune","ENGTYPE_2":"Commune","CC_2":"234","HASC_2":"DZ.CH.BA","name":"Breira.county"},
"geometry":{"type": "MultiPolygon","coordinates": [[[[1.6451,36.4558,89.0985],[1.6482,36.4681,94.4453],[1.6461,36.4732,84.3563],[1.6523,36.4752,61.6967],[1.6565,36.4807,73.5219],[1.667,36.4848,44.8778],[1.657,36.4921,264.2432],[1.6441,36.4963,441.1706],[1.625,36.4966,618.3432],[1.6106,36.4905,508.8654],[1.5934,36.4988,171.2767],[1.5882,36.4947,244.3626],[1.5786,36.4822,418.7672],[1.5727,36.481,612.7496],[1.5657,36.4773,662.9313],[1.5617,36.4707,757.8912],[1.5524,36.4631,660.2227],[1.5499,36.4554,704.5383],[1.5423,36.4479,763.6532],[1.5388,36.4374,768.6735],[1.5258,36.4322,589.0204],[1.5193,36.4313,500.6033],[1.5198,36.4247,489.1303],[1.5256,36.4207,494.809],[1.528,36.4143,418.9148],[1.5329,36.4101,392.4444],[1.543,36.4045,340.0618],[1.5476,36.3998,210.103],[1.5522,36.3981,198.6348],[1.5546,36.4025,167.9494],[1.5762,36.4098,174.2423],[1.5835,36.4179,127.1803],[1.5914,36.4167,121.8104],[1.6033,36.4245,111.7669],[1.6101,36.4246,112.6576],[1.614,36.4226,108.2367],[1.6234,36.4345,110.1936],[1.6282,36.4485,86.5506],[1.6346,36.4475,81.1756],[1.6392,36.4503,99.5935],[1.6405,36.4557,73.9077],[1.6451,36.4558,89.0985]]]]}}