{"type":"Feature","properties":{"GID_2":"DZA.47.7_1","GID_0":"DZA","country":"Algeria","GID_1":"DZA.47_1","province":"TiziOuzou","NL_NAME_1":"ولايةغليزان","county":"Ait-Mahmoud","VARNAME_2":"AitMahmoud","NL_NAME_2":"NA","TYPE_2":"Commune","ENGTYPE_2":"Commune","CC_2":"1528","HASC_2":"DZ.TO.AM","name":"Ait-Mahmoud.county"},
"geometry":{"type": "MultiPolygon","coordinates": [[[[4.1484,36.6332,160.3501],[4.145,36.6378,158.0],[4.1383,36.6384,158.0],[4.1354,36.6459,158.0],[4.1308,36.6389,159.4974],[4.1103,36.6331,353.3264],[4.1115,36.6284,529.4952],[4.1103,36.6239,599.7769],[4.1131,36.6195,411.849],[4.1078,36.6158,494.2723],[4.1003,36.6134,608.7254],[4.0939,36.6086,741.9549],[4.0826,36.6048,817.2211],[4.0848,36.5976,620.4458],[4.0984,36.5946,424.7059],[4.0997,36.589,427.2297],[4.1051,36.5799,329.5189],[4.109,36.5781,320.3683],[4.1245,36.5824,281.0072],[4.1283,36.5858,276.9329],[4.1349,36.5871,289.7791],[4.1387,36.5844,230.848],[4.1553,36.5888,209.7724],[4.1577,36.5955,272.7052],[4.1623,36.6017,197.1496],[4.1557,36.6034,198.249],[4.1531,36.6085,203.1094],[4.1453,36.6094,193.5432],[4.1402,36.6213,214.359],[4.1484,36.6332,160.3501]]]]}}