{"type":"Feature","properties":{"GID_2":"DZA.39.2_1","GID_0":"DZA","country":"Algeria","GID_1":"DZA.39_1","province":"Skikda","NL_NAME_1":"سكيكدة","county":"AinCharchar","VARNAME_2":"AinCherchar","NL_NAME_2":"NA","TYPE_2":"Commune","ENGTYPE_2":"Commune","CC_2":"2106","HASC_2":"DZ.SK.AC","name":"Ain_Charchar.county"},
"geometry":{"type": "MultiPolygon","coordinates": [[[[7.2959,36.7708,56.3919],[7.2898,36.7767,67.0145],[7.2887,36.7832,22.3863],[7.2754,36.7873,104.7081],[7.2667,36.7804,71.3942],[7.2653,36.7763,69.8356],[7.271,36.7689,58.4866],[7.2654,36.7637,188.0395],[7.2489,36.7679,112.9069],[7.2389,36.7684,75.5623],[7.2269,36.7615,40.7448],[7.2206,36.7615,70.0317],[7.2188,36.7656,41.5028],[7.2133,36.7633,64.8797],[7.2101,36.7674,42.1133],[7.204,36.7677,51.7434],[7.1831,36.7672,45.973],[7.1778,36.763,57.4303],[7.175,36.7588,59.0841],[7.1742,36.7542,64.7082],[7.1799,36.7515,69.449],[7.1796,36.7407,80.5129],[7.1884,36.7377,81.3122],[7.1896,36.7323,99.0192],[7.1874,36.7259,105.042],[7.1826,36.7198,139.1596],[7.1732,36.7134,120.4162],[7.1699,36.709,162.7472],[7.1889,36.6991,311.6705],[7.1966,36.6855,256.4178],[7.1973,36.6796,340.429],[7.1921,36.6778,384.1019],[7.1879,36.6796,403.4618],[7.1808,36.6841,253.1849],[7.1756,36.6922,224.5611],[7.1744,36.6871,260.8021],[7.1759,36.6825,330.3515],[7.1846,36.6756,395.2398],[7.1743,36.6725,402.0918],[7.1685,36.6684,375.9884],[7.1716,36.6566,368.3191],[7.1705,36.6522,339.4034],[7.1799,36.6448,421.8886],[7.1848,36.6462,469.9922],[7.2175,36.6456,415.5347],[7.229,36.6505,460.7678],[7.2331,36.6538,392.9436],[7.2268,36.6564,458.8229],[7.2259,36.661,420.6155],[7.2354,36.6721,386.697],[7.2375,36.6779,518.9554],[7.2478,36.6826,498.7364],[7.2824,36.6903,349.7695],[7.2778,36.7041,121.8565],[7.2713,36.7079,91.4904],[7.2755,36.7184,52.6554],[7.2886,36.7318,35.3276],[7.2942,36.7301,32.0105],[7.298,36.7329,33.2266],[7.2997,36.7393,29.827],[7.3061,36.7418,29.8705],[7.308,36.7478,30.8734],[7.3079,36.7524,30.3197],[7.3053,36.7577,27.847],[7.2971,36.7651,25.634],[7.2959,36.7708,56.3919]]]]}}