{"type":"Feature","properties":{"GID_2":"DZA.38.41_1","GID_0":"DZA","country":"Algeria","GID_1":"DZA.38_1","province":"SidiBelAbbès","NL_NAME_1":"ولايةسيديبلعباس","county":"SidiKhaled","VARNAME_2":"SīdīKhalid","NL_NAME_2":"NA","TYPE_2":"Commune","ENGTYPE_2":"Commune","CC_2":"2227","HASC_2":"DZ.BS.SK","name":"Sidi_Khaled.county"},
"geometry":{"type": "MultiPolygon","coordinates": [[[[-0.6579,35.1543,496.0046],[-0.6804,35.1347,509.0393],[-0.7404,35.1474,518.8069],[-0.7436,35.1379,524.2212],[-0.7527,35.1381,530.6965],[-0.7571,35.1421,525.0519],[-0.7684,35.1418,545.0964],[-0.7778,35.1242,552.5807],[-0.7754,35.1204,553.8529],[-0.7783,35.1179,555.9833],[-0.7723,35.1163,553.8634],[-0.7704,35.1031,561.1614],[-0.7659,35.0947,545.8964],[-0.7498,35.096,533.4673],[-0.7307,35.1039,533.6804],[-0.7282,35.108,535.0413],[-0.7241,35.1093,532.9393],[-0.7084,35.1004,539.1628],[-0.7008,35.099,536.8401],[-0.6964,35.1044,535.8201],[-0.6766,35.0918,549.5117],[-0.6737,35.0958,545.1953],[-0.6613,35.0937,559.1578],[-0.6551,35.0958,559.9053],[-0.6415,35.0877,581.2379],[-0.6369,35.0904,576.3357],[-0.6358,35.0993,562.7468],[-0.6364,35.1159,544.9088],[-0.6349,35.1322,519.3235],[-0.6363,35.1394,512.8623],[-0.6474,35.1416,512.2485],[-0.6579,35.1543,496.0046]]]]}}