{"type":"Feature","properties":{"GID_1":"DZA.16_1","GID_0":"DZA","country":"Algeria","province":"Djelfa","VARNAME_1":"ElDjelfa","NL_NAME_1":"ولايةالجلفة","TYPE_1":"Wilaya","ENGTYPE_1":"Province","CC_1":"17","HASC_1":"DZ.DJ","ISO_1":"DZ-17","name":"Djelfa.province"},
"geometry":{"type": "MultiPolygon","coordinates": [[[[4.2892,34.1097,503.478],[4.3005,34.1206,489.7454],[4.2927,34.1259,479.739],[4.2862,34.1338,487.5007],[4.2809,34.1374,488.0428],[4.2599,34.1445,491.6652],[4.2473,34.1521,504.2264],[4.2376,34.156,518.8682],[4.1968,34.1475,522.5616],[4.1916,34.1505,516.9154],[4.182,34.1665,493.587],[4.175,34.174,483.1797],[4.1732,34.1793,480.6554],[4.1694,34.1812,475.8968],[4.1646,34.1809,474.0971],[4.1533,34.1893,463.0098],[4.1502,34.1944,470.6176],[4.1535,34.1995,470.2666],[4.16,34.2039,458.7098],[4.1727,34.2074,477.8317],[4.1791,34.2134,460.2995],[4.1776,34.2188,450.2351],[4.1666,34.222,454.413],[4.1538,34.2168,472.8853],[4.1399,34.2285,479.9111],[4.1384,34.2347,498.8714],[4.1398,34.24,505.7079],[4.1384,34.2442,510.0457],[4.1325,34.2459,498.558],[4.1207,34.2452,510.1759],[4.1179,34.2488,520.2376],[4.1204,34.254,519.5129],[4.1164,34.2576,521.1206],[4.1107,34.258,524.4682],[4.1175,34.266,544.0719],[4.1139,34.2705,542.5439],[4.1126,34.2758,549.7865],[4.1071,34.2784,549.0211],[4.1026,34.2829,562.523],[4.0961,34.2855,565.7757],[4.0953,34.2922,581.8461],[4.0922,34.2957,574.4147],[4.0754,34.302,589.1757],[4.063,34.3045,597.6978],[4.0644,34.3086,626.6477],[4.0619,34.3139,627.6367],[4.0548,34.3176,661.4766],[4.056,34.3223,631.5822],[4.052,34.3243,649.5628],[4.0472,34.3229,631.9205],[4.043,34.3262,649.7745],[4.0358,34.3244,642.1649],[4.0249,34.3266,655.1936],[4.0071,34.3332,673.5851],[4.0,34.3401,689.2668],[3.9954,34.3421,692.738],[3.9929,34.3465,700.128],[3.9742,34.3629,742.1204],[3.9809,34.4135,961.6469],[3.9896,34.444,1156.166],[3.9052,34.5229,1368.548],[3.917,34.5628,1180.0815],[3.9211,34.6021,1062.1788],[3.9006,34.6612,1022.7148],[3.8913,34.7665,1232.2444],[3.8225,34.7811,1205.322],[3.8081,34.7798,1242.7122],[3.727,34.7903,1130.251],[3.7077,34.8083,1172.4441],[3.6986,34.8071,1200.3279],[3.6571,34.7887,1160.4679],[3.6409,34.7906,1210.0458],[3.6386,34.8021,1266.377],[3.6496,34.7999,1261.1353],[3.6395,34.8224,1214.2822],[3.6353,34.8272,1185.8171],[3.6301,34.8407,1145.7944],[3.6225,34.8439,1166.7498],[3.6264,34.8489,1174.0886],[3.6355,34.8549,1176.468],[3.6107,34.8671,1090.8616],[3.5681,34.8675,1227.8783],[3.5863,34.8909,1134.6621],[3.5722,34.9134,1115.2979],[3.5648,34.936,1085.9835],[3.572,34.9398,1073.2382],[3.577,34.9564,1059.2892],[3.5767,34.9755,1040.4274],[3.5817,34.9837,1037.4001],[3.5685,34.9785,1035.8502],[3.5654,35.0019,1060.8025],[3.5678,35.0065,1062.9587],[3.5494,35.0211,1100.0627],[3.5755,35.0234,1079.9874],[3.6004,35.0829,1349.3372],[3.5873,35.0755,1375.2311],[3.5797,35.0749,1422.6523],[3.5676,35.0706,1477.0283],[3.5594,35.0587,1364.7455],[3.5533,35.0563,1437.0144],[3.5424,35.058,1482.2566],[3.5302,35.0543,1467.4866],[3.5132,35.0577,1331.5033],[3.5113,35.064,1117.2529],[3.519,35.0761,1036.3065],[3.5178,35.0827,907.0075],[3.5076,35.0922,841.2994],[3.4988,35.1044,789.8349],[3.4926,35.1172,760.2095],[3.4819,35.1306,761.4738],[3.4637,35.1725,754.0],[3.4594,35.176,754.0],[3.5893,35.2604,754.0],[3.5944,35.264,754.0],[3.5981,35.2692,754.0],[3.6134,35.2801,754.0],[3.6668,35.3152,755.2713],[3.6599,35.3507,825.7451],[3.6483,35.3907,915.0698],[3.6877,35.4143,845.358],[3.688,35.4197,815.8698],[3.6823,35.4358,782.786],[3.6896,35.4525,761.5068],[3.6941,35.4841,759.7715],[3.684,35.4952,823.2548],[3.6782,35.5086,820.4583],[3.4813,35.6288,666.705],[3.4751,35.6336,665.0455],[3.4721,35.6381,664.9312],[3.4073,35.6906,672.0983],[3.3838,35.7125,727.3029],[3.3708,35.759,708.4286],[3.3365,35.7535,728.3673],[3.3306,35.7539,731.4896],[3.3169,35.7599,745.2479],[3.2996,35.782,773.9078],[3.2861,35.7884,789.7125],[3.2804,35.7998,807.8871],[3.2809,35.8195,849.8398],[3.279,35.8244,849.3189],[3.2649,35.8206,863.4963],[3.2554,35.813,854.7793],[3.2492,35.8024,851.1277],[3.2435,35.8011,845.7432],[3.2315,35.7896,860.86],[3.2296,35.7851,890.4711],[3.2313,35.7764,827.4155],[3.2275,35.7644,789.5093],[3.2307,35.7602,775.2092],[3.2302,35.7411,750.9351],[3.1967,35.6869,722.4192],[3.1831,35.6783,727.8378],[3.1331,35.6862,690.4818],[3.1407,35.6762,702.8423],[3.0631,35.662,681.6191],[3.0603,35.6735,688.0544],[3.052,35.6792,692.1938],[3.0471,35.7118,704.6927],[3.0551,35.7456,748.1368],[3.0345,35.7402,725.9946],[3.0259,35.7404,720.1984],[3.0207,35.7454,721.3363],[3.0165,35.7553,725.3784],[3.0124,35.8068,844.7299],[3.0017,35.8215,953.9706],[2.9901,35.8315,937.7617],[2.9845,35.8295,936.1627],[2.9806,35.8261,907.2777],[2.9753,35.8274,918.9478],[2.9718,35.821,880.6895],[2.9612,35.8136,884.705],[2.953,35.8132,849.9847],[2.9423,35.8083,796.1782],[2.9388,35.8048,788.7346],[2.9321,35.8066,762.7167],[2.9262,35.8053,764.7274],[2.9215,35.8069,765.4238],[2.9102,35.8069,765.5389],[2.9019,35.8089,772.8531],[2.8999,35.814,720.169],[2.8832,35.8099,738.2719],[2.8735,35.8043,718.1589],[2.8743,35.7988,735.1003],[2.8688,35.7885,698.2251],[2.881,35.7762,715.8097],[2.8804,35.7715,705.1274],[2.8831,35.7673,704.3856],[2.884,35.7621,694.6597],[2.8827,35.7549,691.3807],[2.8866,35.7283,676.4036],[2.8827,35.7194,666.6291],[2.882,35.714,663.7891],[2.8845,35.7087,659.7026],[2.8894,35.7047,660.4253],[2.8991,35.7048,663.9954],[2.9019,35.6942,658.0848],[2.9018,35.6841,652.5064],[2.9,35.6768,650.1097],[2.8974,35.6683,646.8666],[2.8901,35.6548,641.9301],[2.9042,35.6395,633.2914],[2.8983,35.6358,633.6018],[2.8925,35.6343,630.8111],[2.887,35.6264,632.7318],[2.8881,35.6219,633.7374],[2.8965,35.6116,634.7799],[2.8934,35.6078,633.5103],[2.8848,35.6133,629.1096],[2.8832,35.6175,629.3525],[2.8787,35.6169,629.7063],[2.8756,35.6211,628.8373],[2.8695,35.6212,629.4269],[2.864,35.6183,631.7596],[2.8603,35.614,631.3936],[2.8597,35.6095,630.3305],[2.8556,35.6117,628.9141],[2.8462,35.607,629.8533],[2.8434,35.601,630.4235],[2.8268,35.5843,629.8022],[2.822,35.5862,629.6393],[2.8205,35.5813,630.7858],[2.8129,35.5772,631.5156],[2.8107,35.5732,630.3091],[2.8069,35.5758,628.5935],[2.802,35.5747,630.0077],[2.7967,35.5697,633.1495],[2.7888,35.5713,629.2784],[2.782,35.5686,634.6207],[2.7726,35.5561,643.3247],[2.7555,35.5415,645.2829],[2.7455,35.5359,644.1296],[2.7103,35.4788,705.049],[2.7034,35.4697,700.6219],[2.6788,35.4586,715.1595],[2.6476,35.4469,708.5433],[2.6418,35.4457,713.7711],[2.6075,35.451,723.9514],[2.5923,35.4657,700.5536],[2.5695,35.48,680.6823],[2.559,35.4862,676.7643],[2.5355,35.4936,673.5483],[2.5158,35.5173,671.0422],[2.5141,35.512,670.8513],[2.5144,35.5056,669.8157],[2.5061,35.4991,671.6079],[2.5015,35.5011,672.2752],[2.4979,35.5068,678.7953],[2.4925,35.5102,683.844],[2.4279,35.4844,721.6537],[2.4074,35.4742,729.6683],[2.388,35.4677,741.8566],[2.3146,35.4614,772.2903],[2.2854,35.4623,789.3443],[2.2772,35.4761,773.759],[2.2689,35.51,788.1121],[2.2551,35.5552,828.5483],[2.2504,35.5537,839.069],[2.1652,35.5581,862.8502],[2.1196,35.5483,862.4785],[2.0792,35.5422,857.4098],[2.0554,35.5353,845.1478],[2.0265,35.5373,848.351],[2.0166,35.5303,844.0498],[2.0138,35.5063,840.7725],[2.0146,35.4949,837.3169],[2.0183,35.4927,837.3674],[2.0295,35.4754,833.8545],[2.0393,35.4671,830.9869],[2.0447,35.4683,830.7679],[2.0511,35.4658,833.1172],[2.0976,35.4378,823.3326],[2.272,35.3386,767.9598],[2.3009,35.3328,753.3345],[2.3104,35.3227,740.3815],[2.3198,35.3187,759.3282],[2.3294,35.317,755.2079],[2.3345,35.314,749.7234],[2.3473,35.3151,743.373],[2.3586,35.3055,748.9581],[2.3713,35.2869,769.349],[2.3798,35.2705,804.2437],[2.3956,35.2514,899.3383],[2.3965,35.2463,959.3969],[2.4027,35.2451,989.6596],[2.4078,35.2519,1063.8334],[2.4351,35.2774,846.6497],[2.4466,35.2835,857.5753],[2.4635,35.2843,826.5478],[2.481,35.3127,751.451],[2.5022,35.3109,756.1368],[2.5257,35.3337,709.3058],[2.5406,35.325,711.738],[2.5588,35.3172,713.3029],[2.565,35.308,716.9813],[2.5741,35.3011,717.2874],[2.5725,35.2951,717.454],[2.5743,35.2901,718.3561],[2.5683,35.2798,725.4596],[2.5779,35.2726,728.9533],[2.5878,35.26,746.7867],[2.6132,35.2444,745.718],[2.6342,35.2386,757.9689],[2.6408,35.2374,765.3271],[2.6706,35.2413,786.4524],[2.6563,35.2065,763.6459],[2.6566,35.1991,768.0828],[2.6648,35.1898,778.3462],[2.6677,35.1835,791.4929],[2.6543,35.1813,788.5966],[2.6394,35.1737,782.4043],[2.6358,35.1698,792.8206],[2.627,35.1585,801.9466],[2.5942,35.0992,793.4734],[2.5848,35.087,814.4312],[2.6517,35.0362,1095.9441],[2.6331,35.0331,994.1011],[2.6034,35.0077,937.3598],[2.5915,35.0062,876.4503],[2.5465,35.0086,910.3903],[2.5234,35.0008,914.3287],[2.5012,34.9893,961.9112],[2.4983,34.9834,885.2563],[2.4749,34.8817,872.0177],[2.4615,34.8541,870.3009],[2.4447,34.8313,869.9116],[2.4292,34.8067,877.6821],[2.3598,34.7892,868.9285],[2.3645,34.7333,892.1686],[2.3667,34.7207,884.8397],[2.3707,34.7143,900.6003],[2.3723,34.7069,908.1425],[2.3653,34.6948,896.2155],[2.3671,34.6906,898.2134],[2.3688,34.6293,1112.5107],[2.3835,34.5695,1021.8675],[2.3886,34.5266,1032.6266],[2.3967,34.4853,1070.2273],[2.3931,34.4595,1131.5154],[2.3932,34.4471,1160.5691],[2.4168,34.41,1093.3333],[2.4518,34.317,1253.6782],[2.4493,34.3084,1297.2383],[2.4699,34.3117,1288.5793],[2.4778,34.2943,1287.8641],[2.4908,34.2817,1245.7219],[2.5159,34.2325,1193.4008],[2.5317,34.2296,1203.8219],[2.544,34.2166,1196.744],[2.5649,34.1794,1157.4785],[2.5958,34.1655,1130.0293],[2.6021,34.1569,1113.8955],[2.607,34.1529,1119.8928],[2.6089,34.1485,1108.5726],[2.6169,34.1407,1096.5121],[2.6176,34.1356,1092.0648],[2.6216,34.13,1106.8693],[2.626,34.1269,1109.761],[2.636,34.122,1143.0278],[2.6456,34.1197,1130.6547],[2.6616,34.1244,1146.8654],[2.6838,34.1127,1151.9532],[2.7206,34.1228,1128.2229],[2.7907,34.1524,1154.7428],[2.8211,34.1437,1223.6143],[2.8117,34.1595,1179.1711],[2.8098,34.1662,1166.4321],[2.8127,34.179,1155.0349],[2.8272,34.1904,1142.1005],[2.8214,34.1987,1134.6589],[2.8322,34.2034,1131.8984],[2.8359,34.2085,1126.264],[2.8371,34.2186,1116.431],[2.8409,34.2246,1113.3027],[2.8577,34.2419,1096.9319],[2.8627,34.2505,1092.0717],[2.8677,34.2551,1093.9337],[2.8895,34.2673,1081.5239],[2.8953,34.268,1079.8176],[2.9165,34.2775,1077.6467],[2.9271,34.2858,1073.2612],[2.9398,34.2871,1067.3499],[2.9486,34.2838,1083.0895],[2.9536,34.2729,1111.8618],[2.9949,34.2574,1140.4111],[2.9892,34.2467,1103.6455],[2.9914,34.2412,1074.4318],[3.0425,34.2515,1003.3517],[3.0485,34.2551,979.7546],[3.0555,34.2477,977.6318],[3.0568,34.2101,1000.3329],[3.0777,34.2101,961.9945],[3.0831,34.1986,959.2498],[3.0884,34.1948,961.8092],[3.0965,34.1751,948.1949],[3.0911,34.1316,885.0834],[3.0866,34.1355,893.0823],[3.083,34.1329,901.9419],[3.0887,34.1187,851.5972],[3.1,34.1084,835.4514],[3.1236,34.0592,840.5697],[3.1309,34.047,849.6198],[3.1448,34.0067,776.9487],[3.1493,34.0005,760.2959],[3.1573,33.9946,739.9882],[3.1495,33.9884,769.9218],[3.138,33.9838,815.0387],[3.1492,33.9471,737.3868],[3.1594,33.936,750.7455],[3.1709,33.9131,725.2503],[3.1878,33.87,712.0173],[3.1887,33.8642,722.1528],[3.2128,33.8547,698.9682],[3.2112,33.8455,708.9125],[3.2222,33.8216,686.6548],[3.3185,33.8082,677.3495],[3.3371,33.8035,674.3312],[3.3397,33.7986,676.6281],[3.4658,33.7601,745.1319],[3.5511,33.6923,731.1251],[3.5927,33.662,757.2281],[3.5974,33.6478,760.3029],[3.6117,33.6288,771.6343],[3.649,33.6179,774.9162],[3.7127,33.5262,757.777],[3.863,33.4766,727.9532],[4.0003,33.4287,688.5748],[4.0879,33.4011,650.5737],[4.1561,33.3584,617.6091],[4.1929,33.3339,589.5962],[4.2179,33.3129,572.8562],[4.3384,33.2024,492.859],[4.3609,33.1419,477.5291],[4.4146,33.0973,459.5715],[4.4195,33.0646,450.6262],[4.4829,32.9871,433.6023],[4.7881,32.911,317.4942],[4.9458,32.8696,190.5677],[5.0254,32.8514,177.1837],[5.0179,32.8957,163.9338],[5.0025,32.9643,211.3321],[4.9989,32.9865,214.0574],[4.9477,33.2048,318.9838],[4.9385,33.2537,324.6575],[4.9381,33.3011,314.5445],[4.9986,33.3995,289.5019],[5.0025,33.4038,292.7352],[5.0572,33.4984,278.6436],[5.0542,33.5728,326.9032],[5.0796,33.6064,328.961],[5.0156,33.6269,352.6641],[4.9948,33.6353,358.8618],[4.9347,33.6505,376.0019],[4.8946,33.6496,350.9897],[4.8815,33.6588,355.4493],[4.8624,33.698,369.4191],[4.7705,33.6872,410.1058],[4.754,33.7234,370.4105],[4.7218,33.7293,380.3221],[4.7128,33.7354,384.5141],[4.7012,33.7382,387.2613],[4.6705,33.7372,397.8038],[4.6575,33.7388,404.7244],[4.6502,33.7359,403.5558],[4.6416,33.7378,408.8259],[4.6365,33.7415,428.3996],[4.6232,33.7468,418.506],[4.6022,33.7522,423.6964],[4.5951,33.756,427.6673],[4.5994,33.7682,500.8256],[4.5813,33.7836,488.4661],[4.565,33.8023,495.4278],[4.5534,33.8105,500.0946],[4.5157,33.8282,522.9761],[4.501,33.8334,535.7487],[4.4332,33.8494,525.0653],[4.3951,33.8601,573.3472],[4.3508,33.8968,567.178],[4.2821,33.9092,589.6669],[4.2496,33.9265,597.6624],[4.2434,33.9316,586.0886],[4.2368,33.9421,578.9797],[4.2335,33.9475,578.4886],[4.2312,33.9564,559.7109],[4.2484,33.9739,541.5626],[4.2606,33.9678,539.5211],[4.2671,33.9697,533.1893],[4.2769,33.9661,527.5823],[4.2888,33.9695,520.8062],[4.3003,33.9773,509.2399],[4.3112,33.9776,505.8585],[4.3367,33.9964,488.2953],[4.3425,33.9971,486.999],[4.3449,34.0095,482.2346],[4.3532,34.0197,473.9064],[4.357,34.0227,472.5684],[4.3736,34.0293,465.9603],[4.3785,34.0334,463.6766],[4.3855,34.0353,463.8933],[4.3933,34.0343,512.4938],[4.4156,34.0253,531.9395],[4.433,34.0327,518.2365],[4.4071,34.0616,446.036],[4.3415,34.0633,480.1937],[4.3098,34.0723,500.8463],[4.2974,34.079,511.6178],[4.2911,34.0857,497.9455],[4.2892,34.1097,503.478]]]]}}