{"type": "Feature","bbox": [1.324,35.583,1.4379,35.7105],"geometry": {"type": "MultiPolygon","coordinates": [[[[1.4374,35.6681,1155.3489],[1.4379,35.6757,1087.8029],[1.4357,35.6855,891.6787],[1.4294,35.6868,793.5381],[1.4232,35.6832,775.8131],[1.4195,35.6786,729.6304],[1.4122,35.6758,691.7717],[1.4005,35.6856,717.8476],[1.3935,35.6848,771.7852],[1.3849,35.689,892.4248],[1.3841,35.6951,994.4108],[1.3804,35.6986,1015.9048],[1.3741,35.701,940.5056],[1.3661,35.7087,1010.8199],[1.3508,35.7105,1035.4556],[1.3416,35.7039,1015.648],[1.3418,35.6899,810.0112],[1.3378,35.6786,785.5752],[1.3427,35.6736,627.7947],[1.3491,35.6716,607.8644],[1.3453,35.662,566.8597],[1.3358,35.6518,677.3894],[1.3415,35.6484,534.645],[1.3432,35.6389,659.0276],[1.324,35.622,495.4542],[1.3294,35.6189,456.784],[1.3282,35.6129,440.0555],[1.3357,35.6152,448.7485],[1.3382,35.6103,490.4151],[1.3381,35.6028,541.7013],[1.3406,35.5922,646.2455],[1.3435,35.5884,754.4817],[1.3518,35.583,834.7278],[1.3527,35.5957,592.8082],[1.3573,35.6003,590.3318],[1.3702,35.6005,728.663],[1.3688,35.6062,685.6815],[1.406,35.6316,748.3342],[1.416,35.6423,795.1177],[1.4263,35.6495,781.3845],[1.4374,35.6681,1155.3489]]]]}
,"properties": {"GID_2": "DZA.43.29_1","GID_0": "DZA","country": "Algeria","GID_1": "DZA.43_1","province": "Tiaret","NL_NAME_1": "ولايةتيارت","county": "Sebt","VARNAME_2": "NA","NL_NAME_2": "NA","TYPE_2": "Commune","ENGTYPE_2": "Commune","CC_2": "1411","HASC_2": "DZ.TR.ST","name": "Sebt.county","area_km2": 71.92732,"hist_schema_id": "Elevation0-9000","hist_area_km2": {"450": 1.1548,"475": 2.89556,"500": 2.32673,"525": 2.89537,"550": 3.18816,"575": 3.36038,"600": 4.04924,"625": 4.77267,"650": 5.18597,"675": 6.13337,"700": 5.71957,"725": 5.42648,"750": 4.51325,"775": 3.63445,"800": 2.91095,"825": 2.30797,"850": 1.929,"875": 1.7223,"900": 1.44673,"925": 0.99893,"950": 0.98159,"975": 1.08488,"1000": 1.13643,"1025": 1.01591,"1050": 0.49939,"1075": 0.27553,"1100": 0.2239,"1125": 0.03445,"1150": 0.05167,"1175": 0.05167}}}