{"type": "Feature","bbox": [3.8331,36.3111,3.974,36.4334],"geometry": {"type": "MultiPolygon","coordinates": [[[[3.8516,36.3196,564.0226],[3.8736,36.3111,661.6588],[3.8742,36.3163,651.154],[3.8777,36.3216,642.3239],[3.891,36.3217,610.0469],[3.9009,36.3276,565.6508],[3.9154,36.3286,548.0478],[3.9323,36.322,550.1345],[3.9505,36.3264,534.6835],[3.974,36.3365,527.5656],[3.9736,36.341,551.4824],[3.9679,36.3534,469.2947],[3.9591,36.3496,476.005],[3.9543,36.3513,478.5782],[3.9449,36.3573,483.116],[3.9385,36.3686,492.4776],[3.939,36.373,496.349],[3.9371,36.3783,509.9519],[3.9307,36.3865,521.1351],[3.9263,36.4009,557.8508],[3.9269,36.4059,573.4518],[3.9321,36.4156,601.0958],[3.9329,36.4269,765.1633],[3.9308,36.4334,908.531],[3.9074,36.4196,581.9431],[3.9006,36.4178,563.7029],[3.872,36.4202,454.828],[3.8517,36.429,383.251],[3.8491,36.4222,493.9257],[3.8552,36.4125,687.204],[3.8553,36.4072,707.3428],[3.8608,36.396,598.1816],[3.8512,36.3838,583.6619],[3.8417,36.3653,552.8267],[3.8396,36.3584,535.0581],[3.8331,36.3551,538.3662],[3.8365,36.3494,541.8206],[3.8418,36.3319,544.5741],[3.8471,36.3237,554.5675],[3.8516,36.3196,564.0226]]]]}
,"properties": {"GID_2": "DZA.12.15_1","GID_0": "DZA","country": "Algeria","GID_1": "DZA.12_1","province": "Bouira","NL_NAME_1": "ولايةالبويرة","county": "Bouira","VARNAME_2": "Būīrah","NL_NAME_2": "NA","TYPE_2": "Chef-Lieu-Wilaya","ENGTYPE_2": "Chef-Lieu-Wilaya","CC_2": "1001","HASC_2": "DZ.BU.BR","name": "Bouira.county","area_km2": 96.58073,"hist_schema_id": "Elevation0-9000","hist_area_km2": {"375": 0.01706,"400": 0.10236,"425": 0.22178,"450": 0.25591,"475": 2.16853,"500": 5.4124,"525": 17.09008,"550": 25.26694,"575": 17.61775,"600": 10.43098,"625": 7.27384,"650": 7.66772,"675": 1.69057,"700": 0.32418,"725": 0.22178,"750": 0.23884,"775": 0.15354,"800": 0.15354,"825": 0.0853,"850": 0.08529,"875": 0.08529,"900": 0.01706}}}