{"type":"Feature","properties":{"GID_2":"DZA.11.21_1","GID_0":"DZA","country":"Algeria","GID_1":"DZA.11_1","province":"BordjBouArréridj","NL_NAME_1":"ولايةبرجبوعريريج","county":"Ksour","VARNAME_2":"NA","NL_NAME_2":"NA","TYPE_2":"Commune","ENGTYPE_2":"Commune","CC_2":"3422","HASC_2":"DZ.BB.KS","name":"Ksour.county"},
"geometry":{"type": "MultiPolygon","coordinates": [[[[4.6802,35.9953,857.8978],[4.6899,35.9986,839.3571],[4.6875,36.005,884.2451],[4.6863,36.0176,942.6567],[4.6909,36.0239,917.0857],[4.6895,36.0314,956.4113],[4.6851,36.0355,937.6309],[4.6599,36.0329,950.2611],[4.6547,36.0359,945.9764],[4.6497,36.0355,965.8173],[4.643,36.0317,919.8496],[4.6381,36.0258,894.0601],[4.6259,36.0258,915.6831],[4.6221,36.0138,987.0954],[4.6129,36.0113,1083.6735],[4.5867,36.0259,1208.4292],[4.5644,36.0244,1290.0981],[4.5573,36.0264,1299.2089],[4.5595,36.0355,1104.4741],[4.5518,36.036,1177.3337],[4.5382999999999996,36.0402,1299.2144],[4.5218,36.0428,1436.2938],[4.4913,36.0372,1676.7452],[4.4925,36.0312,1704.272],[4.491,36.0166,1507.5735],[4.4941,36.0125,1501.9443],[4.5076,35.9787,1090.4883],[4.5061,35.973,1074.9353],[4.5012,35.97,1056.9517],[4.5015,35.9651,1055.0664],[4.5129,35.9571,1028.8987],[4.5134,35.9512,1014.9851],[4.5204,35.9427,994.1108],[4.522,35.936,975.538],[4.5263,35.9323,982.5836],[4.5299,35.9366,996.3557],[4.5345,35.9471,968.8173],[4.5396,35.9509,945.4279],[4.5453,35.9535,929.9382],[4.5546,35.9513,907.8365],[4.5549,35.9557,925.6888],[4.5474,35.9652,936.4778],[4.5483,35.9703,953.7249],[4.551,35.9737,988.0035],[4.5614,35.9687,994.8864],[4.568,35.9681,1011.6098],[4.5754,35.9695,1033.4938],[4.5792,35.973,1005.353],[4.595,35.9795,943.5182],[4.6198,35.978,916.2729],[4.6258,35.9798,877.5656],[4.6351,35.9856,850.2028],[4.632,35.99,876.4654],[4.6376,35.9933,862.6097],[4.6508,35.99,837.4792],[4.6552,35.9911,842.7679],[4.6593,35.9882,806.1597],[4.6639,35.988,837.3109],[4.6732,35.9966,857.0797],[4.6802,35.9953,857.8978]]]]}}