{"type":"Feature","properties":{"GID_2":"DZA.17.5_1","GID_0":"DZA","country":"Algeria","GID_1":"DZA.17_1","province":"ElBayadh","NL_NAME_1":"ولايةالبيض","county":"Boussemghoun","VARNAME_2":"NA","NL_NAME_2":"NA","TYPE_2":"Commune","ENGTYPE_2":"Commune","CC_2":"3213","HASC_2":"DZ.EB.BS","name":"Boussemghoun.county"},
"geometry":{"type": "MultiPolygon","coordinates": [[[[0.0875,32.9255,1058.2205],[0.0335,32.956,1034.8822],[-0.0014,32.9269,1046.2162],[-0.0199,32.9157,1023.6566],[-0.0821,32.8868,1433.2538],[-0.0937,32.8148,1850.1536],[-0.0552,32.7969,1097.4999],[-0.0669,32.7526,976.3058],[-0.0233,32.7135,876.2297],[-0.0098,32.6918,867.455],[-0.0045,32.6879,865.4319],[0.0174,32.6781,854.7706],[0.0594,32.6665,838.5822],[0.0604,32.6731,840.6799],[0.0723,32.6875,849.5775],[0.0751,32.6933,852.4402],[0.0769,32.7026,858.1387],[0.085,32.7121,865.9572],[0.09,32.714,869.1092],[0.0943,32.7186,873.4958],[0.104,32.7325,886.8847],[0.1321,32.759,917.7273],[0.1421,32.7712,932.4887],[0.1569,32.7779,943.2969],[0.1646,32.7796,954.3538],[0.1725,32.7869,943.3249],[0.1882,32.7942,925.6434],[0.1893,32.8,919.3374],[0.2218,32.8212,896.6437],[0.2318,32.8264,890.5388],[0.2468,32.8291,881.106],[0.2203,32.8641,932.9866],[0.2168,32.8698,944.8983],[0.2131,32.8818,983.5797],[0.1849,32.9185,1137.2622],[0.0875,32.9255,1058.2205]]]]}}