{"type":"Feature","properties":{"GID_2":"DZA.21.12_1","GID_0":"DZA","country":"Algeria","GID_1":"DZA.21_1","province":"Guelma","NL_NAME_1":"ولايةقالمة","county":"BouatiMahmoud","VARNAME_2":"NA","NL_NAME_2":"NA","TYPE_2":"Commune","ENGTYPE_2":"Commune","CC_2":"2403","HASC_2":"DZ.GL.BM","name":"Bouati_Mahmoud.county"},
"geometry":{"type": "MultiPolygon","coordinates": [[[[7.3563,36.6577,269.0047],[7.3482,36.6591,285.3147],[7.3365,36.6514,151.0342],[7.3248,36.6473,105.9624],[7.3184,36.6484,84.0628],[7.3095,36.6532,81.0],[7.3039,36.6523,81.0],[7.3026,36.6405,154.1837],[7.3077,36.6276,217.9062],[7.3136,36.6225,170.1464],[7.3068,36.6152,300.3871],[7.295,36.6091,348.4976],[7.2924,36.6032,406.6258],[7.2854,36.5989,384.5493],[7.2817,36.5918,345.1914],[7.2722,36.5852,353.8571],[7.2719,36.5807,341.8675],[7.2913,36.5689,524.0476],[7.2951,36.5647,540.9011],[7.296,36.5591,593.3862],[7.2988,36.5548,827.1928],[7.3197,36.558,533.818],[7.3319,36.565,287.4973],[7.3387,36.5766,211.5146],[7.3468,36.5818,434.5296],[7.3613,36.5838,532.2615],[7.367,36.5869,549.2198],[7.3695,36.5904,578.2535],[7.4008,36.5942,514.2733],[7.4036,36.6001,375.6432],[7.4074,36.6207,585.1632],[7.4217,36.6282,718.8139],[7.4073,36.6407,583.5524],[7.4036,36.6614,392.4967],[7.3975,36.6635,408.8357],[7.39,36.6636,411.617],[7.3692,36.6559,358.3301],[7.3563,36.6577,269.0047]]],
[[[7.2959,36.6591,81.0],[7.3,36.657,83.2501],[7.3006,36.6633,81.0],[7.2959,36.6591,81.0]]]]}}