{"type": "Feature","bbox": [5.4857,34.7019,5.7064,34.8937],"geometry": {"type": "MultiPolygon","coordinates": [[[[5.6552,34.8937,259.1185],[5.6281,34.8701,295.2781],[5.6255,34.865,257.1658],[5.6124,34.8522,334.3539],[5.6054,34.8387,248.8691],[5.5937,34.832,354.2675],[5.5904,34.828,325.4627],[5.5877,34.8178,325.0328],[5.5898,34.8134,314.6484],[5.5853,34.8102,365.3577],[5.5666,34.808,340.9759],[5.5476,34.8116,357.4526],[5.5417,34.8054,441.5043],[5.5326,34.8072,360.0395],[5.5185,34.804,410.9687],[5.5056,34.7976,317.9232],[5.4983,34.7856,213.3012],[5.4948,34.7829,262.0306],[5.4857,34.7805,250.5651],[5.5085,34.7532,157.0273],[5.504,34.7502,149.1258],[5.5131,34.732,116.6903],[5.517,34.7168,92.2171],[5.5274,34.7019,81.7939],[5.6021,34.7094,68.1171],[5.6323,34.74,62.749],[5.645,34.7501,63.6268],[5.6744,34.7879,72.7842],[5.7064,34.7873,73.3219],[5.6978,34.7945,75.4893],[5.7021,34.797,76.0249],[5.6897,34.8084,79.9756],[5.6884,34.8132,80.7127],[5.6934,34.8237,87.1559],[5.6827,34.8495,106.4788],[5.6779,34.865,111.2461],[5.6784,34.8704,116.929],[5.6727,34.8782,127.0165],[5.6552,34.8937,259.1185]]]]}
,"properties": {"GID_2": "DZA.9.14_1","GID_0": "DZA","country": "Algeria","GID_1": "DZA.9_1","province": "Biskra","NL_NAME_1": "ولايةبسكرة","county": "ElHadjab","VARNAME_2": "ElHadjeb","NL_NAME_2": "NA","TYPE_2": "Commune","ENGTYPE_2": "Commune","CC_2": "732","HASC_2": "DZ.BS.EJ","name": "El_Hadjab.county","area_km2": 207.6009,"hist_schema_id": "Elevation0-9000","hist_area_km2": {"50": 1.9169,"75": 44.0555,"100": 32.514,"125": 38.0099,"150": 39.1223,"175": 15.5811,"200": 9.8531,"225": 7.5553,"250": 5.6577,"275": 3.7601,"300": 2.6461,"325": 1.828,"350": 2.3154,"375": 1.3927,"400": 0.6615,"425": 0.4875,"450": 0.1741,"475": 0.0696}}}