{"type": "Feature","bbox": [6.0531,36.0847,6.3227,36.2433],"geometry": {"type": "MultiPolygon","coordinates": [[[[6.1061,36.2433,817.2369],[6.1063,36.2381,859.3732],[6.1034,36.2348,865.0345],[6.0778,36.2164,866.1151],[6.0738,36.2107,855.5226],[6.0789,36.1903,851.7333],[6.0823,36.1847,841.559],[6.0776,36.1793,845.4285],[6.0649,36.1744,852.3334],[6.0549,36.1536,860.0474],[6.0531,36.1297,833.9004],[6.0802,36.1281,814.0248],[6.0823,36.1229,797.6249],[6.0921,36.1163,805.6758],[6.0996,36.1024,841.7185],[6.1129,36.0847,831.7048],[6.1389,36.0898,830.2104],[6.1728,36.088,865.1182],[6.1864,36.0915,871.5341],[6.2046,36.089,892.648],[6.2188,36.095,873.2046],[6.2248,36.0953,861.4932],[6.2348,36.0924,839.7781],[6.2442,36.1009,831.6074],[6.2513,36.1035,827.0638],[6.2492,36.1087,850.4965],[6.2418,36.1175,957.6438],[6.2458,36.1227,971.5077],[6.2568,36.1293,947.5731],[6.26,36.1339,976.1056],[6.2686,36.1396,994.3246],[6.2747,36.1491,1066.5009],[6.2758,36.1552,1042.3757],[6.2833,36.1591,1034.3997],[6.2923,36.1666,946.6481],[6.3227,36.1735,865.8719],[6.2949,36.1825,855.0286],[6.2626,36.2178,722.9677],[6.2608,36.2228,723.6031],[6.2524,36.235,786.8523],[6.234,36.2263,815.7712],[6.2047,36.22,1016.1509],[6.1587,36.2024,767.6395],[6.1403,36.2195,789.6133],[6.1289,36.234,808.9106],[6.1139,36.2424,811.8582],[6.1061,36.2433,817.2369]]]]}
,"properties": {"GID_2": "DZA.29.8_1","GID_0": "DZA","country": "Algeria","GID_1": "DZA.29_1","province": "Mila","NL_NAME_1": "ولايةميلة","county": "ChelghoumLaid","VARNAME_2": "Salghūm-al-`Ayd","NL_NAME_2": "NA","TYPE_2": "Commune","ENGTYPE_2": "Commune","CC_2": "4303","HASC_2": "DZ.ML.CL","name": "Chelghoum_Laid.county","area_km2": 258.6182,"hist_schema_id": "Elevation0-9000","hist_area_km2": {"725": 6.1765,"750": 24.6103,"775": 55.4899,"800": 53.6644,"825": 48.2272,"850": 35.8135,"875": 16.6757,"900": 7.2604,"925": 3.6983,"950": 2.6879,"975": 1.9005,"1000": 1.1127,"1025": 0.5648,"1050": 0.445,"1075": 0.2738,"1100": 0.0171}}}