{"type": "Feature","bbox": [6.1799,36.6702,6.37,36.94],"geometry": {"type": "MultiPolygon","coordinates": [[[[6.1881,36.7401,309.9562],[6.2013,36.7383,323.1291],[6.202,36.7332,302.0433],[6.2179,36.7292,295.7849],[6.224,36.7296,230.5996],[6.2244,36.7178,291.4355],[6.2297,36.7163,291.4524],[6.2447,36.7165,141.8954],[6.2483,36.7134,170.9942],[6.2523,36.7044,159.5205],[6.2613,36.6938,202.4574],[6.261,36.6879,222.4087],[6.256,36.6799,421.2374],[6.2614,36.6771,249.4184],[6.2689,36.6794,121.8511],[6.2889,36.6782,809.7912],[6.2933,36.6702,488.656],[6.3085,36.671,940.7257],[6.3245,36.674,997.1027],[6.3254,36.6999,781.7765],[6.3155,36.7041,728.0366],[6.307,36.7098,580.8225],[6.3077,36.719,454.0609],[6.3196,36.7318,235.6473],[6.3255,36.7352,222.8005],[6.3303,36.7323,232.9005],[6.3397,36.7299,193.0598],[6.3465,36.7332,158.1194],[6.3445,36.7393,115.6202],[6.3456,36.7434,107.9308],[6.3676,36.7554,94.1021],[6.3673,36.7623,73.5],[6.37,36.7672,78.8675],[6.3603,36.7741,90.6509],[6.3531,36.7818,73.5],[6.3513,36.7878,73.5],[6.3454,36.7924,74.1664],[6.3418,36.7989,76.9234],[6.3493,36.8068,73.5],[6.3515,36.8111,73.5],[6.3516,36.8175,73.8619],[6.3446,36.8323,112.1756],[6.3486,36.8423,216.3881],[6.3414,36.8548,467.3919],[6.334,36.8571,348.3667],[6.3284,36.8559,290.6405],[6.3247,36.86,325.7042],[6.3072,36.8664,412.4019],[6.2873,36.8678,442.382],[6.2673,36.8714,505.9551],[6.2694,36.8841,381.7418],[6.2745,36.8872,372.1183],[6.2771,36.8914,325.6793],[6.2809,36.9147,7.0407],[6.2797,36.9207,19.6394],[6.2745,36.9243,74.9464],[6.2714,36.9306,194.0118],[6.2702,36.94,250.0768],[6.264,36.9377,154.4871],[6.2602,36.9398,117.7519],[6.2556,36.9388,0.4231],[6.2497,36.929,0.0],[6.2381,36.9203,5.2675],[6.2128,36.909,0.0],[6.1932,36.9028,3.0367],[6.1938,36.8979,158.801],[6.2018,36.8847,357.0688],[6.1984,36.8818,373.6407],[6.1996,36.8759,418.1648],[6.2056,36.87,401.7859],[6.2006,36.8588,246.5097],[6.2236,36.8576,379.3725],[6.2305,36.8559,578.9954],[6.2319,36.851,570.2714],[6.2295,36.8463,619.0284],[6.2401,36.8361,286.0576],[6.2311,36.8294,204.8048],[6.2328,36.824,371.238],[6.2276,36.8204,364.5154],[6.2191,36.8179,315.6104],[6.206,36.8036,81.0339],[6.2137,36.8016,96.896],[6.227,36.8044,205.9776],[6.244,36.7845,22.6223],[6.2453,36.7723,106.3383],[6.2424,36.7683,25.2903],[6.2376,36.7668,18.3868],[6.2316,36.7693,27.0482],[6.2137,36.7622,251.8791],[6.1973,36.7525,414.9539],[6.1895,36.7558,467.3517],[6.183,36.7529,417.4142],[6.1799,36.7491,313.481],[6.1831,36.7438,491.762],[6.1881,36.7401,309.9562]]]]}
,"properties": {"GID_2": "DZA.23.12_1","GID_0": "DZA","country": "Algeria","GID_1": "DZA.23_1","province": "Jijel","NL_NAME_1": "ولايةجيجل","county": "ElMilia","VARNAME_2": "al-Mīlīyah","NL_NAME_2": "NA","TYPE_2": "Commune-Cotiere","ENGTYPE_2": "Commune-Cotiere","CC_2": "1809","HASC_2": "DZ.JJ.EM","name": "El_Milia.county","area_km2": 253.2067,"hist_schema_id": "Elevation0-9000","hist_area_km2": {"0": 5.6279,"25": 22.2452,"50": 15.6555,"75": 22.4278,"100": 18.2842,"125": 18.9481,"150": 17.3011,"175": 16.6218,"200": 14.8388,"225": 14.4825,"250": 11.6465,"275": 9.643,"300": 8.0122,"325": 7.044,"350": 6.0254,"375": 5.6011,"400": 4.6504,"425": 4.6168,"450": 4.6331,"475": 3.7852,"500": 3.1742,"525": 2.546,"550": 2.3257,"575": 1.7998,"600": 0.9342,"625": 0.8154,"650": 0.5947,"675": 0.697,"700": 0.561,"725": 0.5271,"750": 0.6971,"775": 0.6801,"800": 0.7651,"825": 0.5781,"850": 0.8331,"875": 0.6291,"900": 0.3741,"925": 0.3231,"950": 0.3401,"975": 0.3571,"1000": 0.2891,"1025": 0.3741,"1050": 0.2891,"1075": 0.2041,"1100": 0.136,"1125": 0.2381,"1150": 0.034}}}