{"type":"Feature","properties":{"GID_2":"DZA.45.18_1","GID_0":"DZA","country":"Algeria","GID_1":"DZA.45_1","province":"Tipaza","NL_NAME_1":"ولايةتيبازة","county":"Menaceur","VARNAME_2":"NA","NL_NAME_2":"NA","TYPE_2":"Commune","ENGTYPE_2":"Commune","CC_2":"4202","HASC_2":"DZ.TP.MC","name":"Menaceur.county"},
"geometry":{"type": "MultiPolygon","coordinates": [[[[2.2669,36.4193,842.9529],[2.2764,36.4257,818.5903],[2.2852,36.4384,464.3377],[2.2869,36.4482,450.338],[2.2916,36.4531,310.1417],[2.3162,36.4647,247.6083],[2.3221,36.4694,283.29],[2.3248,36.4738,177.7714],[2.3258,36.4861,155.7616],[2.3239,36.4966,133.4242],[2.3129,36.5155,108.0],[2.3141,36.5212,110.7354],[2.3011,36.5246,108.0],[2.297,36.5226,108.0],[2.2794,36.523,118.8171],[2.2748,36.5261,243.4613],[2.2714,36.5381,215.3629],[2.274,36.5439,241.7919],[2.2762,36.569,157.8558],[2.2755,36.5741,117.8033],[2.2707,36.5837,71.3663],[2.2635,36.5869,37.1248],[2.2544,36.5857,47.7134],[2.2492,36.583,50.7018],[2.2392,36.5814,46.9778],[2.2353,36.5781,76.5931],[2.2361,36.5666,117.751],[2.2348,36.5604,106.9107],[2.2325,36.5519,113.6895],[2.2288,36.5479,107.7514],[2.2267,36.5421,131.1007],[2.2287,36.5352,164.2827],[2.2239,36.531,173.3332],[2.2102,36.5284,193.0188],[2.2054,36.5289,239.5228],[2.1931,36.525,256.7554],[2.166,36.5245,406.9025],[2.1499,36.5162,383.4247],[2.1461,36.5104,434.2691],[2.1349,36.5068,396.657],[2.126,36.4999,255.7688],[2.1175,36.4978,245.4526],[2.113,36.494,331.6496],[2.1205,36.492,445.9488],[2.1235,36.487,525.8922],[2.1351,36.4815,495.3088],[2.1342,36.4772,673.6803],[2.1235,36.4729,429.813],[2.1165,36.472,373.423],[2.1155,36.459,560.3165],[2.1083,36.4428,1119.4087],[2.1148,36.4422,1180.4282],[2.1243,36.4467,1276.1263],[2.1291,36.447,1293.9913],[2.1347,36.4451,1304.2428],[2.1387,36.4403,1173.5631],[2.1445,36.4386,1213.5356],[2.1551,36.4416,1379.0671],[2.1622,36.4397,1328.5135],[2.1753,36.441,1252.205],[2.1853,36.4357,1166.5522],[2.2032,36.4333,1178.9468],[2.2146,36.4335,1147.6594],[2.2159,36.4284,1058.4285],[2.2213,36.4274,1124.16],[2.2263,36.4287,998.3549],[2.2292,36.4324,1115.566],[2.237,36.4333,1146.5232],[2.2508,36.4274,1084.4833],[2.2555,36.4237,999.229],[2.2534,36.4194,897.7283],[2.2551,36.4152,1033.033],[2.2669,36.4193,842.9529]]]]}}