{"type": "Feature","bbox": [7.4861,36.6038,7.6964,36.7412],"geometry": {"type": "MultiPolygon","coordinates": [[[[7.6816,36.7396,13.3249],[7.6701,36.7412,14.6499],[7.6487,36.7407,20.6178],[7.6354,36.7347,23.7413],[7.6266,36.7236,29.3071],[7.6164,36.7227,30.6269],[7.6109,36.7064,61.3719],[7.6128,36.6998,49.0695],[7.6088,36.6926,52.8788],[7.6074,36.6863,58.7844],[7.6023,36.6779,70.1266],[7.6027,36.6719,74.7792],[7.5998,36.6662,79.3181],[7.5956,36.6635,82.8373],[7.5904,36.6631,95.4623],[7.572,36.6564,231.386],[7.5669,36.6567,152.9479],[7.5609,36.6576,175.5246],[7.5484,36.6675,267.8953],[7.5423,36.67,300.1684],[7.5385,36.6753,228.9532],[7.5264,36.6811,174.0131],[7.5071,36.6829,124.3365],[7.5016,36.6823,119.2957],[7.4964,36.6786,163.0662],[7.4902,36.6783,189.8553],[7.4861,36.6743,174.4265],[7.4907,36.6699,150.7531],[7.4972,36.6586,168.3734],[7.4922,36.6481,205.2596],[7.4937,36.6298,245.2384],[7.5006,36.6266,274.9921],[7.5133,36.6284,220.3352],[7.5185,36.6313,211.7539],[7.5284,36.6331,197.2483],[7.5325,36.6305,191.1332],[7.5355,36.6257,224.2745],[7.5437,36.6206,248.8995],[7.5456,36.6163,202.4625],[7.5567,36.6089,208.8318],[7.5628,36.6094,204.709],[7.5949,36.604,194.0097],[7.6005,36.6045,196.7099],[7.611,36.6134,172.9077],[7.6194,36.6038,276.6913],[7.6263,36.6039,238.7565],[7.6393,36.6156,156.0879],[7.6581,36.6458,92.9919],[7.6684,36.6532,98.4558],[7.6673,36.6634,85.2822],[7.6706,36.6747,69.1018],[7.6743,36.6805,57.4558],[7.6924,36.6905,38.6784],[7.6964,36.708,43.1669],[7.6829,36.7169,71.3503],[7.6817,36.722,90.5226],[7.6825,36.7293,58.1292],[7.6789,36.7342,17.1215],[7.6816,36.7396,13.3249]]]]}
,"properties": {"GID_2": "DZA.5.1_1","GID_0": "DZA","country": "Algeria","GID_1": "DZA.5_1","province": "Annaba","NL_NAME_1": "ولايةعنابة","county": "AinElBerda","VARNAME_2": "AinBerda","NL_NAME_2": "NA","TYPE_2": "Commune","ENGTYPE_2": "Commune","CC_2": "2309","HASC_2": "DZ.AN.AB","name": "Ain_El_Berda.county","area_km2": 137.215,"hist_schema_id": "Elevation0-9000","hist_area_km2": {"25": 10.3999,"50": 17.8658,"75": 13.2614,"100": 11.5135,"125": 14.1358,"150": 15.7024,"175": 16.2996,"200": 11.0923,"225": 6.7872,"250": 5.6983,"275": 5.4432,"300": 4.1164,"325": 2.7897,"350": 1.446,"375": 0.6465,"400": 0.017}}}