{"type":"Feature","properties":{"ISO3166-1-Alpha-3":"DZA","country":"Algeria","fill":"#F00","id":"2219","name":"Khenchela"},
"geometry":{"type": "Polygon","coordinates": [[[6.87124,35.61811,850.8602],[6.85088,35.61927,852.7382],[6.82499,35.62356,856.2957],[6.81073,35.63106,854.7186],[6.80044,35.64031,854.9176],[6.78758,35.66074,951.6703],[6.76913,35.68392,846.1588],[6.77424,35.63511,859.7246],[6.78727,35.59101,866.7765],[6.78587,35.57561,872.7424],[6.78168,35.56256,876.8462],[6.7668,35.53664,891.5483],[6.75657,35.52509,907.6049],[6.74226,35.51468,917.2762],[6.72117,35.50522,929.962],[6.66763,35.49099,986.4745],[6.6481,35.48285,1034.6073],[6.62852,35.47143,1044.2173],[6.611,35.45804,1063.2397],[6.5927,35.43696,1105.5269],[6.58743,35.42221,1288.428],[6.58976,35.39185,1473.7997],[6.5848,35.35937,1506.5054],[6.58402,35.34332,1657.3536],[6.58821,35.33355,1523.2129],[6.59968,35.32782,1586.4385],[6.61301,35.33151,1725.8162],[6.62278,35.33167,1806.3129],[6.62836,35.32787,1807.9592],[6.62836,35.31686,2055.666],[6.61968,35.30296,1786.3394],[6.58227,35.2703,1712.3318],[6.56971,35.25346,1454.1093],[6.55731,35.18653,1404.8583],[6.51958,35.13233,1321.5433],[6.51493,35.11972,1227.1089],[6.51307,35.10775,1182.7881],[6.5109,35.06918,1121.9994],[6.51214,35.05238,1199.6311],[6.51912,35.03781,875.6704],[6.54723,34.99882,942.2982],[6.5848,34.93213,750.8542],[6.59022,34.91678,991.0414],[6.5986,34.90035,953.8409],[6.5958,34.89213,771.2079],[6.57513,34.85637,407.9161],[6.57048,34.83901,244.1799],[6.57033,34.82542,203.688],[6.57374,34.81211,226.4121],[6.58227,34.78904,107.7659],[6.5879,34.77855,95.7599],[6.60604,34.77746,97.3788],[6.61828,34.7787,105.1757],[6.66825,34.79064,134.5852],[6.68469,34.7924,136.9762],[6.69776,34.79219,149.2269],[6.7066,34.791,147.9478],[6.71435,34.78852,144.1384],[6.72009,34.78457,144.2273],[6.72799,34.77537,141.0427],[6.74272,34.7431,113.7523],[6.74846,34.7261,101.4449],[6.74954,34.71222,92.1013],[6.74117,34.67096,69.6171],[6.73978,34.63768,54.3424],[6.73497,34.60202,37.1442],[6.71978,34.53872,16.9075],[6.7052,34.49686,3.045],[6.70009,34.48901,0.774],[6.69652,34.47583,-2.7117],[6.69652,34.46433,-5.2701],[6.70551,34.41196,-14.4863],[6.6959,34.37609,-18.2204],[6.71497,34.32661,-21.8683],[6.74489,34.29873,-21.6081],[6.96059,34.19393,-11.2298],[7.01738,34.17851,-2.9179],[7.13577,34.16058,7.1912],[7.20471,34.29661,45.5566],[7.2275,34.36886,71.44],[7.24486,34.46234,107.1638],[7.25463,34.49402,121.0381],[7.27406,34.54073,141.1159],[7.27979,34.55055,148.8417],[7.28367,34.55515,154.0315],[7.29638,34.56611,171.9303],[7.3001,34.57109,181.704],[7.31922,34.60895,258.0869],[7.35596,34.6522,314.1846],[7.37524,34.6816,394.5926],[7.39772,34.72638,407.9438],[7.40035,34.73452,432.8185],[7.40284,34.74604,496.7028],[7.40284,34.76044,670.4678],[7.40191,34.76904,764.9919],[7.40051,34.77571,782.156],[7.38547,34.81364,715.9553],[7.38423,34.81865,727.6586],[7.38361,34.8241,735.2946],[7.3878,34.87797,820.3363],[7.3864,34.88578,868.1899],[7.38423,34.89203,907.6022],[7.38113,34.89614,927.9185],[7.37586,34.90479,943.9096],[7.37384,34.9095,1004.0238],[7.37245,34.91446,988.6392],[7.37167,34.91978,1034.6617],[7.37136,34.92536,1054.5731],[7.37214,34.94851,1211.5181],[7.37136,34.95386,1233.6627],[7.36935,34.95854,1294.3167],[7.36589,34.96247,1384.9565],[7.36139,34.96593,1270.4521],[7.35565,34.96856,1309.5529],[7.34883,34.97006,1326.8677],[7.33535,34.97058,1164.0588],[7.32883,34.97151,1151.9175],[7.31302,34.97771,1142.3256],[7.30832,34.97719,1131.4546],[7.30305,34.97389,1188.1339],[7.29855,34.96763,1254.9919],[7.29189,34.95616,1142.0051],[7.28615,34.95076,1081.6287],[7.27964,34.94784,1101.009],[7.27375,34.9465,1070.5586],[7.26848,34.94433,1042.3337],[7.26445,34.94063,997.6824],[7.26088,34.93477,920.5602],[7.25793,34.92756,938.8752],[7.25416,34.90867,828.5021],[7.25432,34.90221,851.1393],[7.257,34.89831,806.6691],[7.26073,34.89467,971.3538],[7.26383,34.89069,984.3195],[7.26631,34.88624,934.0453],[7.2677,34.8812,819.3644],[7.26863,34.87604,924.4278],[7.27003,34.85968,631.6329],[7.27173,34.85477,733.3226],[7.27607,34.84573,680.3742],[7.27623,34.84082,706.2914],[7.27328,34.83617,686.6089],[7.26553,34.83234,559.0941],[7.25979,34.83317,477.9698],[7.25561,34.83622,521.4958],[7.24579,34.8541,802.0804],[7.24191,34.86348,749.8582],[7.23959,34.87371,783.3856],[7.23773,34.87849,783.0228],[7.23308,34.88759,733.7761],[7.22703,34.89585,816.3002],[7.22517,34.90061,910.4882],[7.2244,34.90596,834.4559],[7.22455,34.91746,875.6562],[7.22409,34.92293,844.2928],[7.22285,34.9281,885.9266],[7.22083,34.93273,829.8352],[7.21975,34.93784,862.56],[7.22223,34.94629,999.1567],[7.22905,34.95818,1080.8279],[7.26197,34.99851,1187.7135],[7.29235,35.02326,1128.1177],[7.32821,35.06287,1016.0819],[7.3878,35.11677,1043.385],[7.40175,35.13615,1036.2427],[7.41152,35.1561,1049.9883],[7.41601,35.18271,1093.4268],[7.41338,35.20111,1122.9604],[7.40702,35.21808,1134.8441],[7.40284,35.23361,1175.906],[7.40501,35.24953,1375.6929],[7.4157,35.2687,1289.3567],[7.4171,35.2857,1282.3335],[7.41384,35.30095,1363.6903],[7.4126,35.31573,1196.8175],[7.41896,35.34955,1098.5244],[7.4188,35.36433,1060.7957],[7.41338,35.37554,1089.2301],[7.41307,35.38663,1089.4468],[7.42599,35.39735,1048.2295],[7.52061,35.42828,992.9426],[7.54484,35.44781,975.4961],[7.52247,35.47101,952.8268],[7.49301,35.48745,966.871],[7.48464,35.49618,987.4843],[7.48014,35.50352,1006.9876],[7.47063,35.53158,1197.9524],[7.46226,35.53912,1264.7264],[7.45405,35.53979,1217.4159],[7.44459,35.5337,1158.2405],[7.43668,35.53018,1099.9032],[7.42506,35.53349,1046.9746],[7.39958,35.56318,959.2253],[7.38516,35.57176,935.3314],[7.37183,35.57532,918.8776],[7.36062,35.57034,913.5386],[7.35224,35.56062,931.4951],[7.34263,35.54563,960.158],[7.33209,35.53695,988.8617],[7.31504,35.53525,964.6455],[7.30956,35.54543,929.9825],[7.31002,35.58096,877.2428],[7.30336,35.6007,862.59],[7.28832,35.61261,856.0292],[7.26755,35.62124,852.328],[7.24905,35.62516,848.412],[7.22719,35.6264,838.0629],[7.223,35.62584,833.9259],[7.21975,35.62217,833.0222],[7.21882,35.61953,833.0574],[7.21711,35.61672,833.4288],[7.21385,35.61369,831.0103],[7.20672,35.61261,832.4503],[7.15071,35.6192,830.5],[7.1412,35.61746,830.5],[7.12988,35.61075,837.2233],[7.1181,35.59819,839.6412],[7.10213,35.58537,847.7288],[7.08301,35.57687,847.9246],[7.05123,35.57718,847.4032],[7.03573,35.58902,844.0084],[7.01552,35.62315,835.2338],[7.00327,35.62982,834.2704],[6.99258,35.63199,846.3188],[6.87124,35.61811,850.8602]]]}}