{"type":"Feature","properties":{"GID_1":"DZA.24_1","GID_0":"DZA","country":"Algeria","province":"Khenchela","VARNAME_1":"Khenchela","NL_NAME_1":"ولايةخنشلة","TYPE_1":"Wilaya","ENGTYPE_1":"Province","CC_1":"40","HASC_1":"DZ.KH","ISO_1":"DZ-40","name":"Khenchela.province"},
"geometry":{"type": "MultiPolygon","coordinates": [[[[6.7108,34.3965,-15.9032],[6.7052,34.3873,-16.7186],[6.6975,34.3805,-17.7122],[6.6989,34.3754,-18.2186],[6.6921,34.3288,-17.3708],[6.6918,34.3245,-16.8694],[6.6979,34.3053,-20.5982],[6.702,34.3007,-19.8432],[6.714,34.2921,-21.8755],[6.7629,34.2657,-23.2783],[6.8238,34.2274,-18.6057],[6.9122,34.1894,-10.2066],[6.9377,34.1708,-10.4316],[7.0054,34.1549,-9.252],[7.01,34.1545,-9.629],[7.0118,34.2047,0.9866],[7.0218,34.2889,13.0094],[7.0228,34.3323,22.8664],[7.2315,34.3401,65.0138],[7.2458,34.4432,100.6369],[7.2782,34.536,140.5081],[7.2999,34.5579,161.7254],[7.3091,34.5764,195.6025],[7.3182,34.5896,231.2976],[7.3267,34.5988,284.1982],[7.353,34.6356,276.682],[7.3775,34.6657,340.5296],[7.3869,34.6894,359.6577],[7.3916,34.7061,394.6159],[7.3945,34.7266,406.5239],[7.3902,34.7364,475.4448],[7.3906,34.7514,673.2379],[7.3683,34.7734,658.5307],[7.3637,34.7889,623.5414],[7.3655,34.7935,641.7519],[7.3732,34.8006,673.8047],[7.3726,34.807,688.5725],[7.3769,34.8116,720.8985],[7.3769,34.8185,736.2672],[7.3793,34.8253,752.7725],[7.39,34.8366,789.0577],[7.3943,34.8438,774.5316],[7.4021,34.8643,827.9877],[7.3981,34.8696,785.841],[7.3997,34.8843,846.723],[7.3953,34.8954,892.569],[7.3924,34.9095,919.2687],[7.3706,34.9397,1213.9211],[7.3711,34.9556,1252.7883],[7.3679,34.9594,1357.0129],[7.3459,34.9519,1363.6342],[7.3203,34.9669,1295.0645],[7.3078,34.9652,1300.8159],[7.3072,34.9584,1160.5254],[7.2998,34.9476,1075.9485],[7.2817,34.9364,1008.0042],[7.2736,34.9292,1030.7098],[7.2674,34.9102,909.7289],[7.2593,34.8984,873.9788],[7.2492,34.8734,595.8889],[7.2361,34.8868,696.8759],[7.2338,34.8907,720.6351],[7.2336,34.8968,745.6129],[7.2292,34.903,847.785],[7.236,34.9182,778.9406],[7.2367,34.9244,814.9585],[7.2439,34.9359,824.5767],[7.242,34.9463,929.1166],[7.2462,34.9629,909.0346],[7.2529,34.9714,907.9984],[7.2639,34.9788,998.5523],[7.2672,34.9834,984.184],[7.2657,34.989,1190.2178],[7.2703,34.9925,1189.9922],[7.2856,34.9969,1084.8129],[7.288,35.0029,1041.6378],[7.2886,35.0199,1180.5055],[7.3002,35.0414,1025.6293],[7.3098,35.0525,1021.9107],[7.3142,35.0551,1018.361],[7.3553,35.0733,1062.0122],[7.3656,35.0734,1187.4199],[7.4375,35.1633,1104.976],[7.4208,35.1887,1116.928],[7.3945,35.2197,1160.533],[7.3921,35.2256,1200.8179],[7.3908,35.2418,1364.3125],[7.4007,35.2452,1330.9126],[7.4167,35.2554,1324.9773],[7.4318,35.2716,1337.9716],[7.4261,35.2708,1346.7067],[7.4077,35.2804,1305.553],[7.4034,35.2846,1314.4192],[7.3986,35.2963,1388.0956],[7.4041,35.301,1384.2603],[7.4025,35.3115,1218.7611],[7.4033,35.3218,1146.0254],[7.3995,35.3378,1125.8379],[7.4108,35.3498,1122.5776],[7.4084,35.3534,1111.3696],[7.4113,35.3572,1078.2534],[7.4053,35.3653,1077.1998],[7.3954,35.3733,1084.5797],[7.4015,35.3848,1111.4974],[7.3952,35.3887,1131.6102],[7.407,35.3944,1092.6724],[7.4325,35.3996,1046.4214],[7.4402,35.3992,1039.0256],[7.4455,35.4018,1025.9075],[7.4536,35.4023,1020.0417],[7.4627,35.4003,1012.5891],[7.4737,35.4061,1003.486],[7.5256,35.418,1005.3887],[7.5488,35.4269,1029.0264],[7.5494,35.4389,985.6421],[7.5453,35.4428,978.7296],[7.5276,35.447,976.1295],[7.5236,35.4519,970.8055],[7.5171,35.4695,954.6887],[7.4961,35.4707,952.7496],[7.4846,35.4757,967.6571],[7.48,35.4904,982.9332],[7.4865,35.4952,983.1735],[7.4877,35.5002,986.5253],[7.4833,35.5062,1008.2668],[7.472,35.5147,1054.6614],[7.4721,35.5203,1085.7112],[7.461,35.523,1153.6143],[7.4554,35.5204,1125.2109],[7.4543,35.5141,1102.5259],[7.4508,35.5102,1139.3684],[7.4418,35.5075,1164.3728],[7.4321,35.5117,1148.9397],[7.4248,35.5113,1189.3738],[7.4197,35.5209,1077.1719],[7.424,35.5258,1064.7152],[7.4345,35.5314,1094.2612],[7.4267,35.5378,1084.2303],[7.419,35.5475,1021.5931],[7.3958,35.5552,966.1329],[7.3769,35.5698,931.6724],[7.3703,35.5684,925.2356],[7.3631,35.5642,923.2413],[7.3555,35.5415,994.1417],[7.3496,35.5302,1115.8772],[7.354,35.5205,1174.4663],[7.3494,35.5181,1191.1385],[7.3375,35.5189,1196.5325],[7.3138,35.5133,1094.7742],[7.3083,35.5102,1049.72],[7.3026,35.5104,1041.5042],[7.3048,35.5158,996.6899],[7.2973,35.5299,959.6292],[7.2967,35.5413,941.8046],[7.3064,35.5437,939.4453],[7.3088,35.5618,902.2853],[7.3137,35.5651,897.6936],[7.3164,35.5694,894.4851],[7.3138,35.5756,884.757],[7.3147,35.5803,882.9174],[7.3124,35.5866,873.6146],[7.3082,35.5927,867.4185],[7.2928,35.6029,859.556],[7.2675,35.6145,854.0331],[7.2287,35.6281,836.4592],[7.2244,35.6277,840.8888],[7.2178,35.6106,836.6569],[7.2131,35.6124,832.2029],[7.2099,35.6177,830.5],[7.2048,35.6195,831.5735],[7.1881,35.6164,831.6434],[7.1533,35.6131,831.1414],[7.1363,35.6203,830.5],[7.133,35.6176,843.5771],[7.0872,35.5461,860.4674],[7.0824,35.5457,861.0443],[7.0337,35.5598,857.1547],[7.019,35.5647,854.9565],[7.0136,35.5682,853.7245],[7.0229,35.5867,845.6035],[7.0234,35.5927,843.8822],[7.0289,35.6016,840.1141],[7.0289,35.6058,838.6127],[7.0025,35.6263,837.2461],[6.8714,35.6115,851.4104],[6.844,35.6097,855.3125],[6.8112,35.6101,860.4058],[6.8062,35.6157,858.3333],[6.7796,35.6665,991.7952],[6.7756,35.6722,953.429],[6.7688,35.6718,1148.2615],[6.7644,35.6709,1163.0216],[6.7646,35.6642,975.1713],[6.7711,35.6555,884.5566],[6.7623,35.6319,867.9332],[6.7631,35.6217,870.6288],[6.7709,35.6027,864.929],[6.7824,35.5946,867.2568],[6.7868,35.5847,869.6451],[6.791,35.5803,871.4083],[6.7939,35.5743,871.396],[6.7949,35.5637,876.0413],[6.7939,35.5593,877.1227],[6.7821,35.5482,881.9886],[6.7692,35.5222,897.7275],[6.7626,35.5177,901.7719],[6.7619,35.5047,926.3165],[6.7575,35.5019,939.9764],[6.7379,35.4975,983.6155],[6.7329,35.4887,1020.2627],[6.7202,35.4843,1053.6823],[6.6826,35.4909,989.1843],[6.6775,35.4883,1028.5256],[6.6463,35.4843,1035.5605],[6.6407,35.4731,1061.0466],[6.6367,35.469,1044.288],[6.6309,35.4701,1042.2471],[6.6233,35.4674,1051.8369],[6.6185,35.4627,1049.9795],[6.6085,35.4603,1068.687],[6.6017,35.4567,1081.2881],[6.5828,35.4435,1099.8367],[6.5755,35.4348,1115.3768],[6.5725,35.4291,1133.1204],[6.5729,35.4235,1275.0551],[6.5776,35.4209,1276.219],[6.5796,35.4142,1201.8474],[6.5798,35.3991,1286.5691],[6.585,35.3909,1386.5808],[6.5911,35.3896,1532.7461],[6.6002,35.3832,1509.89],[6.6008,35.3782,1484.6387],[6.5988,35.3743,1544.316],[6.5929,35.3719,1545.1058],[6.589,35.3651,1534.6536],[6.587,35.3569,1565.1135],[6.5911,35.3485,1643.5575],[6.5837,35.3431,1699.6479],[6.5872,35.3374,1555.9083],[6.5899,35.3264,1638.8375],[6.5961,35.316,1948.5521],[6.6136,35.3144,2114.6448],[6.6206,35.3212,2031.8771],[6.6261,35.323,2009.0432],[6.6385,35.317,2234.6094],[6.6331,35.3127,2163.9431],[6.6312,35.3071,1976.0332],[6.6268,35.3068,1935.9062],[6.6186,35.3028,1806.7852],[6.6138,35.3027,1905.3408],[6.6122,35.291,1748.4983],[6.6138,35.2855,1950.5774],[6.5855,35.276,1880.2448],[6.5804,35.272,1814.5667],[6.5758,35.2713,1851.1477],[6.5606,35.2639,1839.707],[6.5655,35.2527,1467.0029],[6.5624,35.2478,1454.5044],[6.5598,35.2347,1395.0764],[6.5555,35.2395,1420.4255],[6.5508,35.236,1418.2375],[6.5522,35.2281,1387.6216],[6.5576,35.225,1369.9321],[6.5601,35.221,1368.1951],[6.5588,35.2154,1401.8138],[6.568,35.1993,1510.3412],[6.564,35.1943,1486.3741],[6.5661,35.1777,1310.6541],[6.565,35.163,1332.696],[6.5556,35.1492,1344.6511],[6.5498,35.1448,1430.8269],[6.5336,35.1441,1180.6746],[6.5183,35.1415,1342.0431],[6.5151,35.1317,1272.905],[6.5033,35.1125,1192.8574],[6.5016,35.1065,1181.9194],[6.5077,35.098,1155.1257],[6.5097,35.0818,1142.9242],[6.5173,35.0527,1178.0308],[6.5117,35.0485,1199.7898],[6.5076,35.0424,1130.7086],[6.499,35.0238,818.3233],[6.514,35.0252,1008.3628],[6.536,35.0166,1247.2717],[6.5519,34.9827,885.2214],[6.5525,34.976,847.8319],[6.5565,34.9642,697.9272],[6.5651,34.9468,556.5163],[6.5712,34.9452,727.6316],[6.5784,34.9373,670.1835],[6.5853,34.9382,727.6107],[6.5914,34.9315,806.2878],[6.593,34.9262,953.5784],[6.571,34.9046,687.3646],[6.5802,34.901,868.5175],[6.589,34.9016,1004.0711],[6.5929,34.8977,925.1302],[6.5979,34.8963,866.3975],[6.5969,34.8919,816.2521],[6.598,34.8869,934.1573],[6.5953,34.8832,931.3698],[6.5834,34.8755,847.9152],[6.5766,34.8737,788.5918],[6.5674,34.8676,637.2735],[6.5649,34.8621,422.8318],[6.561,34.8593,312.6257],[6.5588,34.8551,285.7305],[6.5644,34.8336,218.1051],[6.5647,34.817,172.2222],[6.5631,34.8106,159.5352],[6.568,34.797,126.3197],[6.5783,34.7887,108.3986],[6.5826,34.7716,89.4932],[6.588,34.7727,87.8354],[6.5918,34.7756,92.9463],[6.6041,34.7773,96.353],[6.6157,34.7812,102.4734],[6.6375,34.7943,117.4814],[6.6454,34.8126,151.9608],[6.6487,34.8156,177.5358],[6.6495,34.822,222.4107],[6.6526,34.829,228.2697],[6.6584,34.8336,266.8318],[6.6622,34.8419,354.7102],[6.6667,34.8449,509.8663],[6.6735,34.8546,663.8698],[6.6905,34.8582,623.811],[6.7237,34.8583,458.7753],[6.728,34.8569,471.7361],[6.7112,34.8426,229.7577],[6.7154,34.8378,267.9872],[6.7257,34.8305,228.5694],[6.7376,34.8263,238.299],[6.7432,34.8215,231.1296],[6.7555,34.7966,186.8567],[6.7372,34.7763,149.3698],[6.7345,34.7714,141.394],[6.7341,34.761,129.437],[6.7722,34.7647,135.3352],[6.7673,34.7411,112.6567],[6.7674,34.7307,104.6636],[6.7637,34.7277,101.5613],[6.7565,34.7126,91.6648],[6.7515,34.6934,81.8154],[6.7412,34.6849,75.7406],[6.7347,34.6746,70.1531],[6.744,34.6507,60.3728],[6.7383,34.6427,56.4576],[6.7338,34.6393,54.396],[6.733,34.6253,47.0118],[6.7362,34.6188,44.8965],[6.7372,34.6118,41.4118],[6.7356,34.6059,39.1482],[6.7415,34.5883,32.0814],[6.7406,34.5608,25.1675],[6.7365,34.5561,23.3539],[6.7339,34.5387,17.0569],[6.7284,34.5359,15.1985],[6.7266,34.5302,13.8636],[6.7267,34.5229,13.4394],[6.7186,34.5113,10.3026],[6.7176,34.5065,7.692],[6.7094,34.4993,4.7016],[6.7005,34.4884,0.3482],[6.6977,34.4826,-1.0718],[6.688,34.4742,-3.9117],[6.6843,34.4636,-6.19],[6.6838,34.4588,-6.787],[6.6925,34.4451,-9.2233],[6.6943,34.4294,-11.2287],[6.6967,34.4238,-12.0722],[6.7083,34.413,-14.1673],[6.7108,34.3965,-15.9032]],
[[7.2488,34.8687,566.7936],[7.2492,34.8734,595.8889],[7.2577,34.8671,595.2668],[7.264,34.8698,806.3507],[7.2705,34.8564,609.1788],[7.269,34.8506,740.2993],[7.2704,34.8448,632.0553],[7.2666,34.8398,581.0589],[7.2661,34.8327,559.0941],[7.2634,34.8289,490.6987],[7.2608,34.8326,508.883],[7.2625,34.8464,490.9372],[7.2551,34.8614,555.9017],[7.2488,34.8687,566.7936]]]]}}