{"type":"Feature","properties":{"GID_2":"DZA.42.9_1","GID_0":"DZA","country":"Algeria","GID_1":"DZA.42_1","province":"Tébessa","NL_NAME_1":"ولايةتبسة","county":"Chrea","VARNAME_2":"Cheria","NL_NAME_2":"NA","TYPE_2":"Commune","ENGTYPE_2":"Commune","CC_2":"1203","HASC_2":"DZ.TB.CH","name":"Chrea.county"},
"geometry":{"type": "MultiPolygon","coordinates": [[[[7.7102,35.3502,1107.3879],[7.6926,35.3417,1135.2848],[7.6693,35.3212,1166.5184],[7.6693,35.297,1142.0924],[7.6652,35.2814,1168.5376],[7.6661,35.2764,1168.3817],[7.6751,35.2654,1145.9415],[7.6722,35.2558,1140.6946],[7.6834,35.2345,1124.9407],[7.6958,35.185,1105.1431],[7.6978,35.1633,1085.3209],[7.7044,35.1448,1301.7351],[7.6933,35.1302,1218.5927],[7.7009,35.1333,1208.6549],[7.7077,35.1382,1163.5048],[7.7389,35.1646,1212.4336],[7.8029,35.1998,1194.5186],[7.8541,35.2148,1282.3821],[7.8588,35.2254,1322.0972],[7.8708,35.2436,1478.4108],[7.8733,35.2567,1459.3885],[7.8763,35.2633,1464.5404],[7.8902,35.2796,1434.54],[7.8885,35.2849,1359.4198],[7.8744,35.2972,1249.5464],[7.8731,35.3023,1235.4604],[7.8752,35.3072,1227.6953],[7.8723,35.3114,1217.897],[7.8674,35.3147,1203.4186],[7.8522,35.3173,1178.5897],[7.8479,35.322,1170.4856],[7.835,35.3265,1152.5646],[7.8132,35.33,1130.3563],[7.8058,35.3336,1126.9895],[7.8002,35.3421,1126.9475],[7.7926,35.3496,1122.6107],[7.7613,35.3536,1114.5188],[7.7467,35.3518,1105.6414],[7.733,35.3587,1108.4331],[7.7288,35.3642,1111.4906],[7.7102,35.3502,1107.3879]]]]}}