{"type": "Feature","bbox": [-0.486894649485436,32.402681802180979,3.7217608417565771,34.2648057966328],"geometry": {"type": "MultiPolygon","coordinates": [[[[3.7217608417565771,34.2648057966328,1125.7747],[3.1660262378962329,34.106024481244077,818.6686],[2.7558699878962329,33.854681707806606,816.5015],[2.7478089394774372,33.85240050408018,817.3799],[2.7823592457087329,33.861273504681634,820.5157],[3.159434441021205,34.099432684369077,814.5909],[3.6224471363337329,34.2316958679628,821.9575],[3.7217608417565771,34.2648057966328,1125.7747]]],
[[[0.68516910339801,32.995145775898635,938.6079],[0.401133659771233,32.902167059369134,886.6142],[-0.392689582416267,32.492071844525356,939.1362],[-0.486894649485436,32.402681802180979,835.2554],[-0.392689582416267,32.485480047650356,902.731],[0.420909050396261,32.902167059369134,885.4061],[0.68516910339801,32.995145775898635,938.6079]]]]}
,"properties": {"featurecla": "Range/mtn","name": "ATLAS SAHARIEN","namealt": null,"region": "Africa","subregion": null,"min_label": 5.0,"max_label": 8.0,"scalerank": 3,"area_km2": 132.5047,"hist_schema_id": "Elevation0-9000","hist_area_km2": {"775": 2.4551,"800": 11.6822,"825": 13.6852,"850": 18.9654,"875": 13.8105,"900": 13.8675,"925": 18.37,"950": 18.0593,"975": 9.9479,"1000": 4.5875,"1025": 2.9014,"1050": 1.2046,"1075": 0.6554,"1100": 0.2996,"1125": 0.2318,"1150": 0.1775,"1175": 0.1246,"1200": 0.3032,"1225": 0.3564,"1250": 0.5177,"1275": 0.2142,"1300": 0.0876}}}