{"type": "Feature","bbox": [-5.7014643481926441,23.022128480246067,-0.070729133197517,28.108771063275356],"geometry": {"type": "Polygon","coordinates": [[[-5.7014643481926441,24.203457304312138,288.0232],[-5.24779212147871,24.237066961712856,278.3385],[-4.6656998363224886,24.201788641400384,267.6992],[-3.5367325511662391,24.0606753601503,297.1906],[-2.7842144293199742,23.022128480246067,243.8122],[-2.6284073558537671,23.072882391400327,301.3163],[-1.869862433978795,23.822577215619106,293.5537],[-1.8787125316350171,24.422308660931549,264.6412],[-1.331898566791295,25.321844793744077,260.2083],[-0.69694983632246,26.300848699994049,258.9287],[-0.070729133197517,26.565375067181634,188.5399],[-0.441151496478767,27.262091375775327,204.5635],[-0.423512336322517,27.958868719525356,232.7016],[-1.31425940663496,28.108771063275356,279.9966],[-2.7430313792912671,26.988714910931634,348.5863],[-2.7606705394475171,26.247931219525327,350.1113],[-3.3339127269475171,25.427679754681577,252.3132],[-4.36583411366621,24.801520086712827,221.8789],[-5.4329727855412671,24.395819403119077,228.9247],[-5.7014643481926441,24.203457304312138,288.0232]]]}
,"properties": {"featurecla": "Desert","name": "‘Erg Chech","namealt": null,"region": "Africa","subregion": null,"min_label": 5.3,"max_label": 9.0,"scalerank": 4,"area_km2": 111860.72,"hist_schema_id": "Elevation0-9000","hist_area_km2": {"125": 78.3,"150": 480.41,"175": 1613.89,"200": 3526.55,"225": 7913.12,"250": 16221.52,"275": 33585.67,"300": 28536.96,"325": 13321.93,"350": 5143.01,"375": 1001.09,"400": 299.9,"425": 103.28,"450": 29.38,"475": 5.24}}}