{"type":"Feature","properties":{"featurecla":"Desert","name":"‘Erg Iguidi","namealt":null,"region":"Africa","subregion":null,"min_label":6.0,"max_label":10.0,"scalerank":5},
"geometry":{"type": "Polygon","coordinates": [[[-3.192799445697545,28.580633856244077,399.6111],[-3.7748917308537671,28.580633856244077,424.0172],[-4.1453140941350171,28.263128973431549,401.6166],[-4.4274796214787386,28.135260321087827,415.5334],[-5.0316666331975171,27.751593328900327,400.5392],[-5.02721106679121,27.619330145306577,371.7509],[-4.7626236644475171,27.509039617962884,364.608],[-4.5554093089787946,27.500250555462856,367.8565],[-4.2687882152287386,27.509100653119106,369.7667],[-3.655812141010045,27.544317938275384,389.6321],[-2.9987686839787391,27.235663153119077,384.3719],[-2.7430313792912671,27.006354071087884,346.9856],[-1.3671768871037671,28.077948309369077,291.6614],[-1.4642227855412391,28.227850653119077,298.8433],[-1.64061438710371,28.373358465619134,297.3278],[-2.3285416331974891,28.514471746869106,328.983],[-2.97234046132246,28.430670477337884,383.8719],[-3.192799445697545,28.580633856244077,399.6111]]]}}