{"type": "Feature","bbox": [-2.2976578441350171,29.184759832806549,3.3643904957087329,32.372992254681549],"geometry": {"type": "Polygon","coordinates": [[[3.00721276133379,31.208868719525327,464.5541],[3.3643904957087329,31.9232241882753,596.9666],[3.04688561289629,32.161322332806606,678.4417],[2.9410506519587329,32.3068911804628,541.9489],[2.1738387378962329,32.372992254681549,607.3819],[1.7901717457087329,32.029059149212856,622.9619],[1.3271590503962329,32.0025698914003,639.1863],[1.2478133472712329,31.764471746869077,574.2186],[1.31385338633379,31.394049383587827,521.7949],[0.943492058208733,31.142706610150356,548.0341],[0.758311394146261,30.983954168744049,558.0187],[0.401133659771233,30.838446356244077,571.6199],[-0.194203254291239,30.811957098431606,592.171],[-0.538197394916239,30.957464910931577,622.1378],[-1.0408829417912391,30.944281317181549,668.559],[-1.6891373363225171,30.679693914837856,665.3162],[-2.0330704417912391,30.772284246869106,582.8121],[-2.2976578441350171,30.573858953900384,577.9897],[-2.17857825429121,30.163763739056606,539.0571],[-1.8081558910100171,29.833014227337856,417.0864],[-1.0012100902287391,29.317084051556606,389.0661],[-0.379444953510017,29.184759832806549,317.232],[0.176158073833733,29.634588934369134,377.7073],[0.864146355083733,29.819769598431606,399.6408],[1.77686608164629,29.833014227337856,392.1008],[2.5177108082087329,30.216681219525356,416.3746],[2.96753990977129,30.375433660931577,376.2258],[3.00721276133379,31.208868719525327,464.5541]]]}
,"properties": {"featurecla": "Desert","name": "Grand Erg Occidental","namealt": null,"region": "Africa","subregion": null,"min_label": 5.3,"max_label": 9.0,"scalerank": 4,"area_km2": 89548.48,"hist_schema_id": "Elevation0-9000","hist_area_km2": {"325": 70.44,"350": 508.09,"375": 2284.18,"400": 5833.38,"425": 7056.26,"450": 7122.94,"475": 8765.82,"500": 10656.61,"525": 12913.37,"550": 14122.78,"575": 9072.72,"600": 5743.21,"625": 2921.13,"650": 1854.77,"675": 596.85,"700": 25.39}}}