{"type": "Feature","bbox": [4.03907311289629,28.576239324994077,9.79383385508379,32.8492495789003],"geometry": {"type": "Polygon","coordinates": [[[4.8499225813880571,28.602588698346892,389.2209],[5.57374108164629,28.576239324994077,352.7504],[6.2484236988337614,28.668829657025327,386.3227],[7.0951033863337614,28.893744207806606,306.6096],[7.7036238941462329,29.277411199994106,295.3772],[8.4444686207087614,29.687506414837856,293.2092],[9.0398055347712329,29.912359930462856,347.4278],[9.3969832691462614,30.1240298523378,331.7067],[9.7408553394587329,30.494452215619077,315.4912],[9.79383385508379,30.944281317181549,316.114],[9.6350203785212614,31.394049383587827,291.5815],[9.4630233082087045,32.108404852337856,263.6843],[9.1323348316462614,32.7699038757753,202.5925],[8.5503035816462614,32.8492495789003,121.0204],[8.07398522227129,32.399481512494134,148.1588],[7.53162682383379,31.830633856244049,149.2503],[6.4864608082087614,30.878119207806577,180.6156],[5.6662703785212329,30.5473696960878,198.0765],[5.4017440113337329,30.335699774212856,211.906],[4.4889022144587614,29.727179266400356,277.066],[4.03907311289629,29.1583316101503,395.913],[4.7534285816462329,28.920172430462856,342.8372],[4.82793098198087,28.664910912583935,381.9542],[4.84607994883379,28.602728582806549,389.548],[4.8499225813880571,28.602588698346892,389.2209]]]}
,"properties": {"featurecla": "Desert","name": "Grand Erg Oriental","namealt": null,"region": "Africa","subregion": null,"min_label": 4.7,"max_label": 9.0,"scalerank": 4,"area_km2": 127043.5,"hist_schema_id": "Elevation0-9000","hist_area_km2": {"125": 1858.07,"150": 6638.57,"175": 13164.6,"200": 17038.55,"225": 17019.74,"250": 16259.88,"275": 15167.06,"300": 15313.14,"325": 11895.59,"350": 5693.98,"375": 3389.43,"400": 1774.83,"425": 944.22,"450": 509.54,"475": 239.92,"500": 96.36,"525": 31.78,"550": 7.02,"575": 1.04}}}