{"type":"Feature","properties":{"featurecla":"Desert","name":"Hamada de Tinrhert","namealt":null,"region":"Africa","subregion":null,"min_label":6.0,"max_label":10.0,"scalerank":5},
"geometry":{"type": "Polygon","coordinates": [[[7.0951033863337614,28.893744207806606,306.6096],[6.1998397144587054,28.549750067181606,341.6328],[6.07642662852129,28.3557193054628,367.3519],[6.45569908945879,28.294012762494134,390.7807],[7.0112410816462329,28.338080145306549,458.6262],[7.8579207691462329,28.461554266400356,511.7886],[8.6340438160212614,28.682074285931549,554.486],[8.8545028003962329,28.708502508587827,544.9821],[9.0044051441462045,28.637945867962827,597.774],[9.92164147227129,28.646795965619049,699.7555],[10.98878014414629,28.840765692181549,690.2322],[11.897227409771261,28.920172430462856,683.308],[12.52344811289629,28.7790591492128,602.1199],[12.981944206646261,28.452704168744134,562.7282],[13.246592644146261,28.514471746869106,555.8773],[13.934458855083761,28.602667547650327,656.8038],[13.907969597271261,28.973089910931606,530.1694],[13.828623894146261,29.369940496869134,510.2894],[14.243174675396261,29.678656317181549,412.405],[14.10206139414629,30.040228582806577,449.6923],[13.29944908945879,30.5076968445253,552.421],[13.193614128521233,31.019171453900327,674.6378],[12.893809441021261,31.133856512494134,608.149],[12.064707878521261,30.878119207806577,619.5081],[10.159800651958733,30.384222723431577,413.4017],[8.9692488941462614,29.793280340619134,281.0868],[8.14893639414629,29.440497137494106,316.4597],[7.0951033863337614,28.893744207806606,306.6096]]]}}