{"type":"Feature","properties":{"GID_2":"DZA.32.12_1","GID_0":"DZA","country":"Algeria","GID_1":"DZA.32_1","province":"Oran","NL_NAME_1":"ولايةوهران","county":"ElBraya","VARNAME_2":"NA","NL_NAME_2":"NA","TYPE_2":"Commune","ENGTYPE_2":"Commune","CC_2":"3118","HASC_2":"DZ.OR.EB","name":"El_Braya.county"},
"geometry":{"type": "MultiPolygon","coordinates": [[[[-0.4318,35.6414,301.7192],[-0.4443,35.6398,320.5814],[-0.4591,35.6324,322.8318],[-0.464,35.6283,288.8874],[-0.4695,35.6283,299.2899],[-0.4758,35.6293,267.0455],[-0.4966,35.6421,154.3908],[-0.5068,35.6371,125.995],[-0.5236,35.6421,100.3022],[-0.5349,35.6351,109.6482],[-0.5425,35.6231,120.2477],[-0.5331,35.5991,179.4866],[-0.5353,35.5922,172.1276],[-0.5446,35.5852,150.9779],[-0.5302,35.5803,108.7035],[-0.5244,35.5756,96.6854],[-0.5099,35.5814,101.3021],[-0.4987,35.5807,99.6095],[-0.4868,35.5823,101.9234],[-0.4705,35.5918,104.94],[-0.4489,35.595,106.1856],[-0.4102,35.6092,119.0588],[-0.42,35.6164,121.743],[-0.4279,35.6268,191.3755],[-0.4321,35.6353,300.7903],[-0.4318,35.6414,301.7192]]]]}}