{"type":"Feature","properties":{"GID_2":"DZA.41.10_1","GID_0":"DZA","country":"Algeria","GID_1":"DZA.41_1","province":"Tamanghasset","NL_NAME_1":"ولايةتمنراست","county":"TinZaouatine","VARNAME_2":"NA","NL_NAME_2":"NA","TYPE_2":"Commune","ENGTYPE_2":"Commune","CC_2":"1107","HASC_2":"DZ.TM.TZ","name":"Tin_Zaouatine.county"},
"geometry":{"type": "MultiPolygon","coordinates": [[[[2.4063,20.0643,829.9418],[2.4188,20.0562,825.2029],[2.4277,20.0561,812.6621],[2.4569,20.062,782.8109],[2.4679,20.0612,776.647],[2.4788,20.0554,774.6106],[2.496,20.0355,764.0645],[2.5137,20.0245,761.5418],[2.5334,20.0191,762.1779],[2.5427,20.0193,774.2456],[2.5606,20.0153,772.3652],[2.5783,20.0049,757.3145],[2.7034,20.0047,717.0268],[2.7242,19.999,704.9617],[2.7504,19.9971,688.0426],[2.767,19.9865,680.201],[2.8113,19.9704,670.8468],[2.8495,19.9674,664.6653],[2.964,19.9506,621.4825],[3.0024,19.9368,612.8369],[3.0216,19.9184,605.2209],[3.0298,19.9126,602.6262],[3.05,19.9027,600.778],[3.0688,19.8983,599.597],[3.1091,19.8718,587.9999],[3.1673,19.8381,573.5641],[3.1803,19.8328,568.8032],[3.1951,19.8293,563.0107],[3.2299,19.8252,554.905],[3.2329,19.8218,553.4156],[3.2316,19.8099,558.4293],[3.2246,19.7823,558.9236],[3.2296,19.77,551.8781],[3.2293,19.7436,543.7325],[3.2151,19.7098,550.3336],[3.2123,19.6799,526.6205],[3.2185,19.6709,525.8344],[3.2281,19.6639,524.6979],[3.2328,19.6545,522.8359],[3.2329,19.6423,520.7849],[3.225,19.6307,519.1077],[3.2218,19.6218,516.8335],[3.2127,19.5915,513.194],[3.2107,19.578,511.9566],[3.2126,19.5658,512.449],[3.2229,19.5443,511.6456],[3.249,19.5182,508.616],[3.2497,19.5135,507.9928],[3.2364,19.4898,510.3203],[3.2347,19.4789,512.2751],[3.24,19.4658,520.5962],[3.2632,19.4351,507.248],[3.2671,19.4271,509.3163],[3.2721,19.4096,523.9623],[3.2712,19.3965,520.3817],[3.2685,19.3876,511.3318],[3.2605,19.3733,503.6506],[3.2538,19.367,514.826],[3.2245,19.3498,525.6096],[3.21,19.3354,524.5109],[3.198,19.316,501.0612],[3.1908,19.2964,509.8285],[3.1951,19.291,502.8018],[3.198,19.2807,498.178],[3.1941,19.2698,494.4974],[3.1772,19.2523,491.6064],[3.1701,19.2388,490.5549],[3.1631,19.232,489.1332],[3.1412,19.203,486.4177],[3.1251,19.1968,490.2793],[3.1143,19.1872,488.6868],[3.1081,19.1781,495.0724],[3.1065,19.1717,497.5916],[3.1095,19.1683,497.2072],[3.1072,19.1591,485.8788],[3.112,19.1472,482.6415],[3.1193,19.1347,481.954],[3.1208,19.1302,480.9985],[3.1193,19.1258,482.4048],[3.1212,19.1195,487.1323],[3.1273,19.1139,489.4238],[3.1568,19.0925,491.1479],[3.169,19.0857,480.1805],[3.1918,19.0674,485.695],[3.2124,19.0587,483.9701],[3.2561,19.0249,492.8087],[3.2704,19.0167,490.2405],[3.2755,19.0023,466.9733],[3.2858,18.991,477.9077],[3.2948,18.9832,477.898],[3.3166,18.9721,473.8879],[3.3288,18.9624,478.8331],[3.3352,18.9602,469.8483],[3.343,18.9613,462.3549],[3.6936,19.031,441.4439],[3.8143,19.0529,435.3351],[4.2196,19.1321,416.2383],[4.3362,19.1566,438.3943],[4.667,19.2222,405.951],[4.6288,19.2465,410.9128],[4.6141,19.2527,408.7206],[4.5898,19.2601,410.3342],[4.5702,19.2696,410.916],[4.5544,19.2742,412.2566],[4.5481,19.278199999999998,411.7679],[4.5407,19.2868,411.1971],[4.4,19.6784,451.7783],[4.1166,19.7028,467.9753],[4.097,19.7401,480.6832],[4.083,19.8347,491.4644],[4.1401,19.9741,627.9432],[4.1513,20.0119,549.8089],[4.1764,20.0678,550.7043],[4.1819,20.0899,523.1987],[4.18,20.1045,547.4749],[4.1769,20.1115,543.7868],[4.1464,20.1462,555.6615],[4.1267,20.1648,609.5253],[4.095,20.224,630.1516],[4.0881,20.233,644.3179],[4.0768,20.2737,643.0635],[4.0688,20.2934,629.6024],[4.0681,20.3083,622.6357],[4.0714,20.3201,624.6535],[4.0709,20.3278,645.6325],[4.0592,20.3696,647.9625],[4.0413,20.3941,696.3625],[4.0331,20.4206,688.5979],[4.0189,20.4442,683.3713],[4.0234,20.4471,693.8488],[4.0249,20.4533,673.5803],[4.0258,20.4695,712.3628],[4.0214,20.4846,680.399],[4.0271,20.4869,654.033],[4.0273,20.4936,680.6281],[4.0226,20.5284,701.7051],[4.0221,20.5738,724.2053],[4.0325,20.6042,707.826],[4.0336,20.6122,703.163],[4.0322,20.634,659.5554],[4.0364,20.7203,676.9994],[4.0294,20.7267,658.7145],[4.0312,20.7334,654.6117],[4.0371,20.7416,662.3447],[4.0409,20.7512,655.489],[4.0449,20.773,667.7069],[4.0423,20.8526,711.5343],[4.0529,20.8835,693.4563],[4.0507,20.9001,728.3786],[4.0453,20.9071,711.6151],[4.0409,20.9166,720.2731],[4.0313,20.9472,746.2099],[4.0308,20.9564,763.1642],[4.0327,20.9652,751.798],[4.0293,20.9957,737.8024],[4.0329,21.001,721.0054],[4.0329,21.0078,718.7336],[4.0301,21.0405,750.2915],[4.022,21.0689,695.1898],[3.99,21.0755,646.2618],[3.9757,21.0932,635.5526],[3.9674,21.1103,630.2993],[3.9605,21.1187,627.9367],[3.9537,21.1213,625.3691],[3.9452,21.1284,623.1195],[3.9412,21.136,621.0922],[3.9342,21.1431,619.6407],[3.914,21.1428,616.9987],[3.8844,21.1579,613.3173],[3.8797,21.1634,611.9709],[3.8627,21.1606,610.0577],[3.8346,21.167,605.915],[3.8267,21.1659,605.2491],[3.8138,21.1601,603.8759],[3.7973,21.1552,602.8775],[3.7811,21.1924,616.3776],[3.7108,21.2454,597.5638],[3.7075,21.2508,595.5325],[3.6944,21.2577,591.7573],[3.6666,21.2648,585.7734],[3.6338,21.2542,579.0525],[3.6177,21.2556,577.4533],[3.6049,21.2581,575.8035],[3.5941,21.262,574.8054],[3.5841,21.263,573.4476],[3.5719,21.2724,571.3557],[3.5517,21.2802,571.0849],[3.5412,21.2811,569.0739],[3.5144,21.2717,566.9247],[3.5033,21.2734,565.0924],[3.4607,21.3088,560.8107],[3.4487,21.3254,560.1386],[3.4469,21.334,558.5902],[3.448,21.3429,557.6605],[3.435,21.3638,555.6525],[3.433,21.385,554.1701],[3.4292,21.3989,552.496],[3.4309,21.4099,551.6061],[3.4344,21.4191,551.1586],[3.2983,21.4206,803.1154],[3.0913,21.9039,555.2538],[3.0718,21.8874,569.7751],[3.0212,21.859,612.5201],[3.0017,21.8437,593.7716],[2.9691,21.8321,633.5101],[2.9473,21.8278,633.4191],[2.7933,21.8273,496.9155],[2.7604,21.8244,484.876],[2.7301,21.8241,479.6393],[2.6504,21.8261,475.7734],[2.1566,21.8174,445.5985],[2.0279,21.818,437.0842],[1.8837,21.814,435.0394],[1.7763,21.8091,422.0355],[1.7795,21.8029,422.8948],[1.7837,21.7863,423.054],[1.7987,21.6995,440.3458],[1.839,21.5279,437.7164],[1.8674,21.4932,450.1574],[1.913,21.4572,449.5438],[1.9699,21.4196,455.7126],[2.0032,21.3924,463.7576],[2.0501,21.3338,479.9545],[2.0919,21.2861,488.5693],[2.1541,21.1637,510.2736],[2.1946,21.0886,538.5746],[2.2117,21.0297,532.7007],[2.2306,20.9537,538.3585],[2.2631,20.8606,560.4603],[2.2581,20.8005,564.5704],[2.2471,20.7379,580.054],[2.2468,20.678,589.0519],[2.2606,20.622,603.756],[2.3033,20.5679,626.3253],[2.3527,20.4946,645.4791],[2.3959,20.4097,701.3926],[2.4442,20.301,720.5475],[2.48,20.2039,765.8959],[2.4977,20.0921,799.3063],[2.4769,20.0943,818.5952],[2.4341,20.0736,808.4116],[2.4063,20.0643,829.9418]]]]}}