{"type": "Feature","bbox": [4.9747,36.5134,5.0638,36.6015],"geometry": {"type": "MultiPolygon","coordinates": [[[[5.019,36.5993,288.6306],[5.0199,36.592,622.8721],[5.0175,36.5841,712.63],[5.0009,36.5834,551.4984],[4.9959,36.5815,373.9601],[4.9886,36.5717,490.9887],[4.9876,36.5659,621.4915],[4.9916,36.5574,826.6465],[4.9912,36.5494,1093.5938],[4.9747,36.543,855.1409],[4.9893,36.5267,560.8301],[5.0058,36.5274,939.9053],[5.0165,36.5237,1109.2502],[5.0243,36.5229,1304.947],[5.0231,36.5168,1511.774],[5.026,36.5134,1530.7522],[5.0337,36.5139,1526.1486],[5.0442,36.5213,1443.9518],[5.0525,36.5231,1201.6343],[5.0638,36.5522,642.7295],[5.0559,36.5569,568.0438],[5.0527,36.5632,738.3704],[5.0622,36.5708,1024.1213],[5.0464,36.5853,467.9886],[5.0424,36.591,446.2104],[5.0442,36.5979,249.4614],[5.033,36.6015,257.3962],[5.019,36.5993,288.6306]]]]}
,"properties": {"GID_2": "DZA.8.27_1","GID_0": "DZA","country": "Algeria","GID_1": "DZA.8_1","province": "Béjaïa","NL_NAME_1": "بجاية","county": "Kendira","VARNAME_2": "NA","NL_NAME_2": "NA","TYPE_2": "Commune","ENGTYPE_2": "Commune","CC_2": "613","HASC_2": "DZ.BJ.KE","name": "Kendira.county","area_km2": 46.46154,"hist_schema_id": "Elevation0-9000","hist_area_km2": {"250": 0.22128,"275": 0.22128,"300": 0.13617,"325": 0.13618,"350": 0.20428,"375": 0.28943,"400": 0.56186,"425": 0.52781,"450": 0.74919,"475": 0.83437,"500": 0.81732,"525": 0.98764,"550": 1.05576,"575": 1.34528,"600": 1.34534,"625": 1.68593,"650": 1.61783,"675": 1.58381,"700": 1.75421,"725": 1.75414,"750": 1.56685,"775": 1.9926,"800": 1.77122,"825": 1.85642,"850": 2.09488,"875": 1.85644,"900": 1.72021,"925": 1.85651,"950": 1.82246,"975": 1.60102,"1000": 1.56699,"1025": 1.27748,"1050": 0.95392,"1075": 0.86874,"1100": 0.88581,"1125": 0.76659,"1150": 0.44293,"1175": 0.44294,"1200": 0.35778,"1225": 0.23853,"1250": 0.35779,"1275": 0.2726,"1300": 0.32372,"1325": 0.25557,"1350": 0.34077,"1375": 0.15335,"1400": 0.17039,"1425": 0.13631,"1450": 0.15335,"1475": 0.15336,"1500": 0.06816,"1525": 0.13632,"1550": 0.13632,"1575": 0.01704,"1600": 0.01704}}}