{"type":"Feature","properties":{"GID_2":"DZA.18.24_1","GID_0":"DZA","country":"Algeria","GID_1":"DZA.18_1","province":"ElOued","NL_NAME_1":"ولايةالوادي","county":"SidiAoun","VARNAME_2":"NA","NL_NAME_2":"NA","TYPE_2":"Commune","ENGTYPE_2":"Commune","CC_2":"3916","HASC_2":"DZ.EO.SA","name":"Sidi_Aoun.county"},
"geometry":{"type": "MultiPolygon","coordinates": [[[[6.9284,33.582,44.8104],[6.8809,33.695,26.5676],[6.8534,33.9687,6.1829],[6.8543,33.978,8.1113],[6.8308,34.1501,-21.0585],[6.7734,34.149,-22.3344],[6.7684,34.1067,-22.3394],[6.7625,34.0086,-16.9507],[6.7626,33.9681,-13.5211],[6.7782,33.8313,6.6035],[6.8435,33.6361,37.4235],[6.8622,33.5578,50.3189],[6.8579,33.5517,52.7591],[6.8636,33.5499,51.6648],[6.8628,33.5377,54.2476],[6.8646,33.5206,55.7378],[6.928,33.513,63.2733],[6.9284,33.582,44.8104]]]]}}