{"type": "Feature","bbox": [3.4394,36.2767,3.5482,36.3508],"geometry": {"type": "MultiPolygon","coordinates": [[[[3.5482,36.318,650.5337],[3.538,36.3196,668.9763],[3.523,36.3268,637.5292],[3.5146,36.3286,649.2586],[3.5125,36.3331,660.5284],[3.5129,36.3398,741.5898],[3.5115,36.3456,773.4183],[3.5077,36.3508,756.5387],[3.4954,36.3369,603.2789],[3.4745,36.3385,747.3475],[3.4642,36.344,790.3301],[3.4561,36.3419,804.9615],[3.4518,36.3327,631.3804],[3.443,36.3254,566.4311],[3.4394,36.3156,458.3922],[3.4416,36.3102,455.6329],[3.4475,36.3084,463.9122],[3.4519,36.3037,465.3352],[3.4588,36.3021,480.4812],[3.4594,36.2962,474.4878],[3.4653,36.2924,510.4194],[3.466,36.2874,494.2242],[3.4708,36.2873,508.3604],[3.4824,36.2824,539.8676],[3.5076,36.2819,550.2957],[3.5203,36.2767,556.2578],[3.5344,36.2813,590.6628],[3.5386,36.296,596.3793],[3.5455,36.307,608.271],[3.5482,36.318,650.5337]]]]}
,"properties": {"GID_2": "DZA.28.5_1","GID_0": "DZA","country": "Algeria","GID_1": "DZA.28_1","province": "Médéa","NL_NAME_1": "ولايةالمدية","county": "Azzizia","VARNAME_2": "ElAzizia","NL_NAME_2": "NA","TYPE_2": "Commune","ENGTYPE_2": "Commune","CC_2": "2636","HASC_2": "DZ.MD.AI","name": "Azzizia.county","area_km2": 48.04311,"hist_schema_id": "Elevation0-9000","hist_area_km2": {"450": 0.18793,"475": 1.28143,"500": 1.94781,"525": 3.65651,"550": 7.14216,"575": 7.85965,"600": 8.04739,"625": 7.99581,"650": 5.12495,"675": 2.1181,"700": 0.75149,"725": 0.99057,"750": 0.51236,"775": 0.37572,"800": 0.03416,"825": 0.01708}}}