{"type": "Feature","bbox": [-0.481,35.3745,-0.3999,35.4548],"geometry": {"type": "MultiPolygon","coordinates": [[[[-0.401,35.4418,325.2163],[-0.4055,35.4443,349.0687],[-0.4079,35.4484,346.3611],[-0.4319,35.4548,504.8842],[-0.4378,35.4506,460.815],[-0.4441,35.442,471.9055],[-0.4564,35.4362,451.5989],[-0.4617,35.4313,456.86],[-0.4663,35.4303,513.6634],[-0.4707,35.4315,555.086],[-0.4737,35.4276,539.4761],[-0.4697,35.4125,447.5262],[-0.4808,35.3985,516.4353],[-0.481,35.3926,508.5063],[-0.4747,35.3862,550.262],[-0.4574,35.3756,655.5606],[-0.4347,35.3765,635.3446],[-0.4231,35.3745,569.2674],[-0.4195,35.3886,568.7067],[-0.4099,35.3932,484.9444],[-0.4065,35.397,446.4713],[-0.4095,35.4038,433.1571],[-0.4116,35.4155,371.1282],[-0.408,35.4186,386.5049],[-0.402,35.4294,379.8926],[-0.3999,35.436,351.95],[-0.401,35.4418,325.2163]]]]}
,"properties": {"GID_2": "DZA.38.21_1","GID_0": "DZA","country": "Algeria","GID_1": "DZA.38_1","province": "SidiBelAbbès","NL_NAME_1": "ولايةسيديبلعباس","county": "Mekkedra","VARNAME_2": "Makedra","NL_NAME_2": "NA","TYPE_2": "Commune","ENGTYPE_2": "Commune","CC_2": "2216","HASC_2": "DZ.SB.MK","name": "Mekkedra.county","area_km2": 43.71798,"hist_schema_id": "Elevation0-9000","hist_area_km2": {"325": 0.51823,"350": 1.8311,"375": 3.35135,"400": 4.57815,"425": 4.52673,"450": 3.04101,"475": 3.16211,"500": 2.21181,"525": 2.35016,"550": 2.59222,"575": 2.73074,"600": 3.38752,"625": 3.23199,"650": 2.74812,"675": 2.47159,"700": 0.91603,"725": 0.06912}}}