{"type":"Feature","properties":{"GID_2":"DZA.19.8_1","GID_0":"DZA","country":"Algeria","GID_1":"DZA.19_1","province":"ElTarf","NL_NAME_1":"ولايةالطارف","county":"Bouhadjar","VARNAME_2":"NA","NL_NAME_2":"NA","TYPE_2":"Commune","ENGTYPE_2":"Commune","CC_2":"3602","HASC_2":"DZ.ET.BH","name":"Bouhadjar.county"},
"geometry":{"type": "MultiPolygon","coordinates": [[[[8.1221,36.5898,539.6175],[8.118,36.5876,549.2324],[8.092,36.5897,234.735],[8.0874,36.5875,167.72],[8.0863,36.58,173.4471],[8.0883,36.5746,173.1299],[8.0917,36.5719,180.4429],[8.0874,36.5673,181.6065],[8.086,36.56,204.1996],[8.0867,36.5476,198.5751],[8.0832,36.5389,205.5403],[8.0848,36.5183,224.5319],[8.0816,36.5138,227.8245],[8.0764,36.5101,228.8495],[8.0732,36.5042,235.3993],[8.0559,36.4903,267.6213],[8.0634,36.4776,366.6606],[8.0727,36.4778,311.7118],[8.0936,36.4646,399.2089],[8.0996,36.4639,472.2321],[8.1249,36.4546,675.4273],[8.1268,36.4498,630.3779],[8.1508,36.4475,395.6361],[8.1636,36.4578,632.8114],[8.1663,36.4666,787.7668],[8.1606,36.4782,751.5422],[8.1614,36.4852,465.6692],[8.159,36.4918,314.5234],[8.154,36.4933,314.5833],[8.1529,36.4956,269.7253],[8.1561,36.4993,274.5934],[8.1584,36.5104,515.1265],[8.1569,36.5158,570.5443],[8.1468,36.5282,311.1935],[8.1457,36.5345,397.1979],[8.1391,36.545,541.1992],[8.1385,36.5503,646.8118],[8.1425,36.5652,649.8503],[8.1385,36.5751,433.9441],[8.1336,36.5772,466.0815],[8.1276,36.5884,450.0124],[8.1221,36.5898,539.6175]]]]}}