{"type": "Feature","bbox": [-0.6266,28.9635,0.2907,30.3224],"geometry": {"type": "MultiPolygon","coordinates": [[[[-0.1627,28.9635,248.3556],[0.0005,28.9713,179.5585],[0.2907,28.9823,303.5095],[0.1287,29.1721,201.4291],[0.1022,29.3169,285.8273],[0.1435,29.4583,356.7255],[0.1108,29.5021,373.0229],[0.0331,29.6758,393.16],[0.0047,29.7817,426.9611],[-0.0011,29.8156,422.0861],[-0.0008,30.1234,462.3144],[0.0052,30.3224,496.9636],[-0.1741,30.0449,459.6208],[-0.2529,29.9934,476.9147],[-0.6266,29.7574,456.6242],[-0.4838,29.7538,434.3638],[-0.3198,29.6178,420.0626],[-0.2482,29.526,381.6711],[-0.1764,29.4687,372.2589],[-0.0898,29.3362,346.0261],[-0.1058,29.1082,258.8118],[-0.1627,28.9635,248.3556]]]]}
,"properties": {"GID_2": "DZA.1.14_1","GID_0": "DZA","country": "Algeria","GID_1": "DZA.1_1","province": "Adrar","NL_NAME_1": "ولايةأدرا","county": "OuledAissa","VARNAME_2": "NA","NL_NAME_2": "NA","TYPE_2": "Commune","ENGTYPE_2": "Commune","CC_2": "127","HASC_2": "DZ.AR.OA","name": "Ouled_Aissa.county","area_km2": 4167.366,"hist_schema_id": "Elevation0-9000","hist_area_km2": {"175": 231.36,"200": 171.666,"225": 124.562,"250": 120.161,"275": 138.584,"300": 119.725,"325": 174.565,"350": 265.971,"375": 484.931,"400": 484.828,"425": 568.2,"450": 799.091,"475": 382.972,"500": 87.119,"525": 11.818,"550": 1.813}}}