{"type": "Feature","bbox": [3.0263,36.6722,3.1328,36.7317],"geometry": {"type": "MultiPolygon","coordinates": [[[[3.1169,36.7033,13.9905],[3.1238,36.7103,12.3283],[3.1291,36.7134,9.1674],[3.1328,36.7185,17.1782],[3.1311,36.7258,5.4178],[3.128,36.7226,48.4386],[3.1145,36.7196,55.9247],[3.1096,36.7157,57.0623],[3.0882,36.7128,67.7741],[3.0743,36.7048,77.4437],[3.0694,36.7061,64.7019],[3.0682,36.7138,86.3329],[3.0568,36.7198,129.202],[3.0544,36.7241,128.1675],[3.0451,36.7304,145.5409],[3.0394,36.7317,176.952],[3.0331,36.7298,160.4181],[3.0266,36.7219,127.289],[3.0263,36.7159,136.3937],[3.0294,36.7104,105.2393],[3.0413,36.6967,73.0588],[3.0642,36.6795,27.8809],[3.0786,36.6722,15.6606],[3.0811,36.6769,14.6985],[3.0856,36.6787,16.4058],[3.0878,36.6833,17.6546],[3.0933,36.6867,15.0175],[3.0957,36.6909,13.2994],[3.1065,36.6963,11.8999],[3.1104,36.7029,8.1052],[3.1169,36.7033,13.9905]]]]}
,"properties": {"GID_2": "DZA.4.8_1","GID_0": "DZA","country": "Algeria","GID_1": "DZA.4_1","province": "Alger","NL_NAME_1": "ولايةالجزائر","county": "DjasrKasentina","VARNAME_2": "DjisrKsentina","NL_NAME_2": "NA","TYPE_2": "Commune","ENGTYPE_2": "Commune","CC_2": "1626","HASC_2": "DZ.AL.DK","name": "Djasr_Kasentina.county","area_km2": 27.07869,"hist_schema_id": "Elevation0-9000","hist_area_km2": {"0": 1.51289,"25": 6.93636,"50": 5.06555,"75": 3.92683,"100": 4.28349,"125": 3.51818,"150": 1.44453,"175": 0.39085}}}