{"type": "Feature","bbox": [5.778,33.0283,6.1594,33.112],"geometry": {"type": "MultiPolygon","coordinates": [[[[5.8483,33.0283,91.6374],[5.9245,33.0529,84.4358],[6.0014,33.0596,72.5409],[6.0407,33.0608,70.7753],[6.0516,33.0477,74.1007],[6.1594,33.062,87.9012],[6.1478,33.0778,86.6612],[6.1512,33.112,76.7378],[6.1401,33.1087,82.9713],[6.1268,33.1076,71.0164],[6.1127,33.1031,70.3453],[6.1093,33.0978,72.6904],[6.1076,33.0889,74.1753],[6.0809,33.0973,66.32],[6.0782,33.1023,67.7108],[6.0796,33.1069,69.4697],[6.0741,33.1089,70.1206],[6.0638,33.1016,71.5857],[6.0626,33.095,72.4072],[6.0496,33.0954,71.6377],[6.047,33.0918,71.847],[6.0451,33.0806,79.2194],[6.0191,33.0861,68.2693],[6.0014,33.0929,77.951],[5.9003,33.0905,84.8734],[5.778,33.0841,93.9275],[5.8483,33.0283,91.6374]]]]}
,"properties": {"GID_2": "DZA.33.12_1","GID_0": "DZA","country": "Algeria","GID_1": "DZA.33_1","province": "Ouargla","NL_NAME_1": "ورقلة","county": "Nezla","VARNAME_2": "Nazla","NL_NAME_2": "NA","TYPE_2": "Commune","ENGTYPE_2": "Commune","CC_2": "3008","HASC_2": "DZ.OG.NE","name": "Nezla.county","area_km2": 151.8384,"hist_schema_id": "Elevation0-9000","hist_area_km2": {"75": 115.6795,"100": 36.1589}}}