{"type":"Feature","properties":{"GID_2":"DZA.13.27_1","GID_0":"DZA","country":"Algeria","GID_1":"DZA.13_1","province":"Boumerdès","NL_NAME_1":"ولايةبومرداس","county":"SoukElHad","VARNAME_2":"NA","NL_NAME_2":"NA","TYPE_2":"Commune","ENGTYPE_2":"Commune","CC_2":"3526","HASC_2":"DZ.BM.SH","name":"Souk_El_Had.county"},
"geometry":{"type": "MultiPolygon","coordinates": [[[[3.6184,36.6878,35.239],[3.6146,36.6917,39.349],[3.6046,36.696,34.2114],[3.6021,36.7014,35.4485],[3.6031,36.7083,29.0107],[3.5969,36.7107,41.134],[3.5855,36.7083,64.9616],[3.5765,36.7115,101.8025],[3.5722,36.7101,110.0193],[3.563,36.702,270.3248],[3.5627,36.6903,308.1602],[3.5592,36.6869,363.54],[3.5534,36.685,519.6943],[3.5491,36.6808,538.3701],[3.558,36.6718,521.2579],[3.5662,36.673,382.9893],[3.5752,36.6705,321.9776],[3.6184,36.6878,35.239]]]]}}