{"type": "Feature","bbox": [3.9259,36.4572,4.0196,36.5728],"geometry": {"type": "MultiPolygon","coordinates": [[[[4.0153,36.4596,2050.2175],[4.0186,36.4641,1820.7812],[4.0196,36.4701,1598.4829],[4.0099,36.4843,1250.8281],[4.0004,36.4928,979.1796],[4.0004,36.4979,949.7366],[3.9982,36.502,902.9691],[4.0033,36.5161,585.3657],[4.0033,36.5204,568.4795],[3.9902,36.5315,494.0803],[3.9827,36.5325,482.4253],[3.9785,36.5352,441.2513],[3.974,36.5487,332.6245],[3.9676,36.5561,446.2844],[3.9665,36.562,433.3065],[3.9685,36.5661,293.1935],[3.9675,36.5703,223.8375],[3.9602,36.5693,206.4188],[3.9492,36.5728,191.0073],[3.9447,36.5712,232.297],[3.9499,36.5607,211.3845],[3.9489,36.5561,210.0446],[3.9352,36.549,332.9826],[3.9267,36.547,339.9432],[3.9259,36.5418,353.2004],[3.9271,36.53,346.0548],[3.9412,36.5315,366.9855],[3.9482,36.5261,372.472],[3.9559,36.5234,317.1897],[3.9538,36.5165,341.526],[3.9557,36.5099,470.2541],[3.9634,36.4982,545.8876],[3.9492,36.4799,945.2896],[3.9501,36.473,986.046],[3.9448,36.4685,1129.3778],[3.9631,36.4579,1509.4556],[3.9784,36.4572,1576.4692],[3.9923,36.4611,1933.5557],[4.0034,36.4615,1921.9019],[4.0153,36.4596,2050.2175]]]]}
,"properties": {"GID_2": "DZA.47.27_1","GID_0": "DZA","country": "Algeria","GID_1": "DZA.47_1","province": "TiziOuzou","NL_NAME_1": "ولايةغليزان","county": "Boghni","VARNAME_2": "Bughni","NL_NAME_2": "NA","TYPE_2": "Commune","ENGTYPE_2": "Commune","CC_2": "1540","HASC_2": "DZ.TO.BG","name": "Boghni.county","area_km2": 51.10903,"hist_schema_id": "Elevation0-9000","hist_area_km2": {"200": 0.34057,"225": 0.68127,"250": 1.75439,"275": 2.33362,"300": 2.82769,"325": 2.7085,"350": 1.8228,"375": 2.06137,"400": 1.95928,"425": 1.36295,"450": 1.49934,"475": 1.44831,"500": 1.56758,"525": 1.22692,"550": 1.22695,"575": 0.95432,"600": 0.92033,"625": 0.64766,"650": 0.59656,"675": 0.85223,"700": 0.74997,"725": 0.81819,"750": 0.81819,"775": 0.97162,"800": 0.81822,"825": 0.98873,"850": 0.85234,"875": 0.90349,"900": 0.69895,"925": 0.76711,"950": 0.93761,"975": 0.59668,"1000": 0.68192,"1025": 0.34098,"1050": 0.47737,"1075": 0.30689,"1100": 0.39212,"1125": 0.40918,"1150": 0.44329,"1175": 0.46034,"1200": 0.42623,"1225": 0.4433,"1250": 0.44329,"1275": 0.46033,"1300": 0.44329,"1325": 0.39212,"1350": 0.44329,"1375": 0.28985,"1400": 0.32395,"1425": 0.341,"1450": 0.51151,"1475": 0.3751,"1500": 0.52856,"1525": 0.37511,"1550": 0.42626,"1575": 0.30691,"1600": 0.32397,"1625": 0.08525,"1650": 0.13641,"1675": 0.15346,"1700": 0.15346,"1725": 0.11936,"1750": 0.22167,"1775": 0.08526,"1800": 0.06821,"1825": 0.15346,"1850": 0.10231,"1875": 0.10231,"1900": 0.10231,"1925": 0.08526,"1950": 0.0341,"1975": 0.13641,"2000": 0.17052,"2025": 0.06821,"2050": 0.05116}}}