{"type": "Feature","bbox": [2.95,36.6169,3.0718,36.6682],"geometry": {"type": "MultiPolygon","coordinates": [[[[3.0701,36.6673,19.3621],[3.0648,36.6661,21.474],[3.0588,36.6682,22.0283],[3.0401,36.6582,30.4858],[3.0319,36.6605,43.6623],[3.0088,36.6489,53.6425],[3.0024,36.6486,58.2074],[2.9951,36.6543,94.1892],[2.9899,36.6535,87.65],[2.986,36.6494,86.7259],[2.9882,36.6426,57.1349],[2.9821,36.64,51.9472],[2.9615,36.6367,55.57],[2.9551,36.6321,49.0797],[2.9523,36.6281,39.0816],[2.95,36.6179,32.9476],[2.9554,36.6169,33.9381],[2.9742,36.6222,35.5478],[2.9876,36.6288,34.6411],[3.0182,36.6374,30.6002],[3.025,36.6307,33.6457],[3.031,36.6314,34.4951],[3.0655,36.6269,34.914],[3.0714,36.6378,30.1765],[3.0672,36.6436,28.6558],[3.0676,36.6483,28.2914],[3.0706,36.6527,21.7407],[3.0718,36.6584,21.465],[3.069,36.6631,18.8509],[3.0701,36.6673,19.3621]]]]}
,"properties": {"GID_2": "DZA.4.3_1","GID_0": "DZA","country": "Algeria","GID_1": "DZA.4_1","province": "Alger","NL_NAME_1": "ولايةالجزائر","county": "Birtouta","VARNAME_2": "NA","NL_NAME_2": "NA","TYPE_2": "Commune","ENGTYPE_2": "Commune","CC_2": "1634","HASC_2": "DZ.AL.BT","name": "Birtouta.county","area_km2": 27.27066,"hist_schema_id": "Elevation0-9000","hist_area_km2": {"25": 19.27476,"50": 7.11135,"75": 0.76548,"100": 0.11907}}}