{"type":"Feature","properties":{"GID_2":"DZA.18.22_1","GID_0":"DZA","country":"Algeria","GID_1":"DZA.18_1","province":"ElOued","NL_NAME_1":"ولايةالوادي","county":"Robbah","VARNAME_2":"Rubbah","NL_NAME_2":"NA","TYPE_2":"Commune","ENGTYPE_2":"Commune","CC_2":"3902","HASC_2":"DZ.EO.RO","name":"Robbah.county"},
"geometry":{"type": "MultiPolygon","coordinates": [[[[6.8566,33.2546,99.2559],[6.9117,33.0992,95.0215],[6.8439,32.8952,111.228],[6.8141,32.759,119.1164],[6.6841,32.6885,127.754],[6.727,32.6249,113.4773],[6.8483,32.6998,114.2875],[6.8639,32.7067,115.2909],[6.9058,32.8343,111.4952],[6.9425,32.9716,99.495],[6.9637,33.083,102.1733],[6.9561,33.1439,114.1772],[6.9097,33.2393,93.9108],[6.9438,33.2697,84.2436],[6.9352,33.2842,91.4806],[6.9286,33.2997,80.4332],[6.9323,33.3152,81.2827],[6.8784,33.3114,102.4534],[6.8566,33.2546,99.2559]]]]}}