{"type":"Feature","properties":{"GID_2":"DZA.2.34_1","GID_0":"DZA","country":"Algeria","GID_1":"DZA.2_1","province":"AïnDefla","NL_NAME_1":"ولايةعينالدفلى","county":"TarikIbn-Ziad","VARNAME_2":"TarikIbnZiad","NL_NAME_2":"NA","TYPE_2":"Commune","ENGTYPE_2":"Commune","CC_2":"4421","HASC_2":"DZ.AD.TI","name":"Tarik_Ibn-Ziad.county"},
"geometry":{"type": "MultiPolygon","coordinates": [[[[2.0708,36.0825,645.6775],[2.0575,36.0777,618.0406],[2.0526,36.0698,561.8342],[2.0496,36.0597,527.21],[2.0433,36.051,501.6533],[2.0294,36.0405,474.4978],[2.0311,36.0351,472.5],[2.0282,36.0287,531.9876],[2.029,36.0222,555.1862],[2.0272,36.0154,718.8006],[2.029,36.0109,719.9301],[2.0223,35.9993,724.3734],[2.0167,35.995,746.2477],[2.0012,35.9962,698.4474],[1.9973,35.9908,670.049],[1.9919,35.9747,757.3132],[1.995,35.9691,915.5519],[1.9891,35.9564,1105.0696],[1.994,35.9409,1291.5071],[2.0023,35.9408,1341.7783],[2.0146,35.934,1346.2244],[2.0256,35.9341,1156.422],[2.0354,35.9383,1074.2883],[2.0376,35.9421,1008.9327],[2.0437,35.9458,976.9396],[2.0503,35.9475,969.8365],[2.0612,35.9458,925.2222],[2.0662,35.948,928.5432],[2.0751,35.9579,878.6299],[2.0927,35.9581,836.1705],[2.1101,35.954,838.0184],[2.115,35.9559,856.9207],[2.1154,35.961,924.5546],[2.1204,35.9643,912.8317],[2.1297,35.9605,917.368],[2.1267,35.9559,882.2164],[2.1286,35.9508,807.655],[2.1337,35.9485,801.4637],[2.1358,35.94,939.9839],[2.1405,35.9306,1074.1987],[2.1632,35.9295,867.1302],[2.1687,35.931,844.9988],[2.1946,35.9266,758.5325],[2.2002,35.9237,825.4741],[2.2048,35.9184,801.8173],[2.214,35.9143,881.1413],[2.2149,35.907,800.6641],[2.2185,35.9033,861.7102],[2.2266,35.8996,924.1432],[2.2375,35.8849,898.4346],[2.242,35.8831,1050.7512],[2.2472,35.8849,1151.9393],[2.2552,35.8848,1145.9573],[2.2605,35.8816,1203.8512],[2.2711,35.8855,1377.6249],[2.2919,35.8722,1373.5125],[2.3015,35.8783,1588.3855],[2.3078,35.8795,1694.9517],[2.3134,35.8775,1772.4419],[2.3177,35.8809,1766.0472],[2.3193,35.8933,1674.7079],[2.3489,35.9015,1365.2734],[2.3535,35.9051,1330.6947],[2.351,35.9096,1440.8011],[2.3527,35.9143,1315.0609],[2.3635,35.9205,1212.3857],[2.3617,35.9256,1168.2031],[2.3664,35.9371,1119.1532],[2.3538,35.9421,1133.968],[2.3477,35.9473,1133.7572],[2.3491,35.953,1223.3167],[2.3434,35.9548,1249.78],[2.3384,35.9588,1363.351],[2.3309,35.971,1147.7166],[2.3152,35.9817,1024.0342],[2.3111,35.9868,948.7673],[2.3066,35.9976,706.4026],[2.3057,36.0041,641.6934],[2.3007,36.0089,643.384],[2.2898,36.0171,563.8076],[2.2784,36.0198,544.9466],[2.2738,36.0243,679.3707],[2.2742,36.029,736.1521],[2.2702,36.0342,628.4194],[2.2727,36.0381,557.825],[2.2873,36.0419,464.5844],[2.2856,36.0465,474.8091],[2.2658,36.0562,636.874],[2.2623,36.0605,722.7661],[2.257,36.0556,712.5189],[2.2549,36.0491,774.3729],[2.2495,36.0425,810.5876],[2.2388,36.0365,783.7937],[2.2311,36.0357,782.9965],[2.2203,36.0412,732.7561],[2.2077,36.0441,680.3758],[2.1794,36.0395,505.3144],[2.1765,36.0426,562.8186],[2.1524,36.0519,681.6089],[2.1484,36.0559,726.1386],[2.1423,36.0571,679.4125],[2.1303,36.0544,675.6009],[2.1267,36.0504,678.5223],[2.1158,36.0459,693.6125],[2.1019,36.0476,624.0588],[2.1041,36.0547,575.223],[2.0996,36.0581,613.6284],[2.0939,36.0553,606.7218],[2.0924,36.0595,616.0417],[2.0883,36.0616,612.3263],[2.0874,36.067,614.7719],[2.0836,36.071,647.3278],[2.0793,36.0714,617.671],[2.0768,36.0808,759.4224],[2.0708,36.0825,645.6775]]]]}}