{"type":"Feature","properties":{"GID_2":"DZA.16.28_1","GID_0":"DZA","country":"Algeria","GID_1":"DZA.16_1","province":"Djelfa","NL_NAME_1":"ولايةالجلفة","county":"Moudjebara","VARNAME_2":"Mouadjebar","NL_NAME_2":"NA","TYPE_2":"Commune","ENGTYPE_2":"Commune","CC_2":"1702","HASC_2":"DZ.DJ.MO","name":"Moudjebara.county"},
"geometry":{"type": "MultiPolygon","coordinates": [[[[3.3537,34.7642,1199.5583],[3.3418,34.7429,1252.9023],[3.3528,34.7043,1174.1406],[3.3489,34.6783,1161.5898],[3.3464,34.6729,1165.1292],[3.3068,34.6222,1204.0798],[3.3051,34.6167,1208.88],[3.3194,34.6004,1239.0084],[3.3246,34.5816,1272.9661],[3.333,34.5648,1296.4069],[3.3779,34.6029,1282.3057],[3.42,34.5757,1278.2222],[3.4476,34.5451,1123.2926],[3.4499,34.5408,1139.3699],[3.4509,34.5217,1076.1458],[3.4247,34.5073,1348.8083],[3.4453,34.4883,1003.0645],[3.4474,34.4835,1003.5679],[3.4408,34.4684,986.9097],[3.4414,34.4573,976.721],[3.4356,34.4419,960.0989],[3.4362,34.4265,949.319],[3.4338,34.4087,922.283],[3.4244,34.3903,905.2865],[3.4241,34.3853,899.4236],[3.4297,34.3729,885.4896],[3.4298,34.368,882.1353],[3.4227,34.348,865.9736],[3.4232,34.3369,866.9199],[3.4185,34.3288,851.7043],[3.4198,34.3237,847.8886],[3.4337,34.3027,833.4331],[3.4354,34.2967,829.6227],[3.4322,34.2787,829.2762],[3.4281,34.2707,820.3335],[3.4313,34.2591,827.0079],[3.431,34.2528,819.8972],[3.4267,34.2398,805.6981],[3.43,34.2213,801.5823],[3.4508,34.2255,807.4084],[3.4966,34.2389,819.1991],[3.53,34.2146,794.6075],[3.5366,34.2114,803.0573],[3.5433,34.226,811.7372],[3.5521,34.2382,818.876],[3.5612,34.2583,840.2214],[3.5966,34.3028,928.8231],[3.6047,34.3082,952.4146],[3.6114,34.307,965.2657],[3.6338,34.3275,1041.9749],[3.641,34.3409,1060.6313],[3.6432,34.3607,1119.417],[3.6545,34.3755,1058.5498],[3.6672,34.3878,1042.5312],[3.6609,34.4039,1025.5889],[3.6562,34.406,1030.6416],[3.6447,34.4062,1007.307],[3.6339,34.4126,1053.2092],[3.6016,34.4469,1040.4164],[3.5543,34.5198,1084.5636],[3.5416,34.5481,1115.74],[3.51,34.5886,1134.1117],[3.5214,34.6179,1291.6639],[3.5377,34.5885,1193.4698],[3.5497,34.5955,1217.7905],[3.5434,34.6014,1195.2847],[3.5279,34.6232,1264.338],[3.5025,34.64,1254.4764],[3.4987,34.6447,1255.755],[3.4949,34.6529,1240.2739],[3.4925,34.686,1233.9321],[3.4883,34.6988,1258.567],[3.4858,34.7162,1194.0178],[3.4748,34.7344,1134.1954],[3.4526,34.7548,1157.9053],[3.4402,34.7503,1162.8999],[3.4189,34.7461,1178.2075],[3.4,34.759,1190.5691],[3.3718,34.7641,1189.2357],[3.3537,34.7642,1199.5583]]]]}}