{"type":"Feature","properties":{"GID_2":"DZA.37.1_1","GID_0":"DZA","country":"Algeria","GID_1":"DZA.37_1","province":"Sétif","NL_NAME_1":"ولايةسطيف","county":"Ain-Legradj","VARNAME_2":"AinLagradj","NL_NAME_2":"NA","TYPE_2":"Commune","ENGTYPE_2":"Commune","CC_2":"1913","HASC_2":"DZ.SF.AL","name":"Ain-Legradj.county"},
"geometry":{"type": "MultiPolygon","coordinates": [[[[4.7925,36.3817,425.713],[4.7977,36.3829,455.1908],[4.8025,36.3815,487.7927],[4.8023,36.3769,476.7333],[4.8063,36.3739,502.7587],[4.8195,36.3727,479.9966],[4.8304,36.3788,508.6111],[4.8347,36.3787,519.6969],[4.8449,36.3758,576.1974],[4.8511,36.3766,625.5005],[4.8667,36.369,981.2278],[4.8817,36.364,1135.2007],[4.8926,36.366,1186.759],[4.9232,36.3823,1074.1294],[4.9269,36.3864,972.5264],[4.9266,36.393,833.6962],[4.9282,36.3978,737.1785],[4.939,36.3987,720.9719],[4.9451,36.4019,685.6469],[4.9605,36.4039,646.3203],[4.9549,36.4132,788.61],[4.9536,36.4194,884.0206],[4.9554,36.4247,871.7885],[4.9537,36.4315,986.494],[4.9591,36.4361,973.1469],[4.9539,36.4395,906.2811],[4.952,36.4438,739.3221],[4.9529,36.4501,799.1351],[4.9509,36.4562,1056.5892],[4.9394,36.4561,1117.3964],[4.9221,36.4474,1133.4703],[4.9114,36.448,1154.0449],[4.8883,36.437,1295.1663],[4.8906,36.4302,1194.2761],[4.8864,36.4261,1117.928],[4.8647,36.4209,890.6946],[4.8632,36.4155,728.8238],[4.8521,36.411,657.7526],[4.8432,36.4012,591.0084],[4.8284,36.4013,571.3553],[4.8209,36.3992,554.113],[4.8167,36.3946,612.4308],[4.8058,36.3963,438.4465],[4.7923,36.3875,383.3542],[4.7925,36.3817,425.713]]]]}}