{"type": "Feature","bbox": [-0.5922,35.1252,-0.4472,35.24],"geometry": {"type": "MultiPolygon","coordinates": [[[[-0.5801,35.1252,546.9483],[-0.5627,35.131,564.4592],[-0.5622,35.14,543.8433],[-0.5577,35.1437,538.7894],[-0.5574,35.148,526.0682],[-0.5602,35.1586,503.0011],[-0.5442,35.1592,510.5143],[-0.5457,35.1685,506.1086],[-0.5187,35.1535,522.8188],[-0.5149,35.1618,519.1292],[-0.4781,35.1685,520.9133],[-0.4853,35.1777,516.2567],[-0.4804,35.1797,517.1073],[-0.4546,35.1789,526.1981],[-0.4486,35.1802,528.3168],[-0.4472,35.1872,554.9712],[-0.4522,35.2027,539.1752],[-0.4673,35.2112,511.7931],[-0.4797,35.2241,489.5952],[-0.4895,35.2284,479.3573],[-0.4927,35.2255,491.0328],[-0.4943,35.2086,528.0665],[-0.5055,35.2046,504.3824],[-0.5206,35.2177,535.9136],[-0.5379,35.2193,513.7591],[-0.544,35.2213,519.3943],[-0.554,35.24,458.8312],[-0.5671,35.2387,462.5172],[-0.5746,35.2328,454.9991],[-0.5752,35.2147,477.121],[-0.5715,35.2064,486.4541],[-0.5725,35.2017,486.6271],[-0.5839,35.1989,484.9729],[-0.5739,35.1869,495.4486],[-0.5741,35.1801,493.4283],[-0.576,35.1759,492.4448],[-0.582,35.1751,485.0786],[-0.588,35.1718,485.1649],[-0.5885,35.1648,491.6242],[-0.5922,35.1591,492.8796],[-0.5798,35.1348,533.0416],[-0.5801,35.1252,546.9483]]]]}
,"properties": {"GID_2": "DZA.38.51_1","GID_0": "DZA","country": "Algeria","GID_1": "DZA.38_1","province": "SidiBelAbbès","NL_NAME_1": "ولايةسيديبلعباس","county": "Tilmouni","VARNAME_2": "NA","NL_NAME_2": "NA","TYPE_2": "Commune","ENGTYPE_2": "Commune","CC_2": "2213","HASC_2": "DZ.SB.TI","name": "Tilmouni.county","area_km2": 78.16583,"hist_schema_id": "Elevation0-9000","hist_area_km2": {"450": 1.26422,"475": 6.02803,"500": 22.23227,"525": 36.82338,"550": 10.65705,"575": 1.16087}}}