{"type": "Feature","bbox": [3.9323,36.2724,4.1383,36.468],"geometry": {"type": "MultiPolygon","coordinates": [[[[4.0305,36.2898,484.0643],[4.0307,36.295,485.2389],[4.0395,36.3093,452.1916],[4.0454,36.3137,434.6161],[4.0657,36.3184,420.044],[4.0635,36.3348,528.8187],[4.056,36.3458,452.0],[4.0562,36.3541,453.9973],[4.0612,36.3685,547.3076],[4.0679,36.3788,615.8519],[4.0757,36.3867,638.301],[4.0772,36.3925,702.86],[4.0818,36.396,750.9182],[4.1033,36.4036,819.4026],[4.1151,36.4053,874.6864],[4.1188,36.4084,940.4553],[4.1176,36.4145,1070.7087],[4.1283,36.4263,1248.2593],[4.13,36.4375,1177.4301],[4.1383,36.4444,1143.844],[4.1376,36.4648,1837.09],[4.1189,36.468,1805.7517],[4.1072,36.4648,1656.5593],[4.0996,36.4655,1782.1571],[4.0922,36.4427,1112.9796],[4.0961,36.437,945.4181],[4.0912,36.4192,752.6668],[4.0921,36.4136,709.5234],[4.0889,36.4089,702.1836],[4.0829,36.4057,657.4504],[4.0694,36.4051,594.3696],[4.0573,36.3997,553.6694],[4.0386,36.3836,557.7877],[3.9957,36.3706,611.1157],[3.9944,36.366,566.1054],[3.9886,36.3619,498.9088],[3.9899,36.3465,462.0564],[3.9679,36.3534,469.2947],[3.9736,36.341,551.4824],[3.974,36.3365,527.5656],[3.9505,36.3264,534.6835],[3.9323,36.322,550.1345],[3.9351,36.3092,554.192],[3.9405,36.3074,540.8108],[3.9499,36.3074,531.9003],[3.9594,36.29,546.3937],[3.9567,36.2859,544.632],[3.9644,36.2831,507.2724],[3.9609,36.2772,540.0973],[3.9788,36.2724,576.7005],[3.9833,36.2771,604.7798],[4.0249,36.2847,493.313],[4.0305,36.2898,484.0643]]]]}
,"properties": {"GID_2": "DZA.12.22_1","GID_0": "DZA","country": "Algeria","GID_1": "DZA.12_1","province": "Bouira","NL_NAME_1": "ولايةالبويرة","county": "ElAsnam","VARNAME_2": "NA","NL_NAME_2": "NA","TYPE_2": "Commune","ENGTYPE_2": "Commune","CC_2": "1002","HASC_2": "DZ.BU.ES","name": "El_Asnam.county","area_km2": 114.69808,"hist_schema_id": "Elevation0-9000","hist_area_km2": {"425": 1.07629,"450": 9.24043,"475": 11.56481,"500": 18.17587,"525": 22.88916,"550": 12.86172,"575": 6.439,"600": 3.80751,"625": 2.09951,"650": 2.25301,"675": 1.12644,"700": 0.58022,"725": 0.52902,"750": 0.51194,"775": 0.35834,"800": 0.39245,"825": 0.40951,"850": 0.39244,"875": 0.46069,"900": 0.3583,"925": 0.54596,"950": 0.34123,"975": 0.37535,"1000": 0.34122,"1025": 0.49474,"1050": 0.32415,"1075": 0.32414,"1100": 0.30707,"1125": 0.23884,"1150": 0.37529,"1175": 0.52883,"1200": 0.59703,"1225": 0.49467,"1250": 0.57996,"1275": 0.59702,"1300": 0.80168,"1325": 0.93811,"1350": 0.68227,"1375": 0.66519,"1400": 0.73345,"1425": 0.76752,"1450": 0.78456,"1475": 0.76749,"1500": 0.66513,"1525": 0.63099,"1550": 0.5969,"1575": 0.46046,"1600": 0.69922,"1625": 0.46044,"1650": 0.5116,"1675": 0.57982,"1700": 0.40928,"1725": 0.46043,"1750": 0.27284,"1775": 0.27283,"1800": 0.18758,"1825": 0.11937,"1850": 0.10232,"1875": 0.05115,"1900": 0.01705,"1925": 0.0341,"1950": 0.01705,"2050": 0.01705}}}