{"type":"Feature","properties":{"GID_2":"DZA.9.26_1","GID_0":"DZA","country":"Algeria","GID_1":"DZA.9_1","province":"Biskra","NL_NAME_1":"ولايةبسكرة","county":"OuledDjellal","VARNAME_2":"Awla-dJallal","NL_NAME_2":"NA","TYPE_2":"Commune","ENGTYPE_2":"Commune","CC_2":"705","HASC_2":"DZ.BS.OD","name":"Ouled_Djellal.county"},
"geometry":{"type": "MultiPolygon","coordinates": [[[[5.1838,34.4128,214.0739],[5.1945,34.4261,209.8613],[5.2369,34.4499,186.9823],[5.2626,34.4579,168.9363],[5.2705,34.4632,167.8151],[5.2407,34.4885,141.8722],[5.2349,34.4919,144.0267],[5.1426,34.5078,200.3729],[5.1033,34.5118,218.1172],[5.0549,34.5037,229.719],[5.0106,34.5152,244.8118],[4.9744,34.5105,254.7512],[4.9496,34.514,271.766],[4.9495,34.508,279.2163],[4.9565,34.4907,267.6119],[4.9907,34.4682,255.5813],[5.0108,34.4451,241.8652],[5.0258,34.4097,209.8934],[5.0526,34.372,273.1255],[5.0622,34.3485,261.6638],[5.0669,34.3462,262.0585],[5.0571,34.334,265.323],[5.0597,34.3221,272.7369],[5.0897,34.3237,258.877],[5.118,34.3406,243.7845],[5.1326,34.332,238.1128],[5.1406,34.3521,235.7516],[5.1838,34.4128,214.0739]]]]}}