{"type":"Feature","properties":{"GID_2":"DZA.26.23_1","GID_0":"DZA","country":"Algeria","GID_1":"DZA.26_1","province":"M'Sila","NL_NAME_1":"ولايةالمسيلة","county":"M'Sila","VARNAME_2":"Msila|Masīlah","NL_NAME_2":"NA","TYPE_2":"Chef-Lieu-Wilaya","ENGTYPE_2":"Chef-Lieu-Wilaya","CC_2":"2801","HASC_2":"DZ.MS.MS","name":"M'Sila.county"},
"geometry":{"type": "MultiPolygon","coordinates": [[[[4.4943,35.8092,578.136],[4.5005,35.7927,553.3148],[4.498,35.7873,546.0806],[4.5034,35.778,534.3077],[4.503,35.7627,520.2358],[4.499,35.7574,513.9776],[4.4861,35.7473,499.4843],[4.4829,35.7339,497.1798],[4.458,35.7298,506.1548],[4.4497,35.7106,487.6829],[4.4427,35.7049,478.0842],[4.4422,35.6946,470.3083],[4.4361,35.6842,477.6331],[4.4323,35.6493,441.6061],[4.4698,35.6354,432.0081],[4.487,35.6464,438.1064],[4.5011,35.6445,437.5707],[4.5062,35.6342,434.1594],[4.529,35.6161,428.4967],[4.532,35.5973,422.173],[4.5413,35.5886,417.1413],[4.5404,35.5703,412.3372],[4.5599,35.573,408.3029],[4.5609,35.5877,413.9815],[4.5642,35.5992,419.0078],[4.5633,35.6111,423.8414],[4.5656,35.6279,432.6122],[4.5669,35.6347,436.1443],[4.5708,35.6392,439.3832],[4.571,35.6447,440.3438],[4.575,35.6501,442.7807],[4.601,35.6703,452.2647],[4.5843,35.6834,465.136],[4.5724,35.6952,472.3157],[4.5783,35.6983,467.4132],[4.5602,35.7182,487.4359],[4.5595,35.726,498.2231],[4.5625,35.7405,501.0629],[4.5781,35.7403,519.0445],[4.5634,35.7632,529.3654],[4.5652,35.7823,558.3967],[4.5627,35.7935,549.3511],[4.5643,35.8009,567.2373],[4.5911,35.8085,651.5688],[4.5907,35.8135,620.4646],[4.5811,35.8321,677.7169],[4.5995,35.8545,711.1337],[4.6062,35.8655,641.7569],[4.6007,35.8741,646.2302],[4.5924,35.871,649.3778],[4.5663,35.8658,746.9553],[4.5381,35.8485,690.3665],[4.5459,35.8402,708.0271],[4.5468,35.8351,688.0922],[4.5428,35.8318,647.3993],[4.5453,35.8261,615.2645],[4.55,35.8216,580.0083],[4.551,35.8131,548.659],[4.5305,35.8197,616.7995],[4.4984,35.8115,579.0267],[4.4943,35.8092,578.136]]]]}}