{"type":"Feature","properties":{"GID_2":"DZA.47.16_1","GID_0":"DZA","country":"Algeria","GID_1":"DZA.47_1","province":"TiziOuzou","NL_NAME_1":"ولايةغليزان","county":"AitYahiaMoussa","VARNAME_2":"`AytYahiyaMussa","NL_NAME_2":"NA","TYPE_2":"Commune","ENGTYPE_2":"Commune","CC_2":"1556","HASC_2":"DZ.TO.AY","name":"Ait_Yahia_Moussa.county"},
"geometry":{"type": "MultiPolygon","coordinates": [[[[3.8193,36.686,812.1332],[3.8177,36.6753,653.618],[3.8198,36.6711,709.2121],[3.8181,36.6576,352.5886],[3.8288,36.641,352.7406],[3.8337,36.6378,437.0381],[3.8414,36.6357,279.0546],[3.8441,36.6311,230.5073],[3.8385,36.6262,259.1562],[3.8379,36.6199,343.846],[3.8417,36.6074,271.1411],[3.8475,36.6047,224.7095],[3.8632,36.6049,260.7208],[3.8665,36.5998,352.0834],[3.8744,36.5953,394.0083],[3.8792,36.5982,383.7638],[3.8859,36.6063,370.4254],[3.8912,36.6094,425.3609],[3.8999,36.6225,423.2625],[3.9043,36.6259,379.6266],[3.9081,36.6286,386.5887],[3.9129,36.6291,405.3322],[3.9174,36.6329,329.241],[3.9289,36.6338,148.831],[3.9259,36.6418,140.2295],[3.9324,36.6517,119.0025],[3.9313,36.6583,95.2976],[3.9345,36.6652,126.7616],[3.9349,36.6728,87.3894],[3.9309,36.6773,128.427],[3.9247,36.6774,92.7062],[3.9225,36.6729,140.0179],[3.917,36.6698,126.679],[3.9098,36.6701,202.9185],[3.9048,36.6684,290.6798],[3.9025,36.6742,165.3575],[3.8957,36.675,170.004],[3.8872,36.672,207.1664],[3.8714,36.674,271.978],[3.8673,36.6718,266.0037],[3.8626,36.6718,319.0956],[3.8416,36.6812,535.4637],[3.8349,36.6859,715.3816],[3.8193,36.686,812.1332]]]]}}