{"type": "Feature","bbox": [4.6115,35.7164,4.9031,35.8771],"geometry": {"type": "MultiPolygon","coordinates": [[[[4.6115,35.8028,654.5819],[4.6148,35.7975,642.892],[4.654,35.7695,599.816],[4.6841,35.7528,593.6819],[4.6941,35.7525,601.6415],[4.7112,35.7451,586.8373],[4.7146,35.7358,560.8635],[4.7104,35.7227,542.9885],[4.7389,35.7164,553.996],[4.7554,35.7185,585.5486],[4.7648,35.7261,620.7191],[4.7763,35.7423,695.7812],[4.7816,35.7597,688.8944],[4.7884,35.76,687.301],[4.7946,35.7742,744.6972],[4.8032,35.7846,785.6295],[4.8131,35.7881,979.2909],[4.8453,35.7897,1047.0741],[4.8432,35.7809,1040.5358],[4.8478,35.768,862.0268],[4.8924,35.7679,913.6613],[4.8945,35.7752,1022.3289],[4.8899,35.7813,1085.6993],[4.9016,35.8015,1481.9468],[4.9031,35.8121,1803.6672],[4.8906,35.8303,1618.5248],[4.8856,35.8323,1638.1163],[4.8833,35.8375,1584.1438],[4.8789,35.8406,1584.5439],[4.8753,35.8478,1610.0334],[4.8688,35.853,1623.8082],[4.862,35.8627,1724.2136],[4.8483,35.8713,1618.7471],[4.8446,35.877,1648.0386],[4.838,35.8771,1670.3418],[4.8324,35.8749,1691.2296],[4.8311,35.8694,1688.679],[4.8228,35.8628,1735.7297],[4.8129,35.8683,1760.2511],[4.7821,35.8688,1754.5155],[4.7731,35.8668,1742.5093],[4.7629,35.8622,1796.3878],[4.7507,35.8616,1745.39],[4.7388,35.8507,1809.2273],[4.7324,35.8505,1809.0828],[4.7278,35.8546,1741.0597],[4.713,35.8599,1598.1348],[4.6827,35.8411,1467.2671],[4.6719,35.8392,1303.2056],[4.666,35.8407,1329.5035],[4.654,35.8368,1204.8534],[4.6445,35.831,891.096],[4.6433,35.8259,837.6583],[4.64,35.8217,810.0847],[4.6348,35.8193,826.4703],[4.6251,35.8188,756.4983],[4.6204,35.8093,666.2515],[4.6115,35.8028,654.5819]]]]}
,"properties": {"GID_2": "DZA.26.25_1","GID_0": "DZA","country": "Algeria","GID_1": "DZA.26_1","province": "M'Sila","NL_NAME_1": "ولايةالمسيلة","county": "Maadid","VARNAME_2": "Ma`adid","NL_NAME_2": "NA","TYPE_2": "Commune","ENGTYPE_2": "Commune","CC_2": "2802","HASC_2": "DZ.MS.MD","name": "Maadid.county","area_km2": 259.7534,"hist_schema_id": "Elevation0-9000","hist_area_km2": {"550": 2.0139,"575": 5.697,"600": 9.705,"625": 12.4567,"650": 10.029,"675": 10.4755,"700": 11.0086,"725": 9.8557,"750": 7.9977,"775": 5.9678,"800": 4.4884,"825": 4.5571,"850": 4.8665,"875": 5.967,"900": 6.5861,"925": 6.4141,"950": 7.2567,"975": 7.0673,"1000": 6.4139,"1025": 5.3649,"1050": 4.7287,"1075": 4.5911,"1100": 4.2815,"1125": 4.161,"1150": 3.0948,"1175": 3.3009,"1200": 3.2493,"1225": 3.1976,"1250": 3.2835,"1275": 3.4382,"1300": 3.3522,"1325": 3.3521,"1350": 3.5068,"1375": 3.713,"1400": 3.2661,"1425": 3.902,"1450": 4.3832,"1475": 4.4518,"1500": 4.9675,"1525": 5.586,"1550": 5.8781,"1575": 6.2218,"1600": 5.8435,"1625": 4.7776,"1650": 3.9525,"1675": 3.7462,"1700": 2.9557,"1725": 1.6153,"1750": 1.2029,"1775": 0.7905,"1800": 0.6702,"1825": 0.0516,"1850": 0.0515}}}