{"type":"Feature","properties":{"GID_2":"DZA.15.2_1","GID_0":"DZA","country":"Algeria","GID_1":"DZA.15_1","province":"Constantine","NL_NAME_1":"قسنطينة","county":"AinSemara","VARNAME_2":"AinSmara|`AynSamara","NL_NAME_2":"NA","TYPE_2":"Commune","ENGTYPE_2":"Commune","CC_2":"2510","HASC_2":"DZ.CO.AS","name":"Ain_Semara.county"},
"geometry":{"type": "MultiPolygon","coordinates": [[[[6.5911,36.2878,752.6025],[6.5927,36.2996,737.6472],[6.5863,36.302,738.6733],[6.5791,36.3077,565.4199],[6.5726,36.3061,562.7821],[6.5662,36.2937,576.0908],[6.5617,36.2915,565.6911],[6.5579,36.2949,618.2616],[6.5641,36.3068,615.0182],[6.5607,36.3317,617.3812],[6.5459,36.3365,672.2258],[6.5334,36.3644,738.7703],[6.5255,36.3559,931.374],[6.5024,36.338,1054.2777],[6.468,36.3382,1176.3832],[6.4548,36.3323,1266.5789],[6.4487,36.3202,1213.7205],[6.4364,36.3115,1221.7349],[6.4344,36.3075,1179.543],[6.4238,36.2973,1144.1041],[6.4102,36.2897,1110.5756],[6.4072,36.2854,920.6523],[6.4084,36.2803,850.7417],[6.4073,36.2756,817.2217],[6.4113,36.2662,733.1787],[6.4165,36.2632,703.3434],[6.419,36.2579,679.9613],[6.4238,36.2557,666.703],[6.424,36.2506,649.6177],[6.4488,36.2457,628.4474],[6.4613,36.248,627.8773],[6.4786,36.2546,617.0297],[6.4958,36.2551,620.8118],[6.5027,36.239,753.5921],[6.5119,36.2321,678.3186],[6.538,36.2228,747.4799],[6.5444,36.2227,784.5985],[6.5594,36.2188,831.0088],[6.5693,36.2294,808.4512],[6.5725,36.2365,782.1711],[6.5699,36.2439,806.5868],[6.5738,36.2619,796.7072],[6.5911,36.2878,752.6025]]]]}}