{"type": "Feature","bbox": [-1.2928,35.276,-1.1608,35.3688],"geometry": {"type": "MultiPolygon","coordinates": [[[[-1.165,35.3176,168.0552],[-1.1608,35.3274,141.785],[-1.162,35.3336,127.5743],[-1.1679,35.3386,108.112],[-1.1739,35.348,102.7506],[-1.1786,35.3479,89.9982],[-1.1862,35.3553,90.0104],[-1.1931,35.3537,103.3504],[-1.2041,35.3401,116.8606],[-1.2104,35.3405,98.8129],[-1.2146,35.335,139.1025],[-1.2131,35.3296,159.5008],[-1.2192,35.322,174.9042],[-1.226,35.3332,162.875],[-1.2343,35.342,137.8546],[-1.23,35.3554,67.5411],[-1.2436,35.3608,52.9982],[-1.2606,35.3598,53.0522],[-1.2657,35.3611,12.8369],[-1.2739,35.3688,39.1004],[-1.286,35.3561,20.7995],[-1.2824,35.3521,49.349],[-1.2877,35.3511,20.8558],[-1.2876,35.3461,25.177],[-1.2928,35.3404,46.1782],[-1.292,35.3335,44.3129],[-1.2883,35.3303,99.4788],[-1.2857,35.3201,74.8029],[-1.2706,35.3133,89.6886],[-1.2655,35.307,110.7345],[-1.263,35.2962,157.5321],[-1.2676,35.2936,152.1999],[-1.2666,35.2872,145.7585],[-1.2579,35.2891,260.0923],[-1.2511,35.2866,292.9644],[-1.2461,35.2905,308.1624],[-1.2452,35.2831,292.6967],[-1.2398,35.2837,291.2397],[-1.2312,35.292,259.3805],[-1.2254,35.2897,232.7942],[-1.2114,35.294,271.9371],[-1.2149,35.2878,254.079],[-1.2204,35.2841,264.059],[-1.2186,35.28,285.0323],[-1.2123,35.276,302.8568],[-1.203,35.2792,282.1343],[-1.1821,35.2794,296.6095],[-1.177,35.2829,292.3152],[-1.1789,35.2922,238.9075],[-1.1713,35.2999,207.6661],[-1.17,35.313,163.2902],[-1.165,35.3176,168.0552]]]]}
,"properties": {"GID_2": "DZA.3.23_1","GID_0": "DZA","country": "Algeria","GID_1": "DZA.3_1","province": "AïnTémouchent","NL_NAME_1": "ولايةعينتموشنت","county": "SidiBenAdda","VARNAME_2": "NA","NL_NAME_2": "NA","TYPE_2": "Commune-Cotiere","ENGTYPE_2": "Commune-Cotiere","CC_2": "4612","HASC_2": "DZ.AT.SA","name": "Sidi_Ben_Adda.county","area_km2": 73.00361,"hist_schema_id": "Elevation0-9000","hist_area_km2": {"0": 0.43228,"25": 1.07213,"50": 2.78415,"75": 5.24005,"100": 7.03916,"125": 11.29468,"150": 10.7771,"175": 10.43225,"200": 7.24961,"225": 5.15655,"250": 4.91459,"275": 4.36125,"300": 1.6095,"325": 0.53648,"350": 0.10383}}}