{"type":"Feature","properties":{"GID_2":"DZA.14.15_1","GID_0":"DZA","country":"Algeria","GID_1":"DZA.14_1","province":"Chlef","NL_NAME_1":"ولايةالشلف","county":"ElMarsa","VARNAME_2":"NA","NL_NAME_2":"NA","TYPE_2":"Commune-Cotiere","ENGTYPE_2":"Commune-Cotiere","CC_2":"223","HASC_2":"DZ.CH.EM","name":"El_Marsa.county"},
"geometry":{"type": "MultiPolygon","coordinates": [[[[0.8173,36.3572,128.6858],[0.82,36.3622,22.35],[0.816,36.365,7.1971],[0.8051,36.3656,0.0],[0.8016,36.3611,21.2844],[0.8042,36.3571,147.5817],[0.8083,36.3546,323.0223],[0.813,36.3546,249.9745],[0.8173,36.3572,128.6858]]],
[[[0.8518,36.3381,114.4117],[0.8555,36.3443,40.2087],[0.8553,36.3538,55.1809],[0.8612,36.3564,158.0735],[0.8732,36.3564,289.1903],[0.8841,36.36,344.0239],[0.9188,36.3668,222.5192],[0.927,36.3667,184.6137],[0.938,36.3571,308.8063],[0.9392,36.3524,306.8514],[0.95009999999999994,36.3526,484.014],[0.963,36.3486,735.296],[0.9686,36.3489,781.4517],[0.9747,36.3518,769.3314],[0.9817,36.3588,737.03],[0.9936,36.3654,717.636],[1.0031,36.3773,678.947],[1.012,36.3971,768.2686],[1.0203,36.4019,639.3595],[1.0201,36.4155,728.2775],[1.0469,36.4313,416.0041],[1.0497,36.4358,347.856],[1.0541,36.4378,255.2521],[1.0572,36.4419,130.584],[1.0531,36.4471,268.883],[1.0343,36.4503,68.3888],[1.0136,36.4661,1.458],[0.9962,36.4611,5.6632],[0.9861,36.4603,7.7296],[0.9625,36.4518,15.7099],[0.9417,36.4494,1.7183],[0.9357,36.4463,10.7012],[0.9337,36.4414,11.6845],[0.9262,36.4346,0.0],[0.9209,36.4147,15.7305],[0.9151,36.4043,6.9609],[0.8958,36.3864,2.2322],[0.8659,36.3714,11.7352],[0.8398,36.3635,4.5827],[0.8249,36.3608,3.3055],[0.8238,36.3554,127.1906],[0.8302,36.3543,56.1624],[0.8349,36.3486,231.4942],[0.8355,36.3333,393.4012],[0.8518,36.3381,114.4117]]]]}}