{"type": "Feature","bbox": [1.4887,36.4313,1.6955,36.5546],"geometry": {"type": "MultiPolygon","coordinates": [[[[1.6939,36.5519,1.1734],[1.672,36.5517,17.5162],[1.6595,36.5546,16.2262],[1.6509,36.5538,0.0],[1.6343,36.5484,27.7674],[1.6261,36.5432,12.0276],[1.6172,36.5441,3.7883],[1.6026,36.5366,42.135],[1.5881,36.5374,9.8604],[1.5825,36.535,0.969],[1.5747,36.5344,1.2934],[1.5534,36.5413,35.3046],[1.5411,36.5385,27.9437],[1.5306,36.539,21.7923],[1.5322,36.5266,245.4337],[1.5286,36.5208,247.7601],[1.513,36.5137,309.1483],[1.5101,36.5077,383.7693],[1.5121,36.5019,338.0823],[1.509,36.4915,461.8026],[1.5161,36.4825,368.4215],[1.5134,36.4788,352.0695],[1.5071,36.4776,371.4947],[1.5019,36.4808,244.5791],[1.496,36.4807,342.6942],[1.4887,36.4772,326.9701],[1.4904,36.4588,835.169],[1.5145,36.448,600.0538],[1.521,36.4487,550.6161],[1.5193,36.4313,500.6033],[1.5258,36.4322,589.0204],[1.5388,36.4374,768.6735],[1.5423,36.4479,763.6532],[1.5499,36.4554,704.5383],[1.5524,36.4631,660.2227],[1.5617,36.4707,757.8912],[1.5657,36.4773,662.9313],[1.5727,36.481,612.7496],[1.5786,36.4822,418.7672],[1.5882,36.4947,244.3626],[1.5934,36.4988,171.2767],[1.6106,36.4905,508.8654],[1.625,36.4966,618.3432],[1.6441,36.4963,441.1706],[1.657,36.4921,264.2432],[1.667,36.4848,44.8778],[1.6744,36.4899,71.6213],[1.6694,36.4926,37.7214],[1.6742,36.4963,91.0362],[1.675,36.5009,60.3194],[1.6722,36.5119,57.2629],[1.6803,36.5213,22.4411],[1.6817,36.5261,15.24],[1.6876,36.5294,14.0455],[1.6901,36.533,13.926],[1.6907,36.5384,9.7597],[1.6955,36.5417,6.6933],[1.6939,36.5519,1.1734]]]]}
,"properties": {"GID_2": "DZA.14.5_1","GID_0": "DZA","country": "Algeria","GID_1": "DZA.14_1","province": "Chlef","NL_NAME_1": "ولايةالشلف","county": "BeniHaoua","VARNAME_2": "Bani-Hawa","NL_NAME_2": "NA","TYPE_2": "Commune-Cotiere","ENGTYPE_2": "Commune-Cotiere","CC_2": "207","HASC_2": "DZ.CH.BH","name": "Beni_Haoua.county","area_km2": 111.11641,"hist_schema_id": "Elevation0-9000","hist_area_km2": {"0": 2.53822,"25": 4.54918,"50": 3.57796,"75": 3.71432,"100": 3.95285,"125": 4.49817,"150": 4.53239,"175": 4.83909,"200": 5.07766,"225": 5.29931,"250": 5.12918,"275": 4.92474,"300": 4.89096,"325": 4.19235,"350": 5.01048,"375": 4.39723,"400": 4.22687,"425": 4.1417,"450": 4.09073,"475": 3.39203,"500": 3.49443,"525": 3.03418,"550": 2.94912,"575": 2.81303,"600": 2.35284,"625": 1.92662,"650": 2.06312,"675": 1.55165,"700": 1.33,"725": 0.88666,"750": 0.78436,"775": 0.61391,"800": 0.17054,"825": 0.08526,"850": 0.05116,"875": 0.01705,"900": 0.01705}}}