{"type": "Feature","bbox": [7.4115,36.2591,7.585,36.3396],"geometry": {"type": "MultiPolygon","coordinates": [[[[7.4882,36.2591,1053.3738],[7.4943,36.2615,1011.2682],[7.5006,36.2614,1049.9585],[7.508,36.27,1013.3821],[7.5206,36.2768,958.2995],[7.5249,36.2868,827.5948],[7.5348,36.2924,669.2546],[7.5415,36.3018,655.536],[7.5423,36.3068,594.8223],[7.5382999999999996,36.3114,587.6939],[7.5373,36.3164,568.6564],[7.5515,36.3191,786.144],[7.5564,36.323,882.7227],[7.5823,36.3115,871.6176],[7.5849,36.3167,833.605],[7.585,36.3229,780.6895],[7.5718,36.3327,646.1041],[7.5614,36.3319,679.1218],[7.5476,36.3373,572.2025],[7.5362,36.3396,422.1175],[7.5268,36.3341,633.5562],[7.5129,36.3349,633.6683],[7.4997,36.3315,495.0098],[7.4831,36.3347,462.5924],[7.4728,36.3337,505.8837],[7.4532,36.326,514.7862],[7.446,36.318,549.3903],[7.4401,36.3173,647.3983],[7.4194,36.3243,830.1389],[7.4203,36.3133,742.6727],[7.4132999999999996,36.3051,716.2089],[7.4115,36.3,789.5994],[7.4123,36.2934,891.1553],[7.4206,36.2895,844.0048],[7.4329,36.2877,807.6742],[7.4666,36.291,850.0383],[7.4674,36.286,838.9084],[7.4824,36.2802,891.8229],[7.4837,36.2734,809.7333],[7.4811,36.2688,872.9842],[7.4882,36.2591,1053.3738]]]]}
,"properties": {"GID_2": "DZA.21.10_1","GID_0": "DZA","country": "Algeria","GID_1": "DZA.21_1","province": "Guelma","NL_NAME_1": "ولايةقالمة","county": "BouHachana","VARNAME_2": "Bouhachana","NL_NAME_2": "NA","TYPE_2": "Commune","ENGTYPE_2": "Commune","CC_2": "2417","HASC_2": "DZ.GL.BC","name": "Bou_Hachana.county","area_km2": 66.31075,"hist_schema_id": "Elevation0-9000","hist_area_km2": {"450": 0.1708,"475": 0.39284,"500": 0.80281,"525": 1.17862,"550": 1.58867,"575": 2.35746,"600": 2.66509,"625": 3.29716,"650": 3.41684,"675": 3.51938,"700": 3.99781,"725": 4.39089,"750": 4.92058,"775": 4.47644,"800": 5.67253,"825": 5.33094,"850": 4.57939,"875": 3.2297,"900": 2.76851,"925": 2.10208,"950": 1.65785,"975": 1.77754,"1000": 1.0084,"1025": 0.49566,"1050": 0.35894,"1075": 0.11962,"1100": 0.03418}}}