{"type":"Feature","properties":{"GID_2":"DZA.28.34_1","GID_0":"DZA","country":"Algeria","GID_1":"DZA.28_1","province":"Médéa","NL_NAME_1":"ولايةالمدية","county":"Meftaha","VARNAME_2":"Mfatha","NL_NAME_2":"NA","TYPE_2":"Commune","ENGTYPE_2":"Commune","CC_2":"2649","HASC_2":"DZ.MD.MF","name":"Meftaha.county"},
"geometry":{"type": "MultiPolygon","coordinates": [[[[2.9262,35.8053,764.7274],[2.9321,35.8066,762.7167],[2.9388,35.8048,788.7346],[2.9423,35.8083,796.1782],[2.953,35.8132,849.9847],[2.9612,35.8136,884.705],[2.9718,35.821,880.6895],[2.9753,35.8274,918.9478],[2.9685,35.834,825.9348],[2.968,35.8425,833.8729],[2.9687,35.8695,928.6351],[2.9731,35.8736,951.7134],[2.9737,35.8799,970.2599],[2.9715,35.8915,1006.9951],[2.9754,35.8946,1066.6765],[2.981,35.8962,1086.5022],[2.9945,35.8957,1010.6922],[2.9933,35.9066,1064.6177],[2.9873,35.9141,964.3433],[2.9819,35.9141,954.6411],[2.9802,35.9196,1016.7706],[2.9814,35.9251,1088.4105],[2.9766,35.9281,1129.8691],[2.9592,35.9287,1046.7028],[2.9616,35.934,951.6185],[2.9612,35.9386,953.95],[2.9538,35.9555,803.3171],[2.944,35.9557,853.8098],[2.9402,35.959,880.5302],[2.9352,35.9573,970.6254],[2.9197,35.9589,1079.4946],[2.9095,35.955,1116.2727],[2.8991,35.9481,1049.0303],[2.8992,35.9422,986.6592],[2.8956,35.937,882.313],[2.9045,35.9356,954.1099],[2.9035,35.9307,1000.0112],[2.8985,35.9279,947.7858],[2.8861,35.9247,831.5724],[2.8882,35.9169,856.4249],[2.8847,35.911,910.5118],[2.8792,35.9097,966.0005],[2.8716,35.9126,944.8303],[2.8561,35.9117,938.6542],[2.8507,35.9154,922.0605],[2.8274,35.9142,942.6062],[2.8076,35.9169,920.1476],[2.8,35.9139,825.0958],[2.7974,35.9099,805.4022],[2.7968,35.9032,889.7737],[2.8029,35.895,893.3281],[2.7781,35.8873,804.7376],[2.7763,35.8812,769.7685],[2.7795,35.8763,767.1692],[2.7858,35.8747,763.7849],[2.7968,35.877,802.7468],[2.8102,35.8682,861.0646],[2.8278,35.8787,993.8521],[2.8385,35.883,1038.2988],[2.8455,35.8834,919.5579],[2.8462,35.8719,843.2885],[2.8547,35.8693,837.7246],[2.857,35.8603,777.0371],[2.8644,35.8513,749.81],[2.8708,35.8321,709.9864],[2.8726,35.8365,720.6454],[2.8701,35.8514,774.4653],[2.8719,35.873,1026.1533],[2.9042,35.866,859.6665],[2.9096,35.8602,879.9417],[2.9123,35.8534,829.4374],[2.9119,35.8473,843.1351],[2.9146,35.8399,756.0952],[2.9103,35.8217,714.1365],[2.9036,35.8195,704.8688],[2.8999,35.814,720.169],[2.9019,35.8089,772.8531],[2.9262,35.8053,764.7274]]]]}}