{"type": "Feature","bbox": [6.276,35.5855,6.4727,35.6946],"geometry": {"type": "MultiPolygon","coordinates": [[[[6.3656,35.6876,837.4922],[6.3598,35.6833,840.8142],[6.3604,35.6778,843.3524],[6.3632,35.6727,844.2306],[6.3617,35.666,846.1941],[6.34,35.6539,856.5721],[6.3413,35.6493,856.7388],[6.3457,35.6453,857.0928],[6.3483,35.6402,855.6412],[6.3438,35.639,858.8762],[6.3379,35.641,862.5812],[6.332,35.6399,866.1816],[6.333,35.6347,882.2756],[6.2989,35.6247,933.715],[6.2983,35.6196,952.8915],[6.2854,35.6085,1021.2357],[6.2795,35.6058,1018.6055],[6.276,35.6016,1052.3943],[6.2779,35.5904,1236.9275],[6.2809,35.5855,1353.2783],[6.2947,35.5888,1498.2988],[6.3029,35.5961,1411.4197],[6.3088,35.5963,1560.2045],[6.3207,35.6024,1534.5815],[6.329,35.6041,1494.2147],[6.3394,35.6102,1430.5887],[6.3447,35.6101,1402.428],[6.3539,35.6061,1321.0947],[6.3778,35.6026,1305.1918],[6.3818,35.6,1385.6394],[6.3882,35.5996,1438.28],[6.4055,35.6073,1438.0486],[6.411,35.6066,1444.8905],[6.4171,35.6087,1430.2994],[6.4238,35.6129,1523.33],[6.4549,35.6165,1451.1066],[6.4572,35.6209,1536.4182],[6.4696,35.6282,1622.6383],[6.4727,35.6353,1411.9528],[6.4693,35.6434,1188.8036],[6.464,35.6457,1147.0697],[6.4533,35.6471,1065.1711],[6.4452,35.6745,894.7419],[6.4343,35.6893,1006.6227],[6.4243,35.6946,1033.5708],[6.415,35.6911,1099.2754],[6.4017,35.683,980.7014],[6.3885,35.6798,1012.5626],[6.3759,35.6826,869.4468],[6.3725,35.6854,884.2238],[6.3656,35.6876,837.4922]]]]}
,"properties": {"GID_2": "DZA.6.19_1","GID_0": "DZA","country": "Algeria","GID_1": "DZA.6_1","province": "Batna","NL_NAME_1": "ولايةباتنة","county": "ElMadher","VARNAME_2": "NA","NL_NAME_2": "NA","TYPE_2": "Commune","ENGTYPE_2": "Commune","CC_2": "507","HASC_2": "DZ.BT.EM","name": "El_Madher.county","area_km2": 102.14705,"hist_schema_id": "Elevation0-9000","hist_area_km2": {"850": 15.52196,"875": 8.54553,"900": 7.83886,"925": 9.32004,"950": 7.09839,"975": 5.65161,"1000": 4.65236,"1025": 3.94604,"1050": 3.56711,"1075": 3.22252,"1100": 2.87817,"1125": 2.37834,"1150": 2.20611,"1175": 2.22338,"1200": 2.39573,"1225": 2.01658,"1250": 2.32686,"1275": 1.93044,"1300": 1.63746,"1325": 1.55124,"1350": 1.55128,"1375": 1.37892,"1400": 1.44788,"1425": 1.32729,"1450": 1.39618,"1475": 0.93081,"1500": 1.01697,"1525": 0.49986,"1550": 0.5343,"1575": 0.37919,"1600": 0.29303,"1625": 0.29301,"1650": 0.13789,"1675": 0.05171}}}