{"type":"Feature","properties":{"GID_2":"DZA.33.16_1","GID_0":"DZA","country":"Algeria","GID_1":"DZA.33_1","province":"Ouargla","NL_NAME_1":"ورقلة","county":"SidiSlimane","VARNAME_2":"NA","NL_NAME_2":"NA","TYPE_2":"Commune","ENGTYPE_2":"Commune","CC_2":"3010","HASC_2":"DZ.OG.SS","name":"Sidi_Slimane.county"},
"geometry":{"type": "MultiPolygon","coordinates": [[[[5.7184,33.4185,104.0953],[5.7285,33.3491,118.4961],[5.793,33.2672,78.8769],[5.9149,33.2261,81.222],[6.0678,33.2263,57.2384],[6.1343,33.2685,66.1544],[6.0832,33.4199,54.2084],[5.9998,33.4218,62.6599],[5.9963,33.4249,60.7681],[5.7614,33.4223,78.2369],[5.7291,33.4209,96.8784],[5.7184,33.4185,104.0953]]]]}}