{"type": "Feature","bbox": [7.472,35.4231,7.6537,35.599],"geometry": {"type": "MultiPolygon","coordinates": [[[[7.5488,35.4269,1029.0264],[7.5537,35.4231,1065.3341],[7.5763,35.4302,1056.4258],[7.5813,35.4347,1040.8053],[7.5886,35.4466,1026.6724],[7.6014,35.4591,1066.0969],[7.6187,35.4741,1125.8732],[7.6507,35.497,1215.1587],[7.6537,35.5012,1155.0568],[7.6498,35.5123,1072.6837],[7.6403,35.5234,1007.9377],[7.6302,35.5294,967.0541],[7.6468,35.5587,957.8849],[7.6477,35.5631,949.7246],[7.6297,35.589,872.5939],[7.6254,35.5942,867.7845],[7.6191,35.5985,872.3936],[7.6106,35.5895,879.0817],[7.6048,35.5908,889.3438],[7.5991,35.5944,905.2456],[7.57,35.599,971.6959],[7.5547,35.5862,1011.231],[7.5483,35.5831,1011.0724],[7.5411,35.5823,1016.0759],[7.5348,35.584,1027.918],[7.528,35.5917,1039.0264],[7.5189,35.5949,1008.55],[7.513,35.5918,1033.7292],[7.5113,35.5858,1001.2593],[7.5066,35.5826,996.8313],[7.5069,35.5777,1008.0871],[7.5105,35.5734,1012.9006],[7.5008,35.5718,1008.4515],[7.4989,35.5665,1027.5032],[7.4936,35.5675,1018.8203],[7.4956,35.5626,1029.4839],[7.5037,35.5534,1025.4479],[7.5056,35.5484,1019.3998],[7.5055,35.5409,1019.437],[7.4956,35.5362,1044.6746],[7.4911,35.5324,1051.4053],[7.4908,35.5247,1038.6246],[7.4873,35.5199,1031.9337],[7.4721,35.5203,1085.7112],[7.472,35.5147,1054.6614],[7.4833,35.5062,1008.2668],[7.4877,35.5002,986.5253],[7.4865,35.4952,983.1735],[7.48,35.4904,982.9332],[7.4846,35.4757,967.6571],[7.4961,35.4707,952.7496],[7.5171,35.4695,954.6887],[7.5236,35.4519,970.8055],[7.5276,35.447,976.1295],[7.5453,35.4428,978.7296],[7.5494,35.4389,985.6421],[7.5488,35.4269,1029.0264]]]]}
,"properties": {"GID_2": "DZA.34.13_1","GID_0": "DZA","country": "Algeria","GID_1": "DZA.34_1","province": "OumelBouaghi","NL_NAME_1": "ولايةأمالبواقي","county": "ElDhaala","VARNAME_2": "Dhalaa","NL_NAME_2": "NA","TYPE_2": "Commune","ENGTYPE_2": "Commune","CC_2": "411","HASC_2": "DZ.OB.ED","name": "El_Dhaala.county","area_km2": 205.1149,"hist_schema_id": "Elevation0-9000","hist_area_km2": {"875": 6.3457,"900": 21.8197,"925": 46.6383,"950": 49.6546,"975": 33.2283,"1000": 17.8467,"1025": 13.0133,"1050": 8.1116,"1075": 4.3318,"1100": 2.2262,"1125": 0.8976,"1150": 0.3452,"1175": 0.397,"1200": 0.1554,"1225": 0.1036}}}