{"type":"Feature","properties":{"GID_2":"DZA.28.37_1","GID_0":"DZA","country":"Algeria","GID_1":"DZA.28_1","province":"Médéa","NL_NAME_1":"ولايةالمدية","county":"Mihoub","VARNAME_2":"NA","NL_NAME_2":"NA","TYPE_2":"Commune","ENGTYPE_2":"Commune","CC_2":"2650","HASC_2":"DZ.MD.MI","name":"Mihoub.county"},
"geometry":{"type": "MultiPolygon","coordinates": [[[[3.4184,36.4071,325.8364],[3.4128,36.406,323.2285],[3.4063,36.3936,326.7209],[3.4054,36.3884,329.0612],[3.3992,36.3903,334.9147],[3.3865,36.3903,338.6556],[3.3821,36.3856,356.4006],[3.3804,36.3802,367.4637],[3.3826,36.3715,602.0291],[3.3789,36.3643,501.1492],[3.37,36.3579,471.023],[3.3766,36.3466,522.304],[3.3928,36.3396,510.7709],[3.3965,36.3343,439.1448],[3.4124,36.3224,456.0716],[3.414,36.3174,432.5438],[3.4354,36.3184,456.5573],[3.4394,36.3156,458.3922],[3.443,36.3254,566.4311],[3.4518,36.3327,631.3804],[3.4561,36.3419,804.9615],[3.4642,36.344,790.3301],[3.4745,36.3385,747.3475],[3.4954,36.3369,603.2789],[3.5077,36.3508,756.5387],[3.5101,36.3552,745.9193],[3.5035,36.3842,574.7911],[3.5003,36.3889,568.6367],[3.4903,36.3955,530.6155],[3.4873,36.4103,469.4689],[3.4846,36.4149,449.9958],[3.4971,36.4205,430.3832],[3.5088,36.4321,345.3087],[3.5118,36.4384,332.4592],[3.5119,36.445,342.4895],[3.5053,36.4498,298.5],[3.5028,36.4562,298.5],[3.4924,36.4542,298.5],[3.4843,36.4492,298.5],[3.4792,36.4499,298.5],[3.477,36.4457,298.5],[3.4833,36.4431,312.5535],[3.4843,36.4375,298.5],[3.4793,36.4333,348.4],[3.4712,36.4352,298.5],[3.4655,36.4339,303.8938],[3.4518,36.4229,298.5],[3.4466,36.4122,299.4212],[3.4348,36.4142,305.9061],[3.4287,36.4122,310.2876],[3.4333,36.4095,310.0153],[3.4339,36.4053,315.8809],[3.4307,36.4024,315.0352],[3.4244,36.4035,319.6336],[3.4184,36.4071,325.8364]]]]}}