{"type":"Feature","properties":{"GID_2":"DZA.32.11_1","GID_0":"DZA","country":"Algeria","GID_1":"DZA.32_1","province":"Oran","NL_NAME_1":"ولايةوهران","county":"ElAnçar","VARNAME_2":"ElAncor","NL_NAME_2":"NA","TYPE_2":"Commune-Cotiere","ENGTYPE_2":"Commune-Cotiere","CC_2":"3110","HASC_2":"DZ.OR.EA","name":"El_Ançar.county"},
"geometry":{"type": "MultiPolygon","coordinates": [[[[-0.9177,35.6332,369.8739],[-0.9145,35.6375,386.486],[-0.9061,35.6429,408.6179],[-0.8979,35.6475,369.5732],[-0.8905,35.6491,379.3177],[-0.8743,35.6655,407.6481],[-0.8638,35.6726,433.098],[-0.8591,35.6738,383.5003],[-0.8497,35.6687,527.4362],[-0.8347,35.6668,566.7137],[-0.8259,35.6666,518.7546],[-0.8214,35.6691,512.0058],[-0.8247,35.6738,459.0261],[-0.8259,35.6786,387.7401],[-0.8304,35.6836,222.7995],[-0.8445,35.6904,326.7038],[-0.8462,35.6944,194.5676],[-0.8546,35.7018,55.788],[-0.8609,35.7167,14.9491],[-0.8852,35.7065,2.3385],[-0.896,35.7062,1.87],[-0.9031,35.7074,0.0],[-0.9125,35.7144,0.0],[-0.915,35.72,48.4218],[-0.9274,35.7267,6.0837],[-0.9344,35.7283,9.2665],[-0.9555,35.7171,3.9609],[-0.961,35.7092,2.0649],[-0.9661,35.7052,36.5586],[-0.9715,35.6918,58.9875],[-0.9615,35.6863,227.1996],[-0.9418,35.6811,343.9073],[-0.9362,35.6629,255.5002],[-0.9253,35.6542,147.845],[-0.9206,35.638,359.3846],[-0.9177,35.6332,369.8739]]]]}}