{"type": "Feature","bbox": [-1.737,33.0013,-0.9483,34.2785],"geometry": {"type": "MultiPolygon","coordinates": [[[[-1.0301,33.4088,1110.0123],[-1.065,33.4317,1116.7961],[-1.0797,33.4494,1115.6931],[-1.1056,33.476,1111.8165],[-1.1071,33.4882,1107.627],[-1.1162,33.5,1106.4861],[-1.1164,33.5089,1092.3806],[-1.1134,33.5167,1092.8738],[-1.1147,33.5244,1086.1965],[-1.1297,33.5361,1080.0021],[-1.1323,33.5423,1082.5424],[-1.1265,33.5698,1077.6907],[-1.1286,33.6028,1048.9945],[-1.1302,33.6095,1046.7288],[-1.1397,33.6225,1050.3246],[-1.1443,33.6334,1057.4493],[-1.1457,33.642,1034.8179],[-1.1384,33.6596,1007.7479],[-1.1319,33.6676,1003.9614],[-1.1234,33.6728,1003.163],[-1.0457,33.6835,1003.517],[-1.04,33.6763,1005.6524],[-1.0311,33.6703,1006.9597],[-1.0142,33.6626,1004.9579],[-0.9834,33.6573,1005.8056],[-0.9788,33.66,1005.5955],[-0.9698,33.6727,1006.7734],[-0.9631,33.679,1006.8251],[-0.9651,33.6959,1072.344],[-0.9885,33.7498,1074.4526],[-1.005,33.77,1073.5203],[-1.0212,33.8004,1082.4324],[-0.985,33.8282,1086.7048],[-0.9648,33.8354,1085.6539],[-0.9483,33.8473,1089.7346],[-0.9752,33.8866,1102.538],[-0.9901,33.9008,1106.8992],[-0.996,33.904,1109.5815],[-0.9988,33.9137,1113.6432],[-0.9972,33.9245,1116.0244],[-1.004,33.9336,1119.6335],[-1.0093,33.9443,1125.5723],[-1.0128,33.9483,1126.7085],[-1.0181,33.9498,1128.5923],[-1.0205,33.9541,1131.8263],[-1.0247,33.9558,1132.6072],[-1.0302,33.9555,1133.9019],[-1.0406,33.9667,1139.052],[-1.0434,33.9729,1141.4708],[-1.0424,33.984,1145.4662],[-1.0447,33.99,1147.2089],[-1.0437,33.9951,1149.6111],[-1.0464,33.9994,1151.1479],[-1.0464,34.0107,1154.8073],[-1.051,34.0217,1158.1289],[-1.051,34.0269,1159.4083],[-1.0598,34.0364,1163.7297],[-1.0574,34.0553,1170.8616],[-1.0779,34.0877,1193.3601],[-1.0874,34.0999,1201.5085],[-1.1031,34.1153,1214.3757],[-1.1072,34.1232,1218.792],[-1.0994,34.18,1255.8362],[-1.0983,34.2013,1275.3435],[-1.0719,34.217,1263.0015],[-1.0961,34.2603,1272.7571],[-1.125,34.2785,1253.0989],[-1.1299,34.2751,1258.2133],[-1.1671,34.2628,1301.413],[-1.182,34.2594,1321.5908],[-1.1947,34.2587,1349.2025],[-1.2168,34.2218,1304.7882],[-1.2409,34.2068,1256.6638],[-1.2612,34.2018,1244.7727],[-1.2684,34.2008,1240.0511],[-1.2857,34.2039,1232.9862],[-1.3111,34.2156,1224.5642],[-1.3229,34.215,1207.8662],[-1.3322,34.208,1221.8293],[-1.3654,34.2094,1243.1001],[-1.3901,34.2073,1271.1931],[-1.4139,34.2086,1227.6235],[-1.4196,34.2058,1222.9033],[-1.454,34.2034,1284.7595],[-1.4651,34.1953,1351.4749],[-1.4835,34.1993,1341.4282],[-1.5147,34.1798,1357.5953],[-1.5244,34.1673,1362.0881],[-1.5379,34.1674,1359.7551],[-1.5835,34.1361,1377.6997],[-1.5966,34.1294,1408.7212],[-1.6233,34.1102,1280.189],[-1.6476,34.0978,1253.0326],[-1.651,34.0936,1246.576],[-1.6691,34.0002,1116.1556],[-1.699,33.8703,1095.212],[-1.6703,33.7728,1054.5012],[-1.7285,33.7353,1004.7302],[-1.737,33.7003,1002.9017],[-1.7104,33.688,1009.9102],[-1.7063,33.6783,1011.7455],[-1.6869,33.6764,1015.048],[-1.6653,33.6828,1021.6442],[-1.6528,33.6824,1024.9639],[-1.6481,33.6785,1025.1052],[-1.6449,33.6716,1025.8467],[-1.6429,33.6602,1030.712],[-1.6303,33.6311,1040.5597],[-1.6239,33.6247,1040.5522],[-1.5985,33.6151,1047.551],[-1.5951,33.6052,1051.0417],[-1.5977,33.601,1054.1943],[-1.5987,33.594,1056.2988],[-1.5971,33.5881,1060.3235],[-1.6019,33.5781,1064.1],[-1.5944,33.5723,1070.4502],[-1.5949,33.5655,1071.6326],[-1.5974,33.5599,1079.1119],[-1.6026,33.5582,1085.505],[-1.6011,33.5473,1089.2073],[-1.5979,33.5413,1104.7705],[-1.5882,33.5303,1109.1595],[-1.5963,33.5208,1111.6887],[-1.601,33.5094,1114.9586],[-1.6053,33.5042,1116.4132],[-1.6207,33.4918,1120.8259],[-1.6229,33.4849,1122.4421],[-1.6206,33.4722,1125.2981],[-1.6242,33.4646,1127.3413],[-1.6233,33.4537,1129.9661],[-1.6248,33.4476,1131.3536],[-1.6287,33.4422,1132.9336],[-1.6322,33.432,1135.3231],[-1.6453,33.4241,1138.9183],[-1.6492,33.4087,1141.073],[-1.6633,33.3799,1145.4962],[-1.6643,33.3546,1151.938],[-1.6598,33.3372,1160.9443],[-1.6621,33.3315,1165.1381],[-1.6631,33.3179,1162.0413],[-1.6617,33.3133,1165.1395],[-1.6623,33.3021,1169.7507],[-1.6703,33.286,1175.8047],[-1.6692,33.2796,1170.193],[-1.658,33.2579,1176.5096],[-1.646,33.2499,1180.2234],[-1.6314,33.2258,1185.2815],[-1.6266,33.221,1186.4617],[-1.6155,33.2172,1190.1877],[-1.6079,33.2124,1190.8672],[-1.6029,33.2061,1192.8048],[-1.5992,33.1949,1196.0297],[-1.59,33.1843,1202.6912],[-1.5798,33.1669,1207.6838],[-1.5756,33.157,1211.0024],[-1.5754,33.1501,1212.4551],[-1.5381,33.1173,1226.7485],[-1.5336,33.1072,1231.9341],[-1.5225,33.1002,1240.7303],[-1.5168,33.0986,1239.7996],[-1.5122,33.093,1246.1177],[-1.4966,33.0897,1248.0653],[-1.4911,33.0857,1252.9695],[-1.4868,33.0857,1249.376],[-1.4832,33.0805,1252.3619],[-1.4785,33.0797,1254.3866],[-1.4744,33.0762,1255.2864],[-1.4673,33.0621,1262.671],[-1.4666,33.0567,1260.8335],[-1.4638,33.0531,1269.9202],[-1.4607,33.0418,1266.96],[-1.4629,33.0365,1269.9753],[-1.4679,33.0326,1270.4204],[-1.4757,33.0213,1274.7703],[-1.4761,33.0137,1277.9028],[-1.471,33.0013,1282.7161],[-1.4268,33.0208,1288.9663],[-1.4065,33.0333,1280.5536],[-1.3962,33.0344,1270.0652],[-1.387,33.0391,1260.8657],[-1.3796,33.0452,1256.9036],[-1.3754,33.0534,1252.7234],[-1.3648,33.062,1247.3562],[-1.3606,33.0722,1241.6489],[-1.3342,33.09,1230.1863],[-1.3267,33.0936,1226.5166],[-1.3193,33.1021,1215.8521],[-1.314,33.1112,1214.1345],[-1.2976,33.1501,1202.1626],[-1.2924,33.1559,1199.5918],[-1.2879,33.1662,1194.677],[-1.2816,33.1718,1191.0417],[-1.2711,33.1726,1194.4695],[-1.2587,33.176,1193.4355],[-1.2503,33.1807,1191.0161],[-1.224,33.188,1188.312],[-1.2022,33.1963,1184.491],[-1.1882,33.2069,1179.7842],[-1.182,33.2137,1176.8816],[-1.1756,33.2165,1175.3638],[-1.1707,33.2214,1171.6257],[-1.1665,33.2415,1166.521],[-1.1587,33.2572,1162.5294],[-1.1552,33.2738,1152.0139],[-1.1554,33.2827,1149.2112],[-1.1592,33.2969,1144.9832],[-1.1524,33.3058,1140.7],[-1.1445,33.3103,1139.6311],[-1.1333,33.3244,1133.6333],[-1.133,33.3371,1130.2537],[-1.123,33.3456,1128.2104],[-1.1236,33.3507,1126.8424],[-1.1007,33.363,1123.22],[-1.0935,33.3626,1123.0986],[-1.0886,33.3704,1121.7341],[-1.0869,33.378,1120.5988],[-1.0735,33.3977,1117.7911],[-1.0476,33.4069,1116.6489],[-1.0301,33.4088,1110.0123]]]]}
,"properties": {"GID_2": "DZA.31.6_1","GID_0": "DZA","country": "Algeria","GID_1": "DZA.31_1","province": "Naâma","NL_NAME_1": "ولايةالنعامة","county": "Kasdir","VARNAME_2": "NA","NL_NAME_2": "NA","TYPE_2": "Commune","ENGTYPE_2": "Commune","CC_2": "4511","HASC_2": "DZ.NA.KA","name": "Kasdir.county","area_km2": 6406.436,"hist_schema_id": "Elevation0-9000","hist_area_km2": {"975": 137.02,"1000": 287.201,"1025": 239.652,"1050": 188.308,"1075": 359.226,"1100": 1082.971,"1125": 1269.507,"1150": 852.987,"1175": 615.431,"1200": 453.274,"1225": 339.146,"1250": 284.08,"1275": 176.3,"1300": 88.789,"1325": 25.67,"1350": 5.821,"1375": 0.632,"1400": 0.263,"1425": 0.088,"1450": 0.07}}}