{"type":"Feature","properties":{"GID_2":"DZA.1.18_1","GID_0":"DZA","country":"Algeria","GID_1":"DZA.1_1","province":"Adrar","NL_NAME_1":"ولايةأدرا","county":"Sebaa","VARNAME_2":"NA","NL_NAME_2":"NA","TYPE_2":"Commune","ENGTYPE_2":"Commune","CC_2":"126","HASC_2":"DZ.AR.SE","name":"Sebaa.county"},
"geometry":{"type": "MultiPolygon","coordinates": [[[[-0.0475,28.1651,291.7264],[0.1003,28.2393,299.0301],[0.3958,28.3819,361.9238],[0.0169,28.4827,283.8036],[-0.1028,28.3961,276.669],[-0.1171,28.3608,276.2062],[-0.1203,28.3489,276.1257],[-0.1398,28.316,275.8717],[-0.1548,28.2868,273.233],[-0.1642,28.248,264.5231],[-1.0003,28.2074,277.044],[-1.4591,28.1793,278.7371],[-2.5751,28.2211,343.0195],[-2.5771,28.2155,349.1929],[-2.5869,28.2005,349.4034],[-2.5967,28.1888,349.4595],[-2.6053,28.1691,347.3315],[-2.6221,28.1455,345.0695],[-2.631,28.1295,345.2763],[-2.6322,28.1193,347.9389],[-2.6285,28.1031,347.2273],[-2.6309,28.0977,346.5165],[-2.6464,28.0714,348.6349],[-2.6697,28.045,347.7513],[-2.0587,28.0116,312.961],[-2.0002,28.0175,316.7867],[-1.4997,28.0555,341.6491],[-1.0008,28.0846,243.7549],[-0.5668,28.0952,235.3158],[-0.1958,28.1471,264.9468],[-0.2072,28.1296,263.2563],[-0.2243,28.0874,262.2497],[-0.0475,28.1651,291.7264]]]]}}