{"type": "Feature","bbox": [-1.1517,35.3454,-1.0513,35.4479],"geometry": {"type": "MultiPolygon","coordinates": [[[[-1.0672,35.369,94.342],[-1.0586,35.3811,77.6051],[-1.0564,35.3881,73.7897],[-1.057,35.4005,84.8167],[-1.0513,35.4086,67.0448],[-1.0537,35.4122,72.0462],[-1.0519,35.4182,88.0984],[-1.0528,35.4235,89.7229],[-1.0783,35.4305,71.4488],[-1.112,35.4345,39.5737],[-1.1164,35.4408,36.9499],[-1.1273,35.4479,33.2855],[-1.1408,35.4479,29.3498],[-1.1471,35.4461,29.3057],[-1.1452,35.4387,78.4963],[-1.1457,35.4315,121.696],[-1.1464,35.4248,97.9219],[-1.1495,35.4196,101.0013],[-1.1502,35.4152,126.371],[-1.1488,35.4103,217.6713],[-1.1511,35.4053,161.9395],[-1.1517,35.3981,135.8503],[-1.1487,35.3813,102.0968],[-1.1487,35.365,137.1952],[-1.1394,35.3495,149.2416],[-1.1313,35.3454,149.3801],[-1.1162,35.3665,104.7319],[-1.1104,35.3683,100.5336],[-1.0984,35.366,117.1208],[-1.0741,35.367,112.5493],[-1.0672,35.369,94.342]]]]}
,"properties": {"GID_2": "DZA.3.12_1","GID_0": "DZA","country": "Algeria","GID_1": "DZA.3_1","province": "AïnTémouchent","NL_NAME_1": "ولايةعينتموشنت","county": "ElMalah","VARNAME_2": "al-Malah","NL_NAME_2": "NA","TYPE_2": "Commune","ENGTYPE_2": "Commune","CC_2": "4614","HASC_2": "DZ.AT.EL","name": "El_Malah.county","area_km2": 68.47351,"hist_schema_id": "Elevation0-9000","hist_area_km2": {"25": 1.01911,"50": 21.46016,"75": 22.43356,"100": 14.08802,"125": 5.75659,"150": 2.19538,"175": 0.81231,"200": 0.32829,"225": 0.24188,"250": 0.10366,"275": 0.03455}}}