{"type": "Feature","bbox": [6.265,36.4873,6.507,36.5781],"geometry": {"type": "MultiPolygon","coordinates": [[[[6.5063,36.5781,1265.447],[6.463,36.5741,1130.157],[6.4574,36.5711,1179.5024],[6.4517,36.5737,1145.6115],[6.4381,36.5712,1194.7401],[6.4207,36.5777,1049.2828],[6.4096,36.5721,1014.1598],[6.3973,36.5687,997.5635],[6.3923,36.5556,747.5922],[6.3805,36.5518,556.8644],[6.3696,36.5405,294.6189],[6.3641,36.539,283.8617],[6.3597,36.5427,358.5662],[6.3464,36.5469,338.8963],[6.3345,36.5484,389.7421],[6.3272,36.5553,481.457],[6.3153,36.5604,505.7301],[6.3111,36.5673,412.2596],[6.3051,36.5679,359.9358],[6.2794,36.5646,197.0],[6.274,36.5546,197.0],[6.2752,36.549,197.0],[6.265,36.5425,197.0],[6.2743,36.5358,197.0],[6.2747,36.5278,197.0],[6.2787,36.5224,197.0],[6.3009,36.5129,197.0],[6.3075,36.512,197.0],[6.3142,36.5015,197.0],[6.3455,36.4976,197.0],[6.352,36.4897,197.0],[6.361,36.4921,197.0],[6.3652,36.4909,197.0],[6.3743,36.4938,197.0],[6.3785,36.4925,197.0],[6.3785,36.4874,197.0],[6.3848,36.4873,197.0],[6.3877,36.4937,197.0],[6.397,36.4986,267.5724],[6.4038,36.4968,237.4977],[6.4166,36.5004,303.1307],[6.4277,36.4963,327.1528],[6.458,36.4971,215.6469],[6.4621,36.4952,232.2944],[6.4722,36.5021,240.835],[6.4791,36.5106,268.4161],[6.4865,36.5152,244.0831],[6.4923,36.5175,246.2044],[6.4972,36.5168,250.7677],[6.5029,36.5181,252.2833],[6.507,36.5226,284.369],[6.5041,36.5286,341.6418],[6.5019,36.5394,523.4847],[6.5042,36.5494,648.1866],[6.4997,36.5635,874.3041],[6.5063,36.5781,1265.447]]]]}
,"properties": {"GID_2": "DZA.29.14_1","GID_0": "DZA","country": "Algeria","GID_1": "DZA.29_1","province": "Mila","NL_NAME_1": "ولايةميلة","county": "GraremGouga","VARNAME_2": "Qara-ramQu-qa","NL_NAME_2": "NA","TYPE_2": "Commune","ENGTYPE_2": "Commune","CC_2": "4317","HASC_2": "DZ.ML.GG","name": "Grarem_Gouga.county","area_km2": 141.0429,"hist_schema_id": "Elevation0-9000","hist_area_km2": {"200": 9.9857,"225": 6.1857,"250": 7.1566,"275": 7.2757,"300": 7.7696,"325": 7.1561,"350": 7.6502,"375": 7.9738,"400": 7.4284,"425": 7.377,"450": 7.002,"475": 6.5078,"500": 5.7752,"525": 5.1788,"550": 3.5434,"575": 2.6063,"600": 2.1122,"625": 2.1292,"650": 1.8055,"675": 1.8906,"700": 1.6181,"725": 1.7032,"750": 1.584,"775": 1.5329,"800": 1.5328,"825": 1.4306,"850": 1.2603,"875": 1.1751,"900": 1.5327,"925": 1.4646,"950": 1.5156,"975": 1.5667,"1000": 1.4985,"1025": 1.0388,"1050": 0.9195,"1075": 0.8174,"1100": 0.9536,"1125": 1.0217,"1150": 0.9195,"1175": 0.6981,"1200": 0.5279,"1225": 0.2214}}}