{"type": "Feature","bbox": [6.9416,36.0259,7.9614,36.6743],"geometry": {"type": "MultiPolygon","coordinates": [[[[7.0121,36.1703,1009.8746],[7.0047,36.1669,965.3693],[7.0005,36.1627,959.7863],[7.0037,36.1569,987.5037],[7.0033,36.1517,1031.5193],[6.999,36.1469,1045.9849],[6.9992,36.1409,1055.1948],[7.0037,36.1375,1079.0571],[7.0043,36.1261,1060.1172],[6.9941,36.1034,1172.2333],[6.9952,36.0972,1250.2992],[6.9915,36.0939,1228.7405],[7.0118,36.0884,1101.2723],[7.0282,36.0807,866.3063],[7.0358,36.0741,828.153],[7.0405,36.0731,813.6942],[7.045,36.0681,800.8043],[7.0392,36.0623,805.3088],[7.0405,36.051,826.2298],[7.0389,36.0337,884.8867],[7.0654,36.0307,926.8939],[7.072,36.0326,898.4408],[7.0855,36.0259,1005.2168],[7.1079,36.0407,896.8934],[7.1412,36.0465,925.9583],[7.2062,36.0748,1003.6122],[7.2155,36.0772,989.1315],[7.2195,36.0741,1014.6478],[7.2261,36.0804,929.4199],[7.2257,36.0869,948.4055],[7.2285,36.093,913.9426],[7.2286,36.0986,886.679],[7.2335,36.1029,843.4696],[7.2359,36.119,792.2309],[7.2449,36.1228,806.3456],[7.248,36.128,770.5468],[7.2559,36.1342,715.3547],[7.2579,36.1405,747.591],[7.2682,36.1459,743.8339],[7.3063,36.1444,708.1623],[7.3124,36.1461,671.0303],[7.2986,36.1514,665.1038],[7.2904,36.1579,678.3215],[7.2938,36.1639,657.9257],[7.2842,36.1777,832.7458],[7.2881,36.1801,760.6805],[7.2842,36.193,793.5776],[7.2913,36.2013,818.8179],[7.292,36.208,765.4081],[7.2961,36.2173,748.7637],[7.3032,36.2259,727.4438],[7.3084,36.2293,618.8882],[7.3145,36.2311,604.8332],[7.3276,36.2223,677.1699],[7.3621,36.22,718.6008],[7.3828,36.2139,779.4506],[7.4087,36.2099,770.3602],[7.4152,36.211,786.7837],[7.4441,36.2041,838.5557],[7.4535,36.2076,873.7925],[7.4604,36.2151,909.2664],[7.4737,36.2123,941.0411],[7.4866,36.2166,982.6289],[7.5012,36.2155,1090.22],[7.5138,36.2197,1149.1567],[7.5205,36.22,1188.4073],[7.5338,36.2269,1134.2948],[7.5448,36.2283,1151.2076],[7.5663,36.2342,1079.4501],[7.5802,36.2306,1060.7988],[7.5876,36.2304,1084.597],[7.5934,36.2316,1122.9948],[7.5966,36.2346,1151.9469],[7.6114,36.2305,1205.7263],[7.6136,36.2256,1241.8896],[7.6173,36.2225,1130.8333],[7.6226,36.2231,1153.4047],[7.6242,36.2279,1208.075],[7.6335,36.2399,965.2501],[7.6565,36.2476,787.4664],[7.6603,36.2502,773.7572],[7.6595,36.2546,687.9438],[7.6649,36.2625,674.2328],[7.6753,36.2597,824.5875],[7.6792,36.2568,849.4876],[7.6835,36.2603,1042.0541],[7.6952,36.2598,1179.2345],[7.6999,36.2614,1108.9919],[7.7154,36.27,1098.4213],[7.7257999999999996,36.2797,979.1128],[7.7263,36.2861,886.8623],[7.724,36.2899,955.5208],[7.7322,36.2988,924.2278],[7.7384,36.2968,980.8707],[7.7432,36.2991,934.1987],[7.7604,36.2859,907.2311],[7.7652,36.2847,1042.738],[7.7708,36.2862,1054.7788],[7.7797,36.2928,1110.9519],[7.7856,36.2941,1048.8187],[7.7993,36.2924,1025.4558],[7.8068,36.2992,900.6133],[7.8356,36.3013,1061.6482],[7.8485,36.3099,1121.641],[7.8551,36.3177,1123.8557],[7.8394,36.3386,1052.9188],[7.8404,36.3498,864.3796],[7.8318,36.3513,815.3644],[7.827,36.3607,758.978],[7.8093,36.3754,584.0472],[7.8157,36.3847,396.414],[7.8155,36.3896,411.0978],[7.8118,36.3928,326.2795],[7.8121,36.4066,262.0934],[7.8143,36.4123,238.6187],[7.8198,36.4182,233.2865],[7.8214,36.423,248.9051],[7.8328,36.4219,283.9146],[7.8435,36.4178,442.4065],[7.8543,36.4108,628.0526],[7.8679,36.4065,797.0089],[7.8754,36.4158,560.6446],[7.8808,36.4168,510.6489],[7.8851,36.4203,416.4652],[7.8876,36.4259,397.7471],[7.9017,36.4356,430.3768],[7.9217,36.4401,491.9568],[7.9403,36.4553,483.0654],[7.9548,36.4586,537.6424],[7.9614,36.4618,531.9812],[7.9399,36.4917,649.0911],[7.9532,36.4976,705.0773],[7.9468,36.5065,788.9987],[7.9357,36.5161,583.6825],[7.9236,36.5312,692.3375],[7.9177,36.535,780.1264],[7.9059,36.539,628.619],[7.8924,36.5392,702.0583],[7.8791,36.5431,683.6671],[7.8691,36.5529,463.9702],[7.8643,36.5601,398.2492],[7.8585,36.5589,373.5757],[7.8587,36.5526,432.9846],[7.8637,36.5408,488.5293],[7.8568,36.543,452.575],[7.8552,36.549,464.0326],[7.8507,36.5514,462.8815],[7.833,36.55,457.0584],[7.8177,36.5419,373.6919],[7.8038,36.5394,324.8423],[7.7979,36.5392,303.344],[7.7839,36.5463,270.6108],[7.7819,36.5505,213.1867],[7.7848,36.5558,168.7407],[7.7782,36.565,95.8696],[7.7794,36.5842,50.3411],[7.7728,36.5899,46.7483],[7.7739,36.5954,47.8764],[7.7641,36.6219,148.6043],[7.7437,36.62,188.4209],[7.7379,36.6217,184.6044],[7.7449,36.6308,92.8294],[7.7443,36.639,57.6764],[7.7232,36.6569,38.0373],[7.7106,36.6621,64.0806],[7.6964,36.6593,90.8002],[7.6896,36.6558,93.8445],[7.6954,36.6467,115.3366],[7.691,36.6459,119.269],[7.6791,36.648,102.0586],[7.6684,36.6532,98.4558],[7.6647,36.6511,94.4648],[7.6581,36.6458,92.9919],[7.6435,36.6218,147.7124],[7.6352,36.6112,173.8586],[7.6263,36.6039,238.7565],[7.6194,36.6038,276.6913],[7.611,36.6134,172.9077],[7.6005,36.6045,196.7099],[7.5949,36.604,194.0097],[7.5628,36.6094,204.709],[7.5567,36.6089,208.8318],[7.5456,36.6163,202.4625],[7.5437,36.6206,248.8995],[7.5355,36.6257,224.2745],[7.5325,36.6305,191.1332],[7.5284,36.6331,197.2483],[7.5185,36.6313,211.7539],[7.5133,36.6284,220.3352],[7.5006,36.6266,274.9921],[7.4937,36.6298,245.2384],[7.4922,36.6481,205.2596],[7.4972,36.6586,168.3734],[7.4907,36.6699,150.7531],[7.4861,36.6743,174.4265],[7.485,36.6701,145.7771],[7.4805,36.6664,150.2408],[7.4676,36.6669,169.0562],[7.4567,36.6626,180.9182],[7.4447,36.6549,270.0041],[7.4339,36.6551,340.1721],[7.4298,36.6515,262.6103],[7.4236,36.6396,494.1674],[7.4217,36.6282,718.8139],[7.4073,36.6407,583.5524],[7.4036,36.6614,392.4967],[7.3975,36.6635,408.8357],[7.39,36.6636,411.617],[7.3692,36.6559,358.3301],[7.3482,36.6591,285.3147],[7.3365,36.6514,151.0342],[7.3248,36.6473,105.9624],[7.3184,36.6484,84.0628],[7.3095,36.6532,81.0],[7.3039,36.6523,81.0],[7.3,36.657,83.2501],[7.3006,36.6633,81.0],[7.291,36.6543,81.0],[7.2849,36.6359,82.1831],[7.2746,36.6273,85.7148],[7.2622,36.6228,91.4643],[7.2585,36.6197,95.3919],[7.2394,36.6193,108.5851],[7.2281,36.6138,112.5929],[7.2185,36.6133,153.39],[7.1956,36.6059,349.1766],[7.1859,36.5988,504.529],[7.1757,36.5997,497.4945],[7.1669,36.5973,610.9682],[7.1634,36.6021,639.9044],[7.1508,36.6016,655.457],[7.1445,36.5975,600.1987],[7.14,36.5921,610.9761],[7.1355,36.5899,631.6559],[7.1229,36.586,616.8763],[7.0984,36.5818,657.2305],[7.0915,36.5744,732.5533],[7.0856,36.5716,771.5699],[7.0806,36.5662,745.6384],[7.0744,36.5624,788.2762],[7.0773,36.5561,667.5734],[7.0746,36.5523,757.2051],[7.0679,36.551,809.051],[7.066,36.5458,855.5206],[7.0685,36.5347,726.0419],[7.0875,36.52,966.1571],[7.0855,36.5069,1184.4081],[7.0815,36.5011,1127.181],[7.0514,36.4989,782.5966],[7.0463,36.4962,787.1908],[7.0459,36.4904,737.7672],[7.0147,36.481,814.4005],[7.0069,36.4808,776.5103],[6.9969,36.478,870.8576],[6.9918,36.4803,887.1445],[6.9811,36.4809,906.6669],[6.9553,36.4774,989.2649],[6.9492,36.4688,861.8555],[6.9471,36.4602,886.649],[6.9501,36.4495,940.5668],[6.9458,36.4484,950.9685],[6.9416,36.4335,736.0917],[6.9446,36.4291,772.7144],[6.9524,36.4238,717.6349],[6.9485,36.4203,682.1266],[6.9556,36.4175,620.0836],[6.9531,36.405,858.5109],[6.955,36.4002,843.1625],[6.9716,36.3869,844.1134],[6.9738,36.3832,866.9218],[6.9686,36.3806,919.1211],[6.9499,36.3625,808.4403],[6.9631,36.3559,729.8947],[6.9716,36.3554,711.6779],[6.9852,36.3445,744.0709],[6.9949,36.3404,858.4777],[6.9871,36.3355,869.2031],[6.9842,36.3301,845.6478],[6.985,36.3253,921.8874],[6.9808,36.3201,975.702],[6.9771,36.3171,1030.9854],[6.9672,36.315,1062.6279],[6.9757999999999996,36.3082,1035.6774],[6.9906,36.3013,977.6364],[7.0116,36.3,1013.8564],[7.0199,36.3021,998.0961],[7.0263,36.3,979.4261],[7.0332,36.2802,908.8212],[7.0412,36.2655,862.156],[7.0424,36.2552,848.3353],[7.0466,36.2471,770.9767],[7.0446,36.2411,733.4029],[7.0498,36.2235,846.8809],[7.0462,36.2179,856.0881],[7.0433,36.2061,870.7669],[7.0387,36.2046,876.7883],[7.0403,36.1946,907.8861],[7.0397,36.1807,1010.3166],[7.0235,36.1776,983.2585],[7.0181,36.1754,965.4604],[7.0121,36.1703,1009.8746]]],
[[[7.3216,36.1418,673.0496],[7.3188,36.146,672.9545],[7.3124,36.1461,671.0303],[7.3167,36.1421,691.9342],[7.3216,36.1418,673.0496]]]]}
,"properties": {"GID_1": "DZA.21_1","GID_0": "DZA","country": "Algeria","province": "Guelma","VARNAME_1": "NA","NL_NAME_1": "ولايةقالمة","TYPE_1": "Wilaya","ENGTYPE_1": "Province","CC_1": "24","HASC_1": "DZ.GL","ISO_1": "DZ-24","name": "Guelma.province","area_km2": 3683.426,"hist_schema_id": "Elevation0-9000","hist_area_km2": {"25": 0.119,"50": 9.345,"75": 20.772,"100": 34.847,"125": 48.29,"150": 62.967,"175": 79.261,"200": 89.984,"225": 104.112,"250": 108.735,"275": 105.832,"300": 102.534,"325": 100.118,"350": 107.387,"375": 103.317,"400": 101.312,"425": 97.378,"450": 89.694,"475": 85.236,"500": 86.221,"525": 84.302,"550": 79.468,"575": 79.682,"600": 79.423,"625": 81.995,"650": 90.422,"675": 105.378,"700": 110.323,"725": 125.651,"750": 169.043,"775": 170.85,"800": 154.432,"825": 131.092,"850": 104.033,"875": 91.689,"900": 84.952,"925": 74.517,"950": 59.66,"975": 51.048,"1000": 43.598,"1025": 34.455,"1050": 30.237,"1075": 23.623,"1100": 21.198,"1125": 17.489,"1150": 14.361,"1175": 9.865,"1200": 8.342,"1225": 6.051,"1250": 4.222,"1275": 2.136,"1300": 0.871,"1325": 0.649,"1350": 0.495,"1375": 0.359,"1400": 0.051}}}