{"type":"Feature","properties":{"GID_2":"DZA.28.33_1","GID_0":"DZA","country":"Algeria","GID_1":"DZA.28_1","province":"Médéa","NL_NAME_1":"ولايةالمدية","county":"Medjebar","VARNAME_2":"Moudjebeur","NL_NAME_2":"NA","TYPE_2":"Commune","ENGTYPE_2":"Commune","CC_2":"2662","HASC_2":"DZ.MD.MJ","name":"Medjebar.county"},
"geometry":{"type": "MultiPolygon","coordinates": [[[[2.7707,35.9239,602.5489],[2.7854,35.9253,636.7766],[2.7913,35.9239,661.7597],[2.7966,35.9198,697.4774],[2.8,35.9139,825.0958],[2.8076,35.9169,920.1476],[2.8274,35.9142,942.6062],[2.8507,35.9154,922.0605],[2.8561,35.9117,938.6542],[2.8716,35.9126,944.8303],[2.8792,35.9097,966.0005],[2.8847,35.911,910.5118],[2.8882,35.9169,856.4249],[2.8861,35.9247,831.5724],[2.8985,35.9279,947.7858],[2.9035,35.9307,1000.0112],[2.9045,35.9356,954.1099],[2.8956,35.937,882.313],[2.8992,35.9422,986.6592],[2.8991,35.9481,1049.0303],[2.8735,35.9545,921.7471],[2.8443,35.9693,623.1769],[2.8392,35.9839,717.3159],[2.8412,35.9909,795.2173],[2.8453,35.9972,773.6805],[2.8445,36.003,783.1591],[2.8386,36.0043,786.3754],[2.8308,35.9994,739.7673],[2.8275,35.9894,688.8912],[2.8222,35.9881,671.6558],[2.812,35.9897,749.7776],[2.7982,35.9941,674.4994],[2.7937,35.9919,655.3298],[2.7893,35.9932,645.6603],[2.771,35.9883,615.1838],[2.7645,35.9781,562.8434],[2.7629,35.972,609.777],[2.7523,35.9699,556.5448],[2.7509,35.9651,568.8721],[2.7537,35.9604,565.3661],[2.7534,35.9505,682.2316],[2.76,35.9389,616.5519],[2.767,35.9305,581.6194],[2.7658,35.9243,592.3306],[2.7707,35.9239,602.5489]]]]}}