{"type":"Feature","properties":{"GID_2":"DZA.43.35_1","GID_0":"DZA","country":"Algeria","GID_1":"DZA.43_1","province":"Tiaret","NL_NAME_1":"ولايةتيارت","county":"SidiHosni","VARNAME_2":"NA","NL_NAME_2":"NA","TYPE_2":"Commune","ENGTYPE_2":"Commune","CC_2":"1423","HASC_2":"DZ.TR.SH","name":"Sidi_Hosni.county"},
"geometry":{"type": "MultiPolygon","coordinates": [[[[1.5009,35.4468,956.256],[1.5096,35.4523,887.7235],[1.5282,35.4563,940.6049],[1.5418,35.4671,978.7798],[1.5466,35.473,977.8114],[1.5698,35.4791,930.8604],[1.5797,35.4858,856.5246],[1.5791,35.4924,824.7812],[1.5896,35.5147,783.7778],[1.6026,35.5181,789.5659],[1.6068,35.5224,790.5479],[1.6214,35.5251,802.7941],[1.6268,35.5283,807.0894],[1.6272,35.5407,820.3784],[1.6331,35.5412,809.4745],[1.6366,35.5461,796.0318],[1.6338,35.5535,853.7427],[1.6309,35.5598,814.535],[1.6016,35.5778,723.7617],[1.6028,35.5844,809.7297],[1.5988,35.5886,771.9893],[1.6012,35.5998,705.1187],[1.5983,35.6061,705.088],[1.5935,35.6093,732.6733],[1.5886,35.6111,754.1616],[1.589,35.6051,702.9402],[1.5841,35.6045,671.7469],[1.5771,35.6101,658.1657],[1.5703,35.6112,654.5869],[1.5628,35.6081,774.8948],[1.5554,35.6111,647.15],[1.5499,35.5998,653.5661],[1.5211,35.5961,787.6414],[1.5141,35.5975,666.0567],[1.5032,35.6031,592.7275],[1.5016,35.5865,739.8988],[1.4894,35.588,765.2702],[1.481,35.5854,666.9951],[1.4833,35.5809,678.6844],[1.4775,35.5763,675.7774],[1.4761,35.5699,680.121],[1.4656,35.5641,715.8412],[1.4676,35.5582,746.7885],[1.4668,35.5529,819.5508],[1.4421,35.5593,658.4608],[1.4438,35.5534,735.9451],[1.4505,35.5432,911.6019],[1.425,35.5447,923.9547],[1.4206,35.5486,875.9956],[1.4225,35.5546,802.5411],[1.4222,35.5607,699.2979],[1.4106,35.5626,704.7313],[1.3934,35.5599,778.4527],[1.3943,35.5523,870.7616],[1.3822,35.5482,821.0067],[1.3774,35.5443,811.3158],[1.3756,35.5389,785.3541],[1.3875,35.5275,769.8379],[1.3981,35.5248,732.5681],[1.4033,35.5203,677.5103],[1.4207,35.5145,617.8517],[1.4239,35.5092,621.493],[1.429,35.5048,645.7658],[1.4283,35.4871,741.0474],[1.4416,35.48,880.2659],[1.4431,35.4721,828.2957],[1.4553,35.4603,883.9708],[1.4646,35.4629,821.0202],[1.4747,35.4619,791.3254],[1.4887,35.4658,871.2444],[1.4939,35.4647,901.6311],[1.4982,35.4607,872.5547],[1.4965,35.4506,914.6954],[1.5009,35.4468,956.256]]]]}}