{"type": "Feature","bbox": [4.9366,35.7614,5.0382999999999996,35.8523],"geometry": {"type": "MultiPolygon","coordinates": [[[[4.9662,35.8523,1644.2051],[4.9417,35.8508,1412.454],[4.9439,35.8463,1345.1531],[4.9497,35.8416,1444.2097],[4.9528,35.8356,1494.9851],[4.94,35.8319,1471.4661],[4.9366,35.827,1499.8296],[4.941,35.8205,1677.6958],[4.9534,35.8156,1690.0511],[4.9585,35.8111,1637.3491],[4.9585,35.7977,1394.4408],[4.9609,35.7804,954.1794],[4.9659,35.7674,882.5542],[4.9762,35.7614,850.4113],[4.9783,35.7682,907.9374],[4.9892,35.7713,853.5474],[4.991,35.7648,832.7268],[4.9972,35.7658,825.4165],[5.0327,35.7834,1059.4497],[5.0346,35.7892,1206.9779],[5.0377,35.7923,1196.2341],[5.0382999999999996,35.7988,1332.671],[5.0364,35.8072,1318.5077],[5.0379,35.8147,1398.7766],[5.0341,35.8213,1395.7286],[5.0347,35.8293,1559.6738],[5.0374,35.8354,1586.6371],[5.0354,35.841,1646.4581],[5.0361,35.8467,1733.4722],[5.0203,35.8505,1722.022],[5.0044,35.8504,1794.3873],[4.981,35.8456,1796.4465],[4.9719,35.8513,1718.115],[4.9662,35.8523,1644.2051]]]]}
,"properties": {"GID_2": "DZA.11.31_1","GID_0": "DZA","country": "Algeria","GID_1": "DZA.11_1","province": "BordjBouArréridj","NL_NAME_1": "ولايةبرجبوعريريج","county": "Taglait","VARNAME_2": "NA","NL_NAME_2": "NA","TYPE_2": "Commune","ENGTYPE_2": "Commune","CC_2": "3421","HASC_2": "DZ.BB.TG","name": "Taglait.county","area_km2": 65.35326,"hist_schema_id": "Elevation0-9000","hist_area_km2": {"825": 0.24085,"850": 1.03216,"875": 2.30506,"900": 2.35658,"925": 1.97807,"950": 1.58234,"975": 1.61665,"1000": 1.54778,"1025": 2.2872,"1050": 2.30432,"1075": 2.56228,"1100": 2.5277,"1125": 2.28696,"1150": 1.943,"1175": 1.66785,"1200": 1.99455,"1225": 1.53026,"1250": 1.51298,"1275": 1.3067,"1300": 1.58175,"1325": 1.4958,"1350": 1.66768,"1375": 1.75356,"1400": 1.87386,"1425": 1.97688,"1450": 2.30342,"1475": 2.38932,"1500": 2.71595,"1525": 1.92516,"1550": 1.61579,"1575": 1.65014,"1600": 1.58141,"1625": 1.28918,"1650": 1.11728,"1675": 0.92821,"1700": 0.75627,"1725": 0.65311,"1750": 0.49842,"1775": 0.39528,"1800": 0.22342,"1825": 0.25779,"1850": 0.1203}}}