{"type": "Feature","bbox": [5.4125,34.6799,5.4612,34.7942],"geometry": {"type": "MultiPolygon","coordinates": [[[[5.4612,34.7942,265.439],[5.4554,34.7919,311.2211],[5.441,34.7924,283.4768],[5.4141,34.7855,184.3218],[5.4125,34.7346,159.0177],[5.4146,34.7175,152.6152],[5.4137,34.7052,132.5165],[5.4155,34.6998,126.4287],[5.4342,34.6889,111.4672],[5.4396,34.6837,110.4099],[5.4439,34.6833,109.646],[5.4496,34.6799,109.5853],[5.4551,34.6959,111.1115],[5.4541,34.7037,118.2309],[5.4497,34.7082,124.375],[5.446,34.7261,150.1733],[5.4612,34.7942,265.439]]]]}
,"properties": {"GID_2": "DZA.9.20_1","GID_0": "DZA","country": "Algeria","GID_1": "DZA.9_1","province": "Biskra","NL_NAME_1": "ولايةبسكرة","county": "Lichana","VARNAME_2": "NA","NL_NAME_2": "NA","TYPE_2": "Commune","ENGTYPE_2": "Commune","CC_2": "723","HASC_2": "DZ.BS.LC","name": "Lichana.county","area_km2": 39.6187,"hist_schema_id": "Elevation0-9000","hist_area_km2": {"100": 1.98742,"125": 6.32739,"150": 13.74729,"175": 11.39148,"200": 2.99579,"225": 0.99271,"250": 0.52242,"275": 0.62687,"300": 0.57461,"325": 0.38307,"350": 0.06965}}}