{"type":"Feature","properties":{"GID_2":"DZA.43.22_1","GID_0":"DZA","country":"Algeria","GID_1":"DZA.43_1","province":"Tiaret","NL_NAME_1":"ولايةتيارت","county":"Mellakou","VARNAME_2":"NA","NL_NAME_2":"NA","TYPE_2":"Commune","ENGTYPE_2":"Commune","CC_2":"1412","HASC_2":"DZ.TR.ML","name":"Mellakou.county"},
"geometry":{"type": "MultiPolygon","coordinates": [[[[1.3875,35.3058,978.4894],[1.3644,35.2995,950.4751],[1.3464,35.297,938.3956],[1.3412,35.294,934.621],[1.3223,35.2893,922.1655],[1.3119,35.2826,913.0686],[1.3036,35.2806,908.3735],[1.2973,35.2832,904.0219],[1.2918,35.282,899.1278],[1.2803,35.2855,896.5083],[1.2738,35.2855,890.9468],[1.2733,35.2899,896.5038],[1.2617,35.2891,900.4833],[1.242,35.2824,901.6295],[1.1988,35.2766,905.688],[1.1939,35.2779,842.6906],[1.1925,35.2841,802.0742],[1.1896,35.2885,863.0312],[1.1673,35.2826,683.6502],[1.1604,35.2826,722.8375],[1.1547,35.2729,729.346],[1.1723,35.267,842.7231],[1.1775,35.2607,883.1933],[1.1663,35.2574,794.7523],[1.1692,35.2511,818.6191],[1.1693,35.2446,829.9912],[1.1656,35.2377,960.2291],[1.169,35.2238,985.9924],[1.1851,35.2147,987.4393],[1.1996,35.2113,1031.5985],[1.2063,35.2072,1026.9272],[1.2116,35.1971,1037.3772],[1.2093,35.1931,1045.9133],[1.2415,35.1724,1048.0044],[1.2607,35.1722,1029.8099],[1.2706,35.1694,1011.8889],[1.282,35.1688,999.2234],[1.2874,35.1703,987.7524],[1.2916,35.1746,979.1373],[1.2914,35.181,968.1994],[1.2956,35.1847,1010.2238],[1.3006,35.1928,963.7665],[1.3027,35.2089,970.2985],[1.301,35.2143,944.0126],[1.3049,35.2172,973.0744],[1.3094,35.214,998.1289],[1.3367,35.2246,1030.7416],[1.3503,35.2281,1056.6614],[1.3752,35.2275,1076.9645],[1.3805,35.229,1061.6566],[1.4009,35.2394,1020.506],[1.427,35.2568,1065.5093],[1.4217,35.2623,1047.7607],[1.4083,35.2864,1008.1735],[1.3926,35.303,990.1974],[1.3875,35.3058,978.4894]]]]}}