{"type": "Feature","id": "2194","bbox": [2.986,28.46185,9.51971,33.44189],"geometry": {"type": "Polygon","coordinates": [[[9.0633,32.00019,235.2306],[9.0631,32.00019,235.2306],[7.3138,32.00226,131.6643],[7.16993,32.01637,137.1107],[7.03087,32.05295,131.677],[6.92943,32.14248,146.1271],[6.85088,32.23925,121.7177],[6.72737,32.42797,122.2634],[6.68376,32.51176,135.1818],[6.4648,33.15769,100.0791],[6.37856,33.31755,91.399],[6.19299,33.37698,73.6521],[5.00805,33.44189,298.8211],[4.98541,33.33766,306.9492],[4.95311,33.24149,331.8374],[4.97828,32.84076,166.2437],[4.73886,32.53189,270.0244],[4.54239,32.37557,291.2445],[4.39888,32.29627,331.3334],[4.37387,32.27302,333.8243],[4.35915,32.25599,338.3693],[4.32204,32.20021,321.8066],[4.28261,32.10497,325.6121],[4.20179,31.97394,317.7624],[4.11084,31.79139,327.4449],[4.05064,31.55353,323.2691],[3.80254,29.98985,336.8476],[3.72151,29.86335,341.0289],[3.59955,29.76782,335.1647],[3.52648,29.69364,317.1326],[3.47961,29.63685,322.7632],[3.39755,29.36487,404.3448],[3.34448,29.30656,425.8517],[2.986,29.12355,505.8726],[3.81556,28.54591,472.2603],[4.75049,28.46185,409.881],[5.95274,28.49079,352.9325],[6.42093,28.73127,329.0226],[6.78742,28.86826,322.0603],[6.93718,28.86837,310.0751],[7.14637,28.83938,311.4608],[9.36949,30.02279,334.3941],[9.36949,30.02279,334.3941],[9.31,30.08437,327.8168],[9.28654,30.11713,316.4914],[9.51971,30.22891,294.1316],[9.49139,30.33898,343.618],[9.46307,30.44905,322.9529],[9.43475,30.55907,310.9614],[9.40633,30.66909,281.5741],[9.37791,30.77916,321.8726],[9.34959,30.88918,269.6562],[9.32127,30.99925,324.4388],[9.29295,31.10932,252.8205],[9.26443,31.21934,280.4318],[9.23621,31.32941,252.8654],[9.20779,31.43943,264.6212],[9.17947,31.5495,236.821],[9.15115,31.65957,217.2094],[9.12273,31.76953,199.7125],[9.09451,31.87961,226.0909],[9.06599,31.98968,253.7037],[9.0633,32.00019,235.2306]]]}
,"properties": {"ISO3166-1-Alpha-3": "DZA","country": "Algeria","fill": "#F00","name": "Ouargla","area_km2": 211425.3,"hist_schema_id": "Elevation0-9000","hist_area_km2": {"50": 298.38,"75": 1559.54,"100": 4997.96,"125": 10072.8,"150": 20829.2,"175": 24761.67,"200": 24602.65,"225": 23372.81,"250": 21062.55,"275": 19047.53,"300": 18566.14,"325": 14886.74,"350": 8084.3,"375": 5812.62,"400": 4473.13,"425": 3130.01,"450": 2328.37,"475": 1941.71,"500": 869.07,"525": 602.5,"550": 123.97}}}