{"type":"Feature","properties":{"GID_2":"DZA.26.45_1","GID_0":"DZA","country":"Algeria","GID_1":"DZA.26_1","province":"M'Sila","NL_NAME_1":"ولايةالمسيلة","county":"Tamsa","VARNAME_2":"NA","NL_NAME_2":"NA","TYPE_2":"Commune","ENGTYPE_2":"Commune","CC_2":"2823","HASC_2":"DZ.MS.TS","name":"Tamsa.county"},
"geometry":{"type": "MultiPolygon","coordinates": [[[[4.0108,35.3495,878.3738],[4.0013,35.3454,903.6262],[3.9915,35.3247,822.9275],[3.9819,35.318,813.7195],[3.9448,35.3178,963.207],[3.9377,35.3134,960.8469],[3.896,35.2388,1097.6681],[3.8919,35.2338,1117.7025],[3.8876,35.2316,1085.0291],[3.8706,35.2294,1025.0555],[3.8528,35.2201,990.7032],[3.8091,35.2168,847.3969],[3.784,35.21,789.6504],[3.7724,35.2094,775.1946],[3.7412,35.1982,783.4749],[3.7282,35.1986,787.0919],[3.7116,35.2017,787.1277],[3.7089,35.2053,782.994],[3.713,35.2093,780.2996],[3.7161,35.2153,778.7694],[3.6938,35.2106,781.8609],[3.6898,35.2077,783.8617],[3.6565,35.1943,788.3124],[3.6869,35.1646,820.5852],[3.7087,35.1589,819.1967],[3.7542,35.1338,1040.4905],[3.8164,35.1134,945.2697],[3.8374,35.096,969.1782],[3.858,35.0882,1004.6602],[3.8859,35.0843,991.2698],[3.9207,35.0656,1213.603],[3.9258,35.0651,1343.665],[3.9639,35.0756,965.9176],[3.9799,35.0626,927.7663],[3.9899,35.0569,937.9455],[4.0163,35.0841,922.6906],[3.9973,35.0981,943.6346],[3.9791,35.1038,992.4094],[3.9814,35.1265,1026.3973],[3.972,35.1586,1041.1083],[4.0219,35.1702,1014.2493],[4.0733,35.1763,1045.738],[4.0739,35.1835,951.1682],[4.0822,35.1859,857.54],[4.0878,35.1896,824.2704],[4.0898,35.1949,730.3199],[4.0987,35.2031,691.9578],[4.0966,35.2074,655.8381],[4.0976,35.2166,617.9042],[4.102,35.2201,610.6193],[4.1096,35.2321,591.2557],[4.0973,35.2643,729.509],[4.0916,35.2846,726.7613],[4.078,35.2958,729.0377],[4.0564,35.3062,774.6644],[4.0414,35.3165,841.4943],[4.0259,35.3306,880.0015],[4.0108,35.3495,878.3738]]]]}}