{"type": "Feature","bbox": [4.3777,36.3647,4.4741,36.4295],"geometry": {"type": "MultiPolygon","coordinates": [[[[4.4711,36.4007,201.09],[4.4656,36.415,254.2638],[4.4741,36.4237,294.8268],[4.4546,36.4266,554.4535],[4.4468,36.4295,594.7424],[4.4441,36.4257,513.6658],[4.4462,36.4217,431.9216],[4.4395,36.4224,539.4822],[4.4377,36.4128,366.8943],[4.4349,36.4071,319.3062],[4.4192,36.4106,436.72],[4.4173,36.4149,535.2965],[4.4127,36.4193,700.4242],[4.3992,36.422,589.9852],[4.396,36.4185,557.7346],[4.3873,36.3825,337.8135],[4.3777,36.3738,282.6337],[4.3875,36.365,251.9495],[4.3949,36.3647,245.6553],[4.4064,36.3671,242.5966],[4.4382,36.3783,222.1023],[4.4618,36.3963,208.0807],[4.4711,36.4007,201.09]]]]}
,"properties": {"GID_2": "DZA.8.42_1","GID_0": "DZA","country": "Algeria","GID_1": "DZA.8_1","province": "Béjaïa","NL_NAME_1": "بجاية","county": "Tazmalt","VARNAME_2": "Tazmalt","NL_NAME_2": "NA","TYPE_2": "Commune","ENGTYPE_2": "Commune","CC_2": "627","HASC_2": "DZ.BJ.TZ","name": "Tazmalt.county","area_km2": 33.15986,"hist_schema_id": "Elevation0-9000","hist_area_km2": {"200": 0.56319,"225": 4.83012,"250": 6.28125,"275": 6.79306,"300": 3.24258,"325": 2.67933,"350": 1.97953,"375": 1.24561,"400": 0.92141,"425": 0.95551,"450": 0.58011,"475": 0.66542,"500": 0.52891,"525": 0.42655,"550": 0.47772,"575": 0.3071,"600": 0.2218,"625": 0.18768,"650": 0.18768,"675": 0.08531}}}