{"type": "Feature","bbox": [6.9416,36.3313,7.1946,36.481],"geometry": {"type": "MultiPolygon","coordinates": [[[[6.9949,36.3404,858.4777],[7.0098,36.3383,779.8462],[7.0148,36.3339,843.1746],[7.0258,36.3313,863.8602],[7.0335,36.3465,816.6547],[7.0388,36.3505,759.5751],[7.0571,36.358,639.8271],[7.0637,36.3567,635.4385],[7.071,36.3508,719.7748],[7.0778,36.351,650.4644],[7.0882,36.3557,633.912],[7.0908,36.3615,600.5476],[7.0992,36.3698,580.1658],[7.1034,36.3735,565.6188],[7.108,36.375,570.4353],[7.1221,36.3628,577.6171],[7.1295,36.3583,582.8107],[7.1442,36.3542,589.9759],[7.1526,36.3679,618.4547],[7.1529,36.3741,687.5908],[7.1636,36.3769,720.3395],[7.1686,36.3822,736.6664],[7.1673,36.3885,685.7484],[7.17,36.3935,735.4694],[7.1749,36.3974,844.3761],[7.1777,36.403,958.0488],[7.1946,36.4083,1043.7738],[7.1934,36.4223,778.6599],[7.1881,36.4195,867.8596],[7.1776,36.4189,983.945],[7.1673,36.4131,958.5139],[7.1412,36.4084,920.193],[7.12,36.4081,1022.3866],[7.1132,36.4111,985.1342],[7.1016,36.4097,920.562],[7.0961,36.4115,886.5058],[7.0928,36.4148,900.4681],[7.0954,36.4353,570.412],[7.0925,36.4407,471.7661],[7.0847,36.4447,666.316],[7.0773,36.4445,759.9945],[7.0702,36.4423,749.0927],[7.052,36.449,938.5896],[7.0469,36.4579,925.7944],[7.0419,36.4613,938.1486],[7.0292,36.4659,799.293],[7.017,36.4764,744.8491],[7.0147,36.481,814.4005],[7.0069,36.4808,776.5103],[6.9969,36.478,870.8576],[6.9918,36.4803,887.1445],[6.9811,36.4809,906.6669],[6.9553,36.4774,989.2649],[6.9476,36.4645,847.8253],[6.9471,36.4602,886.649],[6.9501,36.4495,940.5668],[6.9458,36.4484,950.9685],[6.9416,36.4335,736.0917],[6.9446,36.4291,772.7144],[6.9524,36.4238,717.6349],[6.9485,36.4203,682.1266],[6.9556,36.4175,620.0836],[6.9531,36.405,858.5109],[6.955,36.4002,843.1625],[6.9716,36.3869,844.1134],[6.9738,36.3832,866.9218],[6.9686,36.3806,919.1211],[6.9499,36.3625,808.4403],[6.9631,36.3559,729.8947],[6.9716,36.3554,711.6779],[6.9852,36.3445,744.0709],[6.9949,36.3404,858.4777]]]]}
,"properties": {"GID_2": "DZA.21.9_1","GID_0": "DZA","country": "Algeria","GID_1": "DZA.21_1","province": "Guelma","NL_NAME_1": "ولايةقالمة","county": "BordjSebbat","VARNAME_2": "BordjSabath","NL_NAME_2": "NA","TYPE_2": "Commune","ENGTYPE_2": "Commune","CC_2": "2421","HASC_2": "DZ.GL.BS","name": "Bordj_Sebbat.county","area_km2": 199.0383,"hist_schema_id": "Elevation0-9000","hist_area_km2": {"450": 0.1023,"475": 0.1706,"500": 0.7506,"525": 3.1565,"550": 6.0752,"575": 8.9426,"600": 12.3051,"625": 13.2269,"650": 17.4756,"675": 19.8649,"700": 21.5718,"725": 19.3682,"750": 14.8954,"775": 12.6429,"800": 10.3057,"825": 8.4801,"850": 7.4395,"875": 5.7325,"900": 4.8111,"925": 4.47,"950": 2.5757,"975": 1.6036,"1000": 1.075,"1025": 1.0409,"1050": 0.6484,"1075": 0.2559,"1100": 0.0512}}}