{"type": "Feature","bbox": [7.3358,36.4717,7.5033,36.5942],"geometry": {"type": "MultiPolygon","coordinates": [[[[7.5016,36.5193,506.9746],[7.4971,36.5211,476.082],[7.492,36.5179,394.1192],[7.4864,36.5168,295.5995],[7.4648,36.524,401.0118],[7.4599,36.5289,300.7328],[7.4593,36.536,370.5681],[7.451,36.5531,579.2584],[7.445,36.5547,525.0798],[7.4447,36.569,466.5571],[7.4419,36.5731,504.0518],[7.4334,36.5711,510.3033],[7.4288,36.5727,476.4896],[7.42,36.5806,299.8803],[7.4148,36.5883,377.0303],[7.4091,36.592,442.2476],[7.4008,36.5942,514.2733],[7.3695,36.5904,578.2535],[7.367,36.5869,549.2198],[7.3613,36.5838,532.2615],[7.3514,36.5833,531.7164],[7.3424,36.5792,347.2695],[7.3387,36.5766,211.5146],[7.3358,36.5704,183.2479],[7.3557,36.5662,199.9531],[7.3685,36.5654,243.8367],[7.3671,36.5606,283.1044],[7.3806,36.5503,323.9306],[7.3969,36.5485,415.9444],[7.4124,36.5384,392.4997],[7.4178,36.5272,343.5516],[7.414,36.5247,344.227],[7.4113,36.5204,330.2537],[7.4123,36.5128,294.7429],[7.4075,36.5053,238.9316],[7.41,36.4983,219.5138],[7.4156,36.4978,213.8102],[7.4182,36.4926,223.6764],[7.4266,36.4861,193.3995],[7.4319,36.4899,191.541],[7.4371,36.4888,191.6011],[7.4457,36.4837,187.1488],[7.4494,36.4864,189.0993],[7.4546,36.4866,191.2338],[7.4566,36.4818,184.787],[7.4612,36.4804,184.2815],[7.4664,36.4814,182.4151],[7.4729,36.477,179.7357],[7.4743,36.4717,179.5807],[7.4804,36.4723,177.4995],[7.4905,36.4821,172.4696],[7.4889,36.4939,244.7698],[7.4981,36.4972,305.3294],[7.5014,36.5008,311.5928],[7.5033,36.5125,384.7746],[7.5016,36.5193,506.9746]]]]}
,"properties": {"GID_2": "DZA.21.21_1","GID_0": "DZA","country": "Algeria","GID_1": "DZA.21_1","province": "Guelma","NL_NAME_1": "ولايةقالمة","county": "Helliopolis","VARNAME_2": "Heliopolis","NL_NAME_2": "NA","TYPE_2": "Commune","ENGTYPE_2": "Commune","CC_2": "2426","HASC_2": "DZ.GL.HE","name": "Helliopolis.county","area_km2": 77.05207,"hist_schema_id": "Elevation0-9000","hist_area_km2": {"175": 1.97725,"200": 3.1358,"225": 5.91294,"250": 8.60421,"275": 8.46792,"300": 9.13166,"325": 8.29618,"350": 6.67721,"375": 5.80814,"400": 5.2117,"425": 4.8029,"450": 3.76408,"475": 2.17986,"500": 1.48156,"525": 0.93653,"550": 0.34056,"575": 0.25544,"600": 0.0511,"625": 0.01703}}}