{"type":"Feature","properties":{"GID_2":"DZA.41.2_1","GID_0":"DZA","country":"Algeria","GID_1":"DZA.41_1","province":"Tamanghasset","NL_NAME_1":"ولايةتمنراست","county":"FoggaretAzzouia","VARNAME_2":"FouggaratEzZouaia","NL_NAME_2":"NA","TYPE_2":"Commune","ENGTYPE_2":"Commune","CC_2":"1110","HASC_2":"DZ.TM.FA","name":"Foggaret_Azzouia.county"},
"geometry":{"type": "MultiPolygon","coordinates": [[[[5.7234,29.7583,251.9058],[5.3658,29.5324,267.4818],[5.0654,29.3403,286.4739],[5.0244,29.3145,405.2514],[4.9629,29.2791,365.5602],[4.5281,28.9998,373.6791],[4.3778,28.9054,408.0511],[4.1475,28.7577,469.8486],[4.0013,28.6581,529.2233],[3.7612,28.4982,473.2538],[3.7302,28.4681,499.5779],[3.7181,28.4541,507.6832],[3.7094,28.4384,510.9349],[3.6774,28.4162,512.1753],[3.6432,28.3976,523.5991],[3.5895,28.3723,559.8089],[3.5576,28.3502,554.7848],[3.539,28.3439,561.5107],[3.5234,28.3332,558.7697],[3.5184,28.3164,565.2262],[3.5025,28.3062,584.4684],[3.483,28.3026,600.6928],[3.4496,28.2832,585.0979],[3.4108,28.2426,585.3795],[3.3971,28.2361,611.9316],[3.3779,28.2389,591.6024],[3.3644,28.2258,619.4955],[3.3448,28.2268,598.0522],[3.3419,28.2108,614.9929],[3.3251,28.2099,598.8827],[3.2945,28.1996,612.9409],[3.291,28.1885,616.3496],[3.2619,28.1687,627.7138],[3.2531,28.1529,631.7947],[3.2367,28.144,644.5553],[3.2256,28.1305,659.3283],[3.212,28.1179,661.848],[3.1767,28.1028,621.7356],[3.182,28.0857,578.006],[3.1805,28.07,538.5527],[3.1681,28.0581,540.3499],[3.1559,28.023,498.4289],[3.1453,28.0077,488.1399],[3.0941,27.9881,457.9474],[3.0774,27.978,450.3196],[3.0509,27.9508,433.974],[3.033,27.9187,422.5054],[3.0199,27.905,417.5219],[3.0099,27.8894,414.9254],[3.0049,27.8722,410.7211],[3.0026,27.8543,407.1332],[3.005,27.8184,397.9634],[3.0026,27.8005,394.5544],[3.0029,27.7829,390.7684],[3.0066,27.7653,388.4058],[3.0172,27.7502,386.6206],[3.0319,27.7382,381.3064],[3.0515,27.7347,377.1832],[3.0701,27.7289,374.3266],[3.1131,27.6919,365.5613],[3.1235,27.6769,362.9086],[3.1285,27.6597,360.1104],[3.1315,27.6418,357.0317],[3.1305,27.6058,352.654],[3.1188,27.5914,349.3714],[3.1029,27.5802,345.6216],[3.0908,27.5658,342.5152],[3.0818,27.5496,339.0504],[3.0703,27.5352,335.9448],[3.0518,27.5283,333.1724],[3.0169,27.5117,327.1849],[2.9855,27.5007,321.5474],[2.9858,27.4827,319.168],[2.9809,27.4662,319.6871],[2.9663,27.4538,313.4524],[2.9495,27.4438,311.0432],[2.9304,27.4382,308.3691],[2.9113,27.4351,306.4338],[2.8907,27.4363,305.5486],[2.8714,27.4322,301.024],[2.7933,27.3735,314.4276],[2.7495,27.335,340.2355],[2.7233,27.3087,291.0356],[2.7156,27.2938,288.6197],[2.7267,27.2569,282.0483],[2.7597,27.1311,290.3322],[2.7714,27.0966,291.8489],[2.7856,27.0641,290.842],[2.7939,27.0487,293.4299],[2.8063,27.0364,300.3369],[2.8242,27.028,303.7758],[2.9987,26.9734,373.1453],[3.0166,26.9711,349.3311],[3.074,26.9533,284.9774],[3.0937,26.9499,282.1238],[3.3529,26.9153,301.1095],[3.4319,26.9019,328.2628],[3.6214,26.8404,403.496],[3.6253,26.8241,366.8146],[3.6363,26.7345,416.329],[3.6429,26.699,325.82],[3.6636,26.6484,412.9554],[3.6978,26.6044,361.3643],[3.713,26.5927,444.4915],[3.7242,26.5778,352.6569],[3.7282,26.5602,320.8751],[3.7274,26.5422,303.1723],[3.7426,26.4716,303.41],[3.7484,26.4544,305.8703],[3.7567,26.4379,305.3241],[3.7671,26.4225,312.3802],[3.7787,26.4089,309.0399],[3.7951,26.3015,465.357],[3.8407,26.2738,447.409],[3.8332,26.2485,434.664],[3.8333,26.2384,426.7125],[3.8401,26.2225,441.7132],[3.8502,26.2133,418.3007],[3.859,26.2112,437.2339],[3.8851,26.2116,421.0432],[3.9028,26.209,456.2037],[3.9164,26.2007,436.6694],[3.9357,26.2018,448.9542],[3.9524,26.1994,463.2853],[3.9532,26.1952,471.1037],[3.948,26.1915,476.6178],[3.9478,26.1866,455.7736],[3.9507,26.1803,418.4108],[3.9559,26.1824,478.2909],[3.9593,26.1913,438.1],[3.963,26.1964,435.1476],[3.9711,26.1968,453.1341],[3.9931,26.1905,387.9586],[4.0149,26.181,517.806],[4.2159,26.366,527.1825],[4.2992,26.398,627.5103],[4.3906,26.5321,456.1778],[4.4198,26.5405,425.6405],[4.4427,26.5434,417.1718],[4.4606,26.5486,414.5029],[4.499,26.5405,415.5903],[4.5408,26.5431,421.7877],[4.5508,26.5419,421.343],[4.5582,26.5273,424.1145],[4.5638,26.5247,424.4626],[4.5741,26.5229,424.6616],[4.5782,26.5195,424.7436],[4.5843,26.4933,434.1897],[4.5883,26.4882,434.3702],[4.6035,26.4749,440.3836],[4.6107,26.4738,439.0567],[4.638,26.4763,453.1799],[4.651,26.488,480.1815],[4.649,26.4919,476.5854],[4.652,26.5041,507.6215],[4.6581,26.5091,521.2726],[4.673,26.5159,583.8581],[4.6845,26.5171,565.4783],[4.7009,26.4991,528.8814],[4.7058,26.488,514.7171],[4.726,26.4673,503.5829],[4.7309,26.4661,501.6955],[4.7421,26.4684,508.9981],[4.7527,26.4683,510.4255],[4.7832,26.4638,521.2619],[4.7882999999999996,26.4642,523.8116],[4.7929,26.4671,529.6766],[4.8111,26.4815,538.8079],[4.8151,26.4868,541.7952],[4.8237,26.4939,550.367],[4.8275,26.4957,553.6503],[4.8415,26.496,589.4696],[4.8529,26.5002,609.2137],[4.8573,26.4998,598.8259],[4.8598,26.5042,605.3182],[4.8607,26.5148,608.8458],[4.853,26.5572,626.3687],[4.8566,26.5621,594.7249],[4.894,26.567,587.1454],[4.9027,26.5661,591.4576],[4.9069,26.5603,595.2238],[4.9086,26.5549,597.3135],[4.9179,26.5144,635.7043],[4.9268,26.499,660.2471],[4.9261,26.4858,707.7058],[4.9281,26.4789,740.3583],[4.9313,26.4817,803.8775],[4.9368,26.5001,713.4237],[4.9382,26.5128,670.3342],[4.9463,26.5317,646.7052],[4.9562,26.5777,641.8161],[4.9602,26.5897,679.8768],[4.9595,26.6047,656.8069],[4.9611,26.6089,686.0959],[4.9684,26.6157,751.149],[4.9891,26.6259,645.199],[5.007,26.631,641.8082],[5.1074,26.7491,636.8761],[5.127,26.7771,659.6516],[5.1361,26.8008,648.9537],[5.1372,26.8169,596.4689],[5.1335,26.862,552.7644],[5.1507,26.8754,545.7822],[5.2046,26.8991,533.2815],[5.2199,26.9107,531.6211],[5.2257999999999996,26.9177,532.1122],[5.2317,26.929,528.8925],[5.2463,26.971,522.0559],[5.2562,26.9838,518.5892],[5.2632,26.9979,517.2192],[5.2793,27.0085,515.0936],[5.2833,27.0128,514.6782],[5.2897,27.0371,510.5428],[5.3078,27.07,506.6779],[5.3116,27.0893,503.2704],[5.3123,27.1025,504.3063],[5.3166,27.1202,499.9403],[5.3185,27.1408,496.8778],[5.316,27.157,494.5644],[5.3027,27.1802,492.0393],[5.2974,27.208,490.5091],[5.3001,27.2151,490.028],[5.3248,27.2366,485.1507],[5.3317,27.2471,483.4384],[5.3364,27.2589,481.5343],[5.4717,27.3796,569.4198],[5.7778,27.4129,519.5211],[5.6768,27.9254,431.2411],[5.6603,27.9992,408.7581],[5.6392,28.1071,390.1404],[5.7299,28.4321,347.5112],[5.7241,28.9999,351.9039],[5.7271,29.0127,377.8029],[5.7227,29.6676,258.6888],[5.7234,29.7583,251.9058]]]]}}