{"type": "Feature","bbox": [5.6259,35.0245,5.9025,35.1733],"geometry": {"type": "MultiPolygon","coordinates": [[[[5.8598,35.134,1189.4464],[5.8548,35.1287,1185.7581],[5.8483,35.1256,1084.869],[5.8443,35.1215,1025.2126],[5.8198,35.1072,869.2673],[5.7739,35.0883,737.4215],[5.7706,35.0926,612.5577],[5.7698,35.099,550.2648],[5.7669,35.1043,540.5049],[5.7595,35.1074,534.6041],[5.769,35.1214,623.1432],[5.7706,35.1261,644.4207],[5.7543,35.1465,695.6088],[5.7501,35.1574,619.8158],[5.7503,35.1683,742.3641],[5.7462,35.1733,860.8669],[5.7,35.1598,803.3988],[5.6912,35.1595,767.6526],[5.6867,35.1663,615.4351],[5.6803,35.1671,587.1451],[5.6537,35.165,542.735],[5.6325,35.1543,432.1584],[5.6276,35.1482,418.8124],[5.6293,35.1092,406.1798],[5.6259,35.1062,408.4111],[5.6296,35.1035,410.9707],[5.6279,35.093,394.2557],[5.6318,35.0879,394.363],[5.6369,35.0856,392.5097],[5.6301,35.0711,398.3073],[5.6477,35.0582,406.9263],[5.6485,35.0522,412.8857],[5.6416,35.0476,354.9055],[5.6522,35.0427,308.6599],[5.6809,35.0462,351.0427],[5.6926,35.0446,321.782],[5.7363,35.0534,378.1512],[5.7465,35.0524,386.5033],[5.7562,35.0463,454.5774],[5.7689,35.0421,557.9166],[5.8232,35.04,596.9904],[5.838,35.0341,798.4034],[5.8455,35.0245,981.6373],[5.864,35.0264,1105.3099],[5.8632,35.0448,1009.7177],[5.8808,35.0393,1073.5125],[5.892,35.0495,938.8419],[5.8935,35.0613,1056.0084],[5.9013,35.0665,1105.6697],[5.9001,35.0716,984.1652],[5.9025,35.0762,924.3271],[5.9012,35.0821,923.4471],[5.8909,35.0843,871.238],[5.8867,35.087,780.0012],[5.8873,35.0924,863.3839],[5.8917,35.098,781.4085],[5.8944,35.1056,624.1887],[5.8854,35.1213,922.1727],[5.8765,35.1203,819.2401],[5.8781,35.1243,940.4758],[5.8719,35.1323,1031.9927],[5.8655,35.1347,1143.7828],[5.8598,35.134,1189.4464]]]]}
,"properties": {"GID_2": "DZA.9.11_1","GID_0": "DZA","country": "Algeria","GID_1": "DZA.9_1","province": "Biskra","NL_NAME_1": "ولايةبسكرة","county": "Djamora","VARNAME_2": "Djemorah","NL_NAME_2": "NA","TYPE_2": "Commune","ENGTYPE_2": "Commune","CC_2": "720","HASC_2": "DZ.BS.DJ","name": "Djamora.county","area_km2": 250.5533,"hist_schema_id": "Elevation0-9000","hist_area_km2": {"300": 0.0521,"325": 0.6943,"350": 2.0308,"375": 4.582,"400": 16.3977,"425": 28.0536,"450": 22.7622,"475": 19.7074,"500": 18.2661,"525": 18.1263,"550": 14.6565,"575": 12.1058,"600": 12.2102,"625": 11.0831,"650": 8.4992,"675": 7.2159,"700": 6.1058,"725": 6.5393,"750": 6.5223,"775": 5.1872,"800": 4.3718,"825": 4.3195,"850": 3.4698,"875": 3.1578,"900": 3.0885,"925": 2.516,"950": 2.3425,"975": 1.9608,"1000": 1.2843,"1025": 0.9718,"1050": 0.9023,"1075": 0.5206,"1100": 0.3123,"1125": 0.0867,"1150": 0.0694,"1175": 0.1734,"1200": 0.0694,"1225": 0.0694,"1250": 0.0694}}}