{"type":"Feature","properties":{"GID_2":"DZA.34.16_1","GID_0":"DZA","country":"Algeria","GID_1":"DZA.34_1","province":"OumelBouaghi","NL_NAME_1":"ولايةأمالبواقي","county":"ElHarmilia","VARNAME_2":"NA","NL_NAME_2":"NA","TYPE_2":"Commune","ENGTYPE_2":"Commune","CC_2":"429","HASC_2":"DZ.OB.EH","name":"El_Harmilia.county"},
"geometry":{"type": "MultiPolygon","coordinates": [[[[6.6071,35.801,979.9799],[6.6141,35.8128,1050.1793],[6.6205,35.8325,1241.5715],[6.6256,35.843,1101.9412],[6.6409,35.8584,831.75],[6.6525,35.8563,1089.6604],[6.6567,35.8581,1042.1594],[6.665,35.8692,882.5334],[6.6673,35.8757,843.012],[6.6583,35.9203,803.8448],[6.6416,35.9285,797.469],[6.6381,35.9318,795.6773],[6.6402,35.9688,850.5865],[6.6291,35.9751,782.7148],[6.6273,35.981,774.6225],[6.6177,35.9772,772.4872],[6.6198,35.9715,774.4655],[6.6155,35.9622,777.913],[6.6094,35.9618,777.7153],[6.6136,35.9499,782.2558],[6.6128,35.9445,789.5518],[6.6159,35.9412,790.5683],[6.6177,35.9352,791.5687],[6.6019,35.9417,821.1839],[6.5885,35.9441,818.9083],[6.5828,35.9409,833.9691],[6.5705,35.9387,829.2778],[6.5634,35.9343,840.8126],[6.556,35.9328,814.1255],[6.5442,35.9269,834.2886],[6.5341,35.9297,846.8219],[6.528,35.9271,845.209],[6.5271,35.9176,837.3385],[6.5634,35.8421,793.6036],[6.5714,35.8318,815.9953],[6.5897,35.8258,886.0858],[6.5892,35.8185,922.6081],[6.581,35.8105,909.8746],[6.5837,35.8067,917.1454],[6.5925,35.8009,988.3154],[6.5957,35.7964,977.4294],[6.6071,35.801,979.9799]]]]}}