{"type":"Feature","properties":{"GID_2":"DZA.21.18_1","GID_0":"DZA","country":"Algeria","GID_1":"DZA.21_1","province":"Guelma","NL_NAME_1":"ولايةقالمة","county":"Guelma","VARNAME_2":"Qalmah","NL_NAME_2":"NA","TYPE_2":"Chef-Lieu-Wilaya","ENGTYPE_2":"Chef-Lieu-Wilaya","CC_2":"2401","HASC_2":"DZ.GL.GU","name":"Guelma.county"},
"geometry":{"type": "MultiPolygon","coordinates": [[[[7.4743,36.4717,179.5807],[7.4729,36.477,179.7357],[7.4664,36.4814,182.4151],[7.4612,36.4804,184.2815],[7.4566,36.4818,184.787],[7.4546,36.4866,191.2338],[7.4494,36.4864,189.0993],[7.4457,36.4837,187.1488],[7.4371,36.4888,191.6011],[7.4319,36.4899,191.541],[7.4266,36.4861,193.3995],[7.4241,36.4811,195.0893],[7.4184,36.482,195.4298],[7.4157,36.4858,206.6892],[7.4103,36.4851,199.0589],[7.4016,36.4799,202.5524],[7.3949,36.4805,207.2233],[7.3909,36.4755,207.5618],[7.3847,36.4737,209.2562],[7.3783,36.474,212.8486],[7.3615,36.4572,374.4093],[7.3603,36.4495,519.1276],[7.3648,36.4476,594.8366],[7.3698,36.4492,546.2177],[7.3818,36.447,524.4316],[7.3913,36.4499,512.8638],[7.396,36.449,492.1559],[7.3994,36.4454,512.4332],[7.4139,36.4421,474.6857],[7.4242,36.4372,422.7354],[7.4294,36.4279,449.3295],[7.4411,36.421,435.1884],[7.446,36.4194,398.1943],[7.453,36.4199,340.8336],[7.4683,36.4249,292.2181],[7.4578,36.4373,306.4199],[7.4682,36.4416,272.373],[7.4607,36.4496,258.7453],[7.4618,36.4556,243.3603],[7.4627,36.4602,234.6911],[7.4743,36.4717,179.5807]]]]}}