{"type": "Feature","bbox": [4.3516,35.3939,4.75,35.652],"geometry": {"type": "MultiPolygon","coordinates": [[[[4.5573,35.3939,393.2875],[4.75,35.4508,392.0],[4.6204,35.531,395.4884],[4.6184,35.5366,397.1544],[4.6111,35.5467,401.4955],[4.6108,35.5598,408.4763],[4.6018,35.5701,409.0311],[4.5705,35.5798,411.609],[4.563,35.5927,415.9299],[4.5609,35.5877,413.9815],[4.5599,35.573,408.3029],[4.5404,35.5703,412.3372],[4.5413,35.5886,417.1413],[4.532,35.5973,422.173],[4.529,35.6161,428.4967],[4.5062,35.6342,434.1594],[4.5011,35.6445,437.5707],[4.487,35.6464,438.1064],[4.4698,35.6354,432.0081],[4.4323,35.6493,441.6061],[4.3803,35.652,444.8878],[4.3516,35.6388,432.5716],[4.3692,35.6152,423.4317],[4.3804,35.6064,418.6653],[4.3889,35.6025,417.5163],[4.4112,35.5983,413.1133],[4.4233,35.5941,412.3043],[4.4376,35.593,411.3828],[4.4403,35.5887,410.3031],[4.443,35.5746,408.4634],[4.4463,35.5699,407.837],[4.4453,35.5597,406.4818],[4.4491,35.5543,406.4943],[4.4834,35.549,409.3894],[4.4868,35.554,410.7208],[4.4919,35.5516,409.5385],[4.4969,35.5419,407.7392],[4.4975,35.5274,402.8554],[4.5025,35.5272,402.3551],[4.5103,35.5323,402.0377],[4.5138,35.529,400.7779],[4.5328,35.4543,394.3084],[4.5573,35.3939,393.2875]]]]}
,"properties": {"GID_2": "DZA.26.34_1","GID_0": "DZA","country": "Algeria","GID_1": "DZA.26_1","province": "M'Sila","NL_NAME_1": "ولايةالمسيلة","county": "OuledMadhi","VARNAME_2": "NA","NL_NAME_2": "NA","TYPE_2": "Commune","ENGTYPE_2": "Commune","CC_2": "2810","HASC_2": "DZ.MS.OD","name": "Ouled_Madhi.county","area_km2": 352.3129,"hist_schema_id": "Elevation0-9000","hist_area_km2": {"400": 259.8052,"425": 85.9949,"450": 6.5128}}}