{"type":"Feature","properties":{"GID_2":"DZA.2.23_1","GID_0":"DZA","country":"Algeria","GID_1":"DZA.2_1","province":"AïnDefla","NL_NAME_1":"ولايةعينالدفلى","county":"ElMaine","VARNAME_2":"ElMayene","NL_NAME_2":"NA","TYPE_2":"Commune","ENGTYPE_2":"Commune","CC_2":"4434","HASC_2":"DZ.AD.EM","name":"El_Maine.county"},
"geometry":{"type": "MultiPolygon","coordinates": [[[[1.8616,36.1063,398.4491],[1.8456,36.1235,301.5007],[1.8314,36.1308,290.1576],[1.8227,36.1373,352.1848],[1.8087,36.1391,401.4066],[1.8043,36.1386,426.5276],[1.7976,36.1307,474.8311],[1.7875,36.1344,420.5982],[1.7853,36.1282,454.8645],[1.7806,36.1295,444.3554],[1.7761,36.1349,448.6616],[1.7551,36.1341,334.5103],[1.7454,36.1298,362.5677],[1.7344,36.1275,443.4375],[1.7168,36.1264,341.283],[1.7131,36.1302,334.6],[1.707,36.1258,318.5315],[1.698,36.1114,385.9951],[1.6934,36.1087,403.2142],[1.6713,36.1047,412.3195],[1.6649,36.1059,397.634],[1.6593,36.1091,368.7064],[1.6517,36.1083,361.44],[1.6409,36.1004,323.6812],[1.6302,36.0992,322.7422],[1.627,36.0954,297.4578],[1.6288,36.0833,420.3921],[1.6512,36.0576,654.0045],[1.6552,36.0431,663.8203],[1.663,36.0366,592.8218],[1.6682,36.0359,659.7925],[1.6711,36.0324,666.9892],[1.6613,36.0214,552.7888],[1.6763,36.023,541.2202],[1.6823,36.0197,692.4308],[1.6909,36.0114,798.5644],[1.7021,36.0055,804.5881],[1.7058,36.0085,906.0231],[1.7081,36.0133,918.8061],[1.7084,36.0188,833.1141],[1.7212,36.0325,721.8722],[1.7288,36.0335,733.7919],[1.7351,36.0323,753.0447],[1.7402,36.0278,759.053],[1.7469,36.027,859.0226],[1.751,36.03,888.5495],[1.7512,36.04,734.8137],[1.7476,36.0453,633.1011],[1.7538,36.0459,704.8271],[1.7618,36.0496,746.7642],[1.7659,36.0439,744.7723],[1.7746,36.049,615.5001],[1.7878,36.0468,673.4253],[1.7933,36.0493,666.5862],[1.7987,36.0554,594.6748],[1.8056,36.0781,448.6884],[1.8117,36.0798,376.3844],[1.8249,36.0782,423.3597],[1.8281,36.0721,378.9101],[1.84,36.0654,408.5026],[1.8498,36.0689,490.0048],[1.8609,36.0819,608.4735],[1.8602,36.0969,488.7603],[1.8567,36.1029,463.6005],[1.8616,36.1063,398.4491]]]]}}