{"type": "Feature","bbox": [5.9464,36.4916,6.0458,36.6176],"geometry": {"type": "MultiPolygon","coordinates": [[[[5.993,36.6176,507.4469],[5.9788,36.6133,783.2901],[5.9757,36.6102,871.3917],[5.9643,36.6069,1141.304],[5.958,36.6029,1234.3114],[5.9573,36.5907,1312.9268],[5.9627,36.5856,1347.4966],[5.9536,36.5788,1232.9619],[5.9464,36.569,929.0836],[5.9512,36.563,790.0177],[5.9578,36.561,682.1166],[5.9675,36.5608,556.0812],[5.9714,36.5582,532.8369],[5.9748,36.5538,515.4464],[5.9812,36.5382,435.7369],[5.9857,36.5344,412.31],[5.9987,36.5295,406.4085],[6.0051,36.5195,287.304],[5.9992,36.4996,245.6137],[6.0041,36.4988,240.2052],[6.0085,36.5023,244.3893],[6.013,36.5021,298.2777],[6.0256,36.4953,228.4136],[6.0458,36.4916,224.466],[6.045,36.4989,385.1673],[6.0412,36.5088,489.4735],[6.038,36.5118,546.2974],[6.0291,36.5151,635.6993],[6.0237,36.5265,577.8378],[6.0287,36.5306,646.7197],[6.0324,36.5422,884.7888],[6.0276,36.545,801.2784],[6.0278,36.5499,893.7437],[6.0361,36.5558,1070.7709],[6.0236,36.5578,1067.3284],[6.0237,36.5631,1061.6316],[6.0164,36.5785,872.3975],[6.0058,36.5854,988.9311],[6.0046,36.5909,1072.5641],[6.0078,36.5948,1159.7791],[6.0308,36.5956,860.1461],[6.0376,36.5992,830.738],[6.0428,36.6056,822.4485],[6.0421,36.6119,956.8177],[6.0359,36.6119,1074.9395],[6.0316,36.6082,1165.8242],[6.0054,36.6163,772.4127],[5.9979,36.6146,642.1716],[5.993,36.6176,507.4469]]]]}
,"properties": {"GID_2": "DZA.29.29_1","GID_0": "DZA","country": "Algeria","GID_1": "DZA.29_1","province": "Mila","NL_NAME_1": "ولايةميلة","county": "TessalaLamtai","VARNAME_2": "TassalaLemtai","NL_NAME_2": "NA","TYPE_2": "Commune","ENGTYPE_2": "Commune","CC_2": "4316","HASC_2": "DZ.ML.TL","name": "Tessala_Lamtai.county","area_km2": 60.31871,"hist_schema_id": "Elevation0-9000","hist_area_km2": {"225": 0.23862,"250": 0.47723,"275": 0.52835,"300": 0.73282,"325": 0.7328,"350": 1.17589,"375": 1.36329,"400": 0.98834,"425": 1.0394,"450": 1.0734,"475": 1.31185,"500": 1.20953,"525": 1.22648,"550": 1.26054,"575": 1.51601,"600": 1.58399,"625": 1.77126,"650": 1.5327,"675": 2.16277,"700": 1.89025,"725": 1.97528,"750": 1.89007,"775": 2.00915,"800": 2.06029,"825": 2.07727,"850": 2.04307,"875": 1.87293,"900": 2.04313,"925": 2.11129,"950": 2.06019,"975": 1.77067,"1000": 1.63443,"1025": 1.82175,"1050": 1.39605,"1075": 1.29382,"1100": 0.97037,"1125": 1.03844,"1150": 0.71497,"1175": 1.07244,"1200": 0.78308,"1225": 0.69797,"1250": 0.56178,"1275": 0.62989,"1300": 0.57882,"1325": 0.37454,"1350": 0.40859,"1375": 0.34049,"1400": 0.22132,"1425": 0.05107}}}