{"type":"Feature","properties":{"GID_2":"DZA.10.16_1","GID_0":"DZA","country":"Algeria","GID_1":"DZA.10_1","province":"Blida","NL_NAME_1":"البليدة","county":"HammamMelouane","VARNAME_2":"NA","NL_NAME_2":"NA","TYPE_2":"Commune","ENGTYPE_2":"Commune","CC_2":"909","HASC_2":"DZ.BL.HM","name":"Hammam_Melouane.county"},
"geometry":{"type": "MultiPolygon","coordinates": [[[[3.0694,36.5227,116.1176],[3.0701,36.5114,138.8157],[3.0553,36.4913,166.5211],[3.0384,36.4814,221.6205],[3.0269,36.4805,221.239],[3.0218,36.4821,379.0316],[3.0178,36.4879,541.2939],[3.0123,36.4878,612.0966],[3.0069,36.4864,657.5007],[2.9921,36.4782,704.8945],[2.9788,36.4777,739.6666],[2.9745,36.4725,627.3008],[2.9795,36.4647,281.312],[2.9764,36.4607,292.5115],[2.9759,36.4508,435.7119],[2.9725,36.4481,346.4172],[2.9558,36.4452,463.1949],[2.9524,36.4408,502.542],[2.9535,36.4364,421.4274],[2.9291,36.4225,527.6143],[2.9295,36.4158,562.794],[2.9262,36.4106,533.2014],[2.9285,36.4053,765.1262],[2.9285,36.3956,1056.3152],[2.9229,36.3915,831.0773],[2.9347,36.3833,1212.2639],[2.9379,36.3789,1324.5254],[2.9293,36.3655,1142.917],[2.9372,36.3574,944.9666],[2.9394,36.3522,890.1082],[2.9483,36.3486,779.1957],[2.9561,36.3496,741.563],[2.972,36.3568,656.2338],[2.9903,36.3507,647.0686],[3.0055,36.3512,633.2474],[3.0099,36.3499,577.5998],[3.0245,36.3577,564.6327],[3.0403,36.375,455.7656],[3.0498,36.3819,436.3878],[3.0526,36.3871,458.0969],[3.0519,36.4039,456.2917],[3.0548,36.4276,418.1628],[3.0452,36.4362,367.8002],[3.0486,36.4391,355.0081],[3.0655,36.4281,367.1858],[3.0693,36.4311,491.0104],[3.0735,36.4428,800.3068],[3.0743,36.4569,1074.6133],[3.0796,36.4655,1142.9634],[3.0793,36.4724,858.9521],[3.0764,36.4788,724.9586],[3.0832,36.4788,814.407],[3.0836,36.4836,697.0626],[3.0775,36.5073,178.6333],[3.0844,36.5158,222.6677],[3.0759,36.5227,128.8395],[3.0694,36.5227,116.1176]]]]}}