{"type":"Feature","properties":{"GID_2":"DZA.46.12_1","GID_0":"DZA","country":"Algeria","GID_1":"DZA.46_1","province":"Tissemsilt","NL_NAME_1":"ولايةتسمسيلت","county":"Lazharia","VARNAME_2":"NA","NL_NAME_2":"NA","TYPE_2":"Commune","ENGTYPE_2":"Commune","CC_2":"3804","HASC_2":"DZ.TS.LZ","name":"Lazharia.county"},
"geometry":{"type": "MultiPolygon","coordinates": [[[[1.5553,36.0303,613.8782],[1.5518,36.0173,598.3726],[1.5474,36.0133,624.399],[1.5401,35.9977,660.9333],[1.5362,35.9941,711.574],[1.5317,35.9926,666.2869],[1.5254,35.9846,670.844],[1.5217,35.9871,718.0385],[1.5117,35.9891,770.2083],[1.5101,35.9838,789.4176],[1.5162,35.972,767.0973],[1.5133,35.9661,792.2939],[1.5078,35.9622,728.8489],[1.5068,35.9563,783.9357],[1.5105,35.9534,715.4545],[1.5158,35.9525,667.7817],[1.5123,35.9311,519.048],[1.508,35.9268,569.3806],[1.5124,35.9235,669.5089],[1.5296,35.9004,756.1135],[1.5343,35.8965,711.0732],[1.5325,35.8811,630.4866],[1.5368,35.8798,622.6135],[1.5466,35.8799,623.0738],[1.5507,35.8822,646.0897],[1.5556,35.8813,656.6535],[1.5673,35.8889,795.9377],[1.5903,35.8898,925.7788],[1.5943,35.887,985.3838],[1.6007,35.9007,1172.3657],[1.6132,35.9026,989.747],[1.6183,35.916,952.2422],[1.6177,35.9206,942.6232],[1.6396,35.935,495.114],[1.6497,35.9397,451.4017],[1.6409,35.949,476.4281],[1.6352,35.9506,429.1327],[1.6276,35.9599,449.8675],[1.6185,35.9635,406.6902],[1.6149,35.9678,403.6949],[1.6185,35.9708,446.9772],[1.6157,35.9756,397.9113],[1.6131,35.9876,427.9633],[1.5924,35.9958,368.386],[1.5891,35.9992,370.3301],[1.5893,36.0046,364.7114],[1.5843,36.0062,382.2693],[1.5802,36.01,360.0],[1.5788,36.0154,376.3576],[1.5718,36.0138,458.1815],[1.5622,36.0194,546.5535],[1.5672,36.0279,493.6],[1.5679,36.0342,683.8394],[1.5553,36.0303,613.8782]]]]}}