{"type": "Feature","bbox": [7.3605,34.2408,7.8605,34.5428],"geometry": {"type": "MultiPolygon","coordinates": [[[[7.8133,34.2408,23.9394],[7.8552,34.3529,120.6739],[7.8552,34.3676,153.0543],[7.8605,34.3821,231.9577],[7.8569,34.3845,274.7901],[7.8556,34.391,375.8182],[7.8571,34.3952,360.1863],[7.8568,34.4062,509.5934],[7.83,34.4173,689.2316],[7.8218,34.4269,662.8946],[7.8163,34.4306,610.6431],[7.8063,34.4316,635.0145],[7.7921,34.4371,552.856],[7.7871,34.4406,564.2224],[7.7777,34.4563,580.5264],[7.7725,34.4612,566.4078],[7.7669,34.463,561.8052],[7.7084,34.4629,490.2417],[7.6802,34.4658,479.7234],[7.6291,34.5277,380.7379],[7.5868,34.5428,342.4806],[7.5649,34.5361,295.2784],[7.5601,34.5362,294.6355],[7.5283,34.5279,271.5427],[7.5207,34.5298,263.6872],[7.5191,34.5347,254.2453],[7.5126,34.5368,243.0769],[7.5078,34.5335,250.44],[7.5001,34.5247,247.5746],[7.4973,34.5174,232.1573],[7.488,34.5105,226.8235],[7.484,34.5088,219.6565],[7.4779,34.5115,207.3783],[7.4757,34.5065,209.2104],[7.4716,34.5045,203.4688],[7.457,34.5025,190.6816],[7.4651,34.4956,233.5574],[7.4746,34.4846,217.0122],[7.4805,34.4692,203.6619],[7.4861,34.4676,197.4028],[7.4869,34.4483,165.072],[7.4854,34.434,149.9372],[7.4439,34.3884,107.2062],[7.4085,34.3647,94.9162],[7.3605,34.2969,58.1748],[7.4274,34.2746,52.3067],[7.6431,34.2618,39.282],[7.6551,34.2592,30.0405],[7.7851,34.2455,19.4395],[7.8133,34.2408,23.9394]]]]}
,"properties": {"GID_2": "DZA.42.21_1","GID_0": "DZA","country": "Algeria","GID_1": "DZA.42_1","province": "Tébessa","NL_NAME_1": "ولايةتبسة","county": "Negrine","VARNAME_2": "NA","NL_NAME_2": "NA","TYPE_2": "Commune","ENGTYPE_2": "Commune","CC_2": "1209","HASC_2": "DZ.TB.NE","name": "Negrine.county","area_km2": 967.4563,"hist_schema_id": "Elevation0-9000","hist_area_km2": {"25": 70.5379,"50": 143.7363,"75": 178.8985,"100": 107.676,"125": 63.1672,"150": 42.3369,"175": 25.8354,"200": 17.4195,"225": 14.7242,"250": 14.5806,"275": 13.4084,"300": 13.6525,"325": 21.3243,"350": 28.9442,"375": 42.6458,"400": 31.622,"425": 14.8449,"450": 12.1186,"475": 11.2967,"500": 13.2376,"525": 13.4303,"550": 13.448,"575": 13.2031,"600": 9.7233,"625": 7.6248,"650": 7.2229,"675": 5.8064,"700": 3.9179,"725": 3.4983,"750": 3.6208,"775": 2.1515,"800": 0.7872,"825": 0.5947,"850": 0.3848,"875": 0.035}}}