{"type": "Feature","bbox": [7.5874,36.4147,7.6769,36.5305],"geometry": {"type": "MultiPolygon","coordinates": [[[[7.6769,36.5004,326.0757],[7.6701,36.5188,460.1805],[7.669,36.527,533.8035],[7.6634,36.5305,537.955],[7.6359,36.522,601.5351],[7.6314,36.5195,642.919],[7.6291,36.5148,594.6498],[7.6249,36.513,667.5007],[7.613,36.5147,712.8093],[7.5954,36.5005,694.381],[7.5926,36.4959,557.24],[7.594,36.4905,432.4803],[7.5909,36.4707,203.0913],[7.5948,36.4613,190.0162],[7.5927,36.4559,179.418],[7.5874,36.4532,150.0746],[7.5889,36.4465,137.2002],[7.5967,36.4398,134.4753],[7.6103,36.4329,131.1312],[7.6081,36.4285,129.2832],[7.6083,36.4237,127.0747],[7.6126,36.423,126.2814],[7.6205,36.4168,123.4644],[7.6257,36.4163,128.7188],[7.6297,36.4194,141.2712],[7.6348,36.4147,119.8195],[7.6394,36.416,130.5433],[7.6447,36.4239,130.6604],[7.6593,36.438,114.4336],[7.6491,36.4482,287.7514],[7.6437,36.451,270.5306],[7.6422,36.4579,223.5547],[7.6442,36.4641,362.0343],[7.6723,36.4841,389.2176],[7.6751,36.4892,396.4265],[7.6769,36.5004,326.0757]]]]}
,"properties": {"GID_2": "DZA.21.8_1","GID_0": "DZA","country": "Algeria","GID_1": "DZA.21_1","province": "Guelma","NL_NAME_1": "ولايةقالمة","county": "BeniMezline","VARNAME_2": "NA","NL_NAME_2": "NA","TYPE_2": "Commune","ENGTYPE_2": "Commune","CC_2": "2416","HASC_2": "DZ.GL.BZ","name": "Beni_Mezline.county","area_km2": 63.31998,"hist_schema_id": "Elevation0-9000","hist_area_km2": {"100": 0.17059,"125": 3.66753,"150": 3.18951,"175": 3.30859,"200": 5.33761,"225": 5.11539,"250": 4.24563,"275": 4.14306,"300": 4.34762,"325": 4.33031,"350": 3.8528,"375": 3.71618,"400": 2.69335,"425": 2.4203,"450": 2.16455,"475": 1.994,"500": 1.41452,"525": 1.31219,"550": 1.32922,"575": 1.10767,"600": 1.22695,"625": 0.85205,"650": 0.61351,"675": 0.30674,"700": 0.25562,"725": 0.11929,"750": 0.05112,"775": 0.03408}}}