{"type": "Feature","bbox": [2.9671,36.6486,3.0319,36.6918],"geometry": {"type": "MultiPolygon","coordinates": [[[[3.0319,36.6605,43.6623],[3.0214,36.6646,89.9449],[3.0134,36.6729,180.2738],[3.0102,36.6767,192.2031],[3.0096,36.6819,161.704],[3.0048,36.6918,109.5453],[2.9836,36.6844,131.7361],[2.9759,36.6852,131.7451],[2.9751,36.6756,165.4364],[2.9671,36.6694,194.6186],[2.9763,36.6612,200.7961],[2.986,36.6494,86.7259],[2.9899,36.6535,87.65],[2.9951,36.6543,94.1892],[3.0024,36.6486,58.2074],[3.0088,36.6489,53.6425],[3.0319,36.6605,43.6623]]]]}
,"properties": {"GID_2": "DZA.4.13_1","GID_0": "DZA","country": "Algeria","GID_1": "DZA.4_1","province": "Alger","NL_NAME_1": "ولايةالجزائر","county": "Khraicia","VARNAME_2": "Khraissia","NL_NAME_2": "NA","TYPE_2": "Commune","ENGTYPE_2": "Commune","CC_2": "1656","HASC_2": "DZ.AL.KH","name": "Khraicia.county","area_km2": 14.91464,"hist_schema_id": "Elevation0-9000","hist_area_km2": {"50": 0.95253,"75": 1.61585,"100": 1.17358,"125": 1.66659,"150": 2.58477,"175": 3.91128,"200": 2.95902,"225": 0.05102}}}