{"type":"Feature","properties":{"ISO3166-1-Alpha-3":"DZA","country":"Algeria","fill":"#000","id":"2221","name":"Oum el Bouaghi"},
"geometry":{"type": "Polygon","coordinates": [[[6.89853,36.10689,832.5311],[6.88829,36.10855,828.688],[6.8855,36.11749,860.3797],[6.88581,36.13201,985.228],[6.87992,36.14642,1125.8955],[6.7868,36.19143,794.0277],[6.77269,36.19244,828.3196],[6.76091,36.18797,792.0679],[6.75238,36.18159,865.6541],[6.74055,36.17534,808.4281],[6.72877,36.17164,762.1945],[6.67926,36.161,706.8496],[6.66267,36.15449,745.7524],[6.64454,36.14485,742.0319],[6.59751,36.12689,766.3235],[6.59565,36.12451,768.3387],[6.59394,36.1201,769.6234],[6.59053,36.11376,776.1085],[6.5848,36.1087,778.7484],[6.57715,36.10919,784.5434],[6.57265,36.11157,786.468],[6.54831,36.13849,930.2878],[6.51633,36.16565,922.3502],[6.5078,36.16596,925.6612],[6.49214,36.16319,890.0753],[6.4771,36.15862,860.7877],[6.44698,36.14467,859.7949],[6.42047,36.12539,780.2046],[6.40615,36.1103,762.108],[6.39949,36.09038,806.6818],[6.40197,36.05971,1138.4175],[6.4015,36.04426,894.8408],[6.39577,36.02876,884.256],[6.37856,36.01325,935.2409],[6.35029,35.99744,931.0082],[6.29861,35.97889,993.4402],[6.23484,35.96308,950.8235],[6.18983,35.95615,923.9286],[6.1703,35.95124,940.7554],[6.15852,35.94504,947.0627],[6.15139,35.93527,899.7943],[6.14844,35.92747,885.8944],[6.14922,35.90039,850.9611],[6.27551,35.86608,826.7434],[6.29412,35.86654,842.3101],[6.31618,35.86913,857.9619],[6.33045,35.88344,852.8558],[6.33944,35.8868,890.0912],[6.35106,35.88474,1035.0648],[6.37856,35.86368,803.3494],[6.39189,35.85688,796.2375],[6.40786,35.85352,798.3766],[6.45845,35.84923,796.85],[6.46682,35.84639,795.1583],[6.47695,35.8404,836.4962],[6.48082,35.82882,917.6051],[6.48098,35.81854,847.9528],[6.47896,35.80611,871.9895],[6.47989,35.79394,926.3703],[6.48703,35.78143,902.7867],[6.50191,35.77895,906.4911],[6.52051,35.78205,906.4695],[6.58087,35.80128,914.5425],[6.60309,35.80363,1001.6731],[6.62542,35.80223,993.692],[6.6495,35.79668,874.0879],[6.69807,35.76549,836.3419],[6.76913,35.68392,846.1588],[6.78758,35.66074,951.6703],[6.80044,35.64031,854.9176],[6.81073,35.63106,854.7186],[6.82499,35.62356,856.2957],[6.85088,35.61927,852.7382],[6.87124,35.61811,850.8602],[6.99258,35.63199,846.3188],[7.00327,35.62982,834.2704],[7.01552,35.62315,835.2338],[7.03573,35.58902,844.0084],[7.05123,35.57718,847.4032],[7.08301,35.57687,847.9246],[7.10213,35.58537,847.7288],[7.1181,35.59819,839.6412],[7.12988,35.61075,837.2233],[7.1412,35.61746,830.5],[7.15071,35.6192,830.5],[7.20672,35.61261,832.4503],[7.21385,35.61369,831.0103],[7.21711,35.61672,833.4288],[7.21882,35.61953,833.0574],[7.21975,35.62217,833.0222],[7.223,35.62584,833.9259],[7.22719,35.6264,838.0629],[7.24905,35.62516,848.412],[7.26755,35.62124,852.328],[7.28832,35.61261,856.0292],[7.30336,35.6007,862.59],[7.31002,35.58096,877.2428],[7.30956,35.54543,929.9825],[7.31504,35.53525,964.6455],[7.33209,35.53695,988.8617],[7.34263,35.54563,960.158],[7.35224,35.56062,931.4951],[7.36062,35.57034,913.5386],[7.37183,35.57532,918.8776],[7.38516,35.57176,935.3314],[7.39958,35.56318,959.2253],[7.42506,35.53349,1046.9746],[7.43668,35.53018,1099.9032],[7.44459,35.5337,1158.2405],[7.45405,35.53979,1217.4159],[7.46226,35.53912,1264.7264],[7.47063,35.53158,1197.9524],[7.48014,35.50352,1006.9876],[7.48464,35.49618,987.4843],[7.49301,35.48745,966.871],[7.52247,35.47101,952.8268],[7.54484,35.44781,975.4961],[7.77542,35.59364,962.3019],[7.79108,35.59881,955.1888],[7.80751,35.60165,1015.1104],[7.82353,35.6061,999.4166],[7.84074,35.61516,946.308],[7.84384,35.62948,937.3803],[7.84012,35.64795,910.1995],[7.82446,35.6902,821.9092],[7.82121,35.71239,787.9787],[7.82338,35.73901,727.5193],[7.86214,35.81293,658.1536],[7.86462,35.8212,658.1792],[7.86152,35.83311,653.8351],[7.86121,35.83905,659.6029],[7.86152,35.84252,650.3894],[7.86586,35.85872,636.9151],[7.7962,35.91628,691.5793],[7.77945,35.92561,708.722],[7.75987,35.93341,732.7141],[7.7346,35.9345,763.7106],[7.71925,35.92652,771.2838],[7.70902,35.91442,749.1582],[7.70277,35.90044,789.047],[7.69439,35.88908,818.2748],[7.67626,35.87564,856.4993],[7.67191,35.8668,842.0582],[7.67098,35.85497,856.5947],[7.66804,35.84241,863.5327],[7.66013,35.8342,874.4985],[7.64163,35.83099,890.0449],[7.57724,35.8335,942.5317],[7.56391,35.83988,943.2319],[7.54825,35.87257,895.9438],[7.53957,35.88577,898.3837],[7.52309,35.89331,880.1085],[7.48247,35.90267,879.6525],[7.46722,35.90923,898.9741],[7.45203,35.9191,920.5807],[7.41741,35.95228,837.8943],[7.39834,35.967,857.0275],[7.36826,36.00279,869.5951],[7.32496,36.08002,813.8276],[7.32589,36.12741,796.6012],[7.2908,36.14332,753.6561],[7.24021,36.14702,712.4595],[7.22378,36.1441,821.5391],[7.21354,36.13893,752.3881],[7.21044,36.12854,801.7652],[7.20703,36.09862,859.9324],[7.19489,36.08074,903.0425],[7.17396,36.0685,842.3],[7.1336,36.05315,869.509],[7.10632,36.04602,882.7994],[7.07898,36.0425,875.3127],[7.06642,36.04728,852.972],[7.06131,36.0554,825.4348],[7.05929,36.06392,806.8013],[7.05433,36.07211,796.8816],[7.04394,36.08121,823.0323],[7.03216,36.08922,900.9149],[7.02374,36.09862,922.1888],[7.01862,36.11203,1043.6301],[7.01599,36.12612,1114.9884],[7.01397,36.1471,1027.8256],[7.01056,36.15516,998.6233],[6.98405,36.14896,1015.582],[6.964,36.14839,973.7562],[6.94927,36.14255,1029.9808],[6.91935,36.11909,923.7953],[6.89853,36.10689,832.5311]]]}}