{"type":"Feature","properties":{"GID_1":"DZA.34_1","GID_0":"DZA","country":"Algeria","province":"OumelBouaghi","VARNAME_1":"OumelBouagui|Canrobert","NL_NAME_1":"ولايةأمالبواقي","TYPE_1":"Wilaya","ENGTYPE_1":"Province","CC_1":"4","HASC_1":"DZ.OB","ISO_1":"DZ-04","name":"Oumel_Bouaghi.province"},
"geometry":{"type": "MultiPolygon","coordinates": [[[[7.5341,35.4458,977.9037],[7.5453,35.4428,978.7296],[7.5494,35.4389,985.6421],[7.5488,35.4269,1029.0264],[7.5537,35.4231,1065.3341],[7.5763,35.4302,1056.4258],[7.5813,35.4347,1040.8053],[7.5886,35.4466,1026.6724],[7.61,35.4668,1084.3037],[7.6507,35.497,1215.1587],[7.6537,35.5012,1155.0568],[7.6591,35.5023,1256.401],[7.6624,35.5063,1209.0525],[7.6624,35.5162,1129.0032],[7.6661,35.5274,1058.3574],[7.6738,35.536,1044.2867],[7.7045,35.5446,1048.9851],[7.7205,35.5534,1083.7834],[7.7406,35.5596,1022.589],[7.7496,35.5659,1010.5848],[7.7715,35.5736,1032.2314],[7.7809,35.5818,1007.9886],[7.7855,35.5772,1030.4702],[7.7966,35.5778,1047.8502],[7.8016,35.5764,1073.3746],[7.8019,35.57,1116.1727],[7.8064,35.5671,1094.7322],[7.8237,35.5731,1048.4143],[7.8312,35.5818,1019.8768],[7.8459,35.5917,962.4795],[7.8685,35.5921,916.3933],[7.8604,35.6077,977.2142],[7.8573,35.6112,970.0956],[7.8484,35.6163,943.3209],[7.8351,35.632,901.8221],[7.8283,35.6512,863.6906],[7.8228,35.657,859.9597],[7.82,35.6665,841.5811],[7.8202,35.6761,828.1229],[7.8182,35.6896,807.1649],[7.8128,35.7005,795.0938],[7.8138,35.7211,769.5339],[7.8124,35.7282,757.454],[7.8143,35.7336,753.9833],[7.8103,35.7378,743.3636],[7.8146,35.7415,734.819],[7.8307,35.7397,721.9135],[7.8416,35.7436,718.6038],[7.8439,35.7626,694.2184],[7.8328,35.7607,703.2661],[7.8223,35.7652,710.1511],[7.8108,35.7658,716.2543],[7.8052,35.7698,716.0552],[7.7974,35.7717,723.7898],[7.7729,35.7956,802.2692],[7.7708,35.8006,816.8203],[7.778,35.8147,869.7339],[7.7775,35.8193,886.0474],[7.7557,35.8585,791.131],[7.7533,35.8738,729.5516],[7.7508,35.8791,761.0778],[7.7364,35.8843,739.4802],[7.723,35.894,744.2606],[7.7178,35.8947,740.3168],[7.707,35.8869,767.5201],[7.7015,35.8854,776.376],[7.6884,35.8847,829.1342],[7.6844,35.8832,842.2396],[7.6815,35.8792,858.7601],[7.6914,35.8511,815.2921],[7.679,35.8482,828.443],[7.6728,35.8439,844.209],[7.6755,35.8374,844.9075],[7.688,35.8256,850.7121],[7.6913,35.8205,874.0537],[7.6872,35.8167,889.5763],[7.6672,35.8134,876.82],[7.6496,35.8237,886.1758],[7.6398,35.8211,904.2208],[7.6278,35.8211,914.1987],[7.6032,35.8154,961.9761],[7.588,35.8068,971.652],[7.584,35.8093,967.3344],[7.5693,35.8112,972.5997],[7.5591,35.8149,961.4417],[7.5553,35.8192,960.0995],[7.5535,35.8245,938.5289],[7.5575,35.8269,940.8723],[7.56,35.831,942.714],[7.5647,35.8452,909.3315],[7.5591,35.8504,928.0882],[7.5529,35.8525,948.9637],[7.5514,35.8581,927.3921],[7.5614,35.8711,878.1823],[7.5567,35.8768,883.0183],[7.5382,35.8813,935.2273],[7.5322,35.881,974.5035],[7.5198,35.8837,884.5822],[7.4991,35.8951,901.9601],[7.4842,35.8959,918.978],[7.4561,35.9102,890.9952],[7.438,35.9141,919.8129],[7.43,35.9297,879.9266],[7.4318,35.9435,847.8527],[7.4271,35.9475,858.261],[7.4197,35.9502,842.6886],[7.4074,35.952,867.3805],[7.4023,35.9566,876.391],[7.3986,35.9632,850.2737],[7.3924,35.9681,870.2748],[7.3868,35.9866,852.6628],[7.3668,36.0057,862.8244],[7.3638,36.0125,849.7735],[7.3684,36.0155,848.2551],[7.3709,36.0209,840.4875],[7.3667,36.0238,841.7657],[7.367,36.0285,823.8215],[7.3633,36.0378,802.4822],[7.3628,36.0448,795.5672],[7.3659,36.0489,796.6202],[7.3461,36.058,745.9257],[7.343,36.0544,756.6595],[7.3362,36.0517,758.5837],[7.3319,36.0542,757.8802],[7.338,36.0774,793.0078],[7.3379,36.0853,811.7469],[7.3291,36.0954,872.4413],[7.3299,36.1034,983.7841],[7.3234,36.1019,1005.5668],[7.3225,36.1092,845.2687],[7.3241,36.1159,778.7513],[7.3205,36.1204,753.3879],[7.3164,36.1312,779.0125],[7.3151,36.1374,766.9695],[7.3167,36.1421,691.9342],[7.3124,36.1461,671.0303],[7.3063,36.1444,708.1623],[7.2682,36.1459,743.8339],[7.2579,36.1405,747.591],[7.2559,36.1342,715.3547],[7.248,36.128,770.5468],[7.2449,36.1228,806.3456],[7.2359,36.119,792.2309],[7.2335,36.1029,843.4696],[7.2286,36.0986,886.679],[7.2285,36.093,913.9426],[7.2257,36.0869,948.4055],[7.2261,36.0804,929.4199],[7.2195,36.0741,1014.6478],[7.2155,36.0772,989.1315],[7.2062,36.0748,1003.6122],[7.1412,36.0465,925.9583],[7.1079,36.0407,896.8934],[7.0855,36.0259,1005.2168],[7.072,36.0326,898.4408],[7.0654,36.0307,926.8939],[7.0389,36.0337,884.8867],[7.0405,36.051,826.2298],[7.0392,36.0623,805.3088],[7.045,36.0681,800.8043],[7.0405,36.0731,813.6942],[7.0358,36.0741,828.153],[7.0282,36.0807,866.3063],[7.0118,36.0884,1101.2723],[6.9915,36.0939,1228.7405],[6.9952,36.0972,1250.2992],[6.9941,36.1034,1172.2333],[7.0043,36.1261,1060.1172],[7.0037,36.1375,1079.0571],[6.9992,36.1409,1055.1948],[6.983,36.1427,1044.6639],[6.978,36.1388,1053.4818],[6.971,36.1371,1072.1648],[6.9656,36.138,1064.1982],[6.9628,36.1444,1002.5776],[6.9471,36.146,1042.3333],[6.937,36.1401,1114.3204],[6.9116,36.142,1137.9187],[6.9077,36.145,1088.2443],[6.9076,36.1407,1132.0518],[6.9037,36.1369,1087.6268],[6.8993,36.1384,1118.8467],[6.8985,36.1449,1062.2351],[6.8931,36.1477,1050.4622],[6.8779,36.149,1119.5363],[6.8596,36.1458,1044.754],[6.8479,36.1487,1049.3301],[6.8337,36.1495,998.386],[6.8243,36.1531,945.2514],[6.8194,36.1571,922.8727],[6.8183,36.1636,930.6186],[6.8117,36.1741,893.5907],[6.8073,36.1722,881.9518],[6.7962,36.1738,892.1687],[6.7901,36.1769,860.9255],[6.7877,36.1833,836.9866],[6.7928,36.1938,819.1133],[6.7875,36.1961,824.2828],[6.7821,36.1908,825.3185],[6.7719,36.1883,812.8577],[6.7669,36.1891,830.2162],[6.7626,36.197,756.9575],[6.7524,36.1916,805.5949],[6.7485,36.1871,823.2366],[6.7538,36.1771,847.8815],[6.7541,36.1692,817.1125],[6.7509,36.1632,843.2964],[6.7497,36.1495,791.1143],[6.7462,36.143,744.3512],[6.7406,36.1423,759.5903],[6.7361,36.1445,779.7159],[6.7178,36.142,790.4634],[6.712,36.139,804.6906],[6.6939,36.1435,785.387],[6.6738,36.1445,754.5664],[6.6605,36.1427,762.8342],[6.6563,36.1436,751.0385],[6.64,36.14,763.7101],[6.6329,36.1345,811.8615],[6.6387,36.1215,942.2845],[6.6397,36.1157,986.6382],[6.6346,36.1072,932.7073],[6.6298,36.1037,964.5509],[6.6216,36.1009,997.3812],[6.6183,36.1049,949.5015],[6.6066,36.103,769.2163],[6.6018,36.1046,756.0811],[6.5969,36.1066,756.6114],[6.589,36.1171,776.291],[6.5682,36.1227,805.7383],[6.566,36.1153,795.6201],[6.5699,36.1121,789.3691],[6.5766,36.1107,789.4276],[6.5821,36.1063,778.0104],[6.5863,36.1009,773.8166],[6.5854,36.0942,783.2898],[6.5753,36.0988,792.6558],[6.5685,36.1068,803.3565],[6.565,36.1031,808.5182],[6.5578,36.1036,811.8826],[6.5489,36.1111,853.6304],[6.5415,36.1111,967.6143],[6.5412,36.1175,840.4461],[6.5434,36.122,832.7061],[6.5397,36.1297,908.8926],[6.5337,36.1349,1037.5374],[6.5306,36.1406,1030.3712],[6.5322,36.1475,1040.5928],[6.5179,36.1509,955.2278],[6.5142,36.1553,903.9034],[6.5218,36.166,931.7681],[6.5169,36.1682,928.0308],[6.4895,36.1668,887.4211],[6.4832,36.1653,888.3531],[6.4832,36.1588,868.4171],[6.4681,36.1544,847.6485],[6.4551,36.1562,827.7592],[6.4497,36.1544,828.9396],[6.435,36.1426,880.9456],[6.4188,36.1406,845.9595],[6.4109,36.1299,779.7136],[6.4026,36.1137,756.5602],[6.4028,36.1065,766.6556],[6.4053,36.1021,772.3107],[6.4111,36.0767,900.6349],[6.4034,36.0683,1129.2983],[6.4017,36.0613,1190.8795],[6.4029,36.0432,883.8724],[6.4059,36.0334,874.8981],[6.3771,36.0135,926.1516],[6.3649,35.9964,960.1779],[6.3601,35.9931,932.5842],[6.3444,35.976,1023.0439],[6.3312,35.9823,1010.4464],[6.3189,35.9842,1074.3804],[6.3133,35.9837,1136.3882],[6.3071,35.9793,1049.9353],[6.3082,35.9702,1001.3839],[6.3151,35.9517,918.8264],[6.3031,35.9548,955.2866],[6.2814,35.9708,1000.8591],[6.2086,35.9655,956.3571],[6.2032,35.9639,959.742],[6.1909,35.9489,913.8412],[6.1882,35.9368,894.0662],[6.1852,35.931,882.4031],[6.1736,35.9316,895.5696],[6.1693,35.9343,915.9557],[6.1664,35.93,892.4043],[6.1659,35.8998,874.0198],[6.1586,35.8925,895.846],[6.1574,35.8881,880.3439],[6.1608,35.8834,894.2385],[6.1711,35.879,888.5595],[6.179,35.8784,992.2534],[6.1852,35.8755,907.6726],[6.1899,35.8714,918.5009],[6.1907,35.8659,939.1688],[6.2121,35.864,836.8873],[6.2363,35.8495,816.1051],[6.2715,35.8324,850.3205],[6.2766,35.8316,857.0029],[6.2858,35.8392,901.1407],[6.298,35.8442,965.121],[6.3027,35.8481,1015.0444],[6.312,35.849,945.6981],[6.3161,35.8521,939.5879],[6.3261,35.8699,894.4592],[6.3317,35.8748,854.3474],[6.3505,35.8785,981.2041],[6.353,35.874,1106.127],[6.3525,35.8617,926.5247],[6.3547,35.8572,859.7639],[6.4197,35.8452,799.1039],[6.4515,35.8465,793.8139],[6.4789,35.8404,813.442],[6.4789,35.8361,878.3347],[6.4765,35.832,1027.8907],[6.4802,35.8241,1049.7012],[6.473,35.8135,890.6531],[6.4675,35.8115,910.9284],[6.4625,35.8056,892.1546],[6.4681,35.8012,937.8345],[6.4766,35.8016,971.0976],[6.481,35.7971,890.1213],[6.4833,35.7912,893.647],[6.4804,35.7875,938.3785],[6.4742,35.7855,1010.6352],[6.4644,35.7784,999.991],[6.4687,35.7666,956.7046],[6.4788,35.758,1082.7385],[6.4992,35.7704,963.2188],[6.506,35.7715,966.3411],[6.5118,35.7746,965.0956],[6.5247,35.7764,977.2084],[6.5408,35.7828,972.0102],[6.5463,35.7839,948.1747],[6.553,35.7827,943.5292],[6.5584,35.787,932.5379],[6.5652,35.7892,936.5992],[6.567,35.7943,938.73],[6.5957,35.7964,977.4294],[6.6071,35.801,979.9799],[6.6183,35.7927,946.4579],[6.6537,35.782,866.6829],[6.6756,35.7723,841.6252],[6.6817,35.7687,838.8476],[6.7088,35.7403,838.2487],[6.7622,35.6959,837.002],[6.7737,35.6772,972.871],[6.8062,35.6157,858.3333],[6.8112,35.6101,860.4058],[6.844,35.6097,855.3125],[6.8714,35.6115,851.4104],[7.0025,35.6263,837.2461],[7.0289,35.6058,838.6127],[7.0289,35.6016,840.1141],[7.0234,35.5927,843.8822],[7.0229,35.5867,845.6035],[7.0136,35.5682,853.7245],[7.019,35.5647,854.9565],[7.0337,35.5598,857.1547],[7.0824,35.5457,861.0443],[7.0872,35.5461,860.4674],[7.133,35.6176,843.5771],[7.1363,35.6203,830.5],[7.1533,35.6131,831.1414],[7.1881,35.6164,831.6434],[7.2048,35.6195,831.5735],[7.2099,35.6177,830.5],[7.2131,35.6124,832.2029],[7.2178,35.6106,836.6569],[7.2244,35.6277,840.8888],[7.2287,35.6281,836.4592],[7.2675,35.6145,854.0331],[7.2928,35.6029,859.556],[7.3082,35.5927,867.4185],[7.3124,35.5866,873.6146],[7.3147,35.5803,882.9174],[7.3138,35.5756,884.757],[7.3164,35.5694,894.4851],[7.3137,35.5651,897.6936],[7.3088,35.5618,902.2853],[7.3064,35.5437,939.4453],[7.2967,35.5413,941.8046],[7.2973,35.5299,959.6292],[7.3048,35.5158,996.6899],[7.3026,35.5104,1041.5042],[7.3083,35.5102,1049.72],[7.3138,35.5133,1094.7742],[7.3375,35.5189,1196.5325],[7.3494,35.5181,1191.1385],[7.354,35.5205,1174.4663],[7.3496,35.5302,1115.8772],[7.3555,35.5415,994.1417],[7.3631,35.5642,923.2413],[7.3703,35.5684,925.2356],[7.3769,35.5698,931.6724],[7.3958,35.5552,966.1329],[7.419,35.5475,1021.5931],[7.4267,35.5378,1084.2303],[7.4345,35.5314,1094.2612],[7.424,35.5258,1064.7152],[7.4197,35.5209,1077.1719],[7.4248,35.5113,1189.3738],[7.4321,35.5117,1148.9397],[7.4418,35.5075,1164.3728],[7.4508,35.5102,1139.3684],[7.4543,35.5141,1102.5259],[7.4554,35.5204,1125.2109],[7.461,35.523,1153.6143],[7.4721,35.5203,1085.7112],[7.472,35.5147,1054.6614],[7.4833,35.5062,1008.2668],[7.4877,35.5002,986.5253],[7.4865,35.4952,983.1735],[7.48,35.4904,982.9332],[7.4846,35.4757,967.6571],[7.4961,35.4707,952.7496],[7.5171,35.4695,954.6887],[7.5236,35.4519,970.8055],[7.5276,35.447,976.1295],[7.5341,35.4458,977.9037]]]]}}