{"type": "Feature","bbox": [5.2407,34.1687,6.091,34.5102],"geometry": {"type": "MultiPolygon","coordinates": [[[[5.2407,34.4885,141.8722],[5.2705,34.4632,167.8151],[5.2626,34.4579,168.9363],[5.4372,34.376,138.2357],[5.5719,34.3282,106.8375],[5.7579,34.238,51.876],[5.8101,34.2455,26.2538],[5.8554,34.2142,24.7122],[6.091,34.1687,-28.331],[5.9931,34.2357,-5.0704],[5.9961,34.3277,-11.7563],[5.9683,34.3932,-0.238],[5.9585,34.3858,0.9772],[5.943,34.3857,11.5794],[5.7054,34.4139,63.0083],[5.6817,34.4198,70.7197],[5.5596,34.4265,95.9829],[5.5166,34.4336,110.2976],[5.4714,34.4366,121.9091],[5.4125,34.4464,136.7049],[5.3922,34.4521,141.8828],[5.3392,34.4789,148.8563],[5.2997,34.5008,153.5912],[5.2935,34.5102,129.6444],[5.2778,34.4995,138.8481],[5.2407,34.4885,141.8722]]]]}
,"properties": {"GID_2": "DZA.18.26_1","GID_0": "DZA","country": "Algeria","GID_1": "DZA.18_1","province": "ElOued","NL_NAME_1": "ولايةالوادي","county": "Still","VARNAME_2": "NA","NL_NAME_2": "NA","TYPE_2": "Commune","ENGTYPE_2": "Commune","CC_2": "3921","HASC_2": "DZ.EO.ST","name": "Still.county","area_km2": 923.2018,"hist_schema_id": "Elevation0-9000","hist_area_km2": {"-25": 20.4313,"0": 84.2958,"25": 223.6781,"50": 176.3039,"75": 145.5667,"100": 100.2753,"125": 75.7169,"150": 78.8923,"175": 18.0416}}}