{"type":"Feature","properties":{"GID_2":"DZA.34.11_1","GID_0":"DZA","country":"Algeria","GID_1":"DZA.34_1","province":"OumelBouaghi","NL_NAME_1":"ولايةأمالبواقي","county":"BirChouhada","VARNAME_2":"Bi`rShuhadā","NL_NAME_2":"NA","TYPE_2":"Commune","ENGTYPE_2":"Commune","CC_2":"421","HASC_2":"DZ.OB.BC","name":"Bir_Chouhada.county"},
"geometry":{"type": "MultiPolygon","coordinates": [[[[6.3317,35.8748,854.3474],[6.333,35.8804,862.7128],[6.3162,35.9386,866.1674],[6.3151,35.9517,918.8264],[6.3031,35.9548,955.2866],[6.2814,35.9708,1000.8591],[6.2294,35.9674,947.4579],[6.2032,35.9639,959.742],[6.1909,35.9489,913.8412],[6.1882,35.9368,894.0662],[6.1852,35.931,882.4031],[6.1736,35.9316,895.5696],[6.1693,35.9343,915.9557],[6.1664,35.93,892.4043],[6.1659,35.8998,874.0198],[6.1586,35.8925,895.846],[6.1574,35.8881,880.3439],[6.1608,35.8834,894.2385],[6.1711,35.879,888.5595],[6.179,35.8784,992.2534],[6.1852,35.8755,907.6726],[6.1899,35.8714,918.5009],[6.1907,35.8659,939.1688],[6.2121,35.864,836.8873],[6.246,35.8445,813.8038],[6.2715,35.8324,850.3205],[6.2766,35.8316,857.0029],[6.2858,35.8392,901.1407],[6.298,35.8442,965.121],[6.3027,35.8481,1015.0444],[6.312,35.849,945.6981],[6.3161,35.8521,939.5879],[6.3221,35.8642,889.2473],[6.3317,35.8748,854.3474]]]]}}