{"type": "Feature","bbox": [7.5472,34.4619,7.9364,35.2148],"geometry": {"type": "MultiPolygon","coordinates": [[[[7.9364,34.9199,1035.6943],[7.9272,34.9417,1011.5439],[7.9307,34.9488,1007.5101],[7.9294,34.9536,991.6234],[7.9305,34.958,989.3163],[7.9269,34.9675,1004.3884],[7.9278,35.0043,1045.1826],[7.9195,35.0291,1068.192],[7.8884,35.0625,1080.4155],[7.8499,35.0988,1181.4033],[7.8435,35.1024,1264.5508],[7.8315,35.1054,1203.0203],[7.8269,35.1099,1305.6821],[7.841,35.1231,1297.4735],[7.8447,35.1305,1267.3779],[7.8468,35.1435,1234.0359],[7.8495,35.1495,1284.8037],[7.8623,35.1683,1177.015],[7.8651,35.1752,1190.3826],[7.8655,35.1799,1108.6289],[7.861,35.1916,1111.3628],[7.8613,35.1979,1120.7476],[7.8541,35.2148,1282.3821],[7.8029,35.1998,1194.5186],[7.7389,35.1646,1212.4336],[7.7077,35.1382,1163.5048],[7.6873,35.1264,1212.802],[7.6729,35.1159,1209.8762],[7.6647,35.1064,1079.345],[7.6532,35.103,1014.498],[7.6389,35.0918,1035.1393],[7.6298,35.0884,1104.0533],[7.6252,35.0848,1177.579],[7.6188,35.076,1175.7516],[7.6067,35.0751,1141.8741],[7.5957,35.077,969.0359],[7.5904,35.0648,1008.6072],[7.566,35.0465,947.33989999999994],[7.5584,35.0382,919.2907],[7.5532,35.027,911.9875],[7.5491,35.0228,917.0612],[7.5472,35.0169,935.1399],[7.5659,35.0108,1027.7146],[7.5676,35.0065,1065.7709],[7.5685,34.9906,1074.7235],[7.5634,34.9774,1062.7906],[7.5603,34.9734,1053.7623],[7.5784,34.9695,1173.4769],[7.5854,34.9613,1073.2969],[7.5903,34.9578,1037.9744],[7.6031,34.9542,1018.9442],[7.6071,34.9509,988.0029],[7.6212,34.9318,929.0629],[7.6218,34.9267,896.1804],[7.6271,34.9247,930.8502],[7.6366,34.9161,879.4742],[7.6484,34.8978,819.9679],[7.6488,34.8869,806.7714],[7.6384,34.8697,812.5103],[7.6339,34.8542,772.0886],[7.6248,34.8465,760.2707],[7.6102,34.8297,724.5425],[7.6078,34.8258,740.7961],[7.6048,34.8141,741.8755],[7.5952,34.8078,725.7186],[7.5934,34.8036,713.3625],[7.5967,34.7983,699.2537],[7.5979,34.7922,696.0062],[7.607,34.7828,711.4406],[7.6156,34.7781,663.03],[7.6153,34.766,628.37],[7.6257,34.7643,593.4839],[7.6292,34.7599,589.9598],[7.6342,34.7576,669.1847],[7.6433,34.7417,569.681],[7.6432,34.7357,550.0874],[7.6415,34.7308,580.5678],[7.636,34.7297,526.8434],[7.636,34.7238,579.1067],[7.6327,34.7192,520.2904],[7.6282,34.7184,506.7044],[7.624,34.7203,496.3648],[7.6179,34.7157,482.1567],[7.6146,34.7114,481.6738],[7.6162,34.7058,485.466],[7.6135,34.7008,490.4875],[7.5986,34.6927,445.0884],[7.596,34.6874,483.6413],[7.6006,34.6728,413.7736],[7.601,34.6662,404.5042],[7.5993,34.6483,390.6238],[7.5952,34.6375,405.2201],[7.5945,34.6304,398.6083],[7.5896,34.6198,389.3923],[7.5867,34.6059,375.9369],[7.5868,34.5428,342.4806],[7.6291,34.5277,380.7379],[7.6802,34.4658,479.7234],[7.7333,34.4619,522.5392],[7.7663,34.5349,537.4186],[7.7557,34.5726,490.7335],[7.7344,34.5843,463.7032],[7.7463,34.6028,483.6159],[7.8175,34.6716,643.4181],[7.8181,34.6775,660.8622],[7.8258,34.6933,792.489],[7.8405,34.713,893.6658],[7.8433,34.7267,878.7122],[7.848,34.7367,997.4545],[7.8497,34.7551,968.5601],[7.855,34.7753,937.1771],[7.8595,34.7845,930.6779],[7.8596,34.7903,924.8572],[7.8829,34.8343,884.2686],[7.8946,34.852,885.8077],[7.9002,34.86,897.6044],[7.9231,34.8844,949.8779],[7.9339,34.9081,1000.9229],[7.9364,34.9199,1035.6943]]]]}
,"properties": {"GID_2": "DZA.42.28_1","GID_0": "DZA","country": "Algeria","GID_1": "DZA.42_1","province": "Tébessa","NL_NAME_1": "ولايةتبسة","county": "Thelidjene","VARNAME_2": "Thlidjene","NL_NAME_2": "NA","TYPE_2": "Commune","ENGTYPE_2": "Commune","CC_2": "1222","HASC_2": "DZ.TB.TH","name": "Thelidjene.county","area_km2": 1668.55,"hist_schema_id": "Elevation0-9000","hist_area_km2": {"325": 0.14,"350": 6.512,"375": 29.974,"400": 49.35,"425": 54.274,"450": 52.045,"475": 46.682,"500": 34.458,"525": 22.929,"550": 13.673,"575": 11.631,"600": 9.886,"625": 8.35,"650": 8.123,"675": 8.331,"700": 9.428,"725": 11.622,"750": 15.016,"775": 21.736,"800": 42.03,"825": 79.079,"850": 138.406,"875": 100.039,"900": 74.075,"925": 74.281,"950": 82.0,"975": 115.533,"1000": 124.712,"1025": 112.714,"1050": 95.133,"1075": 69.122,"1100": 48.92,"1125": 34.289,"1150": 22.535,"1175": 14.861,"1200": 11.111,"1225": 7.932,"1250": 4.686,"1275": 2.151,"1300": 0.538,"1325": 0.243}}}