{"type":"Feature","properties":{"GID_2":"DZA.12.34_1","GID_0":"DZA","country":"Algeria","GID_1":"DZA.12_1","province":"Bouira","NL_NAME_1":"ولايةالبويرة","county":"Maamora","VARNAME_2":"NA","NL_NAME_2":"NA","TYPE_2":"Commune","ENGTYPE_2":"Commune","CC_2":"1039","HASC_2":"DZ.BU.MM","name":"Maamora.county"},
"geometry":{"type": "MultiPolygon","coordinates": [[[[3.5467,36.07,1120.5776],[3.543,36.0651,1046.5442],[3.5421,36.0595,970.2162],[3.5447,36.056,951.6579],[3.545,36.0513,899.4153],[3.5402,36.0472,916.1997],[3.5373,36.0325,954.4139],[3.5334,36.0228,1207.53],[3.5533,36.016,872.5081],[3.5651,35.994,868.2595],[3.5654,35.9882,867.6058],[3.5684,35.98,840.5248],[3.5674,35.9758,795.8865],[3.5749,35.9685,738.9345],[3.5894,35.9626,831.8234],[3.5869,35.9554,775.3583],[3.5893,35.9476,759.2071],[3.609,35.9308,709.0774],[3.6169,35.9211,697.7981],[3.6196,35.915,687.2883],[3.6238,35.9126,684.2751],[3.6315,35.9144,689.6482],[3.6363,35.9244,699.2767],[3.6365,35.9287,704.0424],[3.6331,35.933,715.2397],[3.6398,35.9406,755.8077],[3.6456,35.9439,787.9529],[3.6596,35.9428,754.1346],[3.6585,35.9543,782.1183],[3.6536,35.9641,822.9627],[3.6544,35.9696,829.2367],[3.6491,35.9728,820.1746],[3.6355,35.9752,781.7062],[3.6332,35.9788,783.3138],[3.6333,35.9954,813.4172],[3.6359,36.0004,820.6454],[3.6379,36.019,884.8999],[3.6375,36.0453,1014.1967],[3.6397,36.0507,1096.0077],[3.6492,36.0591,1215.9395],[3.653,36.0708,1514.7198],[3.6514,36.0758,1638.8115],[3.649,36.0795,1628.2633],[3.6373,36.0854,1741.3655],[3.6253,36.0841,1713.17],[3.6258,36.0751,1538.3479],[3.623,36.0696,1455.1552],[3.6161,36.0682,1451.093],[3.6043,36.0665,1435.2214],[3.5865,36.0679,1421.4246],[3.5692,36.0732,1383.056],[3.5467,36.07,1120.5776]]]]}}