{"type": "Feature","bbox": [-0.7309,32.2015,-0.1505,32.6939],"geometry": {"type": "MultiPolygon","coordinates": [[[[-0.1505,32.3319,917.0865],[-0.341,32.3868,880.5197],[-0.3603,32.4245,1294.729],[-0.3622,32.4529,933.9969],[-0.3776,32.5245,1459.4896],[-0.3689,32.6375,945.4233],[-0.3817,32.6444,965.6465],[-0.5211,32.6939,1759.5979],[-0.531,32.6939,1969.0647],[-0.5572,32.6847,1998.1232],[-0.5767,32.672,1779.5007],[-0.5917,32.6442,1874.4298],[-0.6027,32.6384,1858.006],[-0.61,32.6296,2001.0878],[-0.6156,32.6268,1953.4958],[-0.6866,32.5721,1369.6167],[-0.6936,32.5718,1378.8964],[-0.6932,32.5598,1319.67],[-0.7257,32.3689,1383.9106],[-0.7309,32.2695,1098.37],[-0.4173,32.2015,883.4667],[-0.3355,32.2546,863.3985],[-0.224,32.2359,911.7718],[-0.1505,32.3319,917.0865]]]]}
,"properties": {"GID_2": "DZA.31.9_1","GID_0": "DZA","country": "Algeria","GID_1": "DZA.31_1","province": "Naâma","NL_NAME_1": "ولايةالنعامة","county": "Moghrar","VARNAME_2": "NA","NL_NAME_2": "NA","TYPE_2": "Commune","ENGTYPE_2": "Commune","CC_2": "4506","HASC_2": "DZ.NA.MO","name": "Moghrar.county","area_km2": 1739.442,"hist_schema_id": "Elevation0-9000","hist_area_km2": {"800": 75.54,"825": 169.244,"850": 313.707,"875": 224.072,"900": 135.373,"925": 111.338,"950": 61.981,"975": 46.026,"1000": 58.704,"1025": 78.592,"1050": 49.726,"1075": 36.704,"1100": 28.62,"1125": 23.393,"1150": 19.296,"1175": 17.345,"1200": 17.399,"1225": 16.038,"1250": 17.181,"1275": 16.857,"1300": 16.836,"1325": 16.869,"1350": 16.941,"1375": 15.726,"1400": 15.065,"1425": 14.888,"1450": 14.458,"1475": 13.171,"1500": 12.92,"1525": 11.688,"1550": 11.278,"1575": 9.382,"1600": 8.436,"1625": 7.649,"1650": 6.578,"1675": 4.197,"1700": 3.089,"1725": 3.124,"1750": 2.767,"1775": 2.999,"1800": 2.339,"1825": 2.089,"1850": 1.928,"1875": 1.785,"1900": 1.714,"1925": 1.464,"1950": 1.071,"1975": 0.66,"2000": 0.518,"2025": 0.536,"2050": 0.143}}}