{"type":"Feature","properties":{"GID_2":"DZA.8.34_1","GID_0":"DZA","country":"Algeria","GID_1":"DZA.8_1","province":"Béjaïa","NL_NAME_1":"بجاية","county":"Smaoun","VARNAME_2":"Semaoune","NL_NAME_2":"NA","TYPE_2":"Commune","ENGTYPE_2":"Commune","CC_2":"612","HASC_2":"DZ.BJ.SM","name":"Smaoun.county"},
"geometry":{"type": "MultiPolygon","coordinates": [[[[4.8424,36.6492,41.6311],[4.8386,36.6533,39.5054],[4.8331,36.6517,46.5108],[4.8276,36.6476,45.1532],[4.8112,36.6447,48.8485],[4.8081,36.633,72.8502],[4.8073,36.6264,103.2797],[4.812,36.6202,170.6229],[4.8093,36.6142,245.64],[4.8065,36.5928,519.0128],[4.8185,36.5832,415.7046],[4.8313,36.5788,321.6102],[4.8381,36.5782,273.7859],[4.8532,36.5822,195.5597],[4.8704,36.5923,128.4943],[4.8686,36.6057,116.3041],[4.8657,36.6121,181.0774],[4.8532,36.6258,100.2627],[4.8424,36.6492,41.6311]]]]}}