{"type":"Feature","properties":{"GID_2":"DZA.7.8_1","GID_0":"DZA","country":"Algeria","GID_1":"DZA.7_1","province":"Béchar","NL_NAME_1":"ولايةبشار","county":"ErgFerradj","VARNAME_2":"NA","NL_NAME_2":"NA","TYPE_2":"Commune","ENGTYPE_2":"Commune","CC_2":"802","HASC_2":"DZ.BC.EF","name":"Erg_Ferradj.county"},
"geometry":{"type": "MultiPolygon","coordinates": [[[[-2.9471,31.3689,797.6199],[-2.9514,31.3743,795.5316],[-2.9628,31.375,783.2723],[-2.9966,31.3749,709.6995],[-3.0003,31.3725,747.4918],[-3.1473,31.3729,944.0322],[-3.3331,31.3482,973.6416],[-3.5854,31.4338,1059.4253],[-3.6627,31.3994,935.8726],[-3.6466,31.395,1041.6014],[-3.6537,31.3834,1045.1552],[-3.6584,31.3791,1047.625],[-3.6649,31.3803,985.4387],[-3.6697,31.3851,963.1328],[-3.6737,31.3748,1041.2793],[-3.6783,31.3703,1038.496],[-3.6875,31.3686,1043.3713],[-3.6925,31.3644,1045.4449],[-3.6984,31.3638,959.2403],[-3.7024,31.3656,952.0256],[-3.7062,31.3633,1042.2072],[-3.7105,31.3596,1045.5231],[-3.713,31.348,1040.7731],[-3.7215,31.3417,1031.1488],[-3.7259,31.3404,1037.811],[-3.7344,31.3432,960.0397],[-3.739,31.3565,944.7982],[-3.7437,31.3608,944.59],[-3.7482,31.3606,1020.7332],[-3.7567,31.3443,1029.6624],[-3.7542,31.3379,1043.5814],[-3.7618,31.3346,1048.6588],[-3.7623,31.3296,1042.3655],[-3.7597,31.324,1043.3202],[-3.7616,31.3102,1041.88],[-3.7753,31.3035,1045.4618],[-3.7844,31.2903,1034.4949],[-3.781,31.2861,904.4858],[-3.773,31.2897,1000.7989],[-3.7721,31.2821,1038.3462],[-3.7685,31.2777,900.8865],[-3.7545,31.2802,970.1765],[-3.7543,31.2748,1034.6957],[-3.7592,31.2618,1027.2122],[-3.7694,31.2575,1007.4307],[-3.7771,31.2507,910.7682],[-3.7821,31.2484,891.1271],[-3.7788,31.2433,958.3942],[-3.7896,31.2358,968.1732],[-3.7797,31.2205,945.075],[-3.7729,31.2216,864.3594],[-3.7723,31.2125,1015.6987],[-3.7683,31.2057,987.883],[-3.7664,31.1978,972.2091],[-3.7656,31.184,918.0686],[-3.76,31.1806,878.5718],[-3.7593,31.1735,982.7745],[-3.7664,31.1608,995.3864],[-3.7728,31.1545,996.1829],[-3.7751,31.1492,944.8293],[-3.7758,31.1413,902.6849],[-3.7741,31.1354,894.1017],[-3.7767,31.1216,950.711],[-3.7747,31.1137,923.2846],[-3.7713,31.1194,862.1273],[-3.7546,31.1264,907.3557],[-3.7505,31.1238,972.8444],[-3.7446,31.1255,898.13],[-3.7402,31.1244,863.4073],[-3.7342,31.116,924.5133],[-3.7294,31.1167,823.4778],[-3.728,31.1226,852.2297],[-3.7235,31.1289,944.2299],[-3.7236,31.1365,937.7338],[-3.7328,31.1439,881.3256],[-3.7279,31.146,912.6673],[-3.7213,31.146,949.2985],[-3.7175,31.1505,934.0291],[-3.7069,31.1543,928.844],[-3.7079,31.1586,968.8221],[-3.712,31.1634,975.1061],[-3.7105,31.168,892.3655],[-3.6997,31.1744,986.2825],[-3.6963,31.1629,899.2301],[-3.6933,31.1665,887.5344],[-3.6788,31.1629,890.9144],[-3.6701,31.1489,871.7936],[-3.6722,31.1331,894.9233],[-3.6701,31.1253,854.5022],[-3.6701,31.1176,916.2169],[-3.6743,31.1105,919.4448],[-3.6743,31.0951,887.2527],[-3.6783,31.0881,827.2326],[-3.675,31.0836,814.312],[-3.6705,31.0844,816.4922],[-3.6615,31.082,807.9569],[-3.6551,31.0826,819.6587],[-3.6641,31.0885,932.7714],[-3.662,31.0929,922.8995],[-3.6639,31.1002,915.4515],[-3.6596,31.1015,934.7498],[-3.6563,31.0963,933.4542],[-3.642,31.093,918.8932],[-3.6366,31.0976,931.3466],[-3.6432,31.1115,887.9097],[-3.6446,31.1312,911.4077],[-3.6492,31.1353,947.8865],[-3.6441,31.1386,860.2263],[-3.6388,31.1399,874.2057],[-3.6398,31.1447,942.8159],[-3.6382,31.1508,942.7491],[-3.6337,31.1391,938.1088],[-3.6367,31.1322,966.3629],[-3.6379,31.12,952.5933],[-3.6366,31.1123,946.3487],[-3.6302,31.1073,897.1769],[-3.6217,31.1162,864.8822],[-3.6168,31.1191,877.3882],[-3.6143,31.1131,949.918],[-3.6159,31.1052,936.4728],[-3.6149,31.0986,882.683],[-3.6097,31.1008,934.1617],[-3.6058,31.0961,938.2313],[-3.6069,31.0895,928.7307],[-3.6033,31.0745,882.2794],[-3.5916,31.0744,923.17],[-3.5908,31.0599,876.3699],[-3.5869,31.0577,871.3827],[-3.5815,31.0499,816.3198],[-3.5761,31.0473,816.0096],[-3.5726,31.0435,817.4755],[-3.5705,31.0493,839.5367],[-3.5651,31.0515,833.976],[-3.5625,31.047,831.0516],[-3.5576,31.0508,869.1793],[-3.5598,31.0582,878.1569],[-3.5559,31.0616,875.9939],[-3.5495,31.0614,859.1218],[-3.5499,31.0483,887.74],[-3.5513,31.0425,869.9051],[-3.5539,31.0398,831.7797],[-3.5507,31.0395,835.9634],[-3.5473,31.0339,836.1281],[-3.545,31.0375,865.0322],[-3.5408,31.0363,882.975],[-3.5408,31.0243,869.5212],[-3.5359,31.0113,871.4002],[-3.5362,31.0036,864.7534],[-3.5394,30.9969,870.0804],[-3.5381,30.9895,847.8903],[-3.5406,30.9821,855.989],[-3.5387,30.9727,827.3235],[-3.5446,30.9701,848.0652],[-3.546,30.9639,841.0767],[-3.5401,30.9623,863.0598],[-3.5396,30.9564,854.9199],[-3.5438,30.953,847.7733],[-3.5529,30.9508,841.4943],[-3.5553,30.9461,838.7155],[-3.5514,30.9398,848.1044],[-3.5566,30.9402,846.3048],[-3.5562,30.9336,840.4536],[-3.5587,30.9287,837.743],[-3.5634,30.9285,836.2355],[-3.5722,30.9338,835.7628],[-3.5756,30.9278,820.3927],[-3.5759,30.9207,816.8611],[-3.5839,30.9196,834.7471],[-3.5847,30.9147,829.2623],[-3.5819,30.9095,816.2734],[-3.5925,30.8941,807.5566],[-3.5967,30.8926,824.2335],[-3.6017,30.8949,823.9931],[-3.6053,30.8785,821.5878],[-3.6111,30.8778,825.1585],[-3.6146,30.8653,818.3818],[-3.6186,30.8633,818.8549],[-3.6231,30.8642,819.651],[-3.6244,30.8684,823.2632],[-3.6339,30.8743,830.3586],[-3.6325,30.8695,823.2761],[-3.6375,30.8597,824.5071],[-3.6462,30.8521,819.2958],[-3.6496,30.8447,821.3812],[-3.6528,30.8268,817.0593],[-3.6531,30.8067,805.5496],[-3.6632,30.7967,797.9258],[-3.6581,30.7824,805.9291],[-3.6572,30.7683,804.8145],[-3.6524,30.7666,805.0674],[-3.6494,30.7724,802.2672],[-3.6432,30.7733,803.849],[-3.6272,30.7654,794.8942],[-3.6217,30.7567,800.8428],[-3.6209,30.7408,801.6272],[-3.6155,30.7349,798.2375],[-3.6166,30.7294,793.4671],[-3.6209,30.7284,791.0774],[-3.625,30.7301,797.1901],[-3.6289,30.7252,795.207],[-3.6313,30.7176,789.191],[-3.6308,30.7115,788.272],[-3.6429,30.6996,783.0529],[-3.6855,30.6831,751.8806],[-3.6012,30.5991,782.2229],[-3.5845,30.4017,696.5304],[-3.5791,30.3624,689.2207],[-3.5552,30.3893,701.473],[-3.5206,30.4134,709.4701],[-3.4997,30.4323,717.9156],[-3.4671,30.4691,723.3199],[-3.4363,30.5191,727.5879],[-3.4221,30.549,731.0672],[-3.3861,30.6116,740.9445],[-3.3636,30.6627,743.464],[-3.3486,30.6904,747.0505],[-3.3387,30.7044,750.3256],[-3.3226,30.7186,753.7465],[-3.3148,30.7346,757.2245],[-3.2992,30.7568,761.8804],[-3.2709,30.8037,769.6542],[-3.2577,30.8182,772.2768],[-3.2491,30.8338,777.3795],[-3.2352,30.8455,778.2726],[-3.2197,30.8544,777.9492],[-3.19,30.8624,776.4233],[-3.163,30.8757,773.7645],[-3.1354,30.8759,769.6884],[-3.124,30.8776,766.3342],[-3.1114,30.8853,764.0842],[-3.0807,30.8947,760.2621],[-3.0671,30.8974,755.7513],[-3.0546,30.8962,750.5587],[-3.045,30.9035,747.9975],[-3.0394,30.9038,746.0205],[-3.0144,30.8974,736.4407],[-2.9409,30.9057,713.9181],[-2.8871,30.9098,699.1613],[-2.8693,30.9094,661.9299],[-2.8639,30.917,644.4146],[-2.8532,30.9219,628.942],[-2.845,30.9284,624.682],[-2.8395,30.9359,623.4313],[-2.8333,30.9386,613.8085],[-2.8268,30.939,607.5831],[-2.8068,30.9508,593.043],[-2.7761,30.9628,579.7079],[-2.7746,30.9685,578.6123],[-2.7794,30.9865,577.6252],[-2.7788,30.9934,577.8391],[-2.7728,30.9939,577.7238],[-2.7706,31.0004,578.4459],[-2.769,31.0067,579.8475],[-2.7694,31.0216,582.2523],[-2.7788,31.0579,586.0102],[-2.7777,31.0721,586.6572],[-2.7709,31.0995,591.1248],[-2.7662,31.1031,590.3627],[-2.7644,31.1087,592.0629],[-2.7785,31.1342,593.2338],[-2.8222,31.1836,602.0883],[-2.8307,31.1861,603.0232],[-2.8503,31.1857,603.2493],[-2.8576,31.1923,604.2365],[-2.8668,31.195,609.443],[-2.8886,31.1949,610.0914],[-2.8968,31.1988,608.8384],[-2.9009,31.2038,611.5708],[-2.9084,31.217,611.6403],[-2.9078,31.2266,614.4578],[-2.9109,31.2482,618.9681],[-2.9113,31.2688,624.1498],[-2.9166,31.2827,627.5585],[-2.9169,31.2883,629.0335],[-2.9131,31.3057,650.0223],[-2.9139,31.3168,684.843],[-2.917,31.3213,721.4915],[-2.927,31.3281,753.0811],[-2.9291,31.3348,638.4666],[-2.9303,31.3516,704.3706],[-2.9349,31.359,696.0702],[-2.9471,31.3689,797.6199]],
[[-3.6376,31.1589,964.3448],[-3.6382,31.1508,942.7491],[-3.642,31.1564,945.4635],[-3.6415,31.1631,944.9535],[-3.6384,31.1666,962.6614],[-3.6376,31.1589,964.3448]]],
[[[-3.647,31.0831,861.7386],[-3.6504,31.0871,936.4006],[-3.6551,31.0826,819.6587],[-3.647,31.0831,861.7386]]],
[[[-3.7056,31.146,977.3139],[-3.7037,31.1515,947.4318],[-3.7069,31.1543,928.844],[-3.7056,31.146,977.3139]]]]}}