{"type":"Feature","properties":{"GID_2":"DZA.38.2_1","GID_0":"DZA","country":"Algeria","GID_1":"DZA.38_1","province":"SidiBelAbbès","NL_NAME_1":"ولايةسيديبلعباس","county":"AinElBerd","VARNAME_2":"`Ayn-al-Bard","NL_NAME_2":"NA","TYPE_2":"Commune","ENGTYPE_2":"Commune","CC_2":"2228","HASC_2":"DZ.SB.AB","name":"Ain_El_Berd.county"},
"geometry":{"type": "MultiPolygon","coordinates": [[[[-0.4231,35.3745,569.2674],[-0.4347,35.3765,635.3446],[-0.4574,35.3756,655.5606],[-0.4747,35.3862,550.262],[-0.481,35.3926,508.5063],[-0.4808,35.3985,516.4353],[-0.4697,35.4125,447.5262],[-0.4737,35.4276,539.4761],[-0.4868,35.4279,583.6837],[-0.4982,35.4335,627.6706],[-0.5099,35.4356,447.1795],[-0.5207,35.4407,287.2083],[-0.5298,35.4268,357.3166],[-0.5327,35.4143,437.1322],[-0.54,35.4086,502.9491],[-0.5493,35.3977,611.4081],[-0.552,35.3861,720.3643],[-0.5395,35.3635,531.575],[-0.5437,35.3604,581.6658],[-0.5496,35.3614,612.6172],[-0.5592,35.3663,665.3427],[-0.5687,35.362,686.6332],[-0.5727,35.3578,703.1935],[-0.5718,35.3521,660.4971],[-0.5584,35.3519,608.5865],[-0.5395,35.3323,441.5361],[-0.5326,35.3295,418.9378],[-0.5202,35.3352,437.447],[-0.4997,35.3404,439.131],[-0.488,35.3411,461.1988],[-0.4785,35.3448,492.6617],[-0.4513,35.3442,480.9185],[-0.4378,35.3506,556.7183],[-0.4288,35.3571,565.1701],[-0.431,35.3613,584.8182],[-0.4198,35.3579,496.9315],[-0.4182,35.3634,514.6589],[-0.4223,35.3675,556.9942],[-0.4231,35.3745,569.2674]]]]}}