{"type": "Feature","bbox": [6.499,35.0165,6.8531,35.2901],"geometry": {"type": "MultiPolygon","coordinates": [[[[6.5508,35.236,1418.2375],[6.5522,35.2281,1387.6216],[6.5576,35.225,1369.9321],[6.5601,35.221,1368.1951],[6.5588,35.2154,1401.8138],[6.568,35.1993,1510.3412],[6.564,35.1943,1486.3741],[6.5661,35.1777,1310.6541],[6.565,35.163,1332.696],[6.5556,35.1492,1344.6511],[6.5498,35.1448,1430.8269],[6.5336,35.1441,1180.6746],[6.5183,35.1415,1342.0431],[6.5151,35.1317,1272.905],[6.5033,35.1125,1192.8574],[6.5016,35.1065,1181.9194],[6.5077,35.098,1155.1257],[6.5097,35.0818,1142.9242],[6.5173,35.0527,1178.0308],[6.5117,35.0485,1199.7898],[6.5076,35.0424,1130.7086],[6.499,35.0238,818.3233],[6.514,35.0252,1008.3628],[6.536,35.0166,1247.2717],[6.5466,35.0183,1281.9503],[6.563,35.0176,1407.1062],[6.572,35.022,1276.8092],[6.587,35.0264,1414.9137],[6.6125,35.0302,1352.4771],[6.6342,35.0226,1152.984],[6.64,35.0223,1154.0032],[6.6447,35.0232,1097.7263],[6.6436,35.0292,1244.0183],[6.6587,35.0298,1209.8027],[6.6804,35.0276,1123.9978],[6.6921,35.0248,922.0795],[6.7061,35.0189,804.0593],[6.7179,35.0165,725.1315],[6.7217,35.0284,876.6298],[6.7287,35.0315,906.5009],[6.7353,35.0314,825.1361],[6.7407,35.0331,692.6667],[6.7462,35.0387,699.5286],[6.7494,35.0579,872.0878],[6.7561,35.0585,780.9515],[6.7626,35.057,828.6198],[6.8015,35.0694,823.6265],[6.8221,35.0738,907.8988],[6.8353,35.0733,799.6612],[6.8528,35.067,761.0853],[6.8531,35.0787,837.3865],[6.8495,35.0826,867.0547],[6.8398,35.0883,877.5455],[6.8346,35.098,932.8099],[6.836,35.1033,907.0482],[6.8333,35.1165,977.6196],[6.8339,35.1229,1016.1117],[6.8319,35.128,1022.4381],[6.8257,35.1314,1021.1034],[6.8213,35.1317,1029.1418],[6.8064,35.1276,1126.6057],[6.8016,35.128,1202.0503],[6.7964,35.1309,1159.5015],[6.7937,35.1351,1191.5291],[6.7862,35.1391,1266.7271],[6.7532,35.1664,1284.7994],[6.7408,35.1813,1356.5798],[6.7337,35.193,1295.6516],[6.7288,35.1956,1243.3879],[6.724,35.2342,1206.145],[6.7245,35.2459,1247.8981],[6.7189,35.2538,1293.9758],[6.6963,35.2741,1467.708],[6.6774,35.2754,1483.2227],[6.6604,35.2822,1429.2263],[6.6443,35.2822,1423.6759],[6.6297,35.2901,1747.8595],[6.5855,35.276,1880.2448],[6.5804,35.272,1814.5667],[6.5758,35.2713,1851.1477],[6.5606,35.2639,1839.707],[6.5655,35.2527,1467.0029],[6.5624,35.2478,1454.5044],[6.5598,35.2347,1395.0764],[6.5555,35.2395,1420.4255],[6.5508,35.236,1418.2375]]]]}
,"properties": {"GID_2": "DZA.24.15_1","GID_0": "DZA","country": "Algeria","GID_1": "DZA.24_1","province": "Khenchela","NL_NAME_1": "ولايةخنشلة","county": "M'Sara","VARNAME_2": "Msara","NL_NAME_2": "NA","TYPE_2": "Commune","ENGTYPE_2": "Commune","CC_2": "4018","HASC_2": "DZ.KH.MS","name": "M'Sara.county","area_km2": 584.9177,"hist_schema_id": "Elevation0-9000","hist_area_km2": {"675": 0.191,"700": 0.2951,"725": 0.6944,"750": 0.6771,"775": 1.1283,"800": 1.8398,"825": 3.1761,"850": 4.4082,"875": 5.2239,"900": 6.178,"925": 7.2537,"950": 7.6354,"975": 8.9884,"1000": 9.5956,"1025": 11.0697,"1050": 13.3083,"1075": 15.6328,"1100": 17.6802,"1125": 18.6505,"1150": 21.7893,"1175": 24.9613,"1200": 25.0468,"1225": 26.0347,"1250": 24.8346,"1275": 23.7741,"1300": 23.6337,"1325": 26.0082,"1350": 26.1627,"1375": 25.8819,"1400": 30.3999,"1425": 29.1673,"1450": 27.7445,"1475": 27.1538,"1500": 23.7038,"1525": 21.3291,"1550": 15.0035,"1575": 9.9437,"1600": 6.0615,"1625": 4.3813,"1650": 2.5975,"1675": 1.3507,"1700": 0.8137,"1725": 0.8828,"1750": 0.6231,"1775": 0.4154,"1800": 0.3808,"1825": 0.3462,"1850": 0.2943,"1875": 0.2423,"1900": 0.1731,"1925": 0.1038,"1950": 0.0519}}}