{"type": "Feature","bbox": [6.5626,36.4181,6.7666,36.5114],"geometry": {"type": "MultiPolygon","coordinates": [[[[6.5629,36.4504,432.0849],[6.5626,36.4439,446.8989],[6.5665,36.4391,403.897],[6.5764,36.4456,450.8351],[6.5866,36.4461,552.9088],[6.5925,36.4446,661.5024],[6.61,36.434,536.1539],[6.6154,36.4322,499.6948],[6.6229,36.4359,517.4253],[6.6291,36.4339,533.5361],[6.6334,36.4298,589.1791],[6.6365,36.4238,647.6257],[6.6433,36.4242,697.5575],[6.676,36.4181,1106.8612],[6.6817,36.4196,1089.6333],[6.6945,36.4285,949.7928],[6.7005,36.4309,806.0563],[6.7178,36.4264,994.8025],[6.7388,36.4293,1074.7014],[6.7517,36.4336,1093.8243],[6.7624,36.4421,958.652],[6.7666,36.4485,841.7722],[6.7603,36.4596,917.9286],[6.7543,36.4604,793.9151],[6.75,36.4629,897.8231],[6.7493,36.4674,874.3224],[6.7384,36.473,846.6677],[6.7359,36.4766,777.6927],[6.7294,36.4789,814.8867],[6.7159,36.4792,673.2173],[6.7091,36.4772,628.7046],[6.7038,36.4784,581.9584],[6.7006,36.4822,549.1673],[6.6988,36.4966,544.5317],[6.6895,36.5046,523.3247],[6.6704,36.502,442.3249],[6.6567,36.4983,430.4257],[6.6451,36.5034,493.5264],[6.6407,36.5113,488.1647],[6.6343,36.5114,523.55],[6.6165,36.5072,390.3775],[6.5973,36.507,377.9938],[6.6013,36.4905,486.7556],[6.5979,36.4855,479.7644],[6.5939,36.4831,532.5136],[6.5846,36.4834,590.9992],[6.5808,36.4795,603.381],[6.578,36.4746,658.4603],[6.5823,36.4676,659.3378],[6.5739,36.4554,484.1415],[6.5629,36.4504,432.0849]]]]}
,"properties": {"GID_2": "DZA.15.7_1","GID_0": "DZA","country": "Algeria","GID_1": "DZA.15_1","province": "Constantine","NL_NAME_1": "قسنطينة","county": "DidoucheMourad","VARNAME_2": "DidushMurad","NL_NAME_2": "NA","TYPE_2": "Commune","ENGTYPE_2": "Commune","CC_2": "2505","HASC_2": "DZ.CO.DM","name": "Didouche_Mourad.county","area_km2": 114.12831,"hist_schema_id": "Elevation0-9000","hist_area_km2": {"375": 0.22155,"400": 1.27835,"425": 3.27279,"450": 3.78431,"475": 5.01168,"500": 6.13719,"525": 8.32021,"550": 10.45169,"575": 8.69592,"600": 7.8096,"625": 7.89513,"650": 6.70185,"675": 6.15634,"700": 6.1566,"725": 4.79238,"750": 3.41102,"775": 2.64355,"800": 2.47298,"825": 2.37071,"850": 2.33661,"875": 2.28546,"900": 2.28538,"925": 2.18305,"950": 1.89311,"975": 1.33042,"1000": 1.0576,"1025": 0.83584,"1050": 0.63115,"1075": 0.83585,"1100": 0.63117,"1125": 0.17058,"1150": 0.06823}}}