{"type": "Feature","bbox": [7.3086,36.3485,7.4411,36.4499],"geometry": {"type": "MultiPolygon","coordinates": [[[[7.3947,36.3635,1347.1265],[7.3886,36.3679,1347.2395],[7.3805,36.3773,1303.8804],[7.3893,36.3913,927.8178],[7.3927,36.3942,802.9938],[7.4283,36.41,464.6058],[7.4411,36.421,435.1884],[7.4294,36.4279,449.3295],[7.4242,36.4372,422.7354],[7.4198,36.4399,442.3638],[7.3994,36.4454,512.4332],[7.396,36.449,492.1559],[7.3913,36.4499,512.8638],[7.3818,36.447,524.4316],[7.3698,36.4492,546.2177],[7.3648,36.4476,594.8366],[7.3603,36.4495,519.1276],[7.3504,36.4458,464.4122],[7.3411,36.4475,293.2459],[7.3251,36.4418,249.4122],[7.3196,36.4429,247.4577],[7.3148,36.442,248.2032],[7.3145,36.4355,256.9514],[7.3113,36.4281,260.7683],[7.315,36.4252,266.1981],[7.3086,36.4152,272.7903],[7.3098,36.4098,278.9111],[7.3197,36.408,296.2962],[7.3216,36.4022,300.2419],[7.3164,36.3997,294.5791],[7.3156,36.3953,298.8596],[7.3262,36.3895,329.8066],[7.3374,36.3731,363.1207],[7.3425,36.3694,381.6471],[7.3482,36.3514,474.5714],[7.3528,36.3485,538.7427],[7.3711,36.3488,771.2227],[7.3947,36.3635,1347.1265]]]]}
,"properties": {"GID_2": "DZA.21.7_1","GID_0": "DZA","country": "Algeria","GID_1": "DZA.21_1","province": "Guelma","NL_NAME_1": "ولايةقالمة","county": "BenDjerrah","VARNAME_2": "Bendjerrah","NL_NAME_2": "NA","TYPE_2": "Commune","ENGTYPE_2": "Commune","CC_2": "2411","HASC_2": "DZ.GL.BD","name": "Ben_Djerrah.county","area_km2": 77.67416,"hist_schema_id": "Elevation0-9000","hist_area_km2": {"250": 0.78462,"275": 1.48422,"300": 1.65492,"325": 1.4161,"350": 1.65498,"375": 1.94507,"400": 2.33747,"425": 2.78127,"450": 3.10541,"475": 3.24178,"500": 3.60006,"525": 4.31645,"550": 3.97518,"575": 4.5041,"600": 4.41895,"625": 4.16318,"650": 3.6343,"675": 4.14614,"700": 2.28661,"725": 1.86008,"750": 1.53603,"775": 1.22887,"800": 1.2801,"825": 1.24592,"850": 0.97284,"875": 1.28011,"900": 1.19476,"925": 1.04117,"950": 1.16067,"975": 0.99001,"1000": 1.31432,"1025": 1.17775,"1050": 1.04124,"1075": 0.76818,"1100": 0.90476,"1125": 0.68286,"1150": 0.46091,"1175": 0.44386,"1200": 0.46094,"1225": 0.32437,"1250": 0.29022,"1275": 0.15365,"1300": 0.18779,"1325": 0.13658,"1350": 0.03415,"1375": 0.05122}}}