{"type": "Feature","bbox": [3.1627,36.3301,3.2974,36.4944],"geometry": {"type": "MultiPolygon","coordinates": [[[[3.1627,36.4109,1060.1921],[3.1704,36.3986,1003.4809],[3.1769,36.3967,984.1066],[3.208,36.3967,769.373],[3.2018,36.3856,732.9332],[3.2033,36.3812,720.2567],[3.2073,36.3773,637.8541],[3.2129,36.3762,607.2667],[3.2112,36.3711,690.0541],[3.2134,36.3655,839.9816],[3.214,36.3568,883.756],[3.2203,36.3558,778.2025],[3.2352,36.3388,613.2175],[3.2396,36.3359,551.1814],[3.245,36.3352,513.7048],[3.2506,36.3311,524.7353],[3.2564,36.3301,451.5454],[3.2749,36.3373,462.0851],[3.2878,36.3372,438.1783],[3.2974,36.3455,468.8889],[3.2922,36.3507,427.6548],[3.2854,36.3521,439.7101],[3.2838,36.358,444.8303],[3.2912,36.3644,427.1974],[3.2864,36.3668,419.0485],[3.2846,36.3722,399.9002],[3.2878,36.3763,406.9868],[3.2878,36.3807,408.8959],[3.2821,36.3822,447.7798],[3.278,36.3868,490.367],[3.2823,36.4037,506.1336],[3.281,36.4105,522.9521],[3.2742,36.4196,636.297],[3.274,36.4258,767.9139],[3.2692,36.4348,588.0912],[3.2619,36.4353,636.3369],[3.2507,36.4328,883.1365],[3.2474,36.4356,914.4817],[3.2482,36.4403,892.1094],[3.2542,36.4512,1032.7131],[3.2515,36.4595,799.0537],[3.2518,36.4645,642.2549],[3.261,36.4732,545.3925],[3.2582,36.4838,537.0554],[3.2391,36.489,473.8651],[3.2284,36.4907,494.0123],[3.217,36.4901,389.2575],[3.2115,36.4924,493.7294],[3.1957,36.4944,370.7038],[3.19,36.4831,372.1406],[3.182,36.4764,457.5299],[3.1789,36.4701,477.866],[3.1785,36.4652,601.837],[3.1875,36.4488,593.7095],[3.1883,36.4414,694.051],[3.1769,36.4398,1033.3679],[3.1645,36.4336,1231.2151],[3.1687,36.4293,1156.1361],[3.1704,36.4242,1223.6887],[3.1627,36.4109,1060.1921]]]]}
,"properties": {"GID_2": "DZA.28.3_1","GID_0": "DZA","country": "Algeria","GID_1": "DZA.28_1","province": "Médéa","NL_NAME_1": "ولايةالمدية","county": "Aissaouia","VARNAME_2": "NA","NL_NAME_2": "NA","TYPE_2": "Commune","ENGTYPE_2": "Commune","CC_2": "2605","HASC_2": "DZ.MD.AS","name": "Aissaouia.county","area_km2": 124.01088,"hist_schema_id": "Elevation0-9000","hist_area_km2": {"325": 0.08523,"350": 0.1875,"375": 0.30682,"400": 1.72346,"425": 3.07238,"450": 3.22557,"475": 3.68634,"500": 4.26657,"525": 4.7101,"550": 5.18812,"575": 5.47816,"600": 6.07571,"625": 6.63852,"650": 6.68908,"675": 6.60379,"700": 6.55194,"725": 6.53509,"750": 6.43223,"775": 6.38101,"800": 5.08402,"825": 5.25458,"850": 4.84474,"875": 4.50354,"900": 4.5204,"925": 3.49687,"950": 2.57558,"975": 1.70572,"1000": 1.53508,"1025": 1.24517,"1050": 1.02346,"1075": 0.92115,"1100": 0.9894,"1125": 0.73352,"1150": 0.68236,"1175": 0.49472,"1200": 0.25589,"1225": 0.20471,"1250": 0.10236}}}