{"type":"Feature","properties":{"GID_2":"DZA.14.33_1","GID_0":"DZA","country":"Algeria","GID_1":"DZA.14_1","province":"Chlef","NL_NAME_1":"ولايةالشلف","county":"Telassa","VARNAME_2":"Talassa","NL_NAME_2":"NA","TYPE_2":"Commune","ENGTYPE_2":"Commune","CC_2":"214","HASC_2":"DZ.CH.TL","name":"Telassa.county"},
"geometry":{"type": "MultiPolygon","coordinates": [[[[1.1512,36.4634,617.1058],[1.1467,36.4652,607.4829],[1.1374,36.4582,542.7975],[1.1317,36.456,572.5465],[1.1218,36.4607,446.8643],[1.1114,36.4628,507.0191],[1.0931,36.4628,587.7118],[1.0716,36.4605,545.5088],[1.0645,36.4525,565.5534],[1.0531,36.4471,268.883],[1.0572,36.4419,130.584],[1.0541,36.4378,255.2521],[1.0497,36.4358,347.856],[1.0469,36.4313,416.0041],[1.0201,36.4155,728.2775],[1.0203,36.4019,639.3595],[1.0261,36.3996,485.5869],[1.0432,36.397,271.4195],[1.0477,36.3943,252.7046],[1.0464,36.3873,341.0884],[1.0538,36.3778,516.2222],[1.056,36.3709,656.8778],[1.072,36.3787,789.983],[1.0828,36.3796,826.816],[1.1047,36.389,669.4143],[1.117,36.4076,447.8008],[1.1188,36.4195,229.1298],[1.1178,36.4263,182.453],[1.1385,36.4288,223.0188],[1.1424,36.432,244.5598],[1.1513,36.4341,301.6624],[1.1572,36.4412,275.4109],[1.1575,36.4462,354.3091],[1.1538,36.4504,346.3119],[1.1512,36.4634,617.1058]]]]}}