{"type":"Feature","properties":{"GID_2":"DZA.32.22_1","GID_0":"DZA","country":"Algeria","GID_1":"DZA.32_1","province":"Oran","NL_NAME_1":"ولايةوهران","county":"Oran","VARNAME_2":"Wahrān","NL_NAME_2":"NA","TYPE_2":"Chef-Lieu-Wilaya","ENGTYPE_2":"Chef-Lieu-Wilaya","CC_2":"3101","HASC_2":"DZ.OR.OR","name":"Oran.county"},
"geometry":{"type": "MultiPolygon","coordinates": [[[[-0.5598,35.7708,35.9028],[-0.5799,35.7473,0.9946],[-0.6008,35.7264,4.5994],[-0.6111,35.7193,0.0],[-0.6243,35.7137,55.4517],[-0.6448,35.7109,0.0],[-0.653,35.7112,0.7107],[-0.659,35.7136,40.9877],[-0.6618,35.7095,274.19],[-0.6914,35.698,414.2528],[-0.697,35.6991,316.5891],[-0.7054,35.7076,463.099],[-0.7176,35.7109,500.5269],[-0.716,35.7036,448.9247],[-0.7058,35.6825,336.9413],[-0.7049,35.6534,216.081],[-0.7032,35.647,208.8838],[-0.6932,35.6528,180.3348],[-0.6495,35.6588,111.4927],[-0.644,35.658,105.753],[-0.6436,35.6636,110.4364],[-0.6106,35.6806,89.5601],[-0.5925,35.6757,92.3302],[-0.5941,35.7149,170.8235],[-0.5831,35.7206,174.9769],[-0.5825,35.7288,156.9656],[-0.5784,35.7323,172.4129],[-0.5505,35.7512,201.6604],[-0.553,35.7671,191.5681],[-0.5598,35.7708,35.9028]]]]}}