{"type":"Feature","properties":{"GID_2":"DZA.48.5_1","GID_0":"DZA","country":"Algeria","GID_1":"DZA.48_1","province":"Tlemcen","NL_NAME_1":"تلمسان","county":"AinNehala","VARNAME_2":"NA","NL_NAME_2":"NA","TYPE_2":"Commune","ENGTYPE_2":"Commune","CC_2":"1325","HASC_2":"DZ.TL.AN","name":"Ain_Nehala.county"},
"geometry":{"type": "MultiPolygon","coordinates": [[[[-1.0456,35.0936,418.3639],[-1.0552,35.0912,370.4574],[-1.064,35.0846,373.5527],[-1.0581,35.0809,363.529],[-1.0608,35.0756,424.4342],[-1.0666,35.0724,388.9439],[-1.0682,35.0679,365.2666],[-1.0638,35.0642,364.28],[-1.062,35.0598,366.9149],[-1.0559,35.0583,371.309],[-1.0615,35.051,389.6363],[-1.06,35.0393,415.9985],[-1.0541,35.0304,391.6121],[-1.0453,35.0292,405.1786],[-1.0451,35.0219,441.1915],[-1.0398,35.0177,415.2846],[-1.0387,35.0064,418.7423],[-1.0313,34.9952,440.5211],[-1.0335,34.9897,443.5378],[-1.0293,34.9886,447.1086],[-1.025,34.9783,465.9197],[-1.0072,34.9806,522.8632],[-0.9827,34.9789,629.5347],[-0.9749,34.9765,642.0475],[-0.9703,34.9688,659.8397],[-0.9676,34.975,654.9695],[-0.952,34.982,662.3003],[-0.9424,34.9932,675.6587],[-0.9346,34.9992,688.7234],[-0.9136,35.0475,673.8646],[-0.9125,35.0537,670.6191],[-0.9408,35.0561,604.0797],[-0.9407,35.065,642.8502],[-0.9516,35.0727,551.2639],[-0.9633,35.0766,497.3862],[-0.9704,35.0761,493.5655],[-0.9734,35.0804,483.7552],[-0.9794,35.0837,504.5716],[-0.988,35.0821,454.0793],[-0.9996,35.0885,440.5805],[-1.0028,35.0935,487.5378],[-1.0074,35.0935,480.9983],[-1.0134,35.091,435.3451],[-1.0246,35.0934,427.0509],[-1.0358,35.0907,407.0222],[-1.0456,35.0936,418.3639]]]]}}