{"type":"Feature","properties":{"GID_2":"DZA.25.13_1","GID_0":"DZA","country":"Algeria","GID_1":"DZA.25_1","province":"Laghouat","NL_NAME_1":"ولايةالأغواط","county":"Kheneg","VARNAME_2":"NA","NL_NAME_2":"NA","TYPE_2":"Commune","ENGTYPE_2":"Commune","CC_2":"309","HASC_2":"#N/A","name":"Kheneg.county"},
"geometry":{"type": "MultiPolygon","coordinates": [[[[2.9043,33.0638,751.6788],[2.8692,33.2061,789.9111],[2.8602,33.225,800.7861],[2.8582,33.2368,807.0933],[2.856,33.2522,814.613],[2.8577,33.2663,820.1045],[2.8647,33.2925,828.7103],[2.8622,33.32,838.1388],[2.863,33.3385,837.5214],[2.8793,33.3848,840.0137],[2.8919,33.4277,878.4907],[2.9664,33.4518,847.4422],[2.9096,33.5436,854.6244],[2.8562,33.6789,791.8943],[2.8784,33.7028,779.6158],[2.87,33.7174,775.3548],[2.8347,33.7669,765.1941],[2.8097,33.7868,794.2477],[2.7936,33.7972,808.4399],[2.7596,33.8258,796.9682],[2.7376,33.8182,824.1254],[2.7239,33.8108,850.0638],[2.7116,33.8014,909.7598],[2.685,33.776,905.2589],[2.6691,33.7564,854.0121],[2.6615,33.752,868.6815],[2.6226,33.7162,870.5441],[2.5704,33.6647,892.6857],[2.5516,33.651,876.7169],[2.5909,33.5899,829.0719],[2.6485,33.5097,894.4702],[2.6353,33.3268,869.7501],[2.428,33.3609,911.5766],[2.5233,33.3175,862.291],[2.5336,33.3159,852.7847],[2.5431,33.3115,849.6172],[2.5589,33.3075,847.3312],[2.5684,33.3026,843.8362],[2.5754,33.3025,841.6667],[2.5821,33.299,839.7529],[2.5879,33.2905,837.9851],[2.592,33.2878,835.5501],[2.6069,33.2807,831.6145],[2.6124,33.2813,829.4874],[2.6165,33.2786,828.1544],[2.6307,33.2607,823.8761],[2.6369,33.2563,822.6713],[2.644,33.2591,821.5566],[2.6496,33.2593,820.1659],[2.6533,33.2546,819.1708],[2.6555,33.2457,817.8463],[2.6605,33.2428,815.4038],[2.6682,33.2423,814.5497],[2.6824,33.2328,810.8636],[2.6951,33.2326,808.6921],[2.7027,33.2274,806.3687],[2.7172,33.2232,804.4912],[2.7202,33.2176,802.3792],[2.7229,33.2035,800.2272],[2.7352,33.2014,798.1764],[2.739,33.1892,795.2664],[2.747,33.1885,792.5845],[2.7493,33.1822,791.8739],[2.7482,33.1748,789.2078],[2.7501,33.1684,787.4896],[2.7532,33.1644,786.3154],[2.7673,33.1611,784.2612],[2.771,33.157,782.9955],[2.7721,33.1515,783.4487],[2.7779,33.1498,781.1426],[2.7865,33.1427,779.5022],[2.7954,33.1273,776.5152],[2.8204,33.1115,770.9698],[2.8314,33.1082,769.277],[2.8427,33.107,768.0963],[2.8498,33.1036,766.6205],[2.8567,33.0974,765.512],[2.8724,33.0938,763.3721],[2.8941,33.0766,755.4642],[2.8956,33.0712,754.2487],[2.9043,33.0638,751.6788]]]]}}