{"type":"Feature","properties":{"GID_2":"DZA.45.2_1","GID_0":"DZA","country":"Algeria","GID_1":"DZA.45_1","province":"Tipaza","NL_NAME_1":"ولايةتيبازة","county":"AhmerElAin","VARNAME_2":"NA","NL_NAME_2":"NA","TYPE_2":"Commune","ENGTYPE_2":"Commune","CC_2":"4219","HASC_2":"DZ.TP.AA","name":"Ahmer_El_Ain.county"},
"geometry":{"type": "MultiPolygon","coordinates": [[[[2.6128,36.5142,67.3537],[2.615,36.5202,65.2288],[2.6145,36.5261,62.301],[2.6098,36.5403,58.8511],[2.6085,36.55,56.6291],[2.5943,36.5474,59.9197],[2.5924,36.5434,61.2965],[2.5829,36.5361,58.409],[2.569,36.532,57.9983],[2.5663,36.528,59.5645],[2.5529,36.5288,56.5709],[2.5435,36.5107,64.6682],[2.5458,36.5049,67.7907],[2.5404,36.4996,70.407],[2.5384,36.4951,74.0621],[2.5385,36.4863,81.0101],[2.5365,36.4793,94.0959],[2.5442,36.4726,112.1625],[2.5413,36.467,260.0659],[2.5352,36.465,207.0203],[2.5384,36.4618,242.1283],[2.5429,36.4602,232.8285],[2.5584,36.4599,168.9007],[2.5637,36.4616,174.8781],[2.5655,36.4656,152.0313],[2.5712,36.4675,156.9909],[2.5791,36.4601,210.607],[2.5877,36.4574,129.6992],[2.594,36.4556,105.7503],[2.6024,36.4579,140.2831],[2.6033,36.4634,149.9094],[2.6203,36.4717,92.5767],[2.6217,36.4796,85.7156],[2.625,36.485,84.4296],[2.6234,36.4902,81.1175],[2.6167,36.4987,77.8032],[2.618,36.5029,76.0266],[2.6066,36.5082,71.3114],[2.6066,36.5128,69.1823],[2.6128,36.5142,67.3537]]]]}}