{"type":"Feature","properties":{"GID_2":"DZA.14.28_1","GID_0":"DZA","country":"Algeria","GID_1":"DZA.14_1","province":"Chlef","NL_NAME_1":"ولايةالشلف","county":"SidiAbderrahmane","VARNAME_2":"NA","NL_NAME_2":"NA","TYPE_2":"Commune-Cotiere","ENGTYPE_2":"Commune-Cotiere","CC_2":"225","HASC_2":"DZ.CH.SR","name":"Sidi_Abderrahmane.county"},
"geometry":{"type": "MultiPolygon","coordinates": [[[[1.2165,36.4611,236.4012],[1.2109,36.4714,149.7462],[1.2105,36.4827,129.9017],[1.2119,36.4879,96.9267],[1.2182,36.4967,59.2372],[1.2203,36.5028,9.1101],[1.224,36.5063,2.2484],[1.2096,36.5113,0.0],[1.1979,36.5117,13.4472],[1.1924,36.5145,13.1102],[1.1848,36.5144,12.0632],[1.1386,36.493,4.7735],[1.1124,36.4905,0.0],[1.1035,36.4908,0.0],[1.0998,36.4939,1.5195],[1.0954,36.4948,10.2901],[1.0832,36.493,7.1405],[1.0734,36.4879,3.983],[1.0617,36.4869,13.474],[1.0386,36.4755,0.0],[1.0136,36.4661,1.458],[1.0343,36.4503,68.3888],[1.0531,36.4471,268.883],[1.0645,36.4525,565.5534],[1.0716,36.4605,545.5088],[1.0766,36.4615,545.8253],[1.1114,36.4628,507.0191],[1.1218,36.4607,446.8643],[1.1317,36.456,572.5465],[1.1374,36.4582,542.7975],[1.1467,36.4652,607.4829],[1.1512,36.4634,617.1058],[1.1586,36.467,722.3026],[1.1697,36.4543,388.5475],[1.1768,36.4485,310.145],[1.1854,36.4453,275.6084],[1.1974,36.4445,245.3531],[1.2029,36.4468,279.5923],[1.2165,36.4611,236.4012]]]]}}