{"type": "Feature","bbox": [3.1969,34.8626,3.6004,35.176],"geometry": {"type": "MultiPolygon","coordinates": [[[[3.3458,34.8628,1215.1077],[3.3543,34.8673,1198.2036],[3.36,34.8775,1240.9952],[3.3658,34.8752,1225.137],[3.3753,34.8792,1195.9524],[3.3791,34.8763,1182.7437],[3.385,34.8761,1173.7776],[3.3903,34.8722,1178.3391],[3.3961,34.8752,1164.6484],[3.4016,34.8729,1157.2509],[3.4073,34.8747,1153.5175],[3.4013,34.88,1175.5295],[3.392,34.8847,1187.0107],[3.3961,34.8861,1180.9568],[3.3918,34.8924,1219.8442],[3.4019,34.9054,1220.5475],[3.4146,34.9146,1217.9005],[3.4173,34.9112,1209.166],[3.4492,34.9338,1168.7531],[3.4609,34.9444,1150.4656],[3.46,34.9531,1144.1456],[3.466,34.9669,1121.6116],[3.4816,34.9649,1092.0293],[3.4867,34.9663,1091.1122],[3.4979,34.973,1085.9088],[3.5253,34.996,1085.5308],[3.5449,35.0091,1090.9607],[3.5654,35.0019,1060.8025],[3.5678,35.0065,1062.9587],[3.5494,35.0211,1100.0627],[3.5755,35.0234,1079.9874],[3.6004,35.0829,1349.3372],[3.5873,35.0755,1375.2311],[3.5797,35.0749,1422.6523],[3.5676,35.0706,1477.0283],[3.5594,35.0587,1364.7455],[3.5533,35.0563,1437.0144],[3.5424,35.058,1482.2566],[3.5302,35.0543,1467.4866],[3.5132,35.0577,1331.5033],[3.5113,35.064,1117.2529],[3.519,35.0761,1036.3065],[3.5178,35.0827,907.0075],[3.5076,35.0922,841.2994],[3.4988,35.1044,789.8349],[3.4926,35.1172,760.2095],[3.4819,35.1306,761.4738],[3.4637,35.1725,754.0],[3.4594,35.176,754.0],[3.4397,35.1633,754.0],[3.3998,35.1199,754.5298],[3.3889,35.0745,790.7222],[3.3842,35.0428,831.2332],[3.3556,35.0391,822.4342],[3.3191,35.0286,821.6585],[3.3125,35.016,822.8812],[3.2931,35.0055,822.7325],[3.2919,35.0131,820.3024],[3.2841,34.999,831.012],[3.2727,34.9915,838.2569],[3.2471,34.9801,850.6671],[3.2257,34.9644,864.4944],[3.1969,34.9562,858.5605],[3.2222,34.94,890.2739],[3.231,34.9279,911.2017],[3.2396,34.9266,911.9377],[3.2465,34.9295,914.8678],[3.2568,34.9173,937.1956],[3.2723,34.9063,994.2099],[3.2786,34.889,1079.8439],[3.2857,34.8752,1236.4321],[3.2946,34.8746,1296.2617],[3.3184,34.8663,1248.0553],[3.3342,34.8681,1222.0452],[3.3393,34.8626,1217.491],[3.3458,34.8628,1215.1077]]]]}
,"properties": {"GID_2": "DZA.16.32_1","GID_0": "DZA","country": "Algeria","GID_1": "DZA.16_1","province": "Djelfa","NL_NAME_1": "ولايةالجلفة","county": "SidiBaizid","VARNAME_2": "NA","NL_NAME_2": "NA","TYPE_2": "Commune","ENGTYPE_2": "Commune","CC_2": "1712","HASC_2": "DZ.DJ.SB","name": "Sidi_Baizid.county","area_km2": 500.9209,"hist_schema_id": "Elevation0-9000","hist_area_km2": {"750": 25.2795,"775": 32.2098,"800": 13.6895,"825": 29.1124,"850": 35.529,"875": 33.4374,"900": 22.2531,"925": 15.8954,"950": 12.4552,"975": 12.0199,"1000": 11.4819,"1025": 9.954,"1050": 10.0587,"1075": 14.0182,"1100": 27.7915,"1125": 31.5278,"1150": 32.5031,"1175": 26.5656,"1200": 21.79,"1225": 20.9424,"1250": 17.5532,"1275": 13.0691,"1300": 10.5849,"1325": 7.6997,"1350": 4.5352,"1375": 3.1445,"1400": 2.7452,"1425": 2.1019,"1450": 0.7643,"1475": 0.2083}}}