{"type": "Feature","bbox": [-0.3738,35.0791,-0.1701,35.2109],"geometry": {"type": "MultiPolygon","coordinates": [[[[-0.2124,35.2029,510.096],[-0.2194,35.2099,537.0302],[-0.2278,35.2109,569.5044],[-0.2623,35.2005,624.9413],[-0.2685,35.2005,626.1894],[-0.2892,35.1915,642.4075],[-0.2831,35.1894,609.9382],[-0.2755,35.1842,605.6463],[-0.2729,35.1763,619.5743],[-0.2755,35.1702,615.603],[-0.284,35.1614,502.6259],[-0.2862,35.1551,475.8946],[-0.3139,35.1558,622.468],[-0.3284,35.1609,658.2683],[-0.3398,35.1623,698.5375],[-0.337,35.1583,655.4434],[-0.3267,35.1508,603.8696],[-0.3306,35.148,601.9785],[-0.3362,35.1467,630.5943],[-0.345,35.1471,659.5818],[-0.348,35.1431,676.8069],[-0.3489,35.1376,628.1265],[-0.3535,35.1408,662.3165],[-0.3577,35.1389,668.3024],[-0.3519,35.1224,547.6112],[-0.3561,35.1197,573.0079],[-0.3611,35.1195,594.5164],[-0.3562,35.1106,525.6686],[-0.3738,35.1088,558.0401],[-0.3734,35.1007,548.8416],[-0.3644,35.098,520.9831],[-0.3502,35.0965,491.5395],[-0.3381,35.0919,479.5055],[-0.3261,35.1,465.1534],[-0.3197,35.1009,464.4602],[-0.3137,35.0994,464.1218],[-0.3091,35.1018,469.5507],[-0.2953,35.1154,450.0642],[-0.2846,35.1168,446.2971],[-0.2752,35.1215,434.3901],[-0.2671,35.1185,432.3021],[-0.2615,35.1216,429.4791],[-0.2564,35.1217,437.2062],[-0.2531,35.1173,449.708],[-0.2513,35.0801,508.0935],[-0.2445,35.0791,506.0504],[-0.2384,35.0894,490.8904],[-0.2361,35.0993,472.8148],[-0.2307,35.1009,471.511],[-0.2241,35.0965,492.4041],[-0.2103,35.0977,511.7798],[-0.2094,35.1063,473.1082],[-0.2028,35.1076,483.4357],[-0.1987,35.1131,452.3215],[-0.185,35.1204,437.9366],[-0.1781,35.1197,437.5615],[-0.1736,35.1215,433.5963],[-0.1701,35.1331,415.672],[-0.174,35.1547,398.6617],[-0.1815,35.1744,391.3148],[-0.187,35.1784,388.6618],[-0.1935,35.1797,394.4456],[-0.2,35.1781,407.5285],[-0.208,35.1794,419.9968],[-0.2089,35.1869,445.6951],[-0.2071,35.1937,476.6676],[-0.2124,35.2029,510.096]]]]}
,"properties": {"GID_2": "DZA.38.20_1","GID_0": "DZA","country": "Algeria","GID_1": "DZA.38_1","province": "SidiBelAbbès","NL_NAME_1": "ولايةسيديبلعباس","county": "M'Cid","VARNAME_2": "Mcid","NL_NAME_2": "NA","TYPE_2": "Commune","ENGTYPE_2": "Commune","CC_2": "2226","HASC_2": "DZ.SB.MC","name": "M'Cid.county","area_km2": 134.2424,"hist_schema_id": "Elevation0-9000","hist_area_km2": {"375": 2.236,"400": 8.7544,"425": 26.4052,"450": 33.5676,"475": 23.9629,"500": 12.4144,"525": 7.9051,"550": 5.8411,"575": 4.4194,"600": 3.6917,"625": 2.4095,"650": 1.907,"675": 0.7281}}}