{"type":"Feature","properties":{"GID_2":"DZA.20.10_1","GID_0":"DZA","country":"Algeria","GID_1":"DZA.20_1","province":"Ghardaïa","NL_NAME_1":"ولايةغرداية","county":"Mansoura","VARNAME_2":"ElMansoura|al-Mansūrah","NL_NAME_2":"NA","TYPE_2":"Commune","ENGTYPE_2":"Commune","CC_2":"4713","HASC_2":"DZ.BB.MA","name":"Mansoura.county"},
"geometry":{"type": "MultiPolygon","coordinates": [[[[2.3612,32.2611,555.5214],[2.5782,32.2156,541.0596],[2.9895,31.9991,541.5335],[2.9986,31.9915,533.1859],[3.063,31.9557,527.8447],[3.317,31.8386,497.5826],[3.7267,31.7866,406.8191],[4.0433,31.711,340.4884],[4.1923,31.6515,301.5368],[4.1952,31.6475,304.0971],[4.211,31.6412,287.138],[4.2161,31.6369,297.3422],[4.2199,31.6258,287.3655],[4.2301,31.6208,287.6326],[4.2312,31.612,283.9532],[4.2343,31.6057,284.4826],[4.2407,31.6026,283.2332],[4.2549,31.6015,282.1533],[4.2594,31.5926,283.6587],[4.266,31.5903,292.75],[4.2727,31.5922,289.6653],[4.2847,31.6012,281.4453],[4.2906,31.5994,277.506],[4.2879,31.5846,278.8165],[4.2886,31.5734,273.4355],[4.2915,31.5697,279.7461],[4.2969,31.5682,283.3541],[4.3037,31.5704,279.9733],[4.3103,31.5703,275.1258],[4.3161,31.5662,271.4046],[4.3234,31.5636,271.0997],[4.3313,31.564,268.2243],[4.3337,31.5579,267.4511],[4.3314,31.5448,273.7017],[4.332,31.5391,265.2473],[4.3382,31.5385,264.6107],[4.3582,31.5482,265.9168],[4.3712,31.549,264.0889],[4.3765,31.5452,258.5764],[4.3827,31.5322,257.3649],[4.3873,31.5305,256.1359],[4.3971,31.5364,268.1509],[4.4064,31.5446,249.3103],[4.4094,31.5503,260.1179],[4.4198,31.8001,275.4231],[4.4078,31.8062,275.8754],[4.4058,31.812,286.0825],[4.4016,31.8167,278.1905],[4.3967,31.8189,278.3148],[4.3955,31.8239,289.7439],[4.3917,31.8282,284.9943],[4.3695,31.8212,293.5178],[4.363,31.8218,295.026],[4.3568,31.8298,285.8218],[4.3395,31.8319,288.0072],[4.3319,31.8407,294.4444],[4.3204,31.84,297.2031],[4.313,31.844,297.7761],[4.3039,31.8539,300.6529],[4.3023,31.8589,296.66],[4.2857,31.8596,305.2142],[4.2704,31.8634,303.8958],[4.2613,31.874,305.6337],[4.2533,31.8767,306.83],[4.2361,31.8755,312.4656],[4.2264,31.8818,309.7534],[4.1945,31.9142,318.7436],[4.1854,31.9202,321.0161],[4.154,31.9343,327.9727],[4.1305,31.9396,333.4331],[4.0945,31.9395,342.3176],[4.0866,31.941,343.1929],[4.0546,31.9543,348.8356],[4.0329,31.9553,367.659],[4.028,31.961,357.1557],[4.0257,31.9762,366.9171],[4.0184,31.9785,361.2318],[3.9886,31.9761,366.9898],[3.9772,31.9902,370.0311],[3.9718,31.9909,371.0539],[3.9613,31.9856,373.8897],[3.9558,31.9863,373.6676],[3.9466,31.9941,375.095],[3.9298,31.9912,377.8458],[3.9214,31.998,379.5479],[3.904,32.0003,383.0946],[3.8727,32.0177,389.3236],[3.8665,32.0191,390.6673],[3.8552,32.0115,395.8625],[3.8392,32.0132,397.6329],[3.825,32.0178,398.9718],[3.7528,32.0321,438.3978],[3.3568,32.0948,514.3583],[3.3502,32.0948,515.0026],[3.3309,32.0888,519.1025],[3.3097,32.0936,525.7465],[3.2882,32.1007,535.2692],[3.2781,32.1061,538.3179],[3.2638,32.1175,551.2487],[2.9596,32.1802,526.5351],[2.8852,32.2087,536.016],[2.5251,32.3404,585.2682],[2.2778,32.5492,640.6797],[2.3612,32.2611,555.5214]]]]}}