{"type":"Feature","properties":{"GID_2":"DZA.26.1_1","GID_0":"DZA","country":"Algeria","GID_1":"DZA.26_1","province":"M'Sila","NL_NAME_1":"ولايةالمسيلة","county":"AinElHadjel","VARNAME_2":"`Ayn-al-Hajal","NL_NAME_2":"NA","TYPE_2":"Commune","ENGTYPE_2":"Commune","CC_2":"2817","HASC_2":"DZ.MS.AH","name":"Ain_El_Hadjel.county"},
"geometry":{"type": "MultiPolygon","coordinates": [[[[3.9485,35.7119,517.8008],[3.9397,35.719,523.5335],[3.9381,35.7233,525.4425],[3.9233,35.732,531.4547],[3.9167,35.7331,534.3159],[3.9013,35.7276,550.7869],[3.8939,35.7231,561.8531],[3.8848,35.7233,568.5529],[3.8765,35.729,559.4876],[3.8686,35.7307,580.017],[3.8331,35.7048,551.7737],[3.8379,35.6925,544.1401],[3.7954,35.6451,601.3057],[3.6782,35.5086,820.4583],[3.7423,35.5362,690.9694],[3.7667,35.5158,704.2012],[3.8316,35.5108,704.8805],[3.8977,35.5029,632.6127],[3.9184,35.5016,673.1035],[3.9413,35.5034,662.313],[3.9631,35.6016,650.6478],[3.9507,35.6867,557.8181],[3.9359,35.6972,519.3313],[3.9577,35.698,520.6567],[3.9623,35.7015,513.0185],[3.9485,35.7119,517.8008]]]]}}