{"type":"Feature","properties":{"GID_2":"DZA.35.24_1","GID_0":"DZA","country":"Algeria","GID_1":"DZA.35_1","province":"Relizane","NL_NAME_1":"ولايةغليزان","county":"OuedElDjemaa","VARNAME_2":"Jidiwīyah","NL_NAME_2":"NA","TYPE_2":"Commune","ENGTYPE_2":"Commune","CC_2":"4826","HASC_2":"DZ.RE.OD","name":"Oued_El_Djemaa.county"},
"geometry":{"type": "MultiPolygon","coordinates": [[[[0.5666,35.7845,52.2797],[0.5963,35.7939,49.6383],[0.6156,35.7754,62.318],[0.6097,35.7647,66.6215],[0.6136,35.7597,73.6219],[0.614,35.7521,78.4324],[0.6105,35.7406,82.9145],[0.6378,35.7564,90.7864],[0.6571,35.7596,95.1575],[0.6595,35.7732,79.1249],[0.6822,35.7778,93.5439],[0.6951,35.7844,105.7233],[0.698,35.7884,105.2142],[0.7036,35.791,126.3275],[0.7098,35.7917,135.7046],[0.7205,35.7901,183.6533],[0.7267,35.7919,182.9323],[0.7279,35.799,158.3322],[0.7217,35.7998,158.1331],[0.7171,35.8028,132.8919],[0.7153,35.8076,129.9311],[0.7328,35.8142,152.5405],[0.7428,35.8272,153.7268],[0.7473,35.8304,162.9935],[0.7469,35.8356,165.0987],[0.7546,35.8453,143.2708],[0.7397,35.8411,144.1593],[0.7233,35.8435,102.4562],[0.7192,35.84,98.666],[0.6839,35.9011,86.8109],[0.6824,35.9089,71.2882],[0.6845,35.9317,43.5544],[0.6727,35.9266,43.4616],[0.6474,35.9242,41.7556],[0.6497,35.9201,45.2351],[0.6405,35.892,73.6525],[0.6271,35.8806,71.9947],[0.6145,35.8749,66.7876],[0.601,35.8732,52.8939],[0.5832,35.8739,40.9386],[0.5786,35.859,52.9845],[0.5583,35.8415,67.7357],[0.5566,35.835,68.2589],[0.5624,35.831,53.7333],[0.562,35.8258,46.7595],[0.5594,35.8211,47.2559],[0.567,35.7979,50.1052],[0.5679,35.7901,51.9023],[0.5666,35.7845,52.2797]]]]}}