{"type":"Feature","properties":{"GID_2":"DZA.28.64_1","GID_0":"DZA","country":"Algeria","GID_1":"DZA.28_1","province":"Médéa","NL_NAME_1":"ولايةالمدية","county":"Zoubiria","VARNAME_2":"NA","NL_NAME_2":"NA","TYPE_2":"Commune","ENGTYPE_2":"Commune","CC_2":"2634","HASC_2":"DZ.MD.ZO","name":"Zoubiria.county"},
"geometry":{"type": "MultiPolygon","coordinates": [[[[2.7868,36.147,652.6856],[2.7871,36.1346,784.8171],[2.7968,36.1175,786.5386],[2.7956,36.1085,722.0787],[2.7807,36.1043,700.0597],[2.7815,36.096,819.3027],[2.7799,36.0904,849.436],[2.7709,36.0805,890.473],[2.7605,36.0834,995.0942],[2.7497,36.0834,973.0396],[2.743,36.0821,992.2635],[2.7392,36.0785,901.655],[2.74,36.0742,764.3803],[2.7481,36.0654,1014.9913],[2.7526,36.0629,1048.8474],[2.7514,36.0576,988.8781],[2.7522,36.0484,871.1979],[2.7567,36.0371,726.4575],[2.7546,36.0331,696.389],[2.7349,36.0224,648.8148],[2.739,36.0211,756.9442],[2.7577,36.0228,759.0192],[2.7684,36.0288,797.0406],[2.7836,36.0285,836.5384],[2.7876,36.0271,816.1691],[2.7908,36.0214,772.1864],[2.7914,36.0161,765.4613],[2.7883,36.0115,724.9675],[2.7878,35.9988,706.2205],[2.7893,35.9932,645.6603],[2.7937,35.9919,655.3298],[2.7982,35.9941,674.4994],[2.8222,35.9881,671.6558],[2.8275,35.9894,688.8912],[2.8308,35.9994,739.7673],[2.8386,36.0043,786.3754],[2.8618,36.0026,705.3196],[2.8686,36.0049,754.8661],[2.8736,36.0098,844.2689],[2.8758,36.0152,756.2693],[2.8895,36.0244,733.3784],[2.8907,36.0298,733.7581],[2.8952,36.032,688.5945],[2.9046,36.0291,703.4944],[2.9114,36.0312,780.1848],[2.9239,36.0292,723.3041],[2.9375,36.0424,810.6396],[2.9482,36.0488,846.856],[2.9636,36.0482,897.8137],[2.9698,36.0461,862.901],[2.9675,36.0601,1058.8086],[2.9744,36.0655,1097.6346],[2.9742,36.0746,1038.9331],[2.981,36.0848,966.8171],[2.9781,36.0989,832.6013],[2.9721,36.1032,828.6692],[2.9676,36.104,818.9736],[2.9559,36.1023,808.4006],[2.9457,36.1001,789.3447],[2.9421,36.0973,795.0764],[2.9371,36.0963,782.5568],[2.9334,36.1018,842.9926],[2.9283,36.1044,844.0862],[2.9002,36.1061,812.3019],[2.8848,36.1098,863.5023],[2.8795,36.1074,864.5257],[2.8766,36.1118,907.7966],[2.8746,36.1207,950.2108],[2.8689,36.1241,894.2007],[2.8489,36.1304,794.3821],[2.8359,36.1391,758.275],[2.8297,36.1412,728.8244],[2.8233,36.1406,734.8796],[2.8189,36.1429,690.371],[2.8045,36.1429,699.9717],[2.7868,36.147,652.6856]]]]}}