{"type":"Feature","properties":{"GID_2":"DZA.13.22_1","GID_0":"DZA","country":"Algeria","GID_1":"DZA.13_1","province":"Boumerdès","NL_NAME_1":"ولايةبومرداس","county":"OuledAissa","VARNAME_2":"NA","NL_NAME_2":"NA","TYPE_2":"Commune","ENGTYPE_2":"Commune","CC_2":"3521","HASC_2":"DZ.BM.OA","name":"Ouled_Aissa.county"},
"geometry":{"type": "MultiPolygon","coordinates": [[[[3.8425,36.8179,29.2258],[3.8332,36.8213,55.5628],[3.8064,36.8397,169.2565],[3.7974,36.8351,100.7534],[3.7894,36.8258,109.2347],[3.7867,36.8199,128.9111],[3.7849,36.7974,290.8464],[3.7917,36.7944,321.4489],[3.8053,36.7773,249.555],[3.8103,36.7732,294.4406],[3.8164,36.7735,270.929],[3.824,36.7811,139.7468],[3.8378,36.7851,91.7088],[3.8326,36.7999,183.1734],[3.8425,36.8179,29.2258]]]]}}