{"type": "Feature","bbox": [2.9515,34.2289,3.316,34.6383],"geometry": {"type": "MultiPolygon","coordinates": [[[[3.3068,34.5407,1282.4808],[3.2404,34.5258,1274.1949],[3.2253,34.5343,1237.4253],[3.2169,34.5443,1224.1644],[3.2081,34.5517,1208.5037],[3.1993,34.5467,1209.7781],[3.1878,34.5434,1214.223],[3.1684,34.5397,1222.2159],[3.1619,34.5402,1225.447],[3.1567,34.5453,1237.5703],[3.1363,34.5741,1239.1423],[3.1307,34.5919,1260.8899],[3.0953,34.6077,1387.697],[3.0869,34.6383,1285.4883],[3.0467,34.613,1201.921],[3.0341,34.6011,1237.2168],[3.0158,34.596,1257.1208],[3.0009,34.5753,1293.2867],[2.9822,34.5582,1369.5015],[2.9603,34.5423,1306.4231],[2.9515,34.54,1286.3081],[2.9744,34.5274,1508.3074],[2.9829,34.531,1511.6647],[2.9912,34.5376,1494.782],[3.0536,34.5387,1331.5919],[3.0607,34.5481,1316.4976],[3.0921,34.5747,1309.6515],[3.1023,34.5802,1277.78],[3.1194,34.5857,1279.8712],[3.1121,34.5616,1248.6055],[3.1276,34.5457,1253.5892],[3.1303,34.5401,1245.963],[3.1168,34.5237,1252.0101],[3.1141,34.5183,1254.9308],[3.1153,34.5063,1280.2639],[3.1103,34.4795,1294.3832],[3.1112,34.453,1401.8252],[3.0943,34.4184,1194.4149],[3.1139,34.3661,1089.1053],[3.113,34.342,1039.1268],[3.1118,34.3351,1025.8004],[3.0859,34.3241,1019.723],[3.1079,34.2882,996.1064],[3.1592,34.2289,947.0685],[3.1643,34.2309,973.6937],[3.2114,34.2757,1027.3711],[3.2125,34.269,1010.9656],[3.22,34.2698,977.0694],[3.247,34.2817,1047.168],[3.2663,34.2948,1038.0931],[3.2821,34.3101,1023.7019],[3.293,34.3239,1095.241],[3.303,34.3319,1093.5912],[3.3017,34.35,1101.0437],[3.2923,34.3617,1046.6733],[3.2983,34.3798,1064.5481],[3.3025,34.3847,1075.4709],[3.3015,34.3902,1080.4811],[3.2832,34.4167,1121.8971],[3.2748,34.44,1156.1041],[3.2696,34.4408,1165.7535],[3.2524,34.4392,1166.5101],[3.2488,34.445,1178.6781],[3.2477,34.4513,1196.8019],[3.2764,34.4553,1270.1718],[3.2902,34.4604,1265.9365],[3.2991,34.4667,1269.0261],[3.3046,34.4758,1272.4712],[3.316,34.4864,1296.9551],[3.3114,34.5039,1287.3612],[3.3123,34.5145,1311.3135],[3.311,34.5342,1303.1118],[3.3068,34.5407,1282.4808]]]]}
,"properties": {"GID_2": "DZA.16.2_1","GID_0": "DZA","country": "Algeria","GID_1": "DZA.16_1","province": "Djelfa","NL_NAME_1": "ولايةالجلفة","county": "AinElIbel","VARNAME_2": "`Ayn-al-Ibil","NL_NAME_2": "NA","TYPE_2": "Commune","ENGTYPE_2": "Commune","CC_2": "1730","HASC_2": "DZ.DJ.AI","name": "Ain_El_Ibel.county","area_km2": 604.9896,"hist_schema_id": "Elevation0-9000","hist_area_km2": {"925": 0.2279,"950": 13.4584,"975": 38.9951,"1000": 62.4645,"1025": 42.2447,"1050": 37.0355,"1075": 32.794,"1100": 30.7751,"1125": 30.242,"1150": 26.3558,"1175": 25.1976,"1200": 23.9163,"1225": 34.141,"1250": 61.435,"1275": 47.7749,"1300": 38.2154,"1325": 22.3384,"1350": 14.2002,"1375": 11.022,"1400": 4.8207,"1425": 3.004,"1450": 1.921,"1475": 1.0827,"1500": 0.7684,"1525": 0.489,"1550": 0.0699}}}