{"type":"Feature","properties":{"GID_2":"DZA.28.53_1","GID_0":"DZA","country":"Algeria","GID_1":"DZA.28_1","province":"Médéa","NL_NAME_1":"ولايةالمدية","county":"SidiDamed","VARNAME_2":"NA","NL_NAME_2":"NA","TYPE_2":"Commune","ENGTYPE_2":"Commune","CC_2":"2631","HASC_2":"DZ.MD.SD","name":"Sidi_Damed.county"},
"geometry":{"type": "MultiPolygon","coordinates": [[[[3.3708,35.759,708.4286],[3.3921,35.7797,711.4922],[3.3874,35.7841,715.0717],[3.3759,35.8076,738.7479],[3.3981,35.817,742.3763],[3.3801,35.8249,773.8821],[3.3695,35.8349,795.7702],[3.3623,35.8478,800.2631],[3.3508,35.8627,830.0474],[3.3422,35.871,849.6102],[3.3396,35.8761,873.4296],[3.3398,35.881,884.3587],[3.3435,35.8836,895.4984],[3.33,35.8858,959.9312],[3.3328,35.8754,877.2854],[3.3261,35.8676,904.1538],[3.3133,35.8742,955.1053],[3.312,35.8789,919.2448],[3.2966,35.8841,967.3831],[3.292,35.8889,999.0656],[3.2855,35.891,990.6436],[3.2526,35.8907,1152.6112],[3.2107,35.8929,1253.416],[3.2168,35.8791,1211.3591],[3.2058,35.8663,1200.1644],[3.2113,35.8505,1088.9991],[3.2085,35.8451,1069.1405],[3.2081,35.8395,1026.8589],[3.2133,35.8229,924.9081],[3.2088,35.8173,941.8869],[3.2127,35.8073,958.7092],[3.2315,35.7896,860.86],[3.2435,35.8011,845.7432],[3.2492,35.8024,851.1277],[3.2554,35.813,854.7793],[3.2649,35.8206,863.4963],[3.279,35.8244,849.3189],[3.2809,35.8195,849.8398],[3.2804,35.7998,807.8871],[3.2861,35.7884,789.7125],[3.2996,35.782,773.9078],[3.3169,35.7599,745.2479],[3.3306,35.7539,731.4896],[3.3365,35.7535,728.3673],[3.3708,35.759,708.4286]]]]}}