{"type": "Feature","bbox": [1.6548,36.3571,1.7972,36.4883],"geometry": {"type": "MultiPolygon","coordinates": [[[[1.7972,36.4399,609.6949],[1.7914,36.4515,459.431],[1.7868,36.4482,437.3959],[1.7789,36.4468,455.1179],[1.7875,36.4563,525.777],[1.7893,36.4625,566.6705],[1.787,36.4686,655.0656],[1.7882,36.4749,859.22],[1.7738,36.4729,1030.458],[1.7722,36.4883,602.0516],[1.7661,36.4882,517.8743],[1.7587,36.4818,728.345],[1.7539,36.4802,742.8627],[1.7428,36.4852,478.3761],[1.7338,36.4795,762.1949],[1.7136,36.4712,447.1336],[1.6914,36.4748,325.7791],[1.6852,36.4722,321.3584],[1.6782,36.4622,296.3138],[1.6649,36.4521,200.4016],[1.6548,36.448,118.6933],[1.6579,36.4422,365.4564],[1.6695,36.4408,363.5346],[1.6699,36.4288,707.3497],[1.6751,36.4237,762.8202],[1.6823,36.4232,653.5926],[1.686,36.4187,522.6735],[1.6869,36.4074,405.1311],[1.6916,36.4016,346.7955],[1.698,36.3991,290.7578],[1.6953,36.3819,285.4355],[1.7029,36.37,408.8735],[1.7048,36.365,508.7808],[1.7043,36.3588,615.4935],[1.7084,36.3571,726.9158],[1.7125,36.3584,695.7002],[1.7151,36.363,731.4287],[1.7359,36.3757,518.8987],[1.7384,36.381,446.2844],[1.7419,36.3838,420.2458],[1.7552,36.3886,451.0092],[1.7582,36.3924,442.513],[1.7646,36.3953,553.6624],[1.7757,36.3961,680.2308],[1.7811,36.3987,674.5977],[1.7837,36.4184,843.1109],[1.7798,36.4288,575.8829],[1.7815,36.4341,497.7942],[1.7869,36.4355,552.4761],[1.7913,36.4389,604.0824],[1.7972,36.4399,609.6949]]]]}
,"properties": {"GID_2": "DZA.45.4_1","GID_0": "DZA","country": "Algeria","GID_1": "DZA.45_1","province": "Tipaza","NL_NAME_1": "ولايةتيبازة","county": "BeniMileuk","VARNAME_2": "BeniMilleuk","NL_NAME_2": "NA","TYPE_2": "Commune","ENGTYPE_2": "Commune","CC_2": "4227","HASC_2": "DZ.TP.BM","name": "Beni_Mileuk.county","area_km2": 101.53353,"hist_schema_id": "Elevation0-9000","hist_area_km2": {"150": 0.05116,"175": 0.03411,"200": 0.06822,"225": 0.10233,"250": 0.22175,"275": 0.54599,"300": 1.50146,"325": 2.59359,"350": 3.65152,"375": 4.00965,"400": 5.51084,"425": 6.43178,"450": 6.75584,"475": 8.10292,"500": 6.85782,"525": 6.36303,"550": 5.68052,"575": 5.83431,"600": 4.91263,"625": 4.34976,"650": 4.09372,"675": 3.54791,"700": 3.39448,"725": 3.27497,"750": 2.89963,"775": 2.30241,"800": 1.70541,"825": 1.58609,"850": 1.12553,"875": 0.98913,"900": 0.98901,"925": 0.35808,"950": 0.37509,"975": 0.341,"1000": 0.40919,"1025": 0.2046,"1050": 0.3069,"1075": 0.05115}}}