{"type":"Feature","properties":{"GID_2":"DZA.13.8_1","GID_0":"DZA","country":"Algeria","GID_1":"DZA.13_1","province":"Boumerdès","NL_NAME_1":"ولايةبومرداس","county":"BoudouaouElBahri","VARNAME_2":"Budwāwūal-Bahri","NL_NAME_2":"NA","TYPE_2":"Commune-Cotiere","ENGTYPE_2":"Commune-Cotiere","CC_2":"3527","HASC_2":"DZ.BM.BB","name":"Boudouaou_El_Bahri.county"},
"geometry":{"type": "MultiPolygon","coordinates": [[[[3.3809,36.7467,40.306399999999996],[3.3979,36.7526,29.5727],[3.4065,36.75,32.0867],[3.4127,36.7424,10.7651],[3.4187,36.7433,23.7005],[3.4213,36.7612,26.7647],[3.4193,36.7689,1.6322],[3.4062,36.7733,6.8255],[3.3935,36.7744,7.0803],[3.3615,36.7807,12.1252],[3.3534,36.7641,27.8819],[3.3538,36.7595,23.2845],[3.3778,36.7662,42.5641],[3.3819,36.765,32.9631],[3.3809,36.7467,40.306399999999996]]]]}}