{"type": "Feature","bbox": [8.2347,36.3048,8.4097,36.445],"geometry": {"type": "MultiPolygon","coordinates": [[[[8.2347,36.3505,426.4069],[8.2376,36.3445,483.0548],[8.247,36.3402,534.7645],[8.2924,36.3403,642.7133],[8.303,36.3376,659.3073],[8.3126,36.3242,818.0813],[8.2999,36.3128,810.829],[8.3126,36.3048,719.8521],[8.3253,36.3065,784.3027],[8.3307,36.3106,801.2364],[8.3503,36.3199,902.0076],[8.3592,36.3223,886.5883],[8.3645,36.3258,865.516],[8.3748,36.3253,742.3413],[8.375,36.3292,801.6052],[8.3791,36.337,784.3009],[8.376,36.3531,832.7357],[8.3934,36.3666,906.5496],[8.3992,36.3756,906.9527],[8.3968,36.3825,833.3976],[8.4001,36.3927,490.9666],[8.3968,36.3966,377.6747],[8.3973,36.3992,348.684],[8.4097,36.4115,243.0614],[8.4087,36.4179,351.6838],[8.4055,36.4224,492.0527],[8.3864,36.4242,499.0388],[8.373,36.4284,528.8195],[8.3556,36.445,427.0983],[8.3435,36.4344,488.9929],[8.3372,36.4324,413.9238],[8.3403,36.4289,394.1375],[8.3391,36.4241,454.9006],[8.3314,36.4158,508.1894],[8.3206,36.4137,554.974],[8.3167,36.4175,427.3982],[8.3112,36.41,523.0298],[8.3055,36.4087,620.0623],[8.3008,36.4095,658.7235],[8.2971,36.4059,630.5393],[8.2994,36.3956,477.3628],[8.2986,36.3894,307.474],[8.2929,36.3856,317.9867],[8.2824,36.3808,312.0872],[8.2723,36.3804,354.5207],[8.2686,36.3774,322.0384],[8.2536,36.3761,328.3342],[8.2395,36.3723,339.3706],[8.2375,36.3673,339.2355],[8.2384,36.3602,393.2411],[8.2347,36.3505,426.4069]]]]}
,"properties": {"GID_2": "DZA.40.15_1","GID_0": "DZA","country": "Algeria","GID_1": "DZA.40_1","province": "SoukAhras","NL_NAME_1": "ولايةسوقأهراس","county": "OuledMoumen","VARNAME_2": "NA","NL_NAME_2": "NA","TYPE_2": "Commune","ENGTYPE_2": "Commune","CC_2": "4113","HASC_2": "DZ.SA.OM","name": "Ouled_Moumen.county","area_km2": 121.60117,"hist_schema_id": "Elevation0-9000","hist_area_km2": {"225": 0.35831,"250": 1.58684,"275": 1.72342,"300": 1.9795,"325": 2.54276,"350": 2.49165,"375": 3.14011,"400": 3.05474,"425": 3.8739,"450": 4.40288,"475": 4.62478,"500": 5.11993,"525": 5.08591,"550": 4.93265,"575": 4.95033,"600": 4.6604,"625": 4.83131,"650": 4.93412,"675": 5.19034,"700": 5.71967,"725": 6.43724,"750": 6.35224,"775": 6.3353,"800": 5.94259,"825": 5.37925,"850": 3.68867,"875": 2.76655,"900": 2.3909,"925": 2.06646,"950": 1.72499,"975": 1.09307,"1000": 0.99059,"1025": 0.52947,"1050": 0.39284,"1075": 0.23913,"1100": 0.06832}}}