{"type": "Feature","bbox": [3.2283,36.5498,4.0379,36.9233],"geometry": {"type": "MultiPolygon","coordinates": [[[[3.3587,36.5596,527.0353],[3.3731,36.556,696.2427],[3.3798,36.5524,927.5345],[3.3841,36.5536,884.4556],[3.3871,36.5574,825.3552],[3.3987,36.5553,967.1503],[3.4034,36.5542,899.9245],[3.4081,36.5498,933.77],[3.4184,36.5652,605.6064],[3.424,36.5665,590.6865],[3.4502,36.5665,513.3851],[3.4624,36.5718,543.612],[3.4632,36.576,473.052],[3.4698,36.5773,526.1233],[3.4743,36.5758,627.5748],[3.4779,36.5802,649.7186],[3.4757,36.5859,566.4853],[3.4851,36.5892,427.4101],[3.4899,36.5926,490.7578],[3.4898,36.5979,621.9617],[3.4943,36.6079,763.3447],[3.4988,36.6112,760.6345],[3.5041,36.6122,685.3861],[3.5328,36.6037,588.202],[3.5453,36.603,569.0588],[3.5521,36.6009,592.0137],[3.5717,36.6021,351.9217],[3.5772,36.5988,112.2923],[3.5797,36.5926,241.0996],[3.6074,36.5902,519.8796],[3.6131,36.588,546.4304],[3.6256,36.5862,625.6215],[3.635,36.5858,656.8423],[3.6468,36.5878,914.0124],[3.6679,36.5857,805.0522],[3.6802,36.5897,826.389],[3.6974,36.5901,796.5806],[3.7062,36.5879,744.6344],[3.7143,36.5884,781.7698],[3.7262,36.5834,624.2499],[3.7309,36.5844,594.6779],[3.733,36.5882,545.2479],[3.7346,36.5988,291.1071],[3.7375,36.6035,243.7526],[3.7371,36.6084,235.7546],[3.7298,36.6187,172.7536],[3.7257,36.6285,139.8505],[3.7219,36.6319,124.272],[3.717,36.6468,94.6893],[3.722,36.648,97.8648],[3.733,36.647,155.305],[3.7374,36.6496,175.282],[3.7446,36.6499,194.9113],[3.7619,36.6498,248.9789],[3.77,36.6467,284.1458],[3.7754,36.6511,448.1419],[3.7814,36.6519,452.6219],[3.785,36.6565,578.6917],[3.7912,36.6523,495.4398],[3.7883,36.6421,396.6505],[3.8043,36.6358,521.3081],[3.8251,36.6363,374.2424],[3.8288,36.641,352.7406],[3.8181,36.6576,352.5886],[3.8198,36.6711,709.2121],[3.8177,36.6753,653.618],[3.8193,36.686,812.1332],[3.8349,36.6859,715.3816],[3.8416,36.6812,535.4637],[3.8626,36.6718,319.0956],[3.8673,36.6718,266.0037],[3.8714,36.674,271.978],[3.8805,36.6738,248.4177],[3.8703,36.6844,377.9071],[3.8645,36.6866,448.1395],[3.8632,36.6929,710.4368],[3.8594,36.6976,810.8082],[3.8548,36.6984,767.3227],[3.8492,36.7025,661.8063],[3.8462,36.7101,438.8327],[3.8463,36.7168,365.2422],[3.8497,36.7206,242.9083],[3.8493,36.7262,173.2116],[3.8587,36.7408,61.1228],[3.8665,36.7461,53.1021],[3.8685,36.7539,55.9351],[3.8661,36.761,81.1292],[3.8723,36.7659,172.9627],[3.8834,36.7675,71.3266],[3.888,36.7707,79.5526],[3.8933,36.7704,20.2164],[3.8968,36.761,26.4993],[3.9011,36.7573,32.7222],[3.9103,36.753,23.0054],[3.9158,36.7535,28.0283],[3.9215,36.7674,98.6254],[3.922,36.775,55.7149],[3.9321,36.7693,269.3298],[3.955,36.7728,419.9533],[3.9701,36.7778,446.4534],[3.9802,36.8023,726.2578],[3.9782,36.807,697.464],[3.9843,36.8088,619.1604],[3.9921,36.8069,678.1546],[3.996,36.812,610.8773],[4.0115,36.8231,583.751],[4.0145,36.837,339.4872],[4.0338,36.8463,586.4988],[4.0379,36.8521,735.08],[4.034,36.8541,689.9437],[4.0333,36.8595,614.1333],[4.0364,36.868,461.1882],[4.0343,36.8984,51.0901],[4.0235,36.9014,11.6207],[4.0006,36.9026,2.5189],[3.9816,36.8993,0.0],[3.9715,36.9014,5.8486],[3.9638,36.8982,0.8998],[3.9518,36.8978,0.2972],[3.9267,36.9053,20.6068],[3.9183,36.91,2.0135],[3.9173,36.9151,0.0],[3.9207,36.9214,3.3769],[3.9079,36.9183,7.5042],[3.8929,36.9233,15.398],[3.8778,36.9196,4.8633],[3.8683,36.913,3.9981],[3.8617,36.9129,0.0],[3.855,36.9104,0.4809],[3.8509,36.9124,0.0],[3.8459,36.9125,0.0],[3.8328,36.9077,0.0],[3.7836,36.897,7.4183],[3.7789,36.8942,8.9532],[3.7739,36.8956,0.7369],[3.7663,36.8942,0.2788],[3.7288,36.8839,0.523],[3.7199,36.8769,7.1764],[3.7191,36.869,0.0],[3.7085,36.8585,4.4916],[3.6966,36.8534,0.0],[3.6834,36.8436,0.6278],[3.6726,36.8383,1.077],[3.6671,36.8399,0.0],[3.6517,36.8316,1.2126],[3.6414,36.8239,2.6976],[3.6241,36.8172,3.0196],[3.6124,36.8153,3.2341],[3.5738,36.8042,2.0315],[3.5601,36.8042,0.0],[3.5607,36.7983,1.2254],[3.5589,36.7939,11.5362],[3.5504,36.789,5.8492],[3.5418,36.7863,14.3922],[3.5213,36.7859,0.0],[3.5156,36.7826,0.7501],[3.5181,36.7783,32.7812],[3.4986,36.7695,7.4244],[3.4588,36.7666,17.3858],[3.4235,36.77,6.9212],[3.4193,36.7689,1.6322],[3.4062,36.7733,6.8255],[3.3935,36.7744,7.0803],[3.3615,36.7807,12.1252],[3.3534,36.7641,27.8819],[3.3538,36.7595,23.2845],[3.3778,36.7662,42.5641],[3.3819,36.765,32.9631],[3.3801,36.7416,44.0023],[3.3818,36.7358,46.0831],[3.385,36.733,51.5439],[3.3831,36.7279,54.5699],[3.3723,36.7247,44.3184],[3.3488,36.7236,25.7679],[3.3361,36.7206,22.3656],[3.3218,36.7193,31.1185],[3.3169,36.72,30.9581],[3.3154,36.7128,32.6164],[3.2964,36.706,35.6749],[3.2913,36.7022,30.3028],[3.2847,36.7023,29.6778],[3.2737,36.6996,31.3298],[3.2606,36.7141,22.1812],[3.2568,36.7161,21.4537],[3.2541,36.7043,26.6352],[3.2558,36.6986,26.4465],[3.26,36.6945,28.7573],[3.2585,36.6902,31.7324],[3.2283,36.6711,27.6583],[3.2317,36.6673,29.8196],[3.237,36.6677,32.6599],[3.2592,36.636,80.0039],[3.2628,36.6291,103.6876],[3.2604,36.6221,176.9765],[3.2665,36.6201,209.7896],[3.2724,36.6226,134.7328],[3.2748,36.6333,88.3903],[3.2796,36.6363,79.1877],[3.2844,36.6369,77.476],[3.2856,36.6327,85.6446],[3.2978,36.6318,84.4042],[3.3032,36.6297,90.4024],[3.2945,36.6223,104.1522],[3.2878,36.6213,117.2937],[3.2793,36.6128,148.368],[3.2918,36.5945,304.5555],[3.2887,36.5908,342.0801],[3.2875,36.5856,416.015],[3.2977,36.5817,523.3209],[3.2846,36.5641,618.1343],[3.287,36.56,594.0071],[3.3014,36.5537,356.3466],[3.3093,36.5528,248.9665],[3.3131,36.5577,281.2133],[3.3225,36.5593,442.9166],[3.3272,36.5628,607.3288],[3.3322,36.5641,556.4896],[3.35,36.5598,380.1404],[3.354,36.5629,414.6414],[3.3587,36.5596,527.0353]]],
[[[3.2514,36.7183,20.3839],[3.2568,36.7161,21.4537],[3.2552,36.7201,21.3747],[3.2514,36.7183,20.3839]]]]}
,"properties": {"GID_1": "DZA.13_1","GID_0": "DZA","country": "Algeria","province": "Boumerdès","VARNAME_1": "Boumerdas","NL_NAME_1": "ولايةبومرداس","TYPE_1": "Wilaya","ENGTYPE_1": "Province","CC_1": "35","HASC_1": "DZ.BM","ISO_1": "NA","name": "Boumerdès.province","area_km2": 1449.269,"hist_schema_id": "Elevation0-9000","hist_area_km2": {"0": 42.339,"25": 143.864,"50": 158.306,"75": 125.059,"100": 97.67,"125": 86.877,"150": 75.78,"175": 75.087,"200": 67.882,"225": 63.381,"250": 60.425,"275": 54.75,"300": 50.437,"325": 43.203,"350": 36.646,"375": 34.44,"400": 30.364,"425": 25.232,"450": 22.65,"475": 19.811,"500": 18.759,"525": 15.887,"550": 14.102,"575": 12.572,"600": 11.79,"625": 10.514,"650": 10.09,"675": 8.831,"700": 7.556,"725": 6.041,"750": 4.493,"775": 3.642,"800": 3.301,"825": 2.705,"850": 1.991,"875": 0.987,"900": 0.834,"925": 0.46,"950": 0.289,"975": 0.17,"1000": 0.051}}}