{"type": "Feature","id": "2196","bbox": [3.17329,36.59733,4.03946,36.91722],"geometry": {"type": "Polygon","coordinates": [[[4.03946,36.89692,124.0982],[4.03142,36.89777,65.6897],[3.99643,36.89692,17.4272],[3.97486,36.89228,65.6689],[3.96404,36.89118,89.5437],[3.94825,36.8933,7.3317],[3.91261,36.91161,56.3834],[3.87387,36.91722,6.0058],[3.82748,36.91291,0.0],[3.74187,36.89118,0.0],[3.70948,36.8732,0.0],[3.64967,36.82396,7.2925],[3.61207,36.80858,23.3449],[3.60182,36.80809,4.4961],[3.58041,36.80996,0.0],[3.57057,36.80858,0.0],[3.5643,36.80435,2.1847],[3.55812,36.79767,0.0],[3.55047,36.79145,0.6431],[3.53981,36.78876,0.0],[3.51905,36.78661,0.0],[3.48048,36.77725,0.0],[3.4607,36.77509,0.0],[3.34051,36.78071,3.2312],[3.30299,36.78876,43.7263],[3.2378,36.81306,33.8465],[3.22731,36.81232,17.8141],[3.22608,36.7862,0.0],[3.2212,36.77143,0.0],[3.21046,36.75739,3.229],[3.17937,36.74282,12.6201],[3.17329,36.74262,10.2088],[3.1741,36.74161,9.8815],[3.22981,36.68513,23.5796],[3.28769,36.70722,32.2739],[3.32365,36.71231,34.1654],[3.3544,36.71347,37.7409],[3.37176,36.71042,60.3487],[3.38169,36.70427,84.4827],[3.38525,36.69854,90.2574],[3.3898,36.69414,94.4244],[3.43739,36.67655,349.6421],[3.44768,36.67595,356.4159],[3.45651,36.67802,224.2644],[3.47744,36.68856,84.9204],[3.53795,36.67693,473.3535],[3.56839,36.6788,330.2229],[3.60699,36.69244,37.1629],[3.62317,36.6958,262.3676],[3.63573,36.6944,246.3839],[3.64735,36.69182,192.3082],[3.66678,36.68458,111.7551],[3.675,36.68011,103.1288],[3.67965,36.67414,79.5223],[3.68074,36.66681,115.9609],[3.67671,36.65771,186.5996],[3.64906,36.62704,401.4918],[3.64162,36.61621,387.2361],[3.63836,36.60743,567.5157],[3.64193,36.6004,611.5864],[3.65123,36.59733,564.8045],[3.66611,36.59746,631.7335],[3.73365,36.60761,251.7529],[3.73551,36.64076,176.1721],[3.7383,36.64792,179.4753],[3.74466,36.65626,408.9767],[3.7521,36.65942,545.9329],[3.76063,36.6613,581.6739],[3.76993,36.662,602.1763],[3.77897,36.66107,676.8292],[3.78549,36.65712,622.1682],[3.78998,36.65182,478.3977],[3.79541,36.64776,522.8278],[3.80409,36.6465,542.3272],[3.81386,36.64869,413.9771],[3.82176,36.6574,471.7811],[3.82719,36.66688,641.1373],[3.83639,36.67786,666.3472],[3.84646,36.67973,483.5029],[3.85732,36.67761,474.4834],[3.88894,36.66825,359.2562],[3.90884,36.66732,220.2636],[3.92046,36.67073,108.1405],[3.93225,36.67952,104.5242],[3.94201,36.69006,61.7402],[3.95912,36.70401,88.8792],[3.96501,36.71213,125.9125],[3.96392,36.71934,112.663],[3.94718,36.7345,78.8129],[3.93876,36.7452,62.1514],[3.93318,36.75388,21.5662],[3.9307,36.76127,129.7419],[3.93256,36.769,269.3298],[3.94186,36.773,265.8812],[3.95509,36.77551,397.7329],[3.97214,36.78148,446.6653],[3.99695,36.8039,667.204],[4.02599,36.83599,413.9839],[4.03374,36.84964,635.2959],[4.03761,36.86312,559.6289],[4.03916,36.89155,200.9726],[4.03946,36.89692,124.0982]]]}
,"properties": {"ISO3166-1-Alpha-3": "DZA","country": "Algeria","fill": "#F00","name": "Boumerdès","area_km2": 1231.44,"hist_schema_id": "Elevation0-9000","hist_area_km2": {"0": 81.1706,"25": 236.3538,"50": 140.03809999999999,"75": 99.4098,"100": 80.3182,"125": 66.0018,"150": 60.7732,"175": 58.5135,"200": 51.3938,"225": 46.2969,"250": 42.5929,"275": 37.1905,"300": 34.0673,"325": 27.8875,"350": 23.525,"375": 21.3011,"400": 17.8543,"425": 14.3891,"450": 12.4195,"475": 11.3495,"500": 9.8718,"525": 8.7353,"550": 7.4439,"575": 6.7126,"600": 6.3561,"625": 5.5226,"650": 4.7592,"675": 3.9773,"700": 3.4168,"725": 3.0259,"750": 2.4818,"775": 1.887,"800": 1.87,"825": 1.6151,"850": 0.7651,"875": 0.153}}}