{"type":"Feature","properties":{"GID_2":"DZA.7.6_1","GID_0":"DZA","country":"Algeria","GID_1":"DZA.7_1","province":"Béchar","NL_NAME_1":"ولايةبشار","county":"Boukais","VARNAME_2":"NA","NL_NAME_2":"NA","TYPE_2":"Commune","ENGTYPE_2":"Commune","CC_2":"815","HASC_2":"DZ.BC.BK","name":"Boukais.county"},
"geometry":{"type": "MultiPolygon","coordinates": [[[[-2.3144,32.1547,1120.9783],[-2.3619,32.1584,1094.2705],[-2.3836,32.1575,1046.4996],[-2.4627,32.1594,1010.3618],[-2.4847,32.1518,1051.5831],[-2.5041,32.1506,1046.9346],[-2.5456,32.1448,994.7104],[-2.559,32.1381,1025.6509],[-2.5907,32.1155,1032.7804],[-2.599,32.1125,1141.025],[-2.6625,32.1174,1025.9193],[-2.6963,32.1152,991.3625],[-2.7275,32.1104,963.3682],[-2.7516,32.1107,994.9253],[-2.7626,32.1127,1020.451],[-2.7977,32.1122,1096.0426],[-2.8187,32.1149,1024.1665],[-2.88,32.1106,935.2972],[-2.8954,32.112,867.5266],[-2.8999,32.1141,859.5675],[-2.9058,32.1206,856.7765],[-2.9106,32.1201,850.7756],[-2.9152,32.1188,872.6047],[-2.9162,32.1114,866.9009],[-2.9189,32.1056,863.7275],[-2.9294,32.0961,868.5151],[-2.9299,32.0888,859.6765],[-2.928,32.0822,868.9272],[-2.9323,32.0732,857.0698],[-2.9332,32.0613,848.8577],[-2.9395,32.0357,836.7166],[-2.9384,32.029,833.9111],[-2.9246,32.0128,827.1396],[-2.9218,32.001,816.033],[-2.9095,31.9816,814.3428],[-2.8919,31.9623,795.3013],[-2.8888,31.9551,794.6983],[-2.8919,31.9481,797.1687],[-2.8863,31.932,785.7905],[-2.8815,31.9276,783.274],[-2.8764,31.9168,780.4482],[-2.8648,31.9027,773.9405],[-2.8612,31.8923,770.8347],[-2.8522,31.8809,766.8281],[-2.8502,31.8649,764.6943],[-2.8475,31.8587,763.489],[-2.8478,31.8523,761.6323],[-2.8525,31.84,756.7856],[-2.8524,31.835,754.1506],[-2.8487,31.8299,754.12],[-2.8389,31.825,752.2957],[-2.8323,31.8164,749.1783],[-2.8301,31.8114,747.3522],[-2.8316,31.798,743.1258],[-2.5626,31.7892,806.9796],[-2.4781,31.8242,783.9235],[-2.3547,31.9124,950.6989],[-2.3286,31.9754,949.0377],[-2.3343,32.1302,985.1129],[-2.3144,32.1547,1120.9783]]]]}}