{"type": "Feature","bbox": [7.4418,35.5665,7.6262,35.7534],"geometry": {"type": "MultiPolygon","coordinates": [[[[7.5925,35.5955,907.6617],[7.6044,35.6106,907.071],[7.6067,35.6159,910.9201],[7.5962,35.6265,957.5095],[7.6077,35.6383,967.6662],[7.6197,35.6427,922.1112],[7.6245,35.6544,932.561],[7.624,35.6596,937.424],[7.6262,35.6682,916.7286],[7.6198,35.6753,933.8021],[7.6094,35.681,949.4451],[7.5949,35.6849,959.3789],[7.5851,35.6904,959.3215],[7.5817,35.6951,941.0597],[7.5829,35.7007,924.9337],[7.5755,35.7085,937.7799],[7.5718,35.7239,974.2632],[7.5748,35.7377,998.3241],[7.5721,35.7411,1014.1282],[7.5748,35.7534,1074.7876],[7.5627,35.7474,1158.278],[7.5285,35.7352,1205.7349],[7.5169,35.7323,1164.3958],[7.4898,35.7332,1077.5552],[7.4602,35.7251,1026.3296],[7.4429,35.7167,1018.6176],[7.4418,35.7109,1009.5976],[7.4486,35.6986,1012.7944],[7.4652,35.6819,976.0483],[7.4916,35.6453,963.4744],[7.4925,35.6397,957.0504],[7.4779,35.6262,931.123],[7.4735,35.6188,921.0624],[7.4573,35.6193,910.3082],[7.4628,35.6071,915.6099],[7.4824,35.5852,953.3248],[7.4936,35.5675,1018.8203],[7.4989,35.5665,1027.5032],[7.5008,35.5718,1008.4515],[7.5105,35.5734,1012.9006],[7.5069,35.5777,1008.0871],[7.5066,35.5826,996.8313],[7.5113,35.5858,1001.2593],[7.513,35.5918,1033.7292],[7.5189,35.5949,1008.55],[7.528,35.5917,1039.0264],[7.5348,35.584,1027.918],[7.5411,35.5823,1016.0759],[7.5483,35.5831,1011.0724],[7.5547,35.5862,1011.231],[7.57,35.599,971.6959],[7.5815,35.5961,936.4175],[7.5925,35.5955,907.6617]]]]}
,"properties": {"GID_2": "DZA.34.14_1","GID_0": "DZA","country": "Algeria","GID_1": "DZA.34_1","province": "OumelBouaghi","NL_NAME_1": "ولايةأمالبواقي","county": "ElDjazia","VARNAME_2": "ElDjezia","NL_NAME_2": "NA","TYPE_2": "Commune","ENGTYPE_2": "Commune","CC_2": "414","HASC_2": "DZ.OB.EJ","name": "El_Djazia.county","area_km2": 196.432,"hist_schema_id": "Elevation0-9000","hist_area_km2": {"900": 0.7757,"925": 14.7698,"950": 33.6127,"975": 37.2447,"1000": 29.8351,"1025": 20.2218,"1050": 16.5171,"1075": 13.7268,"1100": 11.4012,"1125": 8.9899,"1150": 5.2534,"1175": 2.5843,"1200": 0.8099,"1225": 0.5343,"1250": 0.1034,"1275": 0.0517}}}