{"type": "Feature","bbox": [6.4259,32.0035,7.2354,33.2139],"geometry": {"type": "MultiPolygon","coordinates": [[[[6.727,32.6249,113.4773],[6.6914,32.6769,119.4582],[6.6614,32.7255,112.925],[6.647,32.7706,115.8478],[6.5755,32.9712,117.2128],[6.562,33.0197,109.2194],[6.492,33.2139,96.4004],[6.4629,33.1758,104.6747],[6.4259,33.1215,100.9858],[6.4422,33.0919,102.9027],[6.4933,33.0091,106.1797],[6.5209,32.9546,111.8873],[6.6171,32.7779,115.1859],[6.6464,32.434,115.156],[6.5787,32.2342,119.7555],[6.9554,32.119,122.0509],[7.0129,32.0909,134.499],[7.0716,32.0576,126.0466],[7.2354,32.0035,126.9535],[7.0503,32.2021,121.8108],[7.0202,32.2377,131.627],[6.9983,32.2595,139.9257],[6.9685,32.3021,126.2004],[6.8853,32.4099,131.0191],[6.8305,32.4863,131.7654],[6.727,32.6249,113.4773]]]]}
,"properties": {"GID_2": "DZA.33.3_1","GID_0": "DZA","country": "Algeria","GID_1": "DZA.33_1","province": "Ouargla","NL_NAME_1": "ورقلة","county": "Benaceur","VARNAME_2": "NA","NL_NAME_2": "NA","TYPE_2": "Commune","ENGTYPE_2": "Commune","CC_2": "3017","HASC_2": "DZ.OG.BE","name": "Benaceur.county","area_km2": 1858.192,"hist_schema_id": "Elevation0-9000","hist_area_km2": {"100": 221.033,"125": 1357.02,"150": 273.859,"175": 5.903,"200": 0.377}}}