{"type": "Feature","bbox": [0.0135,35.777,0.1113,35.8332],"geometry": {"type": "MultiPolygon","coordinates": [[[[0.0542,35.8307,142.2486],[0.0507,35.8332,137.1283],[0.0447,35.8305,132.0859],[0.0292,35.8218,126.9522],[0.0235,35.8163,118.3659],[0.022,35.8117,116.6814],[0.0135,35.8086,112.4561],[0.0259,35.8052,81.4222],[0.0247,35.7979,61.3377],[0.0195,35.7873,48.9245],[0.0595,35.7849,29.6558],[0.0727,35.7894,34.3223],[0.0768,35.7882,31.4031],[0.0777,35.7827,26.6519],[0.0825,35.7801,24.3891],[0.0945,35.7803,25.504],[0.1062,35.777,25.7641],[0.1113,35.7771,27.4604],[0.1093,35.7814,28.0999],[0.1104,35.7866,31.3183],[0.102,35.7973,45.452],[0.0979,35.8001,51.3484],[0.0931,35.8143,96.5938],[0.0796,35.8254,186.8951],[0.0737,35.8279,263.8008],[0.0679,35.8264,254.5989],[0.0593,35.8269,194.6633],[0.0542,35.8307,142.2486]]]]}
,"properties": {"GID_2": "DZA.30.3_1","GID_0": "DZA","country": "Algeria","GID_1": "DZA.30_1","province": "Mostaganem","NL_NAME_1": "ولايةمستغانم","county": "AinNouissy","VARNAME_2": "AinNouissi","NL_NAME_2": "NA","TYPE_2": "Commune","ENGTYPE_2": "Commune","CC_2": "2705","HASC_2": "DZ.MG.AN","name": "Ain_Nouissy.county","area_km2": 31.79452,"hist_schema_id": "Elevation0-9000","hist_area_km2": {"25": 5.2974,"50": 6.91344,"75": 4.26459,"100": 2.648,"125": 2.87125,"150": 3.09466,"175": 1.94278,"200": 1.54734,"225": 1.6505,"250": 1.40981,"275": 0.15474}}}