{"type": "Feature","bbox": [-5.498,27.3004,0.3846,32.4175],"geometry": {"type": "MultiPolygon","coordinates": [[[[-2.6873,28.0231,348.1948],[-2.6585,28.0588,347.4785],[-2.6464,28.0714,348.6349],[-2.6389,28.0833,347.7063],[-2.6285,28.1031,347.2273],[-2.6322,28.1193,347.9389],[-2.631,28.1295,345.2763],[-2.6221,28.1455,345.0695],[-2.6053,28.1691,347.3315],[-2.5967,28.1888,349.4595],[-2.5869,28.2005,349.4034],[-2.5771,28.2155,349.1929],[-2.5751,28.2211,343.0195],[-2.2927,28.4236,347.0172],[-2.0039,28.7946,412.9942],[-1.9996,28.7979,453.2407],[-1.4176,28.9523,359.8295],[-1.0486,28.97,352.0063],[-0.9194,28.9803,319.9286],[-0.8778,29.0069,337.5268],[-0.6643,29.1781,366.215],[-0.6395,29.2849,381.5954],[-0.6908,29.5509,415.2584],[-0.6626,29.6594,427.8798],[-0.6536,29.6797,430.7503],[-0.6266,29.7574,456.6242],[-0.2529,29.9934,476.9147],[-0.1741,30.0449,459.6208],[0.0052,30.3224,496.9636],[0.3846,30.7009,506.5568],[0.3071,30.7585,564.0756],[0.034,30.9546,586.9095],[-0.0319,30.999,603.8913],[-0.1926,31.1144,633.7192],[-0.2589,31.1597,630.1417],[-0.2644,31.1739,630.2422],[-0.2565,31.1911,632.5616],[-0.2238,31.2768,672.1998],[-0.2469,31.2931,670.3103],[-0.2571,31.3067,686.9423],[-0.267,31.3148,697.7328],[-0.2869,31.3266,686.1727],[-0.2961,31.3363,701.1478],[-0.3244,31.3511,711.2322],[-0.3427,31.3563,710.9078],[-0.3584,31.367,712.167],[-0.3734,31.3921,713.8187],[-0.379,31.4058,718.0535],[-0.3757,31.4203,722.3369],[-0.3987,31.4377,722.3704],[-0.3911,31.453,725.2538],[-0.4001,31.4662,727.9513],[-0.4084,31.4848,730.6312],[-0.3991,31.495,731.0017],[-0.4017,31.5106,720.8425],[-0.3888,31.5195,733.8043],[-0.3786,31.5213,730.8495],[-0.3649,31.5481,734.7645],[-0.3564,31.5583,737.1686],[-0.3764,31.572,733.301],[-0.3867,31.5837,734.2258],[-0.3949,31.5991,735.9986],[-0.4012,31.6052,743.759],[-0.4055,31.6213,746.2216],[-0.4149,31.6362,718.04],[-0.4139,31.6481,751.2639],[-0.4089,31.6626,750.2173],[-0.3959,31.6546,750.0676],[-0.3844,31.6578,746.8441],[-0.3794,31.6681,759.829],[-0.3699,31.6713,777.4542],[-0.359,31.6843,778.3236],[-0.3707,31.6969,765.3058],[-0.371,31.7114,785.1333],[-0.4036,31.7298,789.2524],[-0.3916,31.7377,791.4274],[-0.3973,31.7498,785.6368],[-0.3963,31.7623,789.4146],[-0.3767,31.7633,793.5306],[-0.3778,31.7776,789.1174],[-0.3881,31.7902,782.0117],[-0.3856,31.8009,797.0168],[-0.3702,31.8013,801.864],[-0.3544,31.804,802.9272],[-0.3562,31.817,797.5447],[-0.363,31.8304,807.0139],[-0.3627,31.8446,794.3113],[-0.3738,31.8835,799.1545],[-0.3872,31.8927,800.727],[-0.3976,32.0001,839.2355],[-0.3874,32.0208,850.8277],[-0.3875,32.0388,859.3893],[-0.384,32.0559,864.244],[-0.3666,32.0651,877.9871],[-0.3738,32.08,875.1573],[-0.3664,32.0907,868.2382],[-0.3507,32.1016,889.2048],[-0.3351,32.1287,889.4462],[-0.3376,32.1433,890.8171],[-0.2875,32.1759,907.9415],[-0.2684,32.1832,904.5059],[-0.2472,32.1829,893.3945],[-0.2275,32.1768,881.151],[-0.2086,32.1687,876.8937],[-0.1916,32.1588,869.7161],[-0.1991,32.1702,876.0154],[-0.2001,32.1799,875.6462],[-0.1951,32.1941,889.671],[-0.1869,32.2058,887.7422],[-0.1713,32.2178,884.9688],[-0.1684,32.2317,888.9563],[-0.1682,32.2449,906.1685],[-0.1601,32.2584,899.0326],[-0.149,32.2704,912.3491],[-0.1479,32.2951,924.3185],[-0.1511,32.313,930.215],[-0.1505,32.3319,917.0865],[-0.224,32.2359,911.7718],[-0.3355,32.2546,863.3985],[-0.4173,32.2015,883.4667],[-0.7309,32.2695,1098.37],[-0.8918,32.1861,1108.0168],[-0.996,32.1451,859.7087],[-1.0113,32.2059,945.4454],[-1.0748,32.2064,927.3006],[-1.0637,32.2952,1750.9448],[-1.0575,32.2992,1693.0754],[-1.0515,32.3091,1664.2585],[-1.0529,32.3187,1653.6069],[-1.059,32.3233,1714.7799],[-1.0653,32.3238,1797.6323],[-1.0818,32.3177,1911.7876],[-1.1018,32.3143,1878.8402],[-1.1186,32.3222,1817.118],[-1.1267,32.3383,1947.0038],[-1.1307,32.3432,1953.1387],[-1.1323,32.349,1999.478],[-1.1303,32.3756,1990.024],[-1.1227,32.3989,2075.7463],[-1.123,32.405,2121.0864],[-1.1258,32.4109,1976.2969],[-1.1296,32.4154,1808.9554],[-1.1361,32.4151,1634.2626],[-1.1476,32.4175,1438.9921],[-1.1747,32.413,1273.5786],[-1.1979,32.4041,1180.6257],[-1.2022,32.4006,1172.8682],[-1.2084,32.3905,1131.9655],[-1.2066,32.3861,1110.8862],[-1.2107,32.372,1094.1648],[-1.2226,32.3454,1028.9691],[-1.2284,32.3418,1015.9524],[-1.2331,32.3364,1006.3127],[-1.2487,32.3279,984.0385],[-1.2494,32.3227,976.9215],[-1.2468,32.3186,963.2563],[-1.2375,32.3123,957.3317],[-1.2358,32.2954,951.8975],[-1.2416,32.273,940.5331],[-1.243,32.2606,935.6422],[-1.2456,32.2545,930.5314],[-1.2475,32.2407,924.8748],[-1.243,32.2234,915.0438],[-1.2432,32.2047,907.7134],[-1.2618,32.1951,902.2004],[-1.2754,32.1856,896.6069],[-1.2797,32.1807,894.645],[-1.2957,32.1724,890.5082],[-1.3001,32.1682,889.274],[-1.2985,32.1632,886.9956],[-1.2893,32.1591,883.805],[-1.2758,32.1632,880.5295],[-1.2634,32.1622,876.8115],[-1.2567,32.1661,876.1603],[-1.2501,32.1656,874.2697],[-1.2374,32.1683,869.2264],[-1.2328,32.1725,869.9565],[-1.2176,32.1753,865.1695],[-1.1909,32.1684,857.0065],[-1.1812,32.1622,854.4852],[-1.1713,32.1356,851.548],[-1.1681,32.1322,851.8035],[-1.1571,32.1291,844.9964],[-1.1568,32.1192,844.5324],[-1.1552,32.1144,844.4242],[-1.1575,32.1103,837.9069],[-1.1672,32.1103,851.0859],[-1.1727,32.1054,834.8425],[-1.1875,32.1017,852.2911],[-1.1974,32.0942,852.8715],[-1.2005,32.0885,841.1392],[-1.2051,32.0848,897.3227],[-1.2458,32.0761,977.4952],[-1.2589,32.0771,871.6063],[-1.2701,32.0852,887.077],[-1.2757,32.0862,975.1042],[-1.3258,32.0823,881.0627],[-1.3372,32.0828,901.8],[-1.3512,32.0899,1185.5217],[-1.3626,32.0912,1307.653],[-1.3832,32.086,1381.8533],[-1.4223,32.0878,1555.2017],[-1.4505,32.093,1500.3319],[-1.4839,32.0951,1583.6364],[-1.4971,32.1026,1712.4702],[-1.5037,32.1035,1753.8928],[-1.5775,32.0917,1181.7267],[-1.6557,32.1103,1610.9088],[-1.6713,32.1114,1639.3031],[-1.6861,32.1155,1631.5092],[-1.7147,32.1142,1744.5979],[-1.7264,32.121,1785.9652],[-1.7541,32.1228,1820.6409],[-1.7783,32.1313,1767.6475],[-1.7893,32.1371,1785.9688],[-1.8036,32.1383,1815.1598],[-1.8204,32.1446,1642.4602],[-1.8334,32.1467,1808.9209],[-1.8738,32.1471,1716.7584],[-1.8851,32.1526,1780.4595],[-1.896,32.1607,1876.4663],[-1.9064,32.1624,1783.7914],[-1.9182,32.1625,1878.6888],[-1.9231,32.158,1877.2134],[-1.9253,32.1492,1880.1633],[-1.9434,32.1581,1888.9194],[-1.9675,32.1569,1748.3203],[-1.9755,32.1606,1779.2368],[-1.978,32.166,1728.7921],[-1.9861,32.1727,1707.585],[-2.0139,32.1818,1597.9639],[-2.0867,32.16,1442.7677],[-2.1014,32.1532,1475.2405],[-2.1314,32.1461,1338.9082],[-2.1705,32.1422,1189.1722],[-2.1893,32.1427,1127.652],[-2.2306,32.1586,1120.8711],[-2.2446,32.1621,1103.0836],[-2.2583,32.162,1101.2307],[-2.2745,32.1679,1093.6655],[-2.2811,32.166,1091.6602],[-2.2888,32.1602,1142.3435],[-2.2957,32.1572,1125.0547],[-2.3144,32.1547,1120.9783],[-2.3619,32.1584,1094.2705],[-2.3836,32.1575,1046.4996],[-2.4627,32.1594,1010.3618],[-2.4847,32.1518,1051.5831],[-2.5041,32.1506,1046.9346],[-2.5456,32.1448,994.7104],[-2.559,32.1381,1025.6509],[-2.5907,32.1155,1032.7804],[-2.599,32.1125,1141.025],[-2.6625,32.1174,1025.9193],[-2.6963,32.1152,991.3625],[-2.7275,32.1104,963.3682],[-2.7516,32.1107,994.9253],[-2.7626,32.1127,1020.451],[-2.7977,32.1122,1096.0426],[-2.8187,32.1149,1024.1665],[-2.88,32.1106,935.2972],[-2.8954,32.112,867.5266],[-2.8999,32.1141,859.5675],[-2.9058,32.1206,856.7765],[-2.9152,32.1188,872.6047],[-2.9162,32.1114,866.9009],[-2.9189,32.1056,863.7275],[-2.9294,32.0961,868.5151],[-2.9299,32.0888,859.6765],[-2.928,32.0822,868.9272],[-2.9323,32.0732,857.0698],[-2.9332,32.0613,848.8577],[-2.9395,32.0357,836.7166],[-2.9384,32.029,833.9111],[-2.9246,32.0128,827.1396],[-2.9218,32.001,816.033],[-2.9095,31.9816,814.3428],[-2.8919,31.9623,795.3013],[-2.8888,31.9551,794.6983],[-2.8919,31.9481,797.1687],[-2.8863,31.932,785.7905],[-2.8815,31.9276,783.274],[-2.8764,31.9168,780.4482],[-2.8648,31.9027,773.9405],[-2.8612,31.8923,770.8347],[-2.8522,31.8809,766.8281],[-2.8502,31.8649,764.6943],[-2.8475,31.8587,763.489],[-2.8478,31.8523,761.6323],[-2.8525,31.84,756.7856],[-2.8524,31.835,754.1506],[-2.8487,31.8299,754.12],[-2.8389,31.825,752.2957],[-2.8323,31.8164,749.1783],[-2.8301,31.8114,747.3522],[-2.8316,31.798,743.1258],[-2.8426,31.7936,744.864],[-2.8691,31.7875,748.2236],[-2.9922,31.7659,880.819],[-3.0008,31.7626,885.7562],[-2.9995,31.7582,885.7756],[-3.3788,31.6881,1055.092],[-3.6618,31.6339,1148.9288],[-3.6639,31.5232,1105.3997],[-3.6627,31.3994,935.8726],[-3.6466,31.395,1041.6014],[-3.6497,31.3884,1036.056],[-3.6584,31.3791,1047.625],[-3.6649,31.3803,985.4387],[-3.6697,31.3851,963.1328],[-3.6737,31.3748,1041.2793],[-3.6783,31.3703,1038.496],[-3.6875,31.3686,1043.3713],[-3.6925,31.3644,1045.4449],[-3.6984,31.3638,959.2403],[-3.7024,31.3656,952.0256],[-3.7062,31.3633,1042.2072],[-3.7105,31.3596,1045.5231],[-3.713,31.348,1040.7731],[-3.7215,31.3417,1031.1488],[-3.7259,31.3404,1037.811],[-3.7344,31.3432,960.0397],[-3.739,31.3565,944.7982],[-3.7437,31.3608,944.59],[-3.7482,31.3606,1020.7332],[-3.7567,31.3443,1029.6624],[-3.7542,31.3379,1043.5814],[-3.7618,31.3346,1048.6588],[-3.7623,31.3296,1042.3655],[-3.7597,31.324,1043.3202],[-3.7616,31.3102,1041.88],[-3.7753,31.3035,1045.4618],[-3.7844,31.2903,1034.4949],[-3.781,31.2861,904.4858],[-3.773,31.2897,1000.7989],[-3.7721,31.2821,1038.3462],[-3.7685,31.2777,900.8865],[-3.7545,31.2802,970.1765],[-3.7543,31.2748,1034.6957],[-3.7592,31.2618,1027.2122],[-3.7694,31.2575,1007.4307],[-3.7771,31.2507,910.7682],[-3.7821,31.2484,891.1271],[-3.7788,31.2433,958.3942],[-3.7896,31.2358,968.1732],[-3.7797,31.2205,945.075],[-3.7729,31.2216,864.3594],[-3.7723,31.2125,1015.6987],[-3.7683,31.2057,987.883],[-3.7664,31.1978,972.2091],[-3.7656,31.184,918.0686],[-3.76,31.1806,878.5718],[-3.7593,31.1735,982.7745],[-3.7664,31.1608,995.3864],[-3.7728,31.1545,996.1829],[-3.7751,31.1492,944.8293],[-3.7758,31.1413,902.6849],[-3.7741,31.1354,894.1017],[-3.7767,31.1216,950.711],[-3.7747,31.1137,923.2846],[-3.7713,31.1194,862.1273],[-3.7546,31.1264,907.3557],[-3.7505,31.1238,972.8444],[-3.7446,31.1255,898.13],[-3.7402,31.1244,863.4073],[-3.7342,31.116,924.5133],[-3.7294,31.1167,823.4778],[-3.728,31.1226,852.2297],[-3.7235,31.1289,944.2299],[-3.7236,31.1365,937.7338],[-3.7328,31.1439,881.3256],[-3.7279,31.146,912.6673],[-3.7213,31.146,949.2985],[-3.7175,31.1505,934.0291],[-3.7069,31.1543,928.844],[-3.7079,31.1586,968.8221],[-3.712,31.1634,975.1061],[-3.7105,31.168,892.3655],[-3.6997,31.1744,986.2825],[-3.6963,31.1629,899.2301],[-3.6933,31.1665,887.5344],[-3.6788,31.1629,890.9144],[-3.6701,31.1489,871.7936],[-3.6722,31.1331,894.9233],[-3.6701,31.1253,854.5022],[-3.6701,31.1176,916.2169],[-3.6743,31.1105,919.4448],[-3.6743,31.0951,887.2527],[-3.6783,31.0881,827.2326],[-3.675,31.0836,814.312],[-3.6705,31.0844,816.4922],[-3.6615,31.082,807.9569],[-3.6551,31.0826,819.6587],[-3.6641,31.0885,932.7714],[-3.662,31.0929,922.8995],[-3.6639,31.1002,915.4515],[-3.6596,31.1015,934.7498],[-3.6563,31.0963,933.4542],[-3.642,31.093,918.8932],[-3.6366,31.0976,931.3466],[-3.6432,31.1115,887.9097],[-3.6446,31.1312,911.4077],[-3.6492,31.1353,947.8865],[-3.6441,31.1386,860.2263],[-3.6388,31.1399,874.2057],[-3.6398,31.1447,942.8159],[-3.6382,31.1508,942.7491],[-3.6337,31.1391,938.1088],[-3.6367,31.1322,966.3629],[-3.6379,31.12,952.5933],[-3.6366,31.1123,946.3487],[-3.6302,31.1073,897.1769],[-3.6217,31.1162,864.8822],[-3.6168,31.1191,877.3882],[-3.6143,31.1131,949.918],[-3.6159,31.1052,936.4728],[-3.6149,31.0986,882.683],[-3.6097,31.1008,934.1617],[-3.6058,31.0961,938.2313],[-3.6069,31.0895,928.7307],[-3.6033,31.0745,882.2794],[-3.5916,31.0744,923.17],[-3.5908,31.0599,876.3699],[-3.5869,31.0577,871.3827],[-3.5815,31.0499,816.3198],[-3.5761,31.0473,816.0096],[-3.5726,31.0435,817.4755],[-3.5705,31.0493,839.5367],[-3.5651,31.0515,833.976],[-3.5625,31.047,831.0516],[-3.5576,31.0508,869.1793],[-3.5598,31.0582,878.1569],[-3.5559,31.0616,875.9939],[-3.5495,31.0614,859.1218],[-3.5499,31.0483,887.74],[-3.5513,31.0425,869.9051],[-3.5539,31.0398,831.7797],[-3.5507,31.0395,835.9634],[-3.5473,31.0339,836.1281],[-3.545,31.0375,865.0322],[-3.5408,31.0363,882.975],[-3.5408,31.0243,869.5212],[-3.5359,31.0113,871.4002],[-3.5362,31.0036,864.7534],[-3.5394,30.9969,870.0804],[-3.5381,30.9895,847.8903],[-3.5406,30.9821,855.989],[-3.5387,30.9727,827.3235],[-3.5446,30.9701,848.0652],[-3.546,30.9639,841.0767],[-3.5401,30.9623,863.0598],[-3.5396,30.9564,854.9199],[-3.5438,30.953,847.7733],[-3.5529,30.9508,841.4943],[-3.5553,30.9461,838.7155],[-3.5514,30.9398,848.1044],[-3.5566,30.9402,846.3048],[-3.5562,30.9336,840.4536],[-3.5587,30.9287,837.743],[-3.5634,30.9285,836.2355],[-3.5722,30.9338,835.7628],[-3.5756,30.9278,820.3927],[-3.5759,30.9207,816.8611],[-3.5839,30.9196,834.7471],[-3.5847,30.9147,829.2623],[-3.5819,30.9095,816.2734],[-3.5925,30.8941,807.5566],[-3.5967,30.8926,824.2335],[-3.6017,30.8949,823.9931],[-3.6053,30.8785,821.5878],[-3.6111,30.8778,825.1585],[-3.6146,30.8653,818.3818],[-3.6186,30.8633,818.8549],[-3.6231,30.8642,819.651],[-3.6244,30.8684,823.2632],[-3.6339,30.8743,830.3586],[-3.6325,30.8695,823.2761],[-3.6375,30.8597,824.5071],[-3.6462,30.8521,819.2958],[-3.6496,30.8447,821.3812],[-3.6528,30.8268,817.0593],[-3.6531,30.8067,805.5496],[-3.6632,30.7967,797.9258],[-3.6581,30.7824,805.9291],[-3.6572,30.7683,804.8145],[-3.6524,30.7666,805.0674],[-3.6494,30.7724,802.2672],[-3.6432,30.7733,803.849],[-3.6272,30.7654,794.8942],[-3.6217,30.7567,800.8428],[-3.6209,30.7408,801.6272],[-3.6155,30.7349,798.2375],[-3.6166,30.7294,793.4671],[-3.6209,30.7284,791.0774],[-3.625,30.7301,797.1901],[-3.6289,30.7252,795.207],[-3.6313,30.7176,789.191],[-3.6308,30.7115,788.272],[-3.6429,30.6996,783.0529],[-3.647,30.6975,786.5821],[-3.7117,30.6732,751.7214],[-3.843,30.6274,784.3579],[-3.9948,30.5924,796.5128],[-4.1455,30.5848,746.8666],[-4.3202,30.5284,601.0356],[-4.6064,30.2821,685.1754],[-4.9355,30.14,683.8781],[-5.1134,30.009,712.7092],[-5.1229,30.0025,721.1483],[-5.1376,30.0007,696.1538],[-5.1448,29.9943,695.644],[-5.1852,29.9697,640.3818],[-5.2397,29.9334,630.5806],[-5.2517,29.9153,614.9366],[-5.2724,29.9059,600.6407],[-5.285,29.8971,599.1164],[-5.3225,29.8463,585.3526],[-5.3265,29.8363,583.1112],[-5.3283,29.8278,582.0435],[-5.3198,29.7959,577.2567],[-5.3241,29.7825,575.3679],[-5.3336,29.7679,572.797],[-5.498,29.5646,532.5549],[-5.3915,29.4919,560.6553],[-5.2656,29.4102,589.3275],[-4.889,29.4146,642.2604],[-4.6527,29.3182,551.1991],[-4.6222,29.3027,545.3856],[-4.5098,29.0166,497.6272],[-4.5006,28.9993,496.7048],[-4.393,28.7006,458.9814],[-4.3175,28.4848,430.834],[-4.0328,28.0595,389.2571],[-4.0084,28.0238,388.2209],[-3.9956,28.0081,383.3962],[-3.9898,27.9925,389.4565],[-3.972,27.7021,374.1992],[-3.7015,27.4344,453.2392],[-3.5653,27.3448,497.4872],[-3.0126,27.306,400.103],[-2.9958,27.3009,370.5896],[-2.9822,27.3004,379.2849],[-2.9971,27.3127,370.42],[-3.0341,27.3487,396.9792],[-3.0309,27.3576,376.2685],[-3.0145,27.3825,383.3023],[-3.008,27.4152,382.2636],[-3.002,27.4353,377.0433],[-2.9957,27.4499,369.5061],[-2.9922,27.4768,368.3032],[-2.9843,27.4942,364.5058],[-2.9806,27.5113,363.0225],[-2.9707,27.5373,356.7234],[-2.9668,27.5558,356.8533],[-2.9483,27.6048,346.6158],[-2.9406,27.636,341.2627],[-2.9315,27.6588,335.0772],[-2.9181,27.7089,317.4688],[-2.9135,27.7188,319.8248],[-2.8954,27.7468,329.9737],[-2.8978,27.7577,320.5681],[-2.903,27.7642,325.6527],[-2.9035,27.7694,331.9785],[-2.8921,27.7787,335.4902],[-2.8851,27.7912,336.0383],[-2.8809,27.7946,336.6964],[-2.87,27.8115,339.5319],[-2.8256,27.8568,342.7992],[-2.8019,27.894,341.1686],[-2.7759,27.9148,345.1747],[-2.729,27.9641,346.4128],[-2.7181,27.9817,348.1009],[-2.7042,27.9984,350.3292],[-2.7006,28.0067,349.268],[-2.6873,28.0231,348.1948]],
[[-3.6376,31.1589,964.3448],[-3.6382,31.1508,942.7491],[-3.642,31.1564,945.4635],[-3.6415,31.1631,944.9535],[-3.6384,31.1666,962.6614],[-3.6376,31.1589,964.3448]]],
[[[-3.6504,31.0871,936.4006],[-3.6551,31.0826,819.6587],[-3.647,31.0831,861.7386],[-3.6504,31.0871,936.4006]]],
[[[-3.7056,31.146,977.3139],[-3.7037,31.1515,947.4318],[-3.7069,31.1543,928.844],[-3.7056,31.146,977.3139]]]]}
,"properties": {"GID_1": "DZA.7_1","GID_0": "DZA","country": "Algeria","province": "Béchar","VARNAME_1": "Colomb-Béchar|Bechar","NL_NAME_1": "ولايةبشار","TYPE_1": "Wilaya","ENGTYPE_1": "Province","CC_1": "8","HASC_1": "DZ.BC","ISO_1": "NA","name": "Béchar.province","area_km2": 161177.45,"hist_schema_id": "Elevation0-9000","hist_area_km2": {"300": 471.78,"325": 830.63,"350": 4567.77,"375": 8118.06,"400": 8771.2,"425": 6966.52,"450": 7295.07,"475": 8353.15,"500": 8359.41,"525": 10114.8,"550": 12428.69,"575": 11492.28,"600": 11346.45,"625": 8499.42,"650": 7521.22,"675": 6182.22,"700": 6490.97,"725": 5214.96,"750": 4708.9,"775": 3910.44,"800": 3387.25,"825": 3304.56,"850": 2832.62,"875": 1836.83,"900": 1147.59,"925": 921.77,"950": 897.05,"975": 1070.96,"1000": 896.48,"1025": 772.25,"1050": 562.68,"1075": 361.38,"1100": 272.13,"1125": 199.41,"1150": 119.08,"1175": 80.18,"1200": 71.93,"1225": 62.69,"1250": 55.45,"1275": 50.74,"1300": 45.92,"1325": 44.49,"1350": 43.88,"1375": 41.59,"1400": 40.23,"1425": 39.87,"1450": 36.76,"1475": 32.65,"1500": 32.88,"1525": 30.65,"1550": 31.51,"1575": 29.66,"1600": 27.92,"1625": 25.2,"1650": 18.88,"1675": 15.45,"1700": 16.28,"1725": 15.09,"1750": 14.07,"1775": 11.27,"1800": 8.96,"1825": 7.36,"1850": 5.74,"1875": 4.31,"1900": 2.53,"1925": 1.86,"1950": 1.4}}}