{"type": "Feature","id": "2148","bbox": [-6.00077,28.20724,0.39913,32.3273],"geometry": {"type": "Polygon","coordinates": [[[0.39913,30.70869,518.7227],[-0.15402,31.12379,640.923],[-0.37023,31.337,662.522],[-0.40082,31.39067,675.7415],[-0.40113,31.42935,686.3093],[-0.03945,32.3273,828.4283],[-0.84509,32.11003,855.1105],[-0.89562,32.10463,859.688],[-0.91821,32.10773,841.5475],[-0.94926,32.17243,887.2379],[-0.96115,32.1909,923.5895],[-0.97304,32.20493,893.9766],[-0.98291,32.21473,881.5675],[-0.99402,32.22349,895.0638],[-1.00089,32.22775,901.8923],[-1.01009,32.23191,930.6331],[-1.02817,32.23754,939.3478],[-1.04983,32.24219,1070.1659],[-1.11592,32.24336,1286.8694],[-1.25772,32.22904,918.7899],[-1.27342,32.22944,937.7962],[-1.2755,32.21752,926.3598],[-1.27519,32.20907,915.4104],[-1.27664,32.20085,910.6544],[-1.28299,32.19018,901.4194],[-1.28919,32.18486,895.8121],[-1.30568,32.17372,894.8334],[-1.30955,32.16744,912.5737],[-1.30516,32.15117,901.0247],[-1.28899,32.15091,899.2426],[-1.25183,32.16352,873.7277],[-1.23271,32.16372,877.1988],[-1.21183,32.15835,867.1109],[-1.19561,32.14605,858.3029],[-1.19059,32.12522,859.7499],[-1.21033,32.08967,905.4961],[-1.24956,32.08166,888.2361],[-1.32495,32.08471,880.9366],[-1.33343,32.08507,912.7026],[-1.35741,32.08605,1173.0206],[-1.39539,32.08755,1429.702],[-1.44562,32.08952,1448.0377],[-1.50634,32.09194,1381.7238],[-1.57579,32.09473,1152.8706],[-1.65238,32.09784,1465.6951],[-1.73433,32.10109,1564.343],[-1.81996,32.1045,1553.9252],[-1.90755,32.10796,1512.0011],[-1.99545,32.11148,1280.6929],[-2.08186,32.11494,1294.0768],[-2.16511,32.1183,1191.3943],[-2.2434,32.1214,1066.856],[-2.31518,32.12429,989.8073],[-2.37864,32.12677,980.1638],[-2.51615,32.1322,978.9],[-2.69557,32.08967,1004.4715],[-2.88119,32.07629,898.5947],[-2.93873,32.04864,844.0443],[-2.86977,31.89243,772.559],[-2.82784,31.79459,739.9847],[-3.00256,31.77362,884.3251],[-3.16172,31.73255,933.6348],[-3.21921,31.71771,964.243],[-3.51156,31.67274,1085.6665],[-3.54875,31.66995,1097.9189],[-3.59138,31.67827,1120.475],[-3.65951,31.64782,1140.1469],[-3.67348,31.38923,948.4382],[-3.74747,31.38517,903.2087],[-3.8025,31.35065,914.265],[-3.81519,31.33716,861.458],[-3.81922,31.31886,857.3736],[-3.81291,31.24337,829.7328],[-3.81498,31.22052,804.7006],[-3.83617,31.18978,756.5831],[-3.84284,31.17019,751.9158],[-3.83932,31.15283,766.0735],[-3.82746,31.14384,755.4286],[-3.8108,31.14291,778.1542],[-3.79297,31.14968,801.5087],[-3.76372,31.17345,892.1317],[-3.74886,31.18022,1006.5363],[-3.73142,31.17634,1000.5476],[-3.71711,31.16327,984.2609],[-3.68972,31.12559,825.2548],[-3.67194,31.11087,956.3247],[-3.63587,31.09567,930.0317],[-3.62414,31.08653,872.0188],[-3.61453,31.06803,810.6039],[-3.61009,31.0503,785.506],[-3.60874,31.03087,779.6117],[-3.55467,30.95593,805.5638],[-3.61058,30.87905,825.1776],[-3.65951,30.83712,809.1595],[-3.65252,30.77422,803.0349],[-3.64553,30.71132,771.7552],[-3.83423,30.62745,777.1519],[-4.00196,30.59251,798.6625],[-4.15571,30.58552,764.5387],[-4.27452,30.55756,799.7573],[-4.37237,30.50864,633.2086],[-4.48419,30.38284,739.9087],[-4.62397,30.285,685.6049],[-4.77073,30.22909,727.201],[-4.87556,30.18017,738.233],[-4.95943,30.12426,705.172],[-5.07125,30.04039,683.5054],[-5.17608,29.97749,722.5397],[-5.27393,29.88664,596.1331],[-5.34382,29.76783,572.0424],[-5.43467,29.64203,546.8808],[-5.5395,29.52322,568.6478],[-5.63735,29.49526,622.6118],[-5.72121,29.52322,619.6192],[-5.75616,29.61407,540.6949],[-5.88196,29.60009,543.6266],[-6.00077,29.57913,641.9053],[-5.26678,28.20724,440.84],[-3.75064,28.56689,434.0492],[-3.55262,28.58244,424.081],[-3.37392,28.50214,401.3152],[-3.26902,28.43868,442.8057],[-3.02268,28.33104,390.3598],[-2.81292,28.29435,369.9511],[-2.56968,28.38108,370.2933],[-2.42917,28.45826,344.9951],[-2.11415,28.6758,330.134],[-1.98977,28.73998,431.0144],[-1.87603,28.77904,411.8259],[-0.95836,28.92302,319.6559],[-0.82565,29.0082,326.5278],[-0.19923,29.74503,423.2696],[0.39913,30.70869,518.7227]]]}
,"properties": {"ISO3166-1-Alpha-3": "DZA","country": "Algeria","fill": "#FF0","name": "Béchar","area_km2": 165293.81,"hist_schema_id": "Elevation0-9000","hist_area_km2": {"300": 473.47,"325": 725.44,"350": 2205.6,"375": 3933.81,"400": 4724.21,"425": 7104.12,"450": 9815.34,"475": 10857.9,"500": 10256.88,"525": 11618.95,"550": 14228.9,"575": 12923.63,"600": 12471.34,"625": 9102.16,"650": 7845.23,"675": 6371.47,"700": 6631.48,"725": 5327.73,"750": 4799.48,"775": 4037.02,"800": 3635.93,"825": 3536.45,"850": 3010.24,"875": 2026.34,"900": 1248.38,"925": 942.26,"950": 860.77,"975": 998.27,"1000": 815.95,"1025": 736.19,"1050": 534.08,"1075": 345.25,"1100": 259.07,"1125": 203.25,"1150": 109.71,"1175": 68.96,"1200": 61.73,"1225": 54.69,"1250": 48.2,"1275": 43.25,"1300": 34.58,"1325": 30.75,"1350": 28.76,"1375": 25.04,"1400": 23.3,"1425": 20.74,"1450": 20.58,"1475": 16.6,"1500": 14.41,"1525": 12.74,"1550": 11.93,"1575": 10.78,"1600": 9.49,"1625": 8.36,"1650": 5.79,"1675": 3.56,"1700": 3.29,"1725": 3.35,"1750": 4.3,"1775": 3.47,"1800": 2.7,"1825": 2.27,"1850": 1.76,"1875": 1.3}}}