{"type": "Feature","bbox": [0.882,35.4259,1.136,35.6323],"geometry": {"type": "MultiPolygon","coordinates": [[[[1.0126,35.5999,768.6354],[1.0157,35.5937,747.1198],[1.016,35.5733,681.762],[1.0123,35.5683,613.0767],[0.9854,35.5726,573.9122],[0.9576,35.565,558.813],[0.9537,35.5608,571.6586],[0.9542,35.5541,663.4703],[0.9519,35.5481,768.8561],[0.9537,35.5423,847.8647],[0.9409,35.5388,723.3839],[0.9274,35.5402,657.0991],[0.9222,35.5362,677.0332],[0.9267,35.529,792.9088],[0.9146,35.5259,803.7803],[0.9107,35.5234,752.4487],[0.9119,35.5179,664.4674],[0.9108,35.5134,598.5969],[0.9023,35.5057,599.2526],[0.8925,35.4812,404.3988],[0.8867,35.4781,396.757],[0.882,35.4721,395.0135],[0.8909,35.4594,495.1307],[0.9026,35.4529,390.0102],[0.9142,35.4513,483.737],[0.9305,35.4458,574.3581],[0.9495,35.4475,616.7784],[0.9521,35.4522,581.0841],[0.9574,35.4538,546.4558],[0.9739,35.4459,529.0989],[0.9829,35.4266,523.9944],[0.9884,35.4259,502.8557],[1.0005,35.43,541.642],[1.0305,35.4473,655.207],[1.0412,35.4499,677.6685],[1.044,35.4539,694.6508],[1.0487,35.4552,717.691],[1.0571,35.4632,768.5194],[1.0633,35.4636,785.7341],[1.0695,35.4619,753.9561],[1.1107,35.4649,624.2714],[1.1093,35.4729,600.5399],[1.0978,35.4826,664.1867],[1.0943,35.4891,723.682],[1.0935,35.4959,723.1204],[1.0975,35.5087,679.1339],[1.1018,35.5061,679.9468],[1.1062,35.5092,734.4175],[1.1108,35.5086,696.5582],[1.1107,35.5151,704.8724],[1.1073,35.5246,759.3687],[1.1087,35.5291,785.0777],[1.1131,35.5296,718.364],[1.1177,35.5279,679.006],[1.1222,35.5291,667.407],[1.1217,35.5376,747.9418],[1.1189,35.5415,807.4081],[1.1229,35.5441,717.9346],[1.136,35.5415,780.5521],[1.1292,35.5543,730.6578],[1.1278,35.5607,699.3391],[1.1156,35.5731,561.4075],[1.1119,35.5892,696.9128],[1.1064,35.5899,726.4604],[1.1027,35.5949,664.4524],[1.1018,35.6,640.3423],[1.0976,35.6029,694.1683],[1.0998,35.6213,595.2731],[1.1026,35.6267,476.7097],[1.0959,35.6289,513.7533],[1.0867,35.6255,532.9797],[1.07,35.632,746.2634],[1.0654,35.6323,854.6919],[1.0636,35.628,850.1369],[1.0639,35.6044,730.9573],[1.055,35.597,701.5674],[1.0348,35.5986,712.622],[1.022,35.6026,770.8591],[1.0126,35.5999,768.6354]]]]}
,"properties": {"GID_2": "DZA.43.26_1","GID_0": "DZA","country": "Algeria","GID_1": "DZA.43_1","province": "Tiaret","NL_NAME_1": "ولايةتيارت","county": "Rahouia","VARNAME_2": "Rahūyah","NL_NAME_2": "NA","TYPE_2": "Commune","ENGTYPE_2": "Commune","CC_2": "1414","HASC_2": "DZ.TR.RA","name": "Rahouia.county","area_km2": 277.7868,"hist_schema_id": "Elevation0-9000","hist_area_km2": {"375": 0.0691,"400": 0.4317,"425": 0.9496,"450": 1.6057,"475": 2.2963,"500": 3.2804,"525": 5.4219,"550": 8.7355,"575": 12.0655,"600": 15.515,"625": 20.4141,"650": 27.4529,"675": 32.63,"700": 35.0293,"725": 33.7346,"750": 26.9874,"775": 19.724,"800": 14.237,"825": 9.7333,"850": 4.9881,"875": 1.9504,"900": 0.4142,"925": 0.1208}}}