{"type": "Feature","bbox": [3.8266,36.0283,4.0054,36.1608],"geometry": {"type": "MultiPolygon","coordinates": [[[[4.0017,36.047,883.7927],[3.9954,36.0662,830.3687],[3.9985,36.0725,789.9119],[4.0038,36.0764,772.6688],[4.0054,36.082,811.708],[3.9902,36.0932,797.9105],[3.9834,36.102,762.4636],[3.9771,36.1024,746.6155],[3.9735,36.1064,753.5206],[3.9717,36.1119,709.3287],[3.9811,36.1277,704.5011],[3.9782,36.1319,668.4416],[3.9861,36.1428,650.0563],[3.9877,36.1527,658.4979],[3.9852,36.1608,654.7369],[3.9406,36.1563,975.9446],[3.9344,36.147,1000.6578],[3.9205,36.139,997.9424],[3.9058,36.139,1044.8474],[3.8763,36.1267,1001.2988],[3.8574,36.1268,845.9888],[3.8477,36.1355,760.0185],[3.8482,36.1046,795.6973],[3.8444,36.0981,813.8505],[3.8331,36.0935,964.4824],[3.8266,36.0806,1028.3639],[3.8277,36.0751,977.7983],[3.8331,36.0705,871.3544],[3.8339,36.0645,896.0018],[3.828,36.0491,962.2141],[3.8569,36.0416,1299.3738],[3.8775,36.0475,1344.1514],[3.9056,36.0465,1239.9338],[3.9329,36.0322,1063.8369],[3.9457,36.0328,1070.3071],[3.9635,36.0307,1091.9094],[3.9675,36.0283,1162.0693],[3.9744,36.0318,1246.9294],[3.9912,36.0448,944.1479],[3.996,36.0471,904.9351],[4.0017,36.047,883.7927]]]]}
,"properties": {"GID_2": "DZA.12.13_1","GID_0": "DZA","country": "Algeria","GID_1": "DZA.12_1","province": "Bouira","NL_NAME_1": "ولايةالبويرة","county": "BordjOkhriss","VARNAME_2": "BordjOukhriss","NL_NAME_2": "NA","TYPE_2": "Commune","ENGTYPE_2": "Commune","CC_2": "1018","HASC_2": "DZ.BU.BO","name": "Bordj_Okhriss.county","area_km2": 154.8873,"hist_schema_id": "Elevation0-9000","hist_area_km2": {"625": 0.1027,"650": 0.6506,"675": 1.0445,"700": 2.2263,"725": 3.8026,"750": 7.2975,"775": 9.7821,"800": 9.7481,"825": 9.7141,"850": 9.6801,"875": 9.4231,"900": 10.5711,"925": 11.1882,"950": 11.6506,"975": 9.3891,"1000": 7.7963,"1025": 6.5801,"1050": 6.306,"1075": 4.9521,"1100": 3.3586,"1125": 2.8792,"1150": 2.605,"1175": 2.468,"1200": 2.2624,"1225": 2.0567,"1250": 1.7139,"1275": 1.1826,"1300": 1.0968,"1325": 0.9083,"1350": 1.131,"1375": 0.7883,"1400": 0.4969,"1425": 0.0343}}}