{"type":"Feature","properties":{"GID_2":"DZA.38.47_1","GID_0":"DZA","country":"Algeria","GID_1":"DZA.38_1","province":"SidiBelAbbès","NL_NAME_1":"ولايةسيديبلعباس","county":"Taoudmout","VARNAME_2":"NA","NL_NAME_2":"NA","TYPE_2":"Commune","ENGTYPE_2":"Commune","CC_2":"2249","HASC_2":"DZ.SB.TO","name":"Taoudmout.county"},
"geometry":{"type": "MultiPolygon","coordinates": [[[[-0.1284,34.7027,1157.0289],[-0.1358,34.6946,1163.4396],[-0.1511,34.6834,1193.2922],[-0.1584,34.6705,1144.2002],[-0.1724,34.6605,1110.4763],[-0.168,34.6584,1120.4882],[-0.1818,34.6465,1163.1842],[-0.1884,34.6386,1148.8231],[-0.1916,34.6325,1201.5217],[-0.1873,34.6232,1185.4773],[-0.1933,34.6193,1222.9811],[-0.1646,34.601,1255.8469],[-0.1467,34.5951,1201.9127],[-0.1318,34.5923,1180.7629],[-0.127,34.5939,1189.0498],[-0.1203,34.5932,1168.5886],[-0.117,34.5651,1163.8223],[-0.1085,34.5447,1155.439],[-0.1001,34.5357,1137.4851],[-0.0981,34.5233,1143.5697],[-0.0875,34.5202,1119.1416],[-0.0589,34.5504,1152.7003],[-0.0331,34.5721,1136.7795],[-0.0361,34.5856,1143.6448],[-0.0531,34.6096,1183.1804],[-0.0486,34.6156,1169.3267],[-0.0505,34.6199,1178.3621],[-0.0667,34.635,1204.634],[-0.0855,34.6622,1201.4812],[-0.0926,34.6825,1089.6243],[-0.1064,34.6974,1094.3275],[-0.1284,34.7027,1157.0289]]]]}}