{"type": "Feature","bbox": [0.1344,36.0274,0.3109,36.1329],"geometry": {"type": "MultiPolygon","coordinates": [[[[0.1792,36.0341,11.7757],[0.1802,36.0429,104.7078],[0.1829,36.0499,211.4308],[0.2049,36.0552,314.0244],[0.2142,36.0656,411.8811],[0.2187,36.0674,409.2835],[0.2301,36.0661,378.7278],[0.2386,36.0706,320.4583],[0.2416,36.0666,218.6556],[0.2393,36.0599,139.8489],[0.24,36.0537,97.092],[0.2586,36.0659,235.4048],[0.2612,36.0611,253.3228],[0.2833,36.0473,60.5794],[0.2841,36.0532,70.3662],[0.2819,36.058,90.5805],[0.2831,36.0623,97.4197],[0.2951,36.071,142.4733],[0.3109,36.0767,143.2314],[0.304,36.1062,252.3921],[0.2967,36.1089,241.3829],[0.2935,36.1143,239.4714],[0.2965,36.118,199.8315],[0.2899,36.1273,135.589],[0.2849,36.1329,5.6139],[0.2658,36.1291,0.0],[0.2567,36.1239,0.0],[0.2348,36.1218,16.1377],[0.223,36.1176,2.4934],[0.2175,36.1127,3.9988],[0.2085,36.1088,0.0],[0.2012,36.0977,9.595],[0.1881,36.0835,4.33],[0.1743,36.0743,7.6652],[0.1494,36.0511,16.5311],[0.1344,36.0405,0.0],[0.1522,36.0312,5.1757],[0.1653,36.0274,4.2086],[0.1765,36.0278,17.1848],[0.1792,36.0341,11.7757]]]]}
,"properties": {"GID_2": "DZA.30.6_1","GID_0": "DZA","country": "Algeria","GID_1": "DZA.30_1","province": "Mostaganem","NL_NAME_1": "ولايةمستغانم","county": "BenabdelmalekRamdane","VARNAME_2": "AbdelmalekRamdane","NL_NAME_2": "NA","TYPE_2": "Commune-Cotiere","ENGTYPE_2": "Commune-Cotiere","CC_2": "2713","HASC_2": "DZ.MG.BR","name": "Benabdelmalek_Ramdane.county","area_km2": 80.75687,"hist_schema_id": "Elevation0-9000","hist_area_km2": {"0": 2.79341,"25": 5.75688,"50": 4.55785,"75": 3.42713,"100": 3.42714,"125": 4.00965,"150": 4.93481,"175": 5.94569,"200": 6.27112,"225": 4.69501,"250": 7.33308,"275": 11.97677,"300": 6.46003,"325": 3.99255,"350": 1.97088,"375": 1.50816,"400": 1.59386,"425": 0.10283}}}