{"type": "Feature","bbox": [3.138,33.4975,3.8828,34.0038],"geometry": {"type": "MultiPolygon","coordinates": [[[[3.1726,34.0038,773.9258],[3.1495,33.9884,769.9218],[3.138,33.9838,815.0387],[3.1492,33.9471,737.3868],[3.1594,33.936,750.7455],[3.1709,33.9131,725.2503],[3.1878,33.87,712.0173],[3.1887,33.8642,722.1528],[3.2128,33.8547,698.9682],[3.2112,33.8455,708.9125],[3.2222,33.8216,686.6548],[3.3185,33.8082,677.3495],[3.3371,33.8035,674.3312],[3.3397,33.7986,676.6281],[3.4658,33.7601,745.1319],[3.5511,33.6923,731.1251],[3.5927,33.662,757.2281],[3.5974,33.6478,760.3029],[3.6117,33.6288,771.6343],[3.649,33.6179,774.9162],[3.7127,33.5262,757.777],[3.8005,33.4975,738.5479],[3.8828,33.5918,712.1772],[3.6635,33.7307,712.3315],[3.635,33.7721,689.2051],[3.6136,33.7851,699.905],[3.4775,33.8313,647.7079],[3.4275,33.8755,646.2631],[3.3922,33.9194,670.2374],[3.3426,33.9427,742.26],[3.2958,33.9805,744.5206],[3.2796,33.9881,727.9319],[3.2361,33.972,715.3264],[3.2163,33.9763,707.1268],[3.1822,33.9904,731.4399],[3.1726,34.0038,773.9258]]]]}
,"properties": {"GID_2": "DZA.16.30_1","GID_0": "DZA","country": "Algeria","GID_1": "DZA.16_1","province": "Djelfa","NL_NAME_1": "ولايةالجلفة","county": "SedRahal","VARNAME_2": "NA","NL_NAME_2": "NA","TYPE_2": "Commune","ENGTYPE_2": "Commune","CC_2": "1706","HASC_2": "DZ.DJ.SR","name": "Sed_Rahal.county","area_km2": 955.0488,"hist_schema_id": "Elevation0-9000","hist_area_km2": {"650": 129.3143,"675": 194.4966,"700": 182.3306,"725": 122.2474,"750": 234.5761,"775": 91.8904,"800": 0.1934}}}