{"type":"Feature","properties":{"GID_2":"DZA.47.44_1","GID_0":"DZA","country":"Algeria","GID_1":"DZA.47_1","province":"TiziOuzou","NL_NAME_1":"ولايةغليزان","county":"Larbaa-Nath-Irathen","VARNAME_2":"LarbaNaitIrathen|Arba-`a-Naya","NL_NAME_2":"NA","TYPE_2":"Commune","ENGTYPE_2":"Commune","CC_2":"1521","HASC_2":"DZ.TO.LN","name":"Larbaa-Nath-Irathen.county"},
"geometry":{"type": "MultiPolygon","coordinates": [[[[4.1623,36.6017,197.1496],[4.1735,36.6051,211.8975],[4.1811,36.6044,230.9453],[4.2035,36.597,311.4221],[4.2086,36.5997,378.9609],[4.2171,36.6114,595.4231],[4.2225,36.6145,680.2177],[4.2211,36.6228,982.9273],[4.2164,36.6291,926.3131],[4.2131,36.6421,703.1285],[4.2164,36.6509,632.3557],[4.2158,36.6619,511.2363],[4.2038,36.6605,629.7344],[4.1911,36.6657,557.6937],[4.1852,36.6666,655.5586],[4.1805,36.6689,506.9398],[4.1772,36.6751,383.2856],[4.1716,36.6763,349.5479],[4.1681,36.6661,565.1392],[4.1711,36.657,415.4623],[4.1677,36.6508,530.3426],[4.1602,36.643,518.3635],[4.1593,36.6388,360.9256],[4.1553,36.6355,254.4212],[4.1484,36.6332,160.3501],[4.1402,36.6213,214.359],[4.1453,36.6094,193.5432],[4.1531,36.6085,203.1094],[4.1557,36.6034,198.249],[4.1623,36.6017,197.1496]]]]}}