{"type": "Feature","bbox": [7.8093,36.2925,8.0254,36.4692],"geometry": {"type": "MultiPolygon","coordinates": [[[[7.9614,36.4618,531.9812],[7.9548,36.4586,537.6424],[7.9403,36.4553,483.0654],[7.9217,36.4401,491.9568],[7.9017,36.4356,430.3768],[7.8876,36.4259,397.7471],[7.8851,36.4203,416.4652],[7.8808,36.4168,510.6489],[7.8754,36.4158,560.6446],[7.8679,36.4065,797.0089],[7.8543,36.4108,628.0526],[7.8376,36.4205,376.3254],[7.8214,36.423,248.9051],[7.8121,36.4066,262.0934],[7.8118,36.3928,326.2795],[7.8155,36.3896,411.0978],[7.8157,36.3847,396.414],[7.8093,36.3754,584.0472],[7.827,36.3607,758.978],[7.8318,36.3513,815.3644],[7.8404,36.3498,864.3796],[7.8394,36.3386,1052.9188],[7.8551,36.3177,1123.8557],[7.8485,36.3099,1121.641],[7.8356,36.3013,1061.6482],[7.8477,36.3027,1197.4552],[7.8595,36.2966,1187.6407],[7.901,36.2925,860.4143],[7.9007,36.2972,882.3593],[7.9026,36.3025,898.9821],[7.9118,36.3005,917.6327],[7.9223,36.3015,899.2194],[7.929,36.3038,871.7207],[7.9302,36.3097,739.2122],[7.9382,36.3198,551.5665],[7.9492,36.319,563.0212],[7.9698,36.3092,559.6812],[7.9629,36.3209,773.608],[7.9632,36.3328,963.2625],[7.961,36.3367,1064.1415],[7.9619,36.3423,1132.0518],[7.9728,36.3561,1096.3367],[7.9859,36.362,1083.6725],[7.9873,36.3819,1219.6022],[7.9905,36.3852,1249.5708],[7.9953,36.3875,1304.6707],[8.0057,36.3875,1183.8884],[8.0207,36.398,1218.426],[8.0193,36.4102,1083.3025],[8.0151,36.4134,961.2947],[8.0131,36.4193,795.6446],[8.0117,36.4331,572.4427],[8.0141,36.4372,475.9607],[8.0137,36.4467,422.9837],[8.0167,36.4517,346.5934],[8.0229,36.4536,390.4945],[8.0254,36.4573,348.8954],[8.0212,36.4601,342.8527],[8.0088,36.4608,440.3553],[8.0028,36.463,469.8969],[7.9928,36.4692,534.4354],[7.9614,36.4618,531.9812]]]]}
,"properties": {"GID_2": "DZA.40.10_1","GID_0": "DZA","country": "Algeria","GID_1": "DZA.40_1","province": "SoukAhras","NL_NAME_1": "ولايةسوقأهراس","county": "Machroha","VARNAME_2": "Mechroha","NL_NAME_2": "NA","TYPE_2": "Commune","ENGTYPE_2": "Commune","CC_2": "4104","HASC_2": "DZ.SA.MA","name": "Machroha.county","area_km2": 220.59,"hist_schema_id": "Elevation0-9000","hist_area_km2": {"225": 0.1365,"250": 0.29,"275": 0.4607,"300": 0.6313,"325": 0.9043,"350": 1.2795,"375": 1.5866,"400": 1.8254,"425": 2.4396,"450": 3.8042,"475": 5.4421,"500": 6.2096,"525": 6.7215,"550": 7.6433,"575": 7.9508,"600": 8.3776,"625": 8.4818,"650": 7.4586,"675": 7.7499,"700": 9.0988,"725": 8.4678,"750": 8.6903,"775": 8.2122,"800": 8.3999,"825": 8.502,"850": 8.2464,"875": 7.9567,"900": 8.0426,"925": 7.8544,"950": 7.4788,"975": 7.0518,"1000": 6.266,"1025": 5.8733,"1050": 4.8831,"1075": 5.0368,"1100": 4.6951,"1125": 4.6438,"1150": 3.3806,"1175": 2.8854,"1200": 2.0999,"1225": 1.5535,"1250": 0.9217,"1275": 0.7339,"1300": 0.2219}}}