{"type": "Feature","bbox": [-1.6907,34.5036,-1.452,34.7462],"geometry": {"type": "MultiPolygon","coordinates": [[[[-1.5112,34.6778,664.6759],[-1.5219,34.6721,701.4371],[-1.5261,34.6728,750.6315],[-1.5243,34.6779,752.842],[-1.5249,34.6921,756.5596],[-1.5263,34.6976,747.8105],[-1.5306,34.7016,684.811],[-1.5349,34.7001,715.0652],[-1.5392,34.6955,775.332],[-1.5554,34.6957,859.8162],[-1.582,34.698,844.3505],[-1.5999,34.7046,821.3321],[-1.6082,34.7032,692.5541],[-1.6299,34.7197,623.252],[-1.6305,34.7266,595.2207],[-1.6366,34.7308,549.3008],[-1.6407,34.7331,537.5111],[-1.6591,34.7342,616.6751],[-1.6641,34.7363,582.8991],[-1.6668,34.7422,527.2734],[-1.6705,34.7455,501.0726],[-1.6752,34.7462,488.7979],[-1.6802,34.7362,529.4509],[-1.6867,34.7288,579.243],[-1.6907,34.7198,651.5399],[-1.6895,34.7141,585.7102],[-1.6824,34.7051,668.9992],[-1.6779,34.702,647.9752],[-1.6695,34.6841,721.9796],[-1.676,34.681,801.1094],[-1.6744,34.6744,795.5147],[-1.6664,34.6664,865.6725],[-1.6529,34.6567,871.646],[-1.6286,34.6508,1181.979],[-1.6291,34.6455,1147.3201],[-1.6338,34.6418,1157.0824],[-1.6296,34.6361,1112.8761],[-1.6275,34.6299,1148.4689],[-1.6283,34.622,1368.1853],[-1.6342,34.6196,1349.9299],[-1.6376,34.6143,1311.5436],[-1.6369,34.6048,1265.038],[-1.6318,34.5998,1253.2629],[-1.6345,34.5936,1303.8347],[-1.645,34.5839,1293.4695],[-1.6405,34.5675,1184.134],[-1.6385,34.5514,1241.6692],[-1.648,34.545,1298.2402],[-1.6563,34.5181,1424.5011],[-1.6603,34.513,1436.6952],[-1.6506,34.5056,1441.764],[-1.616,34.5063,1356.7013],[-1.6123,34.5036,1408.9125],[-1.6082,34.5128,1348.8842],[-1.6042,34.5176,1291.8284],[-1.5895,34.5228,1352.0721],[-1.5662,34.5408,1356.5426],[-1.5502,34.5406,1387.2937],[-1.5411,34.5337,1441.9531],[-1.5356,34.5236,1552.4016],[-1.5234,34.5271,1514.0637],[-1.5163,34.5241,1545.8022],[-1.5106,34.5271,1472.6714],[-1.5036,34.5346,1423.6584],[-1.4964,34.5446,1265.3055],[-1.4922,34.5673,1341.1703],[-1.4898,34.5728,1412.3215],[-1.4753,34.5857,1248.7037],[-1.4549,34.5942,1308.7026],[-1.452,34.5986,1308.104],[-1.4737,34.6114,1316.7603],[-1.479,34.6261,1343.9775],[-1.4719,34.6472,1072.2124],[-1.4748,34.6515,1013.1343],[-1.4856,34.6647,1140.666],[-1.4908,34.6686,1007.0107],[-1.5053,34.6739,681.0735],[-1.5112,34.6778,664.6759]]]]}
,"properties": {"GID_2": "DZA.48.17_1","GID_0": "DZA","country": "Algeria","GID_1": "DZA.48_1","province": "Tlemcen","NL_NAME_1": "تلمسان","county": "BeniSnous","VARNAME_2": "NA","NL_NAME_2": "NA","TYPE_2": "Commune","ENGTYPE_2": "Commune","CC_2": "1317","HASC_2": "DZ.TL.BS","name": "Beni_Snous.county","area_km2": 307.5262,"hist_schema_id": "Elevation0-9000","hist_area_km2": {"475": 0.0174,"500": 0.1568,"525": 0.7318,"550": 1.5857,"575": 2.4048,"600": 2.4572,"625": 2.7711,"650": 3.4683,"675": 4.9677,"700": 5.2644,"725": 6.2586,"750": 5.9275,"775": 6.7823,"800": 7.3582,"825": 6.6436,"850": 6.1033,"875": 5.9639,"900": 5.2664,"925": 4.3773,"950": 4.6389,"975": 5.2147,"1000": 6.1564,"1025": 7.0118,"1050": 5.6518,"1075": 5.8613,"1100": 6.4552,"1125": 7.2578,"1150": 7.695,"1175": 7.4339,"1200": 7.7834,"1225": 8.2029,"1250": 10.5769,"1275": 14.2085,"1300": 17.1594,"1325": 18.1719,"1350": 19.2891,"1375": 22.8333,"1400": 20.1982,"1425": 12.8319,"1450": 8.2756,"1475": 3.7891,"1500": 1.24,"1525": 0.786,"1550": 0.2445,"1575": 0.0524}}}