{"type":"Feature","properties":{"GID_2":"DZA.14.20_1","GID_0":"DZA","country":"Algeria","GID_1":"DZA.14_1","province":"Chlef","NL_NAME_1":"ولايةالشلف","county":"OuedFodda","VARNAME_2":"Wādīal-Fiddah","NL_NAME_2":"NA","TYPE_2":"Commune","ENGTYPE_2":"Commune","CC_2":"229","HASC_2":"DZ.CH.OF","name":"Oued_Fodda.county"},
"geometry":{"type": "MultiPolygon","coordinates": [[[[1.5488,36.2378,153.4162],[1.531,36.2153,331.4223],[1.5194,36.2111,309.7666],[1.5128,36.2015,317.0758],[1.5119,36.1959,322.7317],[1.4916,36.1884,228.4293],[1.4893,36.1839,206.1113],[1.4722,36.1911,247.7431],[1.4465,36.1922,215.612],[1.4564,36.1846,256.6674],[1.4571,36.1779,254.649],[1.4669,36.169,280.3831],[1.5024,36.1636,180.2572],[1.5167,36.1676,170.0903],[1.5289,36.1656,170.3102],[1.5315,36.1615,169.3444],[1.5673,36.1589,237.0991],[1.5744,36.1608,244.7834],[1.5827,36.1596,273.567],[1.585,36.1667,287.2962],[1.58,36.17,296.1625],[1.5783,36.174,343.3088],[1.5734,36.1749,274.9211],[1.569,36.1786,219.3112],[1.5696,36.1842,192.9859],[1.5833,36.1891,182.6841],[1.5994,36.1868,252.7453],[1.6137,36.1991,439.2675],[1.6264,36.2029,506.5243],[1.633,36.2102,423.8353],[1.6339,36.2149,249.3857],[1.6313,36.2189,150.2171],[1.6253,36.2186,154.2973],[1.6203,36.2206,147.0102],[1.6225,36.2357,147.2795],[1.6068,36.2401,146.2366],[1.6062,36.2354,145.9772],[1.6079,36.2295,145.7395],[1.6032,36.231,145.8145],[1.6007,36.2359,145.6104],[1.5944,36.2361,145.7203],[1.5897,36.2384,145.1983],[1.5849,36.2353,144.9217],[1.5767,36.2419,144.7844],[1.5704,36.2397,144.3429],[1.5677,36.2352,144.6578],[1.5629,36.2323,144.2426],[1.5566,36.2361,178.6007],[1.5488,36.2378,153.4162]]]]}}