{"type": "Feature","bbox": [6.9118,36.8009,7.0272,36.8659],"geometry": {"type": "MultiPolygon","coordinates": [[[[7.0172,36.8321,504.2285],[7.0184,36.8371,551.0626],[7.0164,36.8411,539.612],[7.0272,36.8521,556.3149],[7.0151,36.8537,210.8145],[7.0098,36.8562,205.4244],[7.0015,36.8649,120.3525],[6.9936,36.8659,61.3674],[6.9866,36.8655,50.2702],[6.9689,36.8502,35.7534],[6.9546,36.8516,9.5078],[6.9391,36.8599,8.0993],[6.9298,36.8613,9.5042],[6.9203,36.8546,84.8035],[6.9165,36.8434,117.5766],[6.9136,36.8398,140.5817],[6.9118,36.8264,246.5475],[6.9219,36.8157,264.8839],[6.9244,36.8104,123.9383],[6.94,36.8009,25.0868],[6.9452,36.8035,22.934],[6.9497,36.8015,21.1565],[6.9561,36.8045,22.1592],[6.9599,36.8102,19.7418],[6.9558,36.8152,18.7054],[6.9578,36.8195,18.1074],[6.9563,36.8252,15.9801],[6.9613,36.8252,16.2492],[6.9611,36.8312,58.4263],[6.9683,36.8317,152.1947],[6.9782,36.8352,209.2998],[6.9905,36.8341,355.2447],[6.9973,36.8357,345.8294],[7.004,36.8346,513.5381],[7.0103,36.8315,519.798],[7.0172,36.8321,504.2285]]]]}
,"properties": {"GID_2": "DZA.39.23_1","GID_0": "DZA","country": "Algeria","GID_1": "DZA.39_1","province": "Skikda","NL_NAME_1": "سكيكدة","county": "HamadiKrouma","VARNAME_2": "HammadiKrouma","NL_NAME_2": "NA","TYPE_2": "Commune","ENGTYPE_2": "Commune","CC_2": "2138","HASC_2": "DZ.SK.HK","name": "Hamadi_Krouma.county","area_km2": 36.36435,"hist_schema_id": "Elevation0-9000","hist_area_km2": {"0": 5.10705,"25": 5.48143,"50": 3.41071,"75": 3.64828,"100": 3.08832,"125": 2.51147,"150": 1.90056,"175": 1.91761,"200": 1.5442,"225": 1.54426,"250": 1.15395,"275": 0.76362,"300": 0.4751,"325": 0.59387,"350": 0.28844,"375": 0.44116,"400": 0.30541,"425": 0.22058,"450": 0.18665,"475": 0.18664,"500": 0.18665,"525": 0.28847,"550": 0.27149,"575": 0.40723,"600": 0.23756,"625": 0.16969,"650": 0.03394}}}