{"type": "Feature","bbox": [5.7999,35.5878,5.9717,35.701],"geometry": {"type": "MultiPolygon","coordinates": [[[[5.9615,35.6224,1283.7163],[5.9563,35.6262,1182.0426],[5.9558,35.6338,1209.9243],[5.9582,35.6434,1014.5709],[5.9614,35.6475,971.7427],[5.9574,35.6558,932.0118],[5.9536,35.6591,927.2416],[5.9493,35.6592,922.4575],[5.9276,35.6668,917.2509],[5.8946,35.6619,920.5168],[5.8848,35.6661,907.2849],[5.8733,35.6751,894.5155],[5.8636,35.6778,890.7181],[5.8608,35.6824,887.6094],[5.8553,35.6856,885.8431],[5.8474,35.6949,888.0757],[5.8308,35.701,911.327],[5.8263,35.697,908.3777],[5.8016,35.684,895.1321],[5.7999,35.6705,873.3683],[5.8025,35.6649,868.8299],[5.8157,35.6683,874.7568],[5.8454,35.6555,899.6516],[5.887,35.6212,1040.2108],[5.8998,35.6079,1340.5615],[5.9023,35.6023,1310.1135],[5.9006,35.5957,1340.448],[5.9013,35.5888,1389.0955],[5.9064,35.5894,1397.1967],[5.9098,35.5976,1288.7644],[5.9134,35.6013,1182.8663],[5.919,35.6025,1135.275],[5.9254,35.5977,1169.8865],[5.9384,35.5916,1235.0034],[5.9417,35.5879,1260.2561],[5.9484,35.5878,1354.5825],[5.9429,35.5981,1218.7655],[5.9445,35.6036,1239.4299],[5.9493,35.6061,1155.1414],[5.9591,35.6032,1225.5535],[5.9717,35.6052,1333.7592],[5.9621,35.6131,1270.2778],[5.9615,35.6224,1283.7163]]]]}
,"properties": {"GID_2": "DZA.6.36_1","GID_0": "DZA","country": "Algeria","GID_1": "DZA.6_1","province": "Batna","NL_NAME_1": "ولايةباتنة","county": "Merouana","VARNAME_2": "Marwānah","NL_NAME_2": "NA","TYPE_2": "Commune","ENGTYPE_2": "Commune","CC_2": "504","HASC_2": "DZ.BT.MR","name": "Merouana.county","area_km2": 76.41385,"hist_schema_id": "Elevation0-9000","hist_area_km2": {"875": 11.26385,"900": 11.72936,"925": 10.73268,"950": 7.25352,"975": 5.82404,"1000": 4.20471,"1025": 3.0503,"1050": 2.15428,"1075": 2.11994,"1100": 2.87842,"1125": 2.30971,"1150": 2.10286,"1175": 2.06837,"1200": 1.96497,"1225": 2.05111,"1250": 1.2238,"1275": 1.25824,"1300": 0.79291,"1325": 0.63779,"1350": 0.34477,"1375": 0.29308,"1400": 0.12068,"1425": 0.03448}}}