{"type": "Feature","bbox": [3.732,36.1267,3.993,36.3196],"geometry": {"type": "MultiPolygon","coordinates": [[[[3.7418,36.2378,737.7006],[3.7415,36.2315,743.8552],[3.7361,36.2279,763.3835],[3.7349,36.2207,755.7052],[3.732,36.2152,753.1772],[3.7339,36.2107,800.0962],[3.7449,36.2097,819.6587],[3.7485,36.2056,835.9794],[3.76,36.2054,824.7521],[3.7656,36.203,795.3329],[3.7592,36.1909,842.3541],[3.7586,36.1778,929.8027],[3.76,36.1678,979.5907],[3.7744,36.1632,920.4163],[3.7828,36.1579,891.7475],[3.7901,36.1506,864.7283],[3.7919,36.146,832.0614],[3.7975,36.1431,806.5735],[3.804,36.1408,775.1735],[3.8103,36.142,765.6409],[3.8234,36.1394,751.4384],[3.8446,36.1392,719.6416],[3.8574,36.1268,845.9888],[3.8763,36.1267,1001.2988],[3.9058,36.139,1044.8474],[3.9205,36.139,997.9424],[3.9344,36.147,1000.6578],[3.9406,36.1563,975.9446],[3.9852,36.1608,654.7369],[3.98,36.1738,659.7009],[3.9823,36.1783,686.828],[3.9902,36.1828,758.5776],[3.993,36.1894,747.7818],[3.986,36.1871,720.0184],[3.9761,36.1888,655.1407],[3.9704,36.1907,630.1758],[3.9676,36.1961,626.2257],[3.961,36.199,602.0394],[3.9544,36.1911,596.2131],[3.95,36.19,599.5389],[3.9287,36.2002,743.3335],[3.9197,36.2009,778.1415],[3.9149,36.2046,779.9567],[3.9028,36.2077,784.5594],[3.9028,36.2132,742.4448],[3.8964,36.2215,722.0687],[3.9022,36.2275,659.6045],[3.8997,36.233,711.2759],[3.886,36.2407,791.0298],[3.8657,36.2425,757.3757],[3.8617,36.2446,729.9268],[3.8598,36.249,713.6724],[3.86,36.2565,737.7812],[3.863,36.2621,687.2255],[3.8625,36.2742,720.8159],[3.8648,36.2848,702.1552],[3.8616,36.2933,698.6796],[3.8608,36.3059,682.2063],[3.8638,36.3141,672.8644],[3.8516,36.3196,564.0226],[3.8434,36.3155,561.3915],[3.8344,36.3051,576.5925],[3.8282,36.3012,581.8683],[3.8253,36.2966,596.3394],[3.8209,36.2951,592.6552],[3.8117,36.2881,600.3923],[3.8058,36.2869,617.4835],[3.7941,36.2909,726.4143],[3.7782,36.2851,807.1821],[3.7554,36.2817,734.9081],[3.7517,36.2769,741.3342],[3.7418,36.2742,675.3474],[3.7429,36.2688,695.355],[3.74,36.2657,697.7876],[3.7435,36.2579,719.3524],[3.7434,36.2513,738.464],[3.7478,36.2422,765.9391],[3.7418,36.2378,737.7006]]]]}
,"properties": {"GID_2": "DZA.12.23_1","GID_0": "DZA","country": "Algeria","GID_1": "DZA.12_1","province": "Bouira","NL_NAME_1": "ولايةالبويرة","county": "ElHachimia","VARNAME_2": "NA","NL_NAME_2": "NA","TYPE_2": "Commune","ENGTYPE_2": "Commune","CC_2": "1015","HASC_2": "DZ.BU.EC","name": "El_Hachimia.county","area_km2": 248.503,"hist_schema_id": "Elevation0-9000","hist_area_km2": {"550": 0.0854,"575": 0.7348,"600": 2.8556,"625": 6.6862,"650": 12.5679,"675": 19.8183,"700": 27.3443,"725": 30.9559,"750": 26.1893,"775": 21.7279,"800": 18.7023,"825": 13.9979,"850": 13.2116,"875": 13.178,"900": 9.191,"925": 7.0519,"950": 7.6338,"975": 7.1035,"1000": 4.057,"1025": 2.1057,"1050": 1.0273,"1075": 0.8903,"1100": 0.8047,"1125": 0.4623,"1150": 0.1027,"1175": 0.0171}}}