{"type": "Feature","bbox": [6.9339,36.7659,7.0288,36.8357],"geometry": {"type": "MultiPolygon","coordinates": [[[[7.0288,36.8133,391.4529],[7.0215,36.8276,403.9889],[7.0172,36.8321,504.2285],[7.0103,36.8315,519.798],[7.004,36.8346,513.5381],[6.9973,36.8357,345.8294],[6.9905,36.8341,355.2447],[6.9782,36.8352,209.2998],[6.9683,36.8317,152.1947],[6.9611,36.8312,58.4263],[6.9613,36.8252,16.2492],[6.9563,36.8252,15.9801],[6.9578,36.8195,18.1074],[6.9558,36.8152,18.7054],[6.9599,36.8102,19.7418],[6.9561,36.8045,22.1592],[6.9497,36.8015,21.1565],[6.9452,36.8035,22.934],[6.9339,36.7956,24.8666],[6.935,36.7775,40.3156],[6.9432,36.7696,49.7775],[6.9487,36.7677,54.4948],[6.9736,36.7659,110.7537],[6.9815,36.7719,102.9088],[6.9936,36.7697,148.2031],[7.0009,36.7702,250.8153],[7.0058,36.7736,251.9813],[7.0043,36.7798,218.9187],[7.0121,36.7885,159.5543],[7.0158,36.798,298.9894],[7.0155,36.8039,362.7859],[7.0212,36.8095,397.4219],[7.0288,36.8133,391.4529]]]]}
,"properties": {"GID_2": "DZA.39.8_1","GID_0": "DZA","country": "Algeria","GID_1": "DZA.39_1","province": "Skikda","NL_NAME_1": "سكيكدة","county": "BeniBechir","VARNAME_2": "BeniBachir","NL_NAME_2": "NA","TYPE_2": "Commune","ENGTYPE_2": "Commune","CC_2": "2124","HASC_2": "DZ.SK.BB","name": "Beni_Bechir.county","area_km2": 44.2935,"hist_schema_id": "Elevation0-9000","hist_area_km2": {"25": 5.2798,"50": 4.09188,"75": 4.44849,"100": 4.43146,"125": 4.36353,"150": 3.34463,"175": 2.71634,"200": 2.63145,"225": 2.19007,"250": 2.42781,"275": 1.62967,"300": 1.47674,"325": 1.42583,"350": 0.76382,"375": 0.78074,"400": 0.76378,"425": 0.4922,"450": 0.45825,"475": 0.25457,"500": 0.15274,"525": 0.15273,"550": 0.01697}}}