{"type": "Feature","bbox": [2.0606,34.7892,2.6517,35.2185],"geometry": {"type": "MultiPolygon","coordinates": [[[[2.4749,34.8817,872.0177],[2.4983,34.9834,885.2563],[2.5012,34.9893,961.9112],[2.5234,35.0008,914.3287],[2.5465,35.0086,910.3903],[2.5915,35.0062,876.4503],[2.6034,35.0077,937.3598],[2.6331,35.0331,994.1011],[2.6517,35.0362,1095.9441],[2.5848,35.087,814.4312],[2.5702,35.0942,813.0216],[2.5644,35.1076,816.953],[2.5485,35.1149,812.7336],[2.5377,35.1172,800.9061],[2.5335,35.121,795.2803],[2.5311,35.1274,792.7609],[2.523,35.1322,783.3855],[2.364,35.2185,854.4966],[2.364,35.2116,968.5514],[2.3568,35.204,890.9147],[2.3363,35.1955,1022.7957],[2.3296,35.1955,1118.3384],[2.3133,35.1914,1200.844],[2.3083,35.1824,1266.6079],[2.2993,35.1806,1221.0105],[2.2895,35.1763,1227.9983],[2.2748,35.1545,1019.3524],[2.2695,35.1551,1020.9445],[2.2507,35.1422,1124.9133],[2.2385,35.1308,1056.647],[2.2294,35.1295,1026.2098],[2.2153,35.1326,994.5957],[2.1962,35.1556,1036.569],[2.1815,35.1547,985.9587],[2.1472,35.1385,970.7166],[2.1193,35.1326,915.0525],[2.0966,35.1295,946.3187],[2.079,35.1321,951.6017],[2.0606,35.1322,917.1477],[2.1,35.1045,875.0566],[2.113,35.0906,881.6603],[2.1774,35.0012,936.9624],[2.2469,34.8922,909.182],[2.2947,34.8663,842.6947],[2.3499,34.8276,859.2637],[2.3591,34.8071,864.4097],[2.3598,34.7892,868.9285],[2.4292,34.8067,877.6821],[2.4447,34.8313,869.9116],[2.4615,34.8541,870.3009],[2.4749,34.8817,872.0177]]]]}
,"properties": {"GID_2": "DZA.43.42_1","GID_0": "DZA","country": "Algeria","GID_1": "DZA.43_1","province": "Tiaret","NL_NAME_1": "ولايةتيارت","county": "ZmaletElEmirAbdelkader","VARNAME_2": "ZmaletEmirAbdelkader","NL_NAME_2": "NA","TYPE_2": "Commune","ENGTYPE_2": "Commune","CC_2": "1409","HASC_2": "DZ.TR.ZE","name": "Zmalet_El_Emir_Abdelkader.county","area_km2": 1189.7557,"hist_schema_id": "Elevation0-9000","hist_area_km2": {"750": 24.2781,"775": 122.9035,"800": 187.2523,"825": 194.7304,"850": 215.084,"875": 219.1717,"900": 129.7299,"925": 60.6618,"950": 16.5977,"975": 7.5246,"1000": 4.6808,"1025": 2.3922,"1050": 1.404,"1075": 0.8146,"1100": 0.5372,"1125": 0.5199,"1150": 0.4159,"1175": 0.4852,"1200": 0.2946,"1225": 0.1906,"1250": 0.0866}}}