{"type":"Feature","properties":{"GID_2":"DZA.27.30_1","GID_0":"DZA","country":"Algeria","GID_1":"DZA.27_1","province":"Mascara","NL_NAME_1":"ولايةمعسكر","county":"Mascara","VARNAME_2":"Muaskar","NL_NAME_2":"NA","TYPE_2":"Chef-Lieu-Wilaya","ENGTYPE_2":"Chef-Lieu-Wilaya","CC_2":"2901","HASC_2":"DZ.MC.MC","name":"Mascara.county"},
"geometry":{"type": "MultiPolygon","coordinates": [[[[0.1985,35.4359,741.5734],[0.1932,35.4335,724.1652],[0.1696,35.4295,721.6016],[0.1519,35.4187,698.0706],[0.1436,35.4116,681.1862],[0.1338,35.4159,663.4226],[0.1299,35.4206,671.7039],[0.1207,35.414,695.1619],[0.102,35.4106,579.6948],[0.0956,35.4126,574.0488],[0.0973,35.4068,567.7764],[0.0971,35.4003,593.8676],[0.1094,35.3794,522.7926],[0.107,35.3621,488.7122],[0.099,35.3532,464.1362],[0.1014,35.3475,460.6945],[0.1094,35.34,458.4529],[0.1111,35.3329,457.7677],[0.1258,35.3354,460.3897],[0.1464,35.3341,463.2292],[0.1594,35.3357,464.9731],[0.1829,35.3535,470.7923],[0.1962,35.3721,478.862],[0.2015,35.3822,489.5457],[0.1949,35.3987,525.7032],[0.1955,35.4059,587.1862],[0.1915,35.4128,634.6409],[0.1941,35.4203,711.3535],[0.1987,35.4265,763.9075],[0.2056,35.4263,738.3012],[0.2112,35.4228,704.5627],[0.2144,35.427,698.821],[0.1985,35.4359,741.5734]]]]}}