{"type":"Feature","properties":{"GID_2":"DZA.36.4_1","GID_0":"DZA","country":"Algeria","GID_1":"DZA.36_1","province":"Saïda","NL_NAME_1":"ولايةسعيدة","county":"DouiThabet","VARNAME_2":"NA","NL_NAME_2":"NA","TYPE_2":"Commune","ENGTYPE_2":"Commune","CC_2":"2002","HASC_2":"DZ.SD.DT","name":"Doui_Thabet.county"},
"geometry":{"type": "MultiPolygon","coordinates": [[[[0.0761,34.802,889.4677],[0.0763,34.8063,903.7004],[0.0819,34.8104,933.0304],[0.099,34.8155,926.2941],[0.1018,34.8223,928.3904],[0.0985,34.8264,984.9255],[0.0865,34.8337,1162.619],[0.0819,34.8424,1140.6683],[0.0844,34.8479,1108.4512],[0.0808,34.8511,1106.4037],[0.0792,34.8559,1052.2483],[0.0827,34.8608,956.5751],[0.0887,34.8642,846.5555],[0.0948,34.8637,824.5375],[0.1037,34.8699,803.5867],[0.1008,34.8738,872.2297],[0.1019,34.8796,907.995],[0.0876,34.882,837.5739],[0.0833,34.8859,883.4047],[0.0808,34.8967,1017.8172],[0.076,34.9021,1138.9919],[0.0698,34.9046,1079.7489],[0.0659,34.9011,1064.7048],[0.0596,34.8987,1046.4807],[0.0398,34.9042,1034.3875],[0.027,34.9187,1001.3603],[0.0265,34.9269,1006.6076],[-0.0044,34.9407,889.7097],[-0.0163,34.9389,790.7205],[-0.027,34.9418,825.6885],[-0.0325,34.9544,822.7875],[-0.0391,34.959,777.9014],[-0.0438,34.9656,722.2488],[-0.0557,34.9709,723.1136],[-0.061,34.9762,720.6248],[-0.0675,34.977,762.097],[-0.0729,34.9735,727.1398],[-0.1126,34.9825,558.5257],[-0.1236,34.9821,556.2025],[-0.1213,34.9766,558.8438],[-0.124,34.9719,561.5531],[-0.1151,34.9672,568.1584],[-0.1228,34.9573,576.9637],[-0.1221,34.9531,574.8589],[-0.1177,34.9521,581.0105],[-0.1133,34.9553,588.986],[-0.108,34.9443,613.4173],[-0.1021,34.9405,598.471],[-0.1021,34.9356,607.9737],[-0.1065,34.9307,610.2314],[-0.1079,34.9245,631.6243],[-0.0944,34.9138,639.2501],[-0.0918,34.9073,644.2081],[-0.0957,34.8935,660.965],[-0.0945,34.8857,676.778],[-0.0912,34.8801,680.1165],[-0.0851,34.8598,705.4998],[-0.0817,34.8566,702.7494],[-0.0775,34.853,700.1613],[-0.0724,34.8547,710.9594],[-0.0676,34.8528,718.0828],[-0.0408,34.8358,741.0063],[-0.0348,34.8346,747.9468],[-0.03,34.8304,743.1605],[-0.018,34.8272,761.6613],[-0.0099,34.8301,774.9071],[-0.0051,34.8296,781.777],[0.0147,34.8184,802.0374],[0.0476,34.8044,866.2228],[0.0761,34.802,889.4677]]]]}}