{"type": "Feature","bbox": [5.3786,35.9048,5.5531,36.02],"geometry": {"type": "MultiPolygon","coordinates": [[[[5.4601,35.9065,1153.6884],[5.4578,35.9122,1072.2747],[5.4588,35.9197,1009.9828],[5.4669,35.9267,985.559],[5.4726,35.9418,943.2344],[5.4689,35.9561,968.8326],[5.486,35.9573,976.5479],[5.5128,35.9558,982.1937],[5.5193,35.9563,974.2313],[5.5285,35.9598,954.5131],[5.5341,35.9599,953.6983],[5.5352,35.9721,950.7645],[5.54,35.9757,951.0068],[5.5475,35.9767,950.0305],[5.5531,35.9881,955.0282],[5.5411,36.0061,1010.8101],[5.539,36.0111,1064.528],[5.5397,36.017,1078.4241],[5.5349,36.02,1086.8154],[5.5193,36.0166,1192.7946],[5.5085,36.0165,1275.3459],[5.4893,36.0129,1150.1953],[5.4694,36.0131,1228.8552],[5.4637,36.0089,1210.5381],[5.4565,36.0072,1181.532],[5.4495,36.0089,1292.582],[5.4374,36.0075,1285.7131],[5.4294,36.0084,1265.0795],[5.4186,36.0132,1389.623],[5.401,36.0179,1300.0405],[5.3989,36.0108,1064.7056],[5.4007,35.9996,953.7491],[5.3957,35.9976,929.2285],[5.3878,35.9857,915.6181],[5.3786,35.9775,927.4802],[5.3793,35.9714,942.8286],[5.3825,35.9653,953.0863],[5.4018,35.9467,942.2777],[5.4186,35.9101,1336.9836],[5.4222,35.9053,1351.9723],[5.4325,35.9067,1248.2621],[5.4451,35.9048,1237.7812],[5.4601,35.9065,1153.6884]]]]}
,"properties": {"GID_2": "DZA.37.24_1","GID_0": "DZA","country": "Algeria","GID_1": "DZA.37_1","province": "Sétif","NL_NAME_1": "ولايةسطيف","county": "BirHaddada","VARNAME_2": "NA","NL_NAME_2": "NA","TYPE_2": "Commune","ENGTYPE_2": "Commune","CC_2": "1934","HASC_2": "DZ.SF.BH","name": "Bir_Haddada.county","area_km2": 115.68624,"hist_schema_id": "Elevation0-9000","hist_area_km2": {"925": 16.12999,"950": 39.99966,"975": 22.27174,"1000": 10.70641,"1025": 7.08609,"1050": 4.42664,"1075": 3.43177,"1100": 2.31662,"1125": 1.87055,"1150": 1.66468,"1175": 1.21834,"1200": 0.85813,"1225": 0.90942,"1250": 0.53185,"1275": 0.51474,"1300": 0.42888,"1325": 0.27448,"1350": 0.34308,"1375": 0.27441,"1400": 0.18865,"1425": 0.22295,"1450": 0.01715}}}