{"type": "Feature","bbox": [0.0842,35.4985,0.2291,35.6068],"geometry": {"type": "MultiPolygon","coordinates": [[[[0.2291,35.5353,334.9137],[0.2251,35.5447,310.7373],[0.2215,35.5617,307.671],[0.2188,35.5665,326.4368],[0.2147,35.5698,273.7022],[0.2108,35.5811,239.201],[0.1962,35.592,203.1409],[0.1909,35.5938,211.5028],[0.1884,35.5983,200.1717],[0.1827,35.6003,183.7928],[0.1778,35.6054,163.6883],[0.154,35.6068,148.6786],[0.1484,35.6044,117.9591],[0.1442,35.5997,156.7661],[0.1392,35.5887,207.6261],[0.1324,35.5876,263.665],[0.1271,35.583,323.1904],[0.1225,35.5759,310.1195],[0.1223,35.5646,327.8751],[0.1246,35.5545,393.5038],[0.119,35.5506,378.8445],[0.1088,35.5467,331.9345],[0.0999,35.5391,322.9746],[0.0871,35.5222,181.2818],[0.0842,35.5159,135.915],[0.1088,35.5068,168.8306],[0.1209,35.4985,205.4041],[0.1274,35.4988,220.1599],[0.1356,35.5068,281.942],[0.1469,35.513,274.213],[0.1502,35.5096,326.6237],[0.159,35.5077,419.9396],[0.1639,35.5017,333.1571],[0.1703,35.5015,329.8735],[0.1754,35.5055,370.8563],[0.1814,35.5067,357.6809],[0.1931,35.5006,388.6794],[0.2113,35.5155,560.0742],[0.2094,35.5219,556.3167],[0.2158,35.5217,519.8064],[0.2291,35.5353,334.9137]]]]}
,"properties": {"GID_2": "DZA.27.20_1","GID_0": "DZA","country": "Algeria","GID_1": "DZA.27_1","province": "Mascara","NL_NAME_1": "ولايةمعسكر","county": "Ferraguig","VARNAME_2": "NA","NL_NAME_2": "NA","TYPE_2": "Commune","ENGTYPE_2": "Commune","CC_2": "2933","HASC_2": "DZ.MC.FE","name": "Ferraguig.county","area_km2": 98.34658,"hist_schema_id": "Elevation0-9000","hist_area_km2": {"100": 0.03448,"125": 0.36203,"150": 1.32765,"175": 3.77634,"200": 6.12182,"225": 5.70844,"250": 5.69181,"275": 6.01993,"300": 6.70986,"325": 6.91714,"350": 6.58968,"375": 6.19328,"400": 5.46902,"425": 5.659,"450": 5.17604,"475": 4.45155,"500": 3.77877,"525": 3.48553,"550": 3.55467,"575": 3.88248,"600": 3.31304,"625": 2.13967,"650": 1.25965,"675": 0.41412,"700": 0.31058}}}