{"type": "Feature","bbox": [5.1345,36.2424,5.2633,36.3992],"geometry": {"type": "MultiPolygon","coordinates": [[[[5.1714,36.3903,918.1641],[5.1571,36.3849,948.4725],[5.1532,36.3811,940.2092],[5.1518,36.3761,854.4103],[5.1551,36.3692,950.3139],[5.1674,36.3551,1102.3136],[5.1642,36.3515,1109.2478],[5.157,36.3497,992.9698],[5.1516,36.3454,1095.3376],[5.1589,36.3371,1150.7501],[5.16,36.3325,1236.7222],[5.1576,36.3192,1249.7587],[5.1521,36.3163,1206.1448],[5.1493,36.3031,1106.3296],[5.1531,36.2984,1181.875],[5.1537,36.2854,1095.7659],[5.1508,36.2801,1068.429],[5.15,36.2727,1027.5195],[5.1463,36.2667,1090.3374],[5.1358,36.2596,996.4988],[5.1345,36.2528,985.2085],[5.1472,36.2442,914.6978],[5.1557,36.2424,926.844],[5.1687,36.2541,950.567],[5.1735,36.2541,992.687],[5.179,36.2516,986.098],[5.1839,36.2472,999.5244],[5.196,36.2455,976.0971],[5.2089,36.2473,1030.7935],[5.2136,36.2464,1009.7938],[5.2236,36.2556,1047.885],[5.2309,36.2591,1000.6953],[5.2291,36.2717,1082.1593],[5.2365,36.2886,1132.2886],[5.2332,36.2932,1138.1338],[5.2264,36.296,1158.3091],[5.2315,36.3128,1149.5712],[5.2482,36.317,1208.6978],[5.2609,36.3248,1075.6201],[5.261,36.3358,934.701],[5.2633,36.3413,821.9746],[5.2604,36.3461,848.7409],[5.259,36.3533,826.3879],[5.2618,36.3653,1115.2079],[5.258,36.3694,926.6024],[5.2447,36.3664,774.8805],[5.242,36.3725,662.9668],[5.2368,36.3763,759.4601],[5.2316,36.3734,816.1622],[5.2284,36.3691,788.7559],[5.2273,36.3643,855.2372],[5.2229,36.363,948.9873],[5.2057,36.3635,1056.7426],[5.1947,36.3607,1124.2749],[5.1921,36.3708,875.6319],[5.1926,36.3763,800.099],[5.1988,36.3809,756.7835],[5.1927,36.391,785.4132],[5.1951,36.397,710.5233],[5.1906,36.3992,753.1762],[5.1875,36.3962,789.1219],[5.1714,36.3903,918.1641]]]]}
,"properties": {"GID_2": "DZA.37.9_1","GID_0": "DZA","country": "Algeria","GID_1": "DZA.37_1","province": "Sétif","NL_NAME_1": "ولايةسطيف","county": "AinRoua","VARNAME_2": "NA","NL_NAME_2": "NA","TYPE_2": "Commune","ENGTYPE_2": "Commune","CC_2": "1906","HASC_2": "DZ.SF.AR","name": "Ain_Roua.county","area_km2": 116.68369,"hist_schema_id": "Elevation0-9000","hist_area_km2": {"650": 0.01707,"675": 0.32438,"700": 0.61464,"725": 1.00728,"750": 1.50242,"775": 1.70733,"800": 2.11715,"825": 2.39026,"850": 2.71468,"875": 3.12442,"900": 3.05626,"925": 3.92774,"950": 4.54403,"975": 5.7586,"1000": 6.57945,"1025": 6.6136,"1050": 6.2713,"1075": 6.57852,"1100": 5.84335,"1125": 6.28759,"1150": 5.9971,"1175": 6.8517,"1200": 5.8264,"1225": 5.92894,"1250": 5.22835,"1275": 3.40009,"1300": 2.59689,"1325": 1.82795,"1350": 1.52041,"1375": 0.99087,"1400": 0.97378,"1425": 1.07626,"1450": 1.02498,"1475": 0.99079,"1500": 0.51248,"1525": 0.42706,"1550": 0.39289,"1575": 0.11958,"1600": 0.01708}}}