{"type": "Feature","bbox": [3.98,36.1172,4.1653,36.2884],"geometry": {"type": "MultiPolygon","coordinates": [[[[4.158,36.177,923.5967],[4.1588,36.1827,991.46],[4.1542,36.1918,1121.4974],[4.1455,36.2001,922.8844],[4.1466,36.2081,818.8633],[4.1438,36.2132,891.9547],[4.1418,36.2224,899.9563],[4.1442,36.2319,957.9552],[4.1415,36.2451,832.111],[4.1411,36.2693,739.7896],[4.1351,36.2884,524.2041],[4.1219,36.2827,541.0951],[4.1171,36.283,536.9777],[4.1076,36.2705,771.9265],[4.103,36.2676,840.0594],[4.0941,36.2439,704.7478],[4.0939,36.2378,795.9201],[4.1002,36.2338,840.8317],[4.1003,36.2282,858.7111],[4.0935,36.2179,825.5815],[4.0936,36.2132,843.8228],[4.0899,36.1999,924.3638],[4.0859,36.2015,911.7523],[4.0694,36.2013,924.0125],[4.0536,36.2066,939.0008],[4.0398,36.2085,927.6502],[4.0354,36.2081,932.7084],[4.0301,36.2046,918.4573],[4.0032,36.2028,793.1149],[3.9999,36.1981,777.3803],[3.9942,36.1961,754.0396],[3.9902,36.1828,758.5776],[3.9823,36.1783,686.828],[3.98,36.1738,659.7009],[3.9852,36.1608,654.7369],[3.9953,36.1587,694.3696],[4.0137,36.1586,796.6224],[4.0215,36.1566,818.4029],[4.0287,36.1485,903.0912],[4.0381,36.1425,980.4462],[4.0524,36.1225,1141.4496],[4.0669,36.1204,947.9179],[4.0712,36.1251,868.4885],[4.0763,36.126,816.9127],[4.0807,36.1249,814.8411],[4.0875,36.1172,837.5604],[4.0937,36.1177,852.9752],[4.1205,36.1335,918.8809],[4.1466,36.1314,1037.9657],[4.1507,36.1346,1062.5267],[4.1535,36.1404,1116.2863],[4.1534,36.1511,997.8017],[4.1568,36.1582,1012.7283],[4.1653,36.1684,894.6481],[4.1607,36.1711,890.3175],[4.1552,36.1715,883.6935],[4.1518,36.1744,887.5226],[4.158,36.177,923.5967]]]]}
,"properties": {"GID_2": "DZA.12.37_1","GID_0": "DZA","country": "Algeria","GID_1": "DZA.12_1","province": "Bouira","NL_NAME_1": "ولايةالبويرة","county": "OuledRached","VARNAME_2": "NA","NL_NAME_2": "NA","TYPE_2": "Commune","ENGTYPE_2": "Commune","CC_2": "1040","HASC_2": "DZ.BU.OR","name": "Ouled_Rached.county","area_km2": 147.426,"hist_schema_id": "Elevation0-9000","hist_area_km2": {"525": 0.3589,"550": 0.8033,"575": 0.8717,"600": 0.8205,"625": 1.2655,"650": 1.9844,"675": 3.2851,"700": 4.5855,"725": 7.3917,"750": 7.1695,"775": 7.7174,"800": 9.1211,"825": 9.8738,"850": 11.4824,"875": 12.9546,"900": 13.2971,"925": 12.5268,"950": 10.3882,"975": 7.5479,"1000": 6.6581,"1025": 5.8026,"1050": 4.3133,"1075": 2.8073,"1100": 1.7117,"1125": 1.5406,"1150": 0.9758,"1175": 0.1712}}}