{"type":"Feature","properties":{"GID_2":"DZA.47.63_1","GID_0":"DZA","country":"Algeria","GID_1":"DZA.47_1","province":"TiziOuzou","NL_NAME_1":"ولايةغليزان","county":"TiziN'Tleta","VARNAME_2":"TiziNthleta|ThiziNatlata","NL_NAME_2":"NA","TYPE_2":"Commune","ENGTYPE_2":"Commune","CC_2":"1551","HASC_2":"DZ.TO.TN","name":"Tizi_N'Tleta.county"},
"geometry":{"type": "MultiPolygon","coordinates": [[[[4.0753,36.5424,491.6122],[4.0714,36.5507,434.7659],[4.0833,36.5602,414.0059],[4.082,36.5684,471.7773],[4.0758,36.5785,614.9963],[4.0625,36.5854,637.3875],[4.0579,36.5865,565.2332],[4.0514,36.5853,547.1158],[4.0462,36.5874,508.1361],[4.0297,36.5846,514.2733],[4.0284,36.5802,564.5775],[4.0192,36.5727,517.6408],[4.0136,36.5587,314.5573],[4.0224,36.5478,472.5878],[4.0271,36.5447,393.4697],[4.0307,36.5352,441.3724],[4.036,36.5338,427.0522],[4.0463,36.5361,518.3502],[4.0566,36.5314,549.4954],[4.0669,36.5389,543.5588],[4.0753,36.5424,491.6122]]]]}}