{"type":"Feature","properties":{"GID_2":"DZA.38.12_1","GID_0":"DZA","country":"Algeria","GID_1":"DZA.38_1","province":"SidiBelAbbès","NL_NAME_1":"ولايةسيديبلعباس","county":"BoudjebaaElBordj","VARNAME_2":"NA","NL_NAME_2":"NA","TYPE_2":"Commune","ENGTYPE_2":"Commune","CC_2":"2238","HASC_2":"DZ.SB.BE","name":"Boudjebaa_El_Bordj.county"},
"geometry":{"type": "MultiPolygon","coordinates": [[[[-0.3095,35.3914,316.0795],[-0.3299,35.3776,351.9724],[-0.3317,35.3737,312.4874],[-0.3428,35.3658,415.9389],[-0.3441,35.3597,396.6811],[-0.366,35.367,519.6848],[-0.3712,35.3655,527.5069],[-0.3803,35.3673,540.6146],[-0.383,35.3624,526.7053],[-0.3908,35.3624,549.5813],[-0.3971,35.3587,526.52],[-0.3995,35.3636,559.7522],[-0.4182,35.3634,514.6589],[-0.4198,35.3579,496.9315],[-0.431,35.3613,584.8182],[-0.4217,35.3492,465.3583],[-0.4197,35.3426,415.6215],[-0.4215,35.3384,375.5192],[-0.4132,35.3249,347.946],[-0.4116,35.3176,350.3704],[-0.4069,35.3141,305.1515],[-0.4019,35.3128,311.157],[-0.4027,35.2968,419.6156],[-0.3992,35.2939,445.7593],[-0.3888,35.303,336.5975],[-0.3777,35.2958,389.0902],[-0.3724,35.2879,392.0089],[-0.3757,35.2692,489.818],[-0.3737,35.2644,489.589],[-0.3706,35.2604,526.4203],[-0.36,35.2545,579.9753],[-0.3494,35.257,686.9272],[-0.3441,35.2604,658.9918],[-0.3414,35.2642,622.1705],[-0.3413,35.2687,592.3918],[-0.3312,35.282,469.2159],[-0.3283,35.2933,436.1595],[-0.3145,35.297,439.7159],[-0.3066,35.2894,546.8323],[-0.2996,35.2865,569.6088],[-0.2943,35.2867,588.5273],[-0.2912,35.2908,581.0916],[-0.286,35.2901,545.2233],[-0.2821,35.2941,545.7026],[-0.2876,35.3037,481.4707],[-0.2935,35.3076,447.5969],[-0.3021,35.3176,384.3172],[-0.3049,35.3292,378.7535],[-0.3044,35.3357,328.2799],[-0.3001,35.3362,368.0462],[-0.3025,35.3474,331.5141],[-0.3022,35.3548,327.5302],[-0.3084,35.359,277.8299],[-0.315,35.3596,245.3495],[-0.3174,35.3633,240.8755],[-0.3076,35.3687,233.7568],[-0.2954,35.3716,231.7373],[-0.2966,35.3805,301.9163],[-0.3095,35.3914,316.0795]]]]}}