{"type": "Feature","bbox": [2.3236,33.3268,2.6485,33.7565],"geometry": {"type": "MultiPolygon","coordinates": [[[[2.428,33.3609,911.5766],[2.6353,33.3268,869.7501],[2.6485,33.5097,894.4702],[2.5909,33.5899,829.0719],[2.547,33.6578,882.0018],[2.511,33.73,945.5892],[2.4993,33.7565,1063.8362],[2.4825,33.7489,1040.4277],[2.4654,33.7382,1090.0303],[2.3781,33.6971,1019.9643],[2.3295,33.6528,970.3804],[2.3243,33.6456,975.2285],[2.3236,33.641,952.1844],[2.3288,33.6304,960.8663],[2.3421,33.6225,932.3766],[2.3466,33.5993,913.8812],[2.351,33.5962,906.4712],[2.3635,33.599,902.0948],[2.3702,33.5978,899.5988],[2.3843,33.5844,888.0986],[2.4199,33.4088,930.3038],[2.428,33.3609,911.5766]]]]}
,"properties": {"GID_2": "DZA.25.8_1","GID_0": "DZA","country": "Algeria","GID_1": "DZA.25_1","province": "Laghouat","NL_NAME_1": "ولايةالأغواط","county": "ElHaouaita","VARNAME_2": "NA","NL_NAME_2": "NA","TYPE_2": "Commune","ENGTYPE_2": "Commune","CC_2": "323","HASC_2": "DZ.LG.EH","name": "El_Haouaita.county","area_km2": 854.8061,"hist_schema_id": "Elevation0-9000","hist_area_km2": {"825": 17.0469,"850": 119.2095,"875": 273.8534,"900": 227.6403,"925": 97.2582,"950": 36.1417,"975": 37.2464,"1000": 23.5341,"1025": 11.6064,"1050": 6.7019,"1075": 2.7159,"1100": 1.2873,"1125": 0.3173,"1150": 0.2116,"1175": 0.0353}}}