{"type": "Feature","bbox": [6.9915,36.0259,7.2519,36.2251],"geometry": {"type": "MultiPolygon","coordinates": [[[[6.9992,36.1409,1055.1948],[7.0037,36.1375,1079.0571],[7.0043,36.1261,1060.1172],[6.9941,36.1034,1172.2333],[6.9952,36.0972,1250.2992],[6.9915,36.0939,1228.7405],[7.0118,36.0884,1101.2723],[7.0282,36.0807,866.3063],[7.0358,36.0741,828.153],[7.0405,36.0731,813.6942],[7.045,36.0681,800.8043],[7.0392,36.0623,805.3088],[7.0405,36.051,826.2298],[7.0389,36.0337,884.8867],[7.0654,36.0307,926.8939],[7.072,36.0326,898.4408],[7.0855,36.0259,1005.2168],[7.1079,36.0407,896.8934],[7.1412,36.0465,925.9583],[7.2062,36.0748,1003.6122],[7.2155,36.0772,989.1315],[7.2195,36.0741,1014.6478],[7.2261,36.0804,929.4199],[7.2257,36.0869,948.4055],[7.2285,36.093,913.9426],[7.2286,36.0986,886.679],[7.2335,36.1029,843.4696],[7.2359,36.119,792.2309],[7.2449,36.1228,806.3456],[7.2519,36.1321,743.1176],[7.2273,36.1453,795.926],[7.2215,36.147,730.6323],[7.1996,36.1431,740.7413],[7.1905,36.1488,724.8732],[7.1776,36.1601,731.026],[7.1727,36.1772,759.3206],[7.1639,36.1904,770.2735],[7.1643,36.1968,772.6705],[7.1667,36.2028,786.4718],[7.1706,36.2064,793.1308],[7.1738,36.2163,809.7946],[7.1814,36.2241,836.1649],[7.1527,36.2251,811.1946],[7.1315,36.2228,821.0872],[7.1243,36.2241,833.3927],[7.0967,36.2186,890.1044],[7.0779,36.2078,921.1764],[7.0638,36.209,930.8757],[7.0387,36.2046,876.7883],[7.0403,36.1946,907.8861],[7.0397,36.1807,1010.3166],[7.0235,36.1776,983.2585],[7.0047,36.1669,965.3693],[7.0005,36.1627,959.7863],[7.0037,36.1569,987.5037],[7.0033,36.1517,1031.5193],[6.999,36.1469,1045.9849],[6.9992,36.1409,1055.1948]]]]}
,"properties": {"GID_2": "DZA.21.34_1","GID_0": "DZA","country": "Algeria","GID_1": "DZA.21_1","province": "Guelma","NL_NAME_1": "ولايةقالمة","county": "Tamlouka","VARNAME_2": "NA","NL_NAME_2": "NA","TYPE_2": "Commune","ENGTYPE_2": "Commune","CC_2": "2405","HASC_2": "DZ.GL.TA","name": "Tamlouka.county","area_km2": 317.7989,"hist_schema_id": "Elevation0-9000","hist_area_km2": {"725": 8.8341,"750": 49.604,"775": 55.8056,"800": 46.9263,"825": 34.2925,"850": 23.8935,"875": 20.8634,"900": 17.6104,"925": 14.2143,"950": 10.0168,"975": 8.8861,"1000": 7.2255,"1025": 4.6918,"1050": 4.3327,"1075": 3.0313,"1100": 2.9629,"1125": 1.7642,"1150": 1.1305,"1175": 0.8393,"1200": 0.3597,"1225": 0.2741,"1250": 0.2227,"1275": 0.0171}}}