{"type": "Feature","bbox": [4.8446,35.8112,4.9662,35.8842],"geometry": {"type": "MultiPolygon","coordinates": [[[[4.8491,35.8786,1575.7054],[4.8446,35.877,1648.0386],[4.8483,35.8713,1618.7471],[4.862,35.8627,1724.2136],[4.8688,35.853,1623.8082],[4.8753,35.8478,1610.0334],[4.8789,35.8406,1584.5439],[4.8833,35.8375,1584.1438],[4.8856,35.8323,1638.1163],[4.8906,35.8303,1618.5248],[4.9031,35.8121,1803.6672],[4.9071,35.8144,1727.7706],[4.9152,35.8146,1581.1195],[4.9327,35.8112,1715.1151],[4.9375,35.8132,1686.8534],[4.9381,35.8175,1729.7882],[4.941,35.8205,1677.6958],[4.9366,35.827,1499.8296],[4.94,35.8319,1471.4661],[4.9528,35.8356,1494.9851],[4.9497,35.8416,1444.2097],[4.9439,35.8463,1345.1531],[4.9417,35.8508,1412.454],[4.9662,35.8523,1644.2051],[4.9596,35.8715,1462.4202],[4.9476,35.8737,1368.6165],[4.938,35.8815,1299.2708],[4.9321,35.8842,1215.6609],[4.9218,35.8799,1192.9329],[4.9191,35.884,1147.2849],[4.9149,35.8802,1108.0914],[4.8972,35.878,1160.353],[4.8898,35.8724,1237.5132],[4.8851,35.8746,1285.8602],[4.8737,35.8725,1482.1732],[4.8491,35.8786,1575.7054]]]]}
,"properties": {"GID_2": "DZA.11.17_1","GID_0": "DZA","country": "Algeria","GID_1": "DZA.11_1","province": "BordjBouArréridj","NL_NAME_1": "ولايةبرجبوعريريج","county": "Ghilassa","VARNAME_2": "NA","NL_NAME_2": "NA","TYPE_2": "Commune","ENGTYPE_2": "Commune","CC_2": "3432","HASC_2": "DZ.BB.GH","name": "Ghilassa.county","area_km2": 48.13563,"hist_schema_id": "Elevation0-9000","hist_area_km2": {"1100": 0.13743,"1125": 1.04799,"1150": 1.76964,"1175": 1.3917,"1200": 1.44325,"1225": 1.25432,"1250": 1.59806,"1275": 1.94175,"1300": 2.33703,"1325": 2.74956,"1350": 2.59492,"1375": 2.90431,"1400": 2.88723,"1425": 2.13116,"1450": 2.62952,"1475": 2.78417,"1500": 2.56088,"1525": 2.73265,"1550": 2.73263,"1575": 2.25143,"1600": 1.94204,"1625": 1.52954,"1650": 1.08276,"1675": 0.77346,"1700": 0.42974,"1725": 0.30941,"1750": 0.05155,"1775": 0.08594,"1800": 0.03439,"1825": 0.01719}}}