{"type": "Feature","bbox": [-1.1814,35.1276,-0.9886,35.2737],"geometry": {"type": "MultiPolygon","coordinates": [[[[-0.9909,35.2452,281.3291],[-1.0003,35.2534,264.5149],[-1.0025,35.2578,263.9497],[-1.0076,35.2595,245.6564],[-1.012,35.2668,237.3],[-1.0132,35.2737,227.3929],[-1.0212,35.2726,273.087],[-1.0329,35.2672,325.0185],[-1.0417,35.267,303.131],[-1.0462,35.2644,335.5034],[-1.0561,35.2517,419.4674],[-1.0534,35.2482,435.5399],[-1.0582,35.2456,411.1747],[-1.0642,35.2353,436.665],[-1.0714,35.2327,563.9923],[-1.0785,35.2276,522.0137],[-1.0852,35.2274,511.0185],[-1.0894,35.2317,465.2196],[-1.0959,35.2312,454.216],[-1.103,35.2216,538.1261],[-1.103,35.2153,586.3409],[-1.107,35.2106,602.0945],[-1.1171,35.2107,577.2285],[-1.1219,35.2149,536.2404],[-1.1371,35.2179,463.6284],[-1.1405,35.2218,443.0794],[-1.143,35.2156,467.1134],[-1.1501,35.2162,450.3549],[-1.1574,35.2141,490.2622],[-1.1532,35.2007,512.9991],[-1.1557,35.194,554.182],[-1.1408,35.1858,583.2023],[-1.1281,35.1899,573.9471],[-1.1236,35.1809,563.1859],[-1.1264,35.1767,577.5853],[-1.1432,35.1753,589.5103],[-1.1499,35.1778,602.9207],[-1.1596,35.1756,607.8774],[-1.1661,35.177,616.9697],[-1.1814,35.1722,558.4902],[-1.1677,35.163,662.787],[-1.1668,35.1567,587.6462],[-1.1601,35.1561,633.993],[-1.1486,35.1586,581.1331],[-1.1282,35.1561,472.8197],[-1.1287,35.1473,470.6969],[-1.1189,35.1457,518.4396],[-1.1063,35.1345,578.5511],[-1.1003,35.1326,538.7388],[-1.0894,35.1341,437.4861],[-1.0781,35.1333,459.2749],[-1.0678,35.1276,387.6304],[-1.0635,35.1461,454.5284],[-1.0551,35.156,490.4813],[-1.0486,35.1671,524.5482],[-1.0445,35.17,496.0269],[-1.0342,35.1726,476.2169],[-1.0231,35.1733,486.2261],[-1.0151,35.172,506.3145],[-1.0043,35.1754,446.4921],[-1.0013,35.1984,403.3399],[-1.0062,35.202,378.4189],[-1.0079,35.2083,419.1291],[-0.9989,35.2274,336.9342],[-0.9898,35.2334,348.2046],[-0.9886,35.2402,331.4123],[-0.9909,35.2452,281.3291]]]]}
,"properties": {"GID_2": "DZA.3.1_1","GID_0": "DZA","country": "Algeria","GID_1": "DZA.3_1","province": "AïnTémouchent","NL_NAME_1": "ولايةعينتموشنت","county": "Aghlal","VARNAME_2": "NA","NL_NAME_2": "NA","TYPE_2": "Commune","ENGTYPE_2": "Commune","CC_2": "4607","HASC_2": "DZ.AT.AG","name": "Aghlal.county","area_km2": 133.1665,"hist_schema_id": "Elevation0-9000","hist_area_km2": {"225": 0.3462,"250": 1.2638,"275": 1.437,"300": 1.9565,"325": 2.2163,"350": 2.736,"375": 4.5201,"400": 5.2656,"425": 6.704,"450": 7.4842,"475": 11.0541,"500": 14.294,"525": 14.5718,"550": 16.2878,"575": 17.5364,"600": 14.4878,"625": 8.0933,"650": 2.2876,"675": 0.5893,"700": 0.0347}}}