{"type":"Feature","properties":{"GID_2":"DZA.42.14_1","GID_0":"DZA","country":"Algeria","GID_1":"DZA.42_1","province":"Tébessa","NL_NAME_1":"ولايةتبسة","county":"ElMezeraa","VARNAME_2":"ElMazeraa","NL_NAME_2":"NA","TYPE_2":"Commune","ENGTYPE_2":"Commune","CC_2":"1227","HASC_2":"DZ.TB.EZ","name":"El_Mezeraa.county"},
"geometry":{"type": "MultiPolygon","coordinates": [[[[7.5255,35.3209,1294.2808],[7.5295,35.3167,1213.3623],[7.5302,35.3114,1190.6486],[7.5129,35.251,1084.5142],[7.5051,35.2171,1107.6],[7.5028,35.1902,1139.1466],[7.496,35.1791,1109.3783],[7.4913,35.1755,1148.0],[7.4813,35.1716,1101.4679],[7.4697,35.1621,1059.7987],[7.4759,35.1427,1054.874],[7.5001,35.1192,1147.3704],[7.497,35.1121,1073.6201],[7.4931,35.1086,1075.7039],[7.4699,35.0952,1158.2817],[7.4565,35.0842,1177.6235],[7.4662,35.073,1111.4528],[7.4716,35.0611,1132.621],[7.4727,35.0551,1172.7848],[7.4708,35.0439,1279.8195],[7.4983,35.0457,1233.894],[7.5081,35.0384,1194.4808],[7.5103,35.0205,1114.9524],[7.5077,35.0158,1192.4132],[7.5178,35.0027,1027.8098],[7.5239,34.9884,855.126],[7.5281,34.9858,921.0117],[7.5409,34.9833,1023.3616],[7.5548,34.9741,1069.5247],[7.5603,34.9734,1053.7623],[7.5634,34.9774,1062.7906],[7.5685,34.9906,1074.7235],[7.5676,35.0065,1065.7709],[7.5659,35.0108,1027.7146],[7.5472,35.0169,935.1399],[7.5491,35.0228,917.0612],[7.5532,35.027,911.9875],[7.5584,35.0382,919.2907],[7.5712,35.0511,959.7328],[7.5904,35.0648,1008.6072],[7.5957,35.077,969.0359],[7.6067,35.0751,1141.8741],[7.6188,35.076,1175.7516],[7.6252,35.0848,1177.579],[7.6298,35.0884,1104.0533],[7.6389,35.0918,1035.1393],[7.6532,35.103,1014.498],[7.6647,35.1064,1079.345],[7.6729,35.1159,1209.8762],[7.6933,35.1302,1218.5927],[7.7044,35.1448,1301.7351],[7.6978,35.1633,1085.3209],[7.6958,35.185,1105.1431],[7.6834,35.2345,1124.9407],[7.6722,35.2558,1140.6946],[7.6751,35.2654,1145.9415],[7.6661,35.2764,1168.3817],[7.6652,35.2814,1168.5376],[7.67,35.3033,1139.4064],[7.6693,35.3212,1166.5184],[7.6512,35.3237,1175.4036],[7.6226,35.3365,1223.0203],[7.6049,35.349,1282.2478],[7.6019,35.3545,1270.5085],[7.5978,35.3454,1283.755],[7.5936,35.3415,1328.2003],[7.5779,35.3406,1301.897],[7.5569,35.3356,1190.8086],[7.539,35.3289,1269.4554],[7.5255,35.3209,1294.2808]]]]}}