{"type":"Feature","properties":{"GID_2":"DZA.35.16_1","GID_0":"DZA","country":"Algeria","GID_1":"DZA.35_1","province":"Relizane","NL_NAME_1":"ولايةغليزان","county":"Hamri","VARNAME_2":"ElHamri","NL_NAME_2":"NA","TYPE_2":"Commune","ENGTYPE_2":"Commune","CC_2":"4816","HASC_2":"DZ.RE.HA","name":"Hamri.county"},
"geometry":{"type": "MultiPolygon","coordinates": [[[[0.6511,35.9979,41.1055],[0.6562,35.9945,34.8029],[0.6626,35.994,33.3087],[0.6679,35.9956,35.0112],[0.678,35.9938,42.7488],[0.6809,35.9888,40.4685],[0.6906,35.986,43.1726],[0.6944,35.991,36.6958],[0.7001,35.9921,40.7714],[0.7024,35.9981,37.4161],[0.7077,35.9989,36.8053],[0.7114,36.003,36.8578],[0.7195,36.0032,42.758],[0.7266,36.0058,43.7942],[0.7356,36.0028,45.1995],[0.7617,35.9984,46.301],[0.7853,35.9877,47.8184],[0.7807,36.0026,49.2111],[0.7795,36.0143,51.2885],[0.7715,36.0153,53.8062],[0.7664,36.0206,63.0858],[0.7702,36.0245,95.2937],[0.7676,36.0332,162.1719],[0.7711,36.0512,380.0777],[0.7773,36.061,501.3582],[0.7819,36.0649,517.123],[0.7816,36.0751,403.6032],[0.7698,36.0833,325.7654],[0.7638,36.0801,285.6905],[0.7587,36.0816,281.02],[0.7471,36.0753,234.876],[0.7406,36.0749,215.064],[0.7359,36.077,237.3389],[0.7308,36.0757,195.3865],[0.7126,36.0643,158.6527],[0.7063,36.0644,145.6397],[0.7003,36.0617,128.6377],[0.6962,36.059,112.9272],[0.6809,36.0356,87.0812],[0.6756,36.0323,91.6998],[0.6564,36.0269,206.0243],[0.6507,36.023,166.7266],[0.6537,36.0113,52.4682],[0.6511,35.9979,41.1055]]]]}}