{"type":"Feature","properties":{"GID_2":"DZA.15.10_1","GID_0":"DZA","country":"Algeria","GID_1":"DZA.15_1","province":"Constantine","NL_NAME_1":"قسنطينة","county":"IbnZiad","VARNAME_2":"NA","NL_NAME_2":"NA","TYPE_2":"Commune","ENGTYPE_2":"Commune","CC_2":"2512","HASC_2":"DZ.CO.IZ","name":"Ibn_Ziad.county"},
"geometry":{"type": "MultiPolygon","coordinates": [[[[6.5334,36.3644,738.7703],[6.5349,36.3764,600.0803],[6.5342,36.3904,462.6241],[6.5313,36.3949,442.815],[6.5332,36.4107,314.7632],[6.5245,36.4181,328.0341],[6.5239,36.4227,342.1905],[6.518,36.4247,334.1312],[6.5126,36.4295,332.7849],[6.5117,36.4252,307.9248],[6.5054,36.4234,315.5432],[6.4889,36.4146,338.004],[6.4645,36.4232,626.6654],[6.4498,36.4226,601.9703],[6.4379,36.42,586.1462],[6.4313,36.4133,586.4574],[6.4263,36.4119,588.0723],[6.4004,36.3936,632.2913],[6.3958,36.3957,613.2192],[6.3998,36.3991,620.7171],[6.3919,36.4066,582.423],[6.3759,36.408,673.2539],[6.3627,36.4115,515.0667],[6.3558,36.4111,426.922],[6.3514,36.4036,425.0303],[6.3447,36.3975,454.5192],[6.3386,36.3945,502.3802],[6.3221,36.3782,607.4987],[6.3186,36.3709,689.471],[6.3171,36.359,778.1097],[6.3107,36.3451,891.433],[6.3103,36.3392,950.1649],[6.3282,36.343,890.8112],[6.3396,36.3528,1011.8253],[6.3452,36.3544,1070.7074],[6.3592,36.3543,1063.2954],[6.3747,36.3576,997.206],[6.3815,36.3549,923.8969],[6.3795,36.3451,989.5597],[6.3822,36.3359,993.478],[6.3859,36.3335,1021.145],[6.396,36.331,979.0919],[6.4067,36.3305,957.4359],[6.4258,36.3232,999.6924],[6.4249,36.3186,1083.7654],[6.4267,36.314,1100.0472],[6.4364,36.3115,1221.7349],[6.4487,36.3202,1213.7205],[6.4548,36.3323,1266.5789],[6.459,36.335,1269.4812],[6.468,36.3382,1176.3832],[6.5024,36.338,1054.2777],[6.5255,36.3559,931.374],[6.5334,36.3644,738.7703]]]]}}