{"type": "Feature","bbox": [6.4067,34.7533,6.598,35.2483],"geometry": {"type": "MultiPolygon","coordinates": [[[[6.4955,35.2426,1914.1931],[6.492,35.2382,1808.0642],[6.4845,35.233,1793.5271],[6.4481,35.2126,1827.0759],[6.4451,35.2083,1711.0781],[6.4481,35.2027,1541.0359],[6.443,35.2018,1600.3206],[6.4387,35.2031,1672.3728],[6.4331,35.1999,1735.2574],[6.4231,35.1876,1755.9327],[6.4241,35.1796,1702.4218],[6.4172,35.1577,1640.2274],[6.4225,35.1467,1606.9797],[6.4221,35.1376,1556.1921],[6.4177,35.1347,1576.4379],[6.4186,35.1228,1467.7383],[6.4091,35.1178,1536.8862],[6.4141,35.1139,1461.3757],[6.4067,35.1005,1548.9817],[6.4094,35.0898,1431.3519],[6.4077,35.0802,1437.7369],[6.4147,35.0747,1358.9827],[6.4152,35.07,1351.6785],[6.4247,35.0602,1228.2463],[6.4243,35.0555,1217.5669],[6.4268,35.0486,1147.3214],[6.4295,35.0415,1147.3999],[6.4332,35.0372,1100.6121],[6.4572,35.0239,1046.2391],[6.4623,35.0159,954.4576],[6.4567,35.0132,947.9307],[6.4516,35.0064,914.0134],[6.4389,35.0005,894.3741],[6.4421,34.9962,978.2281],[6.4314,34.9869,992.661],[6.4277,34.9758,1009.7787],[6.4305,34.9716,949.0626],[6.4307,34.9672,917.6508],[6.4224,34.9546,973.0003],[6.4258,34.9516,1032.1104],[6.4377,34.9464,1020.4026],[6.4472,34.9351,867.9068],[6.4396,34.9177,477.068],[6.4409,34.912,473.6458],[6.432,34.9025,394.511],[6.4275,34.8943,358.893],[6.4206,34.8626,268.0642],[6.4209,34.8443,262.6641],[6.4223,34.84,296.3724],[6.4273,34.8342,194.4571],[6.4422,34.8259,180.6322],[6.4458,34.8203,223.1557],[6.4515,34.8158,203.7521],[6.4583,34.8148,199.0749],[6.462,34.8114,171.0429],[6.469,34.8037,137.2699],[6.4717,34.7943,124.9911],[6.5336,34.7589,78.0898],[6.5547,34.7533,75.3582],[6.5606,34.7538,81.38],[6.5761,34.7613,84.4459],[6.5826,34.7716,89.4932],[6.5783,34.7887,108.3986],[6.568,34.797,126.3197],[6.5631,34.8106,159.5352],[6.5647,34.817,172.2222],[6.5644,34.8336,218.1051],[6.5588,34.8551,285.7305],[6.561,34.8593,312.6257],[6.5649,34.8621,422.8318],[6.5674,34.8676,637.2735],[6.5766,34.8737,788.5918],[6.5834,34.8755,847.9152],[6.5953,34.8832,931.3698],[6.598,34.8869,934.1573],[6.5969,34.8919,816.2521],[6.5979,34.8963,866.3975],[6.5929,34.8977,925.1302],[6.589,34.9016,1004.0711],[6.5802,34.901,868.5175],[6.571,34.9046,687.3646],[6.593,34.9262,953.5784],[6.5914,34.9315,806.2878],[6.5853,34.9382,727.6107],[6.5784,34.9373,670.1835],[6.5712,34.9452,727.6316],[6.5651,34.9468,556.5163],[6.5565,34.9642,697.9272],[6.5525,34.976,847.8319],[6.5519,34.9827,885.2214],[6.536,35.0166,1247.2717],[6.514,35.0252,1008.3628],[6.499,35.0238,818.3233],[6.5076,35.0424,1130.7086],[6.5117,35.0485,1199.7898],[6.5173,35.0527,1178.0308],[6.5097,35.0818,1142.9242],[6.5077,35.098,1155.1257],[6.5016,35.1065,1181.9194],[6.5033,35.1125,1192.8574],[6.5151,35.1317,1272.905],[6.5183,35.1415,1342.0431],[6.5336,35.1441,1180.6746],[6.5498,35.1448,1430.8269],[6.559,35.1537,1356.0588],[6.565,35.163,1332.696],[6.5661,35.1777,1310.6541],[6.564,35.1943,1486.3741],[6.568,35.1993,1510.3412],[6.5588,35.2154,1401.8138],[6.5601,35.221,1368.1951],[6.5576,35.225,1369.9321],[6.5522,35.2281,1387.6216],[6.5508,35.236,1418.2375],[6.538,35.2391,1458.8975],[6.5307,35.2382,1476.488],[6.5272,35.2352,1464.3914],[6.5187,35.2452,1642.4359],[6.5099,35.2415,1596.9983],[6.5038,35.2483,1904.6907],[6.4955,35.2426,1914.1931]],
[[6.4481,35.2027,1541.0359],[6.4531,35.2053,1521.512],[6.4545,35.201,1481.9741],[6.4481,35.2027,1541.0359]]]]}
,"properties": {"GID_2": "DZA.6.28_1","GID_0": "DZA","country": "Algeria","GID_1": "DZA.6_1","province": "Batna","NL_NAME_1": "ولايةباتنة","county": "Kimmel","VARNAME_2": "NA","NL_NAME_2": "NA","TYPE_2": "Commune","ENGTYPE_2": "Commune","CC_2": "517","HASC_2": "DZ.BT.KI","name": "Kimmel.county","area_km2": 555.2673,"hist_schema_id": "Elevation0-9000","hist_area_km2": {"75": 6.4097,"100": 22.4812,"125": 9.6803,"150": 4.4043,"175": 9.6258,"200": 14.6202,"225": 13.1043,"250": 15.6779,"275": 15.4147,"300": 14.1085,"325": 10.4716,"350": 7.6182,"375": 5.6349,"400": 5.026,"425": 4.4693,"450": 3.9127,"475": 4.0691,"500": 4.6426,"525": 4.9553,"550": 4.9204,"575": 5.1635,"600": 5.0592,"625": 5.3544,"650": 5.2672,"675": 5.7012,"700": 6.1007999999999996,"725": 5.9265,"750": 6.1351,"775": 6.0483,"800": 6.8297,"825": 6.551,"850": 6.4466,"875": 6.6549,"900": 7.2277,"925": 7.6095,"950": 7.4876,"975": 8.3899,"1000": 9.4309,"1025": 10.7139,"1050": 12.8471,"1075": 15.0154,"1100": 15.3615,"1125": 14.2314,"1150": 15.0637,"1175": 15.1831,"1200": 11.6061,"1225": 10.458,"1250": 11.4966,"1275": 11.8935,"1300": 12.655,"1325": 13.0008,"1350": 13.8662,"1375": 13.171,"1400": 12.6846,"1425": 11.5059,"1450": 6.6715,"1475": 5.7005,"1500": 5.4928,"1525": 4.2102,"1550": 3.6731,"1575": 2.2869,"1600": 1.5939,"1625": 1.3688,"1650": 1.5073,"1675": 1.0914,"1700": 0.7102,"1725": 0.3811,"1750": 0.3117,"1775": 0.3637,"1800": 0.1386,"1825": 0.1559,"1850": 0.1039,"1875": 0.0693,"1900": 0.0346,"1925": 0.0173}}}