{"type":"Feature","properties":{"GID_2":"DZA.24.17_1","GID_0":"DZA","country":"Algeria","GID_1":"DZA.24_1","province":"Khenchela","NL_NAME_1":"ولايةخنشلة","county":"OuledRechache","VARNAME_2":"NA","NL_NAME_2":"NA","TYPE_2":"Commune","ENGTYPE_2":"Commune","CC_2":"4016","HASC_2":"DZ.KH.OR","name":"Ouled_Rechache.county"},
"geometry":{"type": "MultiPolygon","coordinates": [[[[7.3098,35.0525,1021.9107],[7.3553,35.0733,1062.0122],[7.3656,35.0734,1187.4199],[7.4375,35.1633,1104.976],[7.4208,35.1887,1116.928],[7.3945,35.2197,1160.533],[7.3921,35.2256,1200.8179],[7.3908,35.2418,1364.3125],[7.4007,35.2452,1330.9126],[7.4167,35.2554,1324.9773],[7.4318,35.2716,1337.9716],[7.4261,35.2708,1346.7067],[7.4135,35.2767,1251.6915],[7.4034,35.2846,1314.4192],[7.3986,35.2963,1388.0956],[7.4041,35.301,1384.2603],[7.4025,35.3115,1218.7611],[7.4033,35.3218,1146.0254],[7.3995,35.3378,1125.8379],[7.3936,35.3402,1109.771],[7.3518,35.3403,1107.2252],[7.3394,35.3323,1110.8241],[7.3248,35.3355,1100.8279],[7.32,35.3307,1100.7205],[7.3095,35.3124,1138.0118],[7.3008,35.3017,1150.7],[7.2995,35.2965,1187.0828],[7.3012,35.2846,1261.5542],[7.2996,35.2798,1340.2522],[7.292,35.2723,1396.2877],[7.2851,35.2592,1364.0366],[7.2837,35.254,1376.1693],[7.2851,35.2411,1341.6356],[7.291,35.2286,1327.187],[7.2902,35.2111,1366.9812],[7.2973,35.1951,1411.6693],[7.2948,35.1897,1443.2708],[7.2958,35.1839,1439.4449],[7.3052,35.1723,1450.3749],[7.3045,35.155,1332.6365],[7.2994,35.1454,1236.5188],[7.3054,35.1267,1123.5398],[7.3073,35.1115,1087.4238],[7.3098,35.0525,1021.9107]]]]}}