{"type":"Feature","properties":{"GID_2":"DZA.1.23_1","GID_0":"DZA","country":"Algeria","GID_1":"DZA.1_1","province":"Adrar","NL_NAME_1":"ولايةأدرا","county":"Timiaouine","VARNAME_2":"NA","NL_NAME_2":"NA","TYPE_2":"Commune","ENGTYPE_2":"Commune","CC_2":"128","HASC_2":"DZ.AR.TI","name":"Timiaouine.county"},
"geometry":{"type": "MultiPolygon","coordinates": [[[[1.3355,20.7211,475.9553],[1.3418,20.7091,489.1181],[1.3453,20.688,486.8837],[1.3509,20.68,494.239],[1.3718,20.6657,498.0031],[1.4206,20.6597,492.6933],[1.4552,20.6508,501.2227],[1.524,20.6243,517.3585],[1.546,20.6192,524.5463],[1.5927,20.6005,546.0468],[1.6341,20.579,565.147],[1.64,20.5724,565.6799],[1.6531,20.5522,576.5409],[1.6572,20.5347,586.164],[1.671,20.4105,616.7529],[1.7156,20.3752,627.2482],[1.7684,20.3425,635.4236],[1.7757,20.3353,641.0124],[1.793,20.3047,650.8563],[1.8032,20.2969,650.8635],[1.8391,20.3008,638.4671],[1.8658,20.3,650.1913],[1.876,20.2983,652.02],[1.8804,20.2944,667.1334],[1.8897,20.2794,655.4619],[1.9055,20.2502,657.5126],[1.9118,20.2422,662.917],[1.9169,20.2386,671.981],[1.927,20.2382,680.0663],[1.9336,20.2417,689.2072],[1.9528,20.259,693.1535],[1.9588,20.2605,683.2548],[1.9748,20.2599,680.2445],[1.9821,20.2574,678.9326],[2.0085,20.2421,692.5865],[2.0376,20.2563,697.368],[2.0439,20.2568,692.0482],[2.0483,20.2528,689.0617],[2.0498,20.2471,684.4505],[2.0628,20.2289,682.5242],[2.0781,20.2185,740.3118],[2.0954,20.2121,707.6141],[2.1116,20.2177,705.4902],[2.12,20.2248,702.6901],[2.1284,20.2344,708.9644],[2.1521,20.2687,717.1462],[2.1612,20.279,710.569],[2.1731,20.288,754.9986],[2.1856,20.2917,770.3527],[2.2106,20.2858,747.4032],[2.2376,20.2738,743.8838],[2.266,20.2564,741.6023],[2.2962,20.2311,806.4462],[2.3178,20.2083,808.9177],[2.3384,20.1838,769.4465],[2.3721,20.1317,777.9244],[2.3817,20.1036,824.5858],[2.3866,20.0936,806.8538],[2.3992,20.0719,825.0715],[2.4063,20.0643,829.9418],[2.4341,20.0736,808.4116],[2.4769,20.0943,818.5952],[2.4977,20.0921,799.3063],[2.48,20.2039,765.8959],[2.4442,20.301,720.5475],[2.3959,20.4097,701.3926],[2.3527,20.4946,645.4791],[2.3033,20.5679,626.3253],[2.2606,20.622,603.756],[2.2468,20.678,589.0519],[2.2471,20.7379,580.054],[2.2581,20.8005,564.5704],[2.2631,20.8606,560.4603],[2.2306,20.9537,538.3585],[2.2117,21.0297,532.7007],[2.1946,21.0886,538.5746],[2.1541,21.1637,510.2736],[2.0919,21.2861,488.5693],[2.0501,21.3338,479.9545],[2.0032,21.3924,463.7576],[1.9699,21.4196,455.7126],[1.913,21.4572,449.5438],[1.8674,21.4932,450.1574],[1.839,21.5279,437.7164],[1.7987,21.6995,440.3458],[1.7837,21.7863,423.054],[1.7795,21.8029,422.8948],[1.7763,21.8091,422.0355],[1.7395,21.8216,421.3536],[1.706,21.8264,424.8038],[1.6328,21.83,413.5193],[1.5914,21.8291,410.7658],[1.5052,21.8213,418.0615],[1.4717,21.8163,413.2762],[1.4458,21.8089,419.58],[1.424,21.8061,418.3206],[1.4184,21.8028,417.9993],[1.4163,21.7852,405.9496],[1.4167,21.7385,402.3706],[1.4107,21.6815,423.5156],[1.3595,21.0529,433.5694],[1.3355,20.7211,475.9553]]]]}}