{"type": "Feature","bbox": [5.7368,35.8773,6.5451,36.6232],"geometry": {"type": "MultiPolygon","coordinates": [[[[6.05,35.8902,897.8212],[6.1298,35.8837,935.3915],[6.1498,35.8773,890.5076],[6.1563,35.878,888.4083],[6.1608,35.8834,894.2385],[6.1574,35.8881,880.3439],[6.1586,35.8925,895.846],[6.1659,35.8998,874.0198],[6.1664,35.93,892.4043],[6.1693,35.9343,915.9557],[6.1736,35.9316,895.5696],[6.1852,35.931,882.4031],[6.1882,35.9368,894.0662],[6.1909,35.9489,913.8412],[6.2032,35.9639,959.742],[6.2086,35.9655,956.3571],[6.2814,35.9708,1000.8591],[6.3031,35.9548,955.2866],[6.3151,35.9517,918.8264],[6.3082,35.9702,1001.3839],[6.3071,35.9793,1049.9353],[6.3133,35.9837,1136.3882],[6.3189,35.9842,1074.3804],[6.3312,35.9823,1010.4464],[6.3444,35.976,1023.0439],[6.3601,35.9931,932.5842],[6.3649,35.9964,960.1779],[6.3771,36.0135,926.1516],[6.4059,36.0334,874.8981],[6.4029,36.0432,883.8724],[6.4017,36.0613,1190.8795],[6.4034,36.0683,1129.2983],[6.4111,36.0767,900.6349],[6.4053,36.1021,772.3107],[6.4028,36.1065,766.6556],[6.4026,36.1137,756.5602],[6.4109,36.1299,779.7136],[6.4188,36.1406,845.9595],[6.435,36.1426,880.9456],[6.4497,36.1544,828.9396],[6.4551,36.1562,827.7592],[6.4681,36.1544,847.6485],[6.4832,36.1588,868.4171],[6.4832,36.1653,888.3531],[6.5043,36.168,919.218],[6.5169,36.1682,928.0308],[6.5218,36.166,931.7681],[6.5317,36.17,955.5853],[6.5378,36.1708,940.6033],[6.5435,36.1776,885.3881],[6.5451,36.1833,855.0688],[6.5426,36.1948,815.5098],[6.5316,36.2017,795.5906],[6.5295,36.206,765.962],[6.5402,36.2092,752.3342],[6.5423,36.2131,737.0449],[6.5375,36.2185,719.4966],[6.538,36.2228,747.4799],[6.507,36.2349,748.7006],[6.5027,36.239,753.5921],[6.4958,36.2551,620.8118],[6.4786,36.2546,617.0297],[6.4613,36.248,627.8773],[6.4488,36.2457,628.4474],[6.424,36.2506,649.6177],[6.4238,36.2557,666.703],[6.419,36.2579,679.9613],[6.4165,36.2632,703.3434],[6.4113,36.2662,733.1787],[6.4087,36.2707,781.9907],[6.4072,36.2854,920.6523],[6.4102,36.2897,1110.5756],[6.4199,36.2942,1154.2891],[6.4273,36.3003,1083.2388],[6.4344,36.3075,1179.543],[6.4364,36.3115,1221.7349],[6.4267,36.314,1100.0472],[6.4249,36.3186,1083.7654],[6.4258,36.3232,999.6924],[6.4067,36.3305,957.4359],[6.396,36.331,979.0919],[6.3859,36.3335,1021.145],[6.3822,36.3359,993.478],[6.3795,36.3451,989.5597],[6.3815,36.3549,923.8969],[6.3747,36.3576,997.206],[6.3592,36.3543,1063.2954],[6.3452,36.3544,1070.7074],[6.3357,36.3504,951.927],[6.3282,36.343,890.8112],[6.3103,36.3392,950.1649],[6.3107,36.3451,891.433],[6.3171,36.359,778.1097],[6.3186,36.3709,689.471],[6.3221,36.3782,607.4987],[6.3386,36.3945,502.3802],[6.3447,36.3975,454.5192],[6.3514,36.4036,425.0303],[6.3577,36.4162,405.3374],[6.3549,36.4263,311.7511],[6.3471,36.4406,270.3921],[6.3457,36.4463,257.6366],[6.3459,36.4522,245.9231],[6.3545,36.4657,212.8104],[6.352,36.4897,197.0],[6.361,36.4921,197.0],[6.3652,36.4909,197.0],[6.3743,36.4938,197.0],[6.3785,36.4925,197.0],[6.3785,36.4874,197.0],[6.3848,36.4873,197.0],[6.3877,36.4937,197.0],[6.397,36.4986,267.5724],[6.4038,36.4968,237.4977],[6.4166,36.5004,303.1307],[6.4277,36.4963,327.1528],[6.458,36.4971,215.6469],[6.4621,36.4952,232.2944],[6.4722,36.5021,240.835],[6.4791,36.5106,268.4161],[6.4865,36.5152,244.0831],[6.4923,36.5175,246.2044],[6.4972,36.5168,250.7677],[6.5029,36.5181,252.2833],[6.507,36.5226,284.369],[6.5041,36.5286,341.6418],[6.5019,36.5394,523.4847],[6.5042,36.5494,648.1866],[6.4997,36.5635,874.3041],[6.5063,36.5781,1265.447],[6.463,36.5741,1130.157],[6.4574,36.5711,1179.5024],[6.4517,36.5737,1145.6115],[6.4381,36.5712,1194.7401],[6.4207,36.5777,1049.2828],[6.4097,36.5884,1226.6759],[6.4039,36.5903,1260.642],[6.3868,36.5907,1120.5442],[6.368,36.5953,1217.7867],[6.3401,36.5974,1300.3138],[6.3341,36.6019,983.7271],[6.3335,36.6143,674.4418],[6.3276,36.6219,676.1618],[6.3151,36.6232,391.2897],[6.3121,36.6182,563.2201],[6.298,36.617,386.5297],[6.2917,36.6209,306.9781],[6.2858,36.6203,267.5504],[6.2825,36.6159,127.7766],[6.2593,36.611,266.3278],[6.2518,36.6021,519.8386],[6.2457,36.601,537.9919],[6.2467,36.5935,673.0309],[6.2449,36.5865,774.6074],[6.2417,36.5818,839.8204],[6.2247,36.5792,1123.4017],[6.206,36.5809,1215.8068],[6.1892,36.5857,1020.6606],[6.181,36.5851,944.2686],[6.1754,36.5827,1022.8615],[6.1706,36.5833,1070.1362],[6.1615,36.5847,1123.1858],[6.1484,36.5899,1077.7756],[6.1369,36.5904,744.7772],[6.1323,36.5922,679.2554],[6.1296,36.5966,636.9379],[6.1295,36.6024,508.2469],[6.1233,36.601,534.2595],[6.0657,36.602,732.0303],[6.0539,36.6142,1021.2587],[6.0359,36.6119,1074.9395],[6.0316,36.6082,1165.8242],[6.0054,36.6163,772.4127],[5.9979,36.6146,642.1716],[5.993,36.6176,507.4469],[5.9788,36.6133,783.2901],[5.9757,36.6102,871.3917],[5.9643,36.6069,1141.304],[5.958,36.6029,1234.3114],[5.9573,36.5907,1312.9268],[5.9627,36.5856,1347.4966],[5.9536,36.5788,1232.9619],[5.9464,36.569,929.0836],[5.9357,36.5634,927.032],[5.9304,36.5564,1176.2968],[5.9242,36.5545,1220.8732],[5.9189,36.5572,1184.187],[5.9125,36.5573,1209.7675],[5.8968,36.557,1252.0234],[5.8868,36.5537,1330.6688],[5.8686,36.5544,1158.1948],[5.8643,36.5511,1160.2559],[5.8578,36.5403,859.6881],[5.8404,36.5428,833.2914],[5.838,36.5474,938.4565],[5.8326,36.5513,919.0769],[5.8212,36.555,972.1674],[5.8078,36.5636,1023.7288],[5.7959,36.568,1027.4076],[5.7832,36.5685,1181.6584],[5.7769,36.5704,1264.365],[5.7629,36.5701,1458.1487],[5.7584,36.5678,1565.7738],[5.7547,36.562,1524.6447],[5.7485,36.5596,1525.8101],[5.7406,36.56,1540.6383],[5.7368,36.5569,1509.7826],[5.745,36.5523,1322.0063],[5.7498,36.5423,1099.9829],[5.7627,36.5291,795.3433],[5.7633,36.5183,763.9585],[5.7605,36.5005,961.7928],[5.7615,36.4958,837.223],[5.7653,36.4937,794.1315],[5.765,36.4888,719.3792],[5.7613,36.4838,676.2255],[5.7561,36.4817,712.5681],[5.75,36.4747,579.4921],[5.7484,36.4633,626.2548],[5.7583,36.4447,492.3648],[5.7647,36.4432,494.9417],[5.7674,36.4367,702.7164],[5.773,36.4317,910.5869],[5.7673,36.426,765.611],[5.7898,36.421,972.4398],[5.8122,36.4101,893.0469],[5.8158,36.3878,705.5037],[5.8124,36.3841,676.2875],[5.8107,36.3785,790.5225],[5.8156,36.3748,921.9067],[5.8048,36.3592,1036.1864],[5.8402,36.3397,1039.229],[5.8663,36.3418,987.5263],[5.8712,36.3407,983.5129],[5.8667,36.3339,852.2504],[5.8659,36.3267,742.2554],[5.8708,36.3152,693.8434],[5.8656,36.3126,697.0949],[5.8626,36.3085,766.4012],[5.8615,36.3032,880.226],[5.8644,36.2965,999.0544],[5.8748,36.2946,996.9036],[5.886,36.2841,751.5335],[5.8878,36.2802,835.4019],[5.8869,36.275,861.3716],[5.8936,36.267,894.9061],[5.8936,36.2572,1018.2031],[5.8973,36.2529,985.4089],[5.9076,36.2488,1033.9796],[5.9124,36.2432,1093.2693],[5.9177,36.2405,1073.123],[5.9266,36.2405,1091.6495],[5.9399,36.235,1060.485],[5.939,36.2299,1053.024],[5.941,36.2257,1044.111],[5.9441,36.2214,1031.0609],[5.9494,36.2195,1054.4497],[5.946,36.2157,1092.4427],[5.9592,36.2091,1056.7139],[5.9622,36.2037,1006.6846],[5.9516,36.2044,1075.8013],[5.9469,36.2006,1081.7329],[5.9458,36.1961,1054.4137],[5.9417,36.1933,1054.4299],[5.9267,36.19,1036.2174],[5.9186,36.1829,1050.2173],[5.9165,36.1758,986.2784],[5.9192,36.1461,888.1833],[5.9218,36.1424,902.694],[5.9172,36.1108,895.1741],[5.9267,36.1079,887.589],[5.9478,36.1072,876.9374],[5.9651,36.1045,870.735],[5.9895,36.096,856.1398],[5.9952,36.0914,855.4529],[5.9899,36.0842,857.6795],[5.9918,36.0767,861.5548],[5.9987,36.0669,863.565],[6.0002,36.0612,865.6572],[5.9962,36.0561,869.5979],[5.9993,36.0454,880.957],[6.0031,36.0414,886.022],[6.003,36.0346,898.3755],[5.9999,36.0293,909.6447],[6.0071,36.0118,969.9586],[5.9935,36.0012,991.3353],[5.9905,35.9967,988.7432],[5.9797,35.9923,961.7594],[5.9749,35.9881,957.8304],[5.9826,35.9814,948.6624],[5.9877,35.9802,954.0143],[5.9911,35.9774,948.9343],[5.9943,35.9698,931.9893],[5.9917,35.9635,918.7374],[5.992,35.9577,912.0012],[6.0162,35.949,925.7555],[6.0219,35.9457,924.7626],[6.0248,35.9398,919.9225],[6.0097,35.9278,907.1399],[6.001,35.9184,923.7964],[5.9842,35.91,919.9227],[5.9714,35.9064,903.8504],[5.9684,35.9023,894.7281],[5.9682,35.8921,884.8596],[5.9908,35.9055,943.5678],[6.0009,35.894,903.676],[6.008,35.8964,921.136],[6.0192,35.897,923.1528],[6.0238,35.8918,904.8771],[6.0297,35.8896,886.5378],[6.0359,35.8912,893.2543],[6.05,35.8902,897.8212]]]]}
,"properties": {"GID_1": "DZA.29_1","GID_0": "DZA","country": "Algeria","province": "Mila","VARNAME_1": "NA","NL_NAME_1": "ولايةميلة","TYPE_1": "Wilaya","ENGTYPE_1": "Province","CC_1": "43","HASC_1": "DZ.ML","ISO_1": "DZ-43","name": "Mila.province","area_km2": 3502.598,"hist_schema_id": "Elevation0-9000","hist_area_km2": {"75": 0.494,"100": 0.8,"125": 1.089,"150": 1.141,"175": 0.987,"200": 45.362,"225": 23.671,"250": 27.404,"275": 32.707,"300": 38.728,"325": 45.312,"350": 51.604,"375": 53.191,"400": 55.528,"425": 59.777,"450": 60.511,"475": 59.932,"500": 61.062,"525": 58.913,"550": 55.146,"575": 55.386,"600": 53.067,"625": 52.205,"650": 59.648,"675": 72.735,"700": 86.813,"725": 101.751,"750": 148.127,"775": 192.859,"800": 191.147,"825": 217.579,"850": 299.187,"875": 234.417,"900": 191.156,"925": 179.773,"950": 138.967,"975": 100.1,"1000": 83.296,"1025": 72.267,"1050": 68.663,"1075": 57.452,"1100": 37.582,"1125": 23.133,"1150": 13.103,"1175": 10.943,"1200": 8.14,"1225": 6.21,"1250": 3.65,"1275": 2.387,"1300": 2.164,"1325": 1.499,"1350": 0.903,"1375": 0.766,"1400": 0.511,"1425": 0.443,"1450": 0.307,"1475": 0.324,"1500": 0.221,"1525": 0.187,"1550": 0.17}}}