{"type":"Feature","properties":{"GID_2":"DZA.35.30_1","GID_0":"DZA","country":"Algeria","GID_1":"DZA.35_1","province":"Relizane","NL_NAME_1":"ولايةغليزان","county":"Relizane","VARNAME_2":"Gha-liza-n","NL_NAME_2":"NA","TYPE_2":"Chef-Lieu-Wilaya","ENGTYPE_2":"Chef-Lieu-Wilaya","CC_2":"4801","HASC_2":"DZ.RE.RE","name":"Relizane.county"},
"geometry":{"type": "MultiPolygon","coordinates": [[[[0.4791,35.755,58.3269],[0.4828,35.7419,61.0783],[0.4945,35.739,62.0274],[0.4949,35.7261,66.6407],[0.5012,35.7239,67.1619],[0.5108,35.7231,69.4209],[0.5151,35.7202,75.3293],[0.5365,35.7289,74.6077],[0.5425,35.7268,76.1439],[0.547,35.7225,76.9423],[0.5468,35.7177,76.9468],[0.5416,35.7146,80.104],[0.5302,35.7028,114.9752],[0.5383,35.6894,131.1802],[0.5439,35.6867,142.3343],[0.5472,35.6828,151.244],[0.5607,35.6864,85.7306],[0.5641,35.6809,89.6547],[0.564,35.6755,92.4413],[0.5678,35.6732,93.0491],[0.5673,35.6671,90.1425],[0.5779,35.6653,96.7161],[0.589,35.659,104.5933],[0.6118,35.6574,136.8761],[0.6232,35.6607,172.7067],[0.6283,35.6646,179.4355],[0.6395,35.6631,241.2988],[0.6448,35.6669,236.4978],[0.6479,35.672,248.359],[0.6374,35.673,222.2975],[0.6215,35.6808,168.6357],[0.618,35.6859,132.645],[0.6095,35.6932,113.3421],[0.6084,35.6974,126.8629],[0.6231,35.7118,130.5956],[0.6278,35.7193,120.2578],[0.6227,35.7239,107.1018],[0.602,35.7346,83.9336],[0.6105,35.7406,82.9145],[0.614,35.7521,78.4324],[0.6136,35.7597,73.6219],[0.6097,35.7647,66.6215],[0.6156,35.7754,62.318],[0.5963,35.7939,49.6383],[0.5666,35.7845,52.2797],[0.5634,35.7817,52.963],[0.5286,35.7686,58.433],[0.5136,35.7568,61.4056],[0.4791,35.755,58.3269]]]]}}