{"type": "Feature","bbox": [4.9762,35.6782,5.0955,35.7852],"geometry": {"type": "MultiPolygon","coordinates": [[[[4.9762,35.7614,850.4113],[4.9766,35.7549,831.0229],[4.9846,35.7463,778.7159],[4.9829,35.7254,747.2172],[4.9843,35.7127,741.8423],[4.9822,35.701,715.5394],[4.9931,35.6927,676.4152],[5.018,35.6929,660.8379],[5.0519,35.706,734.3076],[5.0592,35.6913,723.0237],[5.0548,35.6807,674.6234],[5.0731,35.6782,662.4308],[5.0793,35.6891,692.1247],[5.0812,35.696,713.5823],[5.0892,35.7066,766.6407],[5.0906,35.7137,859.0906],[5.0955,35.7176,907.2492],[5.0915,35.7209,895.1501],[5.0909,35.7265,934.7806],[5.0568,35.7439,1090.9399],[5.0534,35.7467,1077.9507],[5.0518,35.7514,1096.9819],[5.0445,35.7562,1029.5776],[5.0391,35.7588,949.5685],[5.0266,35.7604,887.1163],[5.0375,35.7665,1023.3752],[5.0418,35.7712,1038.4957],[5.0449,35.7772,1012.6638],[5.0443,35.7838,1061.5829],[5.0398,35.7852,1079.7679],[5.0327,35.7834,1059.4497],[4.9972,35.7658,825.4165],[4.991,35.7648,832.7268],[4.9892,35.7713,853.5474],[4.9783,35.7682,907.9374],[4.9762,35.7614,850.4113]]]]}
,"properties": {"GID_2": "DZA.26.15_1","GID_0": "DZA","country": "Algeria","GID_1": "DZA.26_1","province": "M'Sila","NL_NAME_1": "ولايةالمسيلة","county": "Dehahna","VARNAME_2": "NA","NL_NAME_2": "NA","TYPE_2": "Commune","ENGTYPE_2": "Commune","CC_2": "2830","HASC_2": "DZ.MS.DE","name": "Dehahna.county","area_km2": 70.68855,"hist_schema_id": "Elevation0-9000","hist_area_km2": {"650": 0.77494,"675": 6.61187,"700": 8.93512,"725": 9.10649,"750": 8.26232,"775": 5.90345,"800": 6.48784,"825": 5.76468,"850": 3.97485,"875": 2.82197,"900": 2.21985,"925": 1.7725,"950": 1.30779,"975": 1.08401,"1000": 0.89471,"1025": 0.98078,"1050": 0.89471,"1075": 0.89465,"1100": 0.92915,"1125": 0.48178,"1150": 0.24091,"1175": 0.08605,"1200": 0.10326,"1225": 0.10326,"1250": 0.05163}}}