{"type":"Feature","properties":{"GID_2":"DZA.38.22_1","GID_0":"DZA","country":"Algeria","GID_1":"DZA.38_1","province":"SidiBelAbbès","NL_NAME_1":"ولايةسيديبلعباس","county":"Merhoum","VARNAME_2":"Marhoum","NL_NAME_2":"NA","TYPE_2":"Commune","ENGTYPE_2":"Commune","CC_2":"2210","HASC_2":"DZ.SB.MH","name":"Merhoum.county"},
"geometry":{"type": "MultiPolygon","coordinates": [[[[-0.0186,34.4476,1074.4003],[-0.0165,34.4601,1078.4908],[-0.0198,34.4673,1072.2742],[-0.0244,34.4661,1072.1332],[-0.0347,34.4679,1075.5776],[-0.0462,34.4759,1088.9149],[-0.0518,34.4776,1085.8538],[-0.0558,34.4808,1092.917],[-0.0668,34.4967,1099.5922],[-0.0761,34.5033,1116.9017],[-0.0856,34.5048,1119.7328],[-0.0915,34.5046,1129.1465],[-0.0983,34.4968,1123.4154],[-0.1068,34.4953,1117.9454],[-0.1669,34.4749,1138.6024],[-0.1723,34.4724,1137.9552],[-0.1827,34.4617,1131.8771],[-0.1928,34.456,1123.8047],[-0.1957,34.4594,1128.5206],[-0.2006,34.4578,1121.8693],[-0.2202,34.4789,1138.1696],[-0.2352,34.4828,1147.4166],[-0.2499,34.4821,1157.5631],[-0.2602,34.4998,1187.785],[-0.2772,34.5056,1215.1302],[-0.2907,34.5141,1227.7742],[-0.2929,34.5191,1239.3567],[-0.2933,34.5265,1233.3629],[-0.2882,34.5451,1234.0427],[-0.2908,34.5526,1231.819],[-0.2933,34.5581,1238.8701],[-0.3099,34.5756,1212.9296],[-0.3152,34.5861,1199.6863],[-0.3245,34.5908,1172.1902],[-0.3264,34.5703,1213.2113],[-0.3208,34.5533,1239.6121],[-0.3187,34.5354,1218.8419],[-0.3109,34.5189,1205.704],[-0.3085,34.5028,1192.1715],[-0.3491,34.4686,1211.9053],[-0.3511,34.4531,1181.0583],[-0.3379,34.4405,1163.9733],[-0.3324,34.4302,1149.6296],[-0.3523,34.4361,1166.0806],[-0.3696,34.4469,1178.8914],[-0.3776,34.4444,1191.0442],[-0.3605,34.4339,1176.8945],[-0.349,34.42,1164.8643],[-0.3528,34.4033,1151.4019],[-0.3664,34.3922,1131.4338],[-0.3609,34.3787,1121.573],[-0.3393,34.3486,1106.1836],[-0.3177,34.3279,1093.5201],[-0.3047,34.2978,1082.7366],[-0.295,34.2829,1077.4302],[-0.2912,34.2683,1071.9427],[-0.2965,34.2576,1065.3213],[-0.2808,34.2264,1057.4368],[-0.2742,34.2097,1048.1077],[-0.2692,34.1944,1055.1768],[-0.2583,34.1413,1041.0162],[-0.2477,34.1265,1033.5895],[-0.242,34.1094,981.7585],[-0.2328,34.1031,985.9924],[-0.2192,34.1009,981.5],[-0.2243,34.0928,981.7562],[-0.2237,34.0791,981.5],[-0.2105,34.0649,988.1044],[-0.1991,34.068,991.0955],[-0.1863,34.0684,995.4982],[-0.1784,34.0709,994.2894],[-0.1724,34.076,992.2655],[-0.1548,34.0859,992.8987],[-0.1334,34.0929,983.3987],[-0.1282,34.09,991.3818],[-0.1093,34.0894,987.3756],[-0.0876,34.0819,998.51],[-0.0803,34.0827,991.9637],[-0.0706,34.0863,989.6036],[-0.0119,34.1804,982.0811],[-0.001,34.2076,1018.8754],[0.0038,34.2111,1025.1184],[0.0242,34.2105,1022.1388],[0.0326,34.2142,1023.0212],[0.0355,34.2182,1022.8805],[0.0414,34.2323,1029.0197],[0.0406,34.242,1029.4512],[0.0355,34.2588,1036.3708],[0.0267,34.2761,1026.3959],[0.0264,34.2836,1034.697],[0.0301,34.3033,1048.1555],[0.0264,34.3174,1048.8589],[0.0202,34.3256,1055.7666],[0.0183,34.3329,1054.5674],[0.0195,34.357,1045.5848],[0.0091,34.3691,1041.786],[-0.0001,34.3928,1048.6349],[-0.0042,34.3959,1049.2577],[-0.0076,34.4023,1051.8149],[-0.0119,34.4203,1055.4141],[-0.0154,34.424,1057.2556],[-0.0171,34.4296,1058.8447],[-0.0198,34.4423,1064.6559],[-0.0186,34.4476,1074.4003]]]]}}