{"type":"Feature","properties":{"GID_2":"DZA.46.4_1","GID_0":"DZA","country":"Algeria","GID_1":"DZA.46_1","province":"Tissemsilt","NL_NAME_1":"ولايةتسمسيلت","county":"BordjBounaama","VARNAME_2":"NA","NL_NAME_2":"NA","TYPE_2":"Commune","ENGTYPE_2":"Commune","CC_2":"3802","HASC_2":"DZ.TS.BB","name":"Bordj_Bounaama.county"},
"geometry":{"type": "MultiPolygon","coordinates": [[[[1.6937,35.838,1015.3369],[1.6858,35.8426,1114.9543],[1.6735,35.8642,814.3856],[1.6807,35.8842,1367.1755],[1.6548,35.89,1555.1593],[1.6484,35.8892,1588.3672],[1.643,35.8861,1683.4486],[1.6424,35.8808,1457.6204],[1.637,35.8767,1560.0356],[1.6319,35.8761,1888.4709],[1.6261,35.88,1610.0979],[1.6202,35.8812,1368.9266],[1.6072,35.8812,1220.7655],[1.5976,35.883,1087.8899],[1.5903,35.8898,925.7788],[1.5847,35.8902,849.0358],[1.5673,35.8889,795.9377],[1.5556,35.8813,656.6535],[1.5552,35.8757,737.9483],[1.5612,35.8746,689.691],[1.566,35.8708,716.335],[1.5706,35.8696,736.1708],[1.5723,35.8646,738.9884],[1.5693,35.8562,763.003],[1.5728,35.8443,804.5551],[1.5777,35.8376,864.4758],[1.5889,35.8326,855.5696],[1.5992,35.8327,910.2839],[1.6048,35.8348,927.2264],[1.6101,35.8319,929.3918],[1.6219,35.8323,744.6008],[1.6276,35.8246,732.4391],[1.6421,35.8123,705.5132],[1.6531,35.8166,702.6166],[1.657,35.8221,885.9862],[1.6579,35.8272,910.6671],[1.6621,35.8307,921.2504],[1.6667,35.8326,893.7604],[1.6726,35.8282,802.5162],[1.6841,35.8326,892.4802],[1.692,35.8335,929.1503],[1.6937,35.838,1015.3369]]]]}}