{"type": "Feature","bbox": [0.6902,35.2788,0.902,35.4605],"geometry": {"type": "MultiPolygon","coordinates": [[[[0.8321,35.4455,296.3865],[0.804,35.4503,272.9749],[0.7846,35.451,267.941],[0.7677,35.4554,270.8581],[0.7596,35.4605,241.8731],[0.7572,35.4552,244.5199],[0.7643,35.4439,257.3044],[0.7587,35.4314,369.3832],[0.752,35.4214,445.5475],[0.7548,35.399,536.7385],[0.7382,35.3743,563.3408],[0.7277,35.37,568.6658],[0.7164,35.3616,606.6429],[0.7141,35.3561,694.9854],[0.7146,35.3467,816.1142],[0.7114,35.343,857.3481],[0.7116,35.3368,743.7925],[0.7087,35.3327,596.5577],[0.6902,35.3227,483.1973],[0.6921,35.3166,469.9134],[0.6971,35.3109,483.869],[0.7059,35.3071,510.7908],[0.7081,35.3033,506.1763],[0.7131,35.3005,548.2156],[0.7583,35.2868,960.1757],[0.7726,35.2804,974.7449],[0.7774,35.2799,1012.8312],[0.7826,35.2918,973.0546],[0.7874,35.2864,843.9291],[0.7971,35.2799,830.9095],[0.8039,35.2788,812.2817],[0.8303,35.2933,599.0426],[0.831,35.3,604.2318],[0.8376,35.3109,491.9691],[0.8383,35.321,497.4691],[0.8548,35.3266,788.971],[0.863,35.335,558.2274],[0.8663,35.3675,454.9046],[0.8692,35.3718,448.2768],[0.8725,35.375,486.0534],[0.8822,35.3726,520.8416],[0.8889,35.3737,501.3274],[0.8968,35.3778,481.0375],[0.902,35.3834,568.6208],[0.8919,35.4017,532.623],[0.8847,35.4103,437.7943],[0.8756,35.4182,333.8555],[0.8692,35.4211,407.7648],[0.8577,35.4224,422.3441],[0.837,35.4337,382.4754],[0.8327,35.4403,279.5363],[0.8321,35.4455,296.3865]]]]}
,"properties": {"GID_2": "DZA.27.3_1","GID_0": "DZA","country": "Algeria","GID_1": "DZA.27_1","province": "Mascara","NL_NAME_1": "ولايةمعسكر","county": "AinFerah","VARNAME_2": "NA","NL_NAME_2": "NA","TYPE_2": "Commune","ENGTYPE_2": "Commune","CC_2": "2911","HASC_2": "DZ.MC.AR","name": "Ain_Ferah.county","area_km2": 214.5369,"hist_schema_id": "Elevation0-9000","hist_area_km2": {"250": 4.6118,"275": 8.2402,"300": 4.9932,"325": 5.1145,"350": 7.6202,"375": 9.3319,"400": 12.0983,"425": 13.6206,"450": 13.3802,"475": 13.3472,"500": 14.6621,"525": 12.6746,"550": 9.8053,"575": 7.1431,"600": 6.7112,"625": 6.175,"650": 6.2268,"675": 5.6215,"700": 5.1026,"725": 5.12,"750": 5.2239,"775": 3.9957,"800": 4.117,"825": 3.8402,"850": 3.131,"875": 4.2035,"900": 5.4661,"925": 5.7433,"950": 3.7548,"975": 2.4227,"1000": 0.848,"1025": 0.1904}}}