{"type":"Feature","properties":{"GID_2":"DZA.33.11_1","GID_0":"DZA","country":"Algeria","GID_1":"DZA.33_1","province":"Ouargla","NL_NAME_1":"ورقلة","county":"N'Goussa","VARNAME_2":"Ngoussa","NL_NAME_2":"NA","TYPE_2":"Commune","ENGTYPE_2":"Commune","CC_2":"3003","HASC_2":"DZ.OG.NG","name":"N'Goussa.county"},
"geometry":{"type": "MultiPolygon","coordinates": [[[[4.7819,32.4946,275.4123],[4.9827,32.3325,236.3625],[5.0487,32.2842,224.2533],[5.2501,32.1235,204.3712],[5.322,32.0789,122.5356],[5.4356,32.105,145.8778],[5.611,32.1488,148.2011],[5.6302,32.1783,134.8284],[5.633,32.1862,136.3055],[5.6523,32.2188,128.9544],[5.6621,32.2469,124.5596],[5.681,32.2831,132.0904],[5.6931,32.3114,128.3244],[5.7075,32.3379,132.9959],[5.7362,32.3749,130.6479],[5.7521,32.3904,129.3568],[5.7664,32.4081,129.9685],[5.7761,32.4162,125.4071],[5.7695,32.4165,127.457],[5.6703,32.4507,122.113],[5.3416,32.5551,176.9927],[5.3458,32.5604,152.5317],[5.3413,32.5681,150.8342],[5.326,32.5751,157.2381],[5.3233,32.5823,146.0019],[5.3244,32.5896,146.7177],[5.3232,32.5982,167.0452],[5.3107,32.6097,151.079],[5.3001,32.6112,152.8223],[5.2916,32.6082,154.1249],[5.2572,32.6063,160.1775],[5.2485,32.6066,161.3629],[5.2235,32.6143,166.7057],[5.2136,32.6137,168.0647],[5.2095,32.6114,168.1207],[5.2096,32.6063,190.187],[5.2032,32.5969,170.8291],[5.1979,32.5921,171.8569],[5.1895,32.592,172.8916],[5.1807,32.5963,175.2406],[5.1715,32.5961,176.2189],[5.1393,32.583,179.9634],[5.1369,32.578,182.0577],[5.1357,32.5667,226.2489],[5.1231,32.57,184.9841],[5.1178,32.5735,187.9593],[5.1121,32.5742,188.5795],[5.1087,32.5694,190.0808],[5.1097,32.5638,191.7932],[5.1076,32.5533,192.2707],[5.1,32.5494,193.3591],[5.0902,32.55,194.5502],[5.0806,32.5483,196.5201],[5.0758,32.5456,197.7378],[5.0737,32.5343,219.2029],[5.0654,32.532,203.2664],[5.0591,32.5339,210.7327],[5.0418,32.5296,207.3982],[5.0287,32.5399,209.1318],[5.0217,32.5386,210.8332],[5.0174,32.5293,213.33],[5.0037,32.526,215.2891],[4.989,32.5115,230.5396],[4.9789,32.5091,230.865],[4.9716,32.5013,246.4051],[4.9669,32.4995,232.504],[4.9619,32.495,228.2787],[4.9598,32.4896,250.625],[4.9514,32.4775,254.0718],[4.9448,32.4739,253.9199],[4.9344,32.4732,255.4372],[4.9302,32.4752,256.6464],[4.9284,32.4828,229.0321],[4.9243,32.4893,230.9002],[4.9047,32.4987,240.1701],[4.8958,32.5101,235.18],[4.8908,32.5128,235.8804],[4.8837,32.51,240.2201],[4.8796,32.503,242.1056],[4.8752,32.5002,246.1747],[4.8706,32.4999,244.9293],[4.8448,32.509,245.3032],[4.8311,32.5036,251.1326],[4.807,32.4991,254.4656],[4.7892,32.4982,270.3205],[4.7819,32.4946,275.4123]]]]}}