{"type": "Feature","bbox": [7.569,36.2225,7.7745,36.4239],"geometry": {"type": "MultiPolygon","coordinates": [[[[7.5966,36.2346,1151.9469],[7.6114,36.2305,1205.7263],[7.6136,36.2256,1241.8896],[7.6173,36.2225,1130.8333],[7.6226,36.2231,1153.4047],[7.6242,36.2279,1208.075],[7.6335,36.2399,965.2501],[7.6565,36.2476,787.4664],[7.6603,36.2502,773.7572],[7.6595,36.2546,687.9438],[7.6649,36.2625,674.2328],[7.6612,36.2828,569.8807],[7.6674,36.2965,524.1753],[7.6672,36.307,546.3755],[7.6621,36.3152,532.1214],[7.6625,36.3222,511.2149],[7.6654,36.3275,432.706],[7.6712,36.3357,399.4778],[7.6825,36.3447,341.0974],[7.6926,36.3463,325.111],[7.7052,36.3531,306.4177],[7.7091,36.3578,311.7089],[7.7132,36.3726,284.9544],[7.7213,36.3722,369.7063],[7.722,36.3771,292.4427],[7.7261,36.3814,321.2057],[7.7337,36.3855,264.3047],[7.7449,36.3976,390.3347],[7.7543,36.4,327.3772],[7.7731,36.4092,225.6627],[7.7745,36.4154,300.8951],[7.7695,36.4128,194.1631],[7.7193,36.4023,472.5203],[7.7065,36.4048,412.0997],[7.686,36.403,622.814],[7.6706,36.405,490.0819],[7.6672,36.4114,482.9328],[7.6447,36.4239,130.6604],[7.6394,36.416,130.5433],[7.6348,36.4147,119.8195],[7.6297,36.4194,141.2712],[7.6257,36.4163,128.7188],[7.6205,36.4168,123.4644],[7.6163,36.4197,123.8515],[7.6139,36.4138,128.8375],[7.6139,36.4026,149.4323],[7.609,36.3962,166.6711],[7.5973,36.3881,186.3956],[7.5843,36.3826,213.1854],[7.5785,36.3824,254.2053],[7.5714,36.3742,243.9612],[7.5713,36.3696,291.7147],[7.5883,36.3611,281.327],[7.5811,36.3578,302.5271],[7.5744,36.3577,320.1958],[7.569,36.355,356.8576],[7.5715,36.3455,475.0849],[7.5746,36.34,517.8683],[7.5718,36.3327,646.1041],[7.585,36.3229,780.6895],[7.5849,36.3167,833.605],[7.5823,36.3115,871.6176],[7.5901,36.3046,832.3221],[7.5999,36.3006,827.7235],[7.604,36.2934,737.5173],[7.6176,36.2827,1069.5524],[7.6131,36.2769,939.7438],[7.6079,36.2658,916.5937],[7.602,36.2655,1035.7727],[7.5987,36.2483,1241.0106],[7.5939,36.2387,1105.4308],[7.5966,36.2346,1151.9469]]]]}
,"properties": {"GID_2": "DZA.21.20_1","GID_0": "DZA","country": "Algeria","GID_1": "DZA.21_1","province": "Guelma","NL_NAME_1": "ولايةقالمة","county": "HammamN'Bail","VARNAME_2": "HammamNbail","NL_NAME_2": "NA","TYPE_2": "Commune","ENGTYPE_2": "Commune","CC_2": "2422","HASC_2": "DZ.GL.HN","name": "Hammam_N'Bail.county","area_km2": 165.32,"hist_schema_id": "Elevation0-9000","hist_area_km2": {"125": 0.9555,"150": 0.5631,"175": 0.9557,"200": 1.6897,"225": 2.5431,"250": 2.6115,"275": 3.5505,"300": 3.9263,"325": 4.097,"350": 4.6603,"375": 6.0944,"400": 8.5183,"425": 7.5623,"450": 7.2899,"475": 7.4101,"500": 9.3566,"525": 9.8858,"550": 10.211,"575": 7.5308,"600": 6.2511,"625": 5.7223,"650": 4.6975,"675": 4.5954,"700": 4.1345,"725": 4.0837,"750": 3.3832,"775": 3.9472,"800": 3.3833,"825": 3.4006,"850": 2.7001,"875": 2.4609,"900": 2.2561,"925": 1.8802,"950": 1.6924,"975": 1.2138,"1000": 0.9061,"1025": 0.7865,"1050": 1.1456,"1075": 0.6498,"1100": 0.7695,"1125": 0.7353,"1150": 0.8037,"1175": 0.9576,"1200": 1.3339,"1225": 0.9919,"1250": 0.7525,"1275": 0.2052,"1300": 0.0684}}}