{"type": "Feature","bbox": [5.2824,36.2172,5.4789,36.3248],"geometry": {"type": "MultiPolygon","coordinates": [[[[5.2824,36.24,1088.5092],[5.3113,36.2261,1129.6869],[5.3361,36.2262,1119.7826],[5.3389,36.2229,1104.9258],[5.3392,36.2172,1068.6899],[5.357,36.2208,1145.0768],[5.3656,36.2275,1115.4467],[5.3773,36.2298,1064.03],[5.4136,36.248,1072.402],[5.4276,36.2453,1176.3824],[5.4321,36.2423,1184.8418],[5.4306,36.2282,1092.9033],[5.4426,36.228,1105.5698],[5.4508,36.2238,1126.0398],[5.4736,36.2468,1182.6758],[5.4789,36.2566,1208.8271],[5.4789,36.2614,1229.077],[5.4735,36.2717,1260.7451],[5.4735,36.2942,1184.8142],[5.4607,36.3126,1099.1428],[5.4621,36.3172,1056.1976],[5.455,36.3201,1108.5304],[5.4432,36.3221,1098.4087],[5.4171,36.3174,1184.6841],[5.3873,36.3205,1296.9861],[5.37,36.3248,1519.6812],[5.3714,36.3192,1539.8046],[5.3676,36.2986,1376.8529],[5.3684,36.2914,1256.4597],[5.3628,36.2856,1169.9526],[5.3506,36.283,1129.177],[5.3415,36.2783,1219.5742],[5.3,36.2503,1219.99],[5.2948,36.2446,1138.2863],[5.2885,36.2444,1118.6996],[5.2824,36.24,1088.5092]]]]}
,"properties": {"GID_2": "DZA.37.34_1","GID_0": "DZA","country": "Algeria","GID_1": "DZA.37_1","province": "Sétif","NL_NAME_1": "ولايةسطيف","county": "ElOuricia","VARNAME_2": "NA","NL_NAME_2": "NA","TYPE_2": "Commune","ENGTYPE_2": "Commune","CC_2": "1937","HASC_2": "DZ.SF.ER","name": "El_Ouricia.county","area_km2": 120.10419,"hist_schema_id": "Elevation0-9000","hist_area_km2": {"1025": 0.22231,"1050": 2.17156,"1075": 5.52235,"1100": 13.93342,"1125": 20.80448,"1150": 20.25629,"1175": 16.46214,"1200": 12.01739,"1225": 8.88859,"1250": 6.97388,"1275": 4.35871,"1300": 2.40982,"1325": 2.06784,"1350": 1.65764,"1375": 0.76893,"1400": 0.61511,"1425": 0.22209,"1450": 0.22209,"1475": 0.15375,"1500": 0.1025,"1525": 0.18791,"1550": 0.01708,"1575": 0.05125,"1600": 0.01708}}}