{"type":"Feature","properties":{"GID_2":"DZA.28.26_1","GID_0":"DZA","country":"Algeria","GID_1":"DZA.28_1","province":"Médéa","NL_NAME_1":"ولايةالمدية","county":"ElKafLakhdar","VARNAME_2":"KefLakhdar","NL_NAME_2":"NA","TYPE_2":"Commune","ENGTYPE_2":"Commune","CC_2":"2617","HASC_2":"DZ.MD.EK","name":"El_Kaf_Lakhdar.county"},
"geometry":{"type": "MultiPolygon","coordinates": [[[[3.2107,35.8929,1253.416],[3.2526,35.8907,1152.6112],[3.2855,35.891,990.6436],[3.292,35.8889,999.0656],[3.2966,35.8841,967.3831],[3.312,35.8789,919.2448],[3.3133,35.8742,955.1053],[3.3261,35.8676,904.1538],[3.3328,35.8754,877.2854],[3.33,35.8858,959.9312],[3.3435,35.8836,895.4984],[3.3359,35.896,956.9424],[3.335,35.9083,1025.129],[3.3186,35.9354,1158.326],[3.3314,35.9475,1220.046],[3.2974,35.9537,1326.7332],[3.293,35.9586,1170.2952],[3.2867,35.9702,996.611],[3.2765,35.9771,922.3502],[3.2742,35.9834,906.6227],[3.2709,35.9804,909.8403],[3.255,35.975,992.1481],[3.2342,35.9717,951.6825],[3.2209,35.9673,983.7745],[3.2017,35.955,1248.7966],[3.212,35.9448,1395.161],[3.2085,35.9394,1196.3042],[3.1953,35.9367,1116.8594],[3.1897,35.9336,1080.808],[3.1972,35.9222,1119.1752],[3.2125,35.9148,1174.5999],[3.2148,35.9081,1203.4121],[3.2146,35.9026,1214.3041],[3.2114,35.8983,1157.1896],[3.2107,35.8929,1253.416]]]]}}