{"type": "Feature","bbox": [5.8865,36.5907,5.9952,36.7263],"geometry": {"type": "MultiPolygon","coordinates": [[[[5.9846,36.6981,178.3197],[5.9713,36.7023,193.3464],[5.9686,36.7069,163.4014],[5.9692,36.7125,279.0307],[5.9651,36.7156,298.8309],[5.9576,36.7174,272.6239],[5.9512,36.721,111.4802],[5.936,36.7226,222.6652],[5.9323,36.7263,190.1759],[5.9261,36.7259,99.3214],[5.923,36.7076,120.6994],[5.9265,36.6964,192.6877],[5.9218,36.6931,194.2933],[5.9207,36.6871,272.5056],[5.912,36.6732,515.8259],[5.8879,36.6446,1152.4392],[5.8865,36.6383,1177.0334],[5.9014,36.6338,1138.8195],[5.9085,36.6337,1122.3625],[5.9174,36.6303,1275.7803],[5.9179,36.6257,1354.6281],[5.9235,36.6147,1357.3004],[5.9252,36.6018,1467.322],[5.9289,36.5966,1472.3174],[5.9573,36.5907,1312.9268],[5.958,36.6029,1234.3114],[5.9643,36.6069,1141.304],[5.9757,36.6102,871.3917],[5.9788,36.6133,783.2901],[5.993,36.6176,507.4469],[5.9916,36.6271,404.978],[5.9876,36.6305,354.8875],[5.9914,36.6326,422.2449],[5.9891,36.6384,611.3603],[5.9952,36.6669,667.5806],[5.9943,36.6727,710.8646],[5.9811,36.6816,317.0854],[5.9771,36.6904,289.8385],[5.9789,36.6958,156.1517],[5.9846,36.6981,178.3197]]]]}
,"properties": {"GID_2": "DZA.23.5_1","GID_0": "DZA","country": "Algeria","GID_1": "DZA.23_1","province": "Jijel","NL_NAME_1": "ولايةجيجل","county": "Chahna","VARNAME_2": "NA","NL_NAME_2": "NA","TYPE_2": "Commune","ENGTYPE_2": "Commune","CC_2": "1808","HASC_2": "DZ.JJ.CN","name": "Chahna.county","area_km2": 85.14726,"hist_schema_id": "Elevation0-9000","hist_area_km2": {"75": 0.20395,"100": 0.50988,"125": 1.0028,"150": 1.42775,"175": 1.63189,"200": 1.70001,"225": 1.73418,"250": 1.56432,"275": 1.81941,"300": 1.85345,"325": 2.07467,"350": 2.29585,"375": 2.39783,"400": 2.43184,"425": 2.44906,"450": 2.34695,"475": 2.53407,"500": 2.5511,"525": 2.36414,"550": 2.4152,"575": 2.63621,"600": 2.5513,"625": 2.46632,"650": 2.29613,"675": 2.21109,"700": 2.68757,"725": 2.24524,"750": 1.97324,"775": 1.70116,"800": 1.54807,"825": 1.61619,"850": 1.7864,"875": 1.48018,"900": 1.56528,"925": 1.51424,"950": 1.54829,"975": 1.25905,"1000": 1.58234,"1025": 1.31006,"1050": 1.24208,"1075": 1.44631,"1100": 1.27613,"1125": 1.31019,"1150": 1.32721,"1175": 0.74871,"1200": 0.73176,"1225": 0.93596,"1250": 0.64669,"1275": 0.45951,"1300": 0.47654,"1325": 0.32338,"1350": 0.28934,"1375": 0.20424,"1400": 0.28933,"1425": 0.0851,"1450": 0.06808}}}