{"type":"Feature","properties":{"GID_2":"DZA.37.35_1","GID_0":"DZA","country":"Algeria","GID_1":"DZA.37_1","province":"Sétif","NL_NAME_1":"ولايةسطيف","county":"Guellal","VARNAME_2":"NA","NL_NAME_2":"NA","TYPE_2":"Commune","ENGTYPE_2":"Commune","CC_2":"1948","HASC_2":"#N/A","name":"Guellal.county"},
"geometry":{"type": "MultiPolygon","coordinates": [[[[5.1764,36.0237,1186.7971],[5.2172,36.0208,1058.0927],[5.227,36.0021,911.9462],[5.251,35.9973,899.8594],[5.257,35.9973,897.7903],[5.2583,36.0014,897.1224],[5.2713,36.0079,889.8529],[5.2726,36.0136,888.8144],[5.2789,36.0129,889.6744],[5.2851,36.0083,889.4907],[5.2939,36.005,889.9754],[5.3104,36.0035,903.601],[5.3163,36.0001,902.587],[5.324,35.9992,909.6951],[5.3454,35.9929,900.1714],[5.3506,35.9906,902.6306],[5.3522,35.9847,917.2414],[5.3616,35.9858,919.538],[5.3638,35.9806,933.4348],[5.3724,35.9803,920.0046],[5.3786,35.9775,927.4802],[5.3878,35.9857,915.6181],[5.3957,35.9976,929.2285],[5.4007,35.9996,953.7491],[5.3989,36.0108,1064.7056],[5.401,36.0179,1300.0405],[5.39,36.0241,958.4169],[5.3857,36.0247,941.3551],[5.3826,36.029,929.5018],[5.3761,36.0465,916.7093],[5.3714,36.0746,929.0311],[5.3363,36.0935,923.4723],[5.332,36.0943,923.8192],[5.3214,36.0771,914.6655],[5.2845,36.0605,907.6046],[5.2564,36.0412,889.2881],[5.2535,36.0476,894.4584],[5.2364,36.053,886.1103],[5.2267,36.0516,882.595],[5.214,36.0553,897.9389],[5.1871,36.0536,921.1016],[5.1825,36.0358,963.1746],[5.1764,36.0237,1186.7971]]]]}}