{"type":"Feature","properties":{"GID_2":"DZA.20.13_1","GID_0":"DZA","country":"Algeria","GID_1":"DZA.20_1","province":"Ghardaïa","NL_NAME_1":"ولايةغرداية","county":"Zelfana","VARNAME_2":"NA","NL_NAME_2":"NA","TYPE_2":"Commune","ENGTYPE_2":"Commune","CC_2":"4708","HASC_2":"DZ.GR.ZE","name":"Zelfana.county"},
"geometry":{"type": "MultiPolygon","coordinates": [[[[3.8226,32.3652,424.9352],[4.4622,32.2113,311.6163],[4.4645,32.2152,315.6096],[4.5068,32.2548,307.0698],[4.7819,32.4946,275.4123],[4.789,32.5065,254.5394],[4.7845,32.5086,255.6154],[4.7798,32.5084,257.3189],[4.7649,32.4992,275.8524],[4.7578,32.499,280.2475],[4.7471,32.5197,262.4956],[4.7435,32.5239,266.459],[4.7383,32.5255,264.1129],[4.7251,32.5163,270.2735],[4.7215,32.5105,267.5203],[4.715,32.5085,269.6916],[4.7081,32.5132,270.6639],[4.6988,32.5153,273.1626],[4.6901,32.5152,282.6571],[4.6826,32.5188,275.9232],[4.677,32.5241,275.4695],[4.6699,32.5253,276.9908],[4.6591,32.517,279.715],[4.6393,32.5225,281.5508],[4.6183,32.5213,289.6228],[4.6033,32.523,288.4058],[4.5884,32.5305,296.695],[4.5822,32.5293,291.9174],[4.5715,32.5194,299.3611],[4.563,32.5182,295.5671],[4.5547,32.5183,296.6663],[4.5359,32.5258,299.1604],[4.5196,32.5249,306.9196],[4.5052,32.5301,305.2767],[4.4905,32.541,307.3698],[4.4855,32.5465,308.7915],[4.478,32.5486,316.1102],[4.4558,32.5504,314.4039],[4.4384,32.5501,325.9529],[4.4344,32.5565,318.889],[4.438,32.5692,320.0821],[4.4302,32.5726,320.6477],[4.4118,32.5752,334.28],[4.4028,32.5785,333.0887],[4.3901,32.5888,330.8304],[4.3837,32.5972,340.5743],[4.2952,32.5631,375.4378],[4.0074,32.4428,424.8139],[3.895,32.3943,413.8922],[3.8226,32.3652,424.9352]]]]}}