{"type":"Feature","properties":{"GID_2":"DZA.32.23_1","GID_0":"DZA","country":"Algeria","GID_1":"DZA.32_1","province":"Oran","NL_NAME_1":"ولايةوهران","county":"OuedTlelat","VARNAME_2":"WādīThalāthā","NL_NAME_2":"NA","TYPE_2":"Commune","ENGTYPE_2":"Commune","CC_2":"3111","HASC_2":"DZ.OR.OT","name":"Oued_Tlelat.county"},
"geometry":{"type": "MultiPolygon","coordinates": [[[[-0.3888,35.5925,204.2412],[-0.3922,35.5997,174.9149],[-0.3977,35.6039,169.0408],[-0.4102,35.6092,119.0588],[-0.4489,35.595,106.1856],[-0.4705,35.5918,104.94],[-0.4868,35.5823,101.9234],[-0.4987,35.5807,99.6095],[-0.5099,35.5814,101.3021],[-0.5244,35.5756,96.6854],[-0.5274,35.5723,100.5507],[-0.5337,35.5701,97.6223],[-0.5362,35.5653,98.7649],[-0.5209,35.5548,104.3796],[-0.5218,35.5491,106.6746],[-0.5049,35.548,124.81],[-0.508,35.5426,114.7425],[-0.5006,35.5357,117.9856],[-0.499,35.5314,119.3501],[-0.4795,35.5217,127.9718],[-0.4747,35.5178,131.6853],[-0.4709,35.5121,137.8191],[-0.4525,35.5191,152.943],[-0.4446,35.5281,152.0979],[-0.4386,35.5286,157.7245],[-0.4249,35.5261,168.3119],[-0.4033,35.5273,188.1551],[-0.4086,35.5374,197.5362],[-0.4034,35.5528,181.4226],[-0.3833,35.5731,236.089],[-0.3783,35.5743,260.619],[-0.3888,35.5925,204.2412]]]]}}