{"type": "Feature","bbox": [2.2268,36.2721,2.3795,36.4193],"geometry": {"type": "MultiPolygon","coordinates": [[[[2.3429,36.3691,389.5017],[2.3375,36.3726,453.8964],[2.3228,36.3741,461.1931],[2.3189,36.3774,501.0759],[2.3161,36.3842,562.2111],[2.312,36.388,486.4086],[2.2907,36.391,787.7133],[2.2794,36.3974,939.7498],[2.2758,36.4006,966.3726],[2.275,36.4062,952.3944],[2.2771,36.4151,974.5975],[2.2669,36.4193,842.9529],[2.2551,36.4152,1033.033],[2.2465,36.4076,1109.2566],[2.2462,36.4011,1043.9968],[2.2486,36.3959,1022.707],[2.2398,36.389,991.5331],[2.2387,36.3841,926.4882],[2.2432,36.376,964.0535],[2.2408,36.3713,931.5809],[2.2369,36.3682,956.2373],[2.2314,36.3664,1007.8659],[2.2317,36.3599,998.177],[2.2268,36.3486,1290.4097],[2.243,36.3477,1214.3459],[2.2473,36.3454,1178.5262],[2.2454,36.3392,1290.6488],[2.2494,36.3277,1102.4609],[2.2549,36.3217,781.7394],[2.2746,36.3147,535.665],[2.2741,36.302,506.0849],[2.2709,36.2952,595.042],[2.2691,36.286,498.1639],[2.2699,36.2798,579.8893],[2.276,36.2721,494.3775],[2.2899,36.2783,602.2674],[2.2907,36.2841,859.1597],[2.2933,36.2875,867.2788],[2.2977,36.2848,807.1476],[2.3162,36.2848,752.8448],[2.3231,36.2828,748.1752],[2.3274,36.2865,629.4167],[2.3256,36.2934,578.7186],[2.3194,36.2984,491.7686],[2.3276,36.3034,446.2641],[2.3313,36.3094,441.5524],[2.3362,36.3122,453.2537],[2.3511,36.3144,376.1111],[2.3744,36.3129,337.5962],[2.3795,36.3151,331.8959],[2.3766,36.3273,383.2958],[2.3569,36.3283,488.0113],[2.3507,36.3249,488.4452],[2.345,36.326,509.2509],[2.3483,36.3324,597.299],[2.3417,36.3349,661.1432],[2.3378,36.3481,749.1382],[2.3334,36.3514,745.8373],[2.3339,36.3567,668.3496],[2.3389,36.3585,654.8665],[2.3429,36.3691,389.5017]]]]}
,"properties": {"GID_2": "DZA.2.6_1","GID_0": "DZA","country": "Algeria","GID_1": "DZA.2_1","province": "AïnDefla","NL_NAME_1": "ولايةعينالدفلى","county": "AinTork","VARNAME_2": "AinTorki","NL_NAME_2": "NA","TYPE_2": "Commune","ENGTYPE_2": "Commune","CC_2": "4423","HASC_2": "DZ.AD.AT","name": "Ain_Tork.county","area_km2": 100.92909,"hist_schema_id": "Elevation0-9000","hist_area_km2": {"325": 0.06834,"350": 0.44419,"375": 0.90528,"400": 1.45186,"425": 1.81058,"450": 2.10077,"475": 2.20329,"500": 2.93791,"525": 3.33085,"550": 4.59492,"575": 4.64613,"600": 4.81686,"625": 4.18466,"650": 4.61159,"675": 4.67965,"700": 5.22612,"725": 4.76468,"750": 4.55972,"775": 4.32043,"800": 4.0127,"825": 3.2784,"850": 3.39776,"875": 2.54384,"900": 2.69739,"925": 2.30476,"950": 2.13401,"975": 2.33896,"1000": 1.98042,"1025": 1.62194,"1050": 1.48531,"1075": 1.12694,"1100": 1.33192,"1125": 0.97336,"1150": 1.19544,"1175": 0.85387,"1200": 1.12714,"1225": 0.78557,"1250": 0.75143,"1275": 0.63189,"1300": 0.40986,"1325": 0.49525,"1350": 0.44402,"1375": 0.34155,"1400": 0.35861,"1425": 0.29031,"1450": 0.15369,"1475": 0.06831,"1500": 0.06831,"1525": 0.06831}}}