{"type":"Feature","properties":{"GID_2":"DZA.13.26_1","GID_0":"DZA","country":"Algeria","GID_1":"DZA.13_1","province":"Boumerdès","NL_NAME_1":"ولايةبومرداس","county":"SidiDaoud","VARNAME_2":"NA","NL_NAME_2":"NA","TYPE_2":"Commune-Cotiere","ENGTYPE_2":"Commune-Cotiere","CC_2":"3506","HASC_2":"DZ.BM.SD","name":"Sidi_Daoud.county"},
"geometry":{"type": "MultiPolygon","coordinates": [[[[3.8767,36.84,14.9846],[3.8725,36.8616,2.3671],[3.875,36.8674,8.6187],[3.8743,36.8765,12.4408],[3.8671,36.8853,4.4066],[3.8551,36.8933,6.1546],[3.855,36.9104,0.4809],[3.8509,36.9124,0.0],[3.8459,36.9125,0.0],[3.8328,36.9077,0.0],[3.7836,36.897,7.4183],[3.7789,36.8942,8.9532],[3.784,36.8848,16.223],[3.7843,36.8789,23.4865],[3.7801,36.8647,78.6616],[3.7829,36.8575,63.2779],[3.7883,36.8517,73.8504],[3.7974,36.8351,100.7534],[3.8064,36.8397,169.2565],[3.8332,36.8213,55.5628],[3.8425,36.8179,29.2258],[3.8491,36.8191,9.8792],[3.8558,36.826,17.0716],[3.8636,36.8299,7.8139],[3.8767,36.84,14.9846]]]]}}