{"type":"Feature","properties":{"GID_2":"DZA.35.28_1","GID_0":"DZA","country":"Algeria","GID_1":"DZA.35_1","province":"Relizane","NL_NAME_1":"ولايةغليزان","county":"OuledYaich","VARNAME_2":"NA","NL_NAME_2":"NA","TYPE_2":"Commune","ENGTYPE_2":"Commune","CC_2":"4805","HASC_2":"DZ.RE.OY","name":"Ouled_Yaich.county"},
"geometry":{"type": "MultiPolygon","coordinates": [[[[1.0625,35.8363,413.3285],[1.0529,35.8357,365.2895],[1.0473,35.8386,325.3623],[1.0408,35.839,364.4484],[1.0317,35.8483,480.2074],[1.0212,35.8539,294.1015],[1.0212,35.8595,270.2798],[1.01,35.8648,327.8009],[1.0102,35.8718,222.3639],[1.0035,35.8725,211.905],[0.9984,35.876,314.5746],[0.9884,35.8768,370.4988],[0.9881,35.8663,323.8768],[0.9793,35.8667,297.838],[0.9628,35.8644,233.7258],[0.9589,35.8626,224.0286],[0.9594,35.8578,236.0333],[0.9509,35.8561,263.5933],[0.9378,35.8505,267.4879],[0.9288,35.8552,215.7434],[0.9184,35.8481,162.9409],[0.9104,35.8479,138.4879],[0.9088,35.8541,141.9641],[0.9004,35.8621,144.565],[0.8989,35.8521,136.3182],[0.8949,35.8481,166.1553],[0.8693,35.8459,225.2205],[0.8729,35.8352,211.3506],[0.8787,35.8326,196.1325],[0.8709,35.8137,271.6122],[0.8805,35.8092,348.4556],[0.886,35.8008,368.3284],[0.8994,35.7907,291.4796],[0.9006,35.7863,284.8428],[0.9054,35.7845,251.3712],[0.9098,35.7747,210.1209],[0.9291,35.7641,241.6912],[0.9368,35.7472,273.8912],[0.9396,35.7361,266.6827],[0.9437,35.7327,273.3643],[0.9543,35.7326,326.1693],[0.9602,35.7299,334.3523],[0.9656,35.7308,342.7224],[0.9697,35.7349,355.0605],[0.9817,35.7535,394.3449],[0.9818,35.7604,355.8657],[0.9775,35.7636,309.7599],[0.9733,35.7645,325.7338],[0.9701,35.7697,281.6721],[0.9716,35.7751,263.8634],[0.9669,35.7827,228.1403],[0.9992,35.7844,287.8734],[1.0254,35.797,328.0553],[1.0429,35.7951,389.1989],[1.058,35.8009,438.9329],[1.0678,35.8069,388.9133],[1.0676,35.8132,318.5122],[1.0623,35.8144,350.6635],[1.0582,35.8197,402.178],[1.0625,35.8363,413.3285]]]]}}