{"type": "Feature","bbox": [1.1017,35.2766,1.294,35.4416],"geometry": {"type": "MultiPolygon","coordinates": [[[[1.109,35.4416,636.4653],[1.1017,35.4282,788.8823],[1.1047,35.4215,805.3567],[1.1036,35.408,864.4791],[1.1073,35.4027,869.6107],[1.1083,35.3953,818.5405],[1.1049,35.384,744.4081],[1.1141,35.3758,727.2915],[1.1107,35.3704,731.4299],[1.1122,35.3663,708.5721],[1.1113,35.3607,697.0502],[1.1193,35.3543,699.3756],[1.1125,35.3446,686.4404],[1.1144,35.3406,654.7875],[1.1242,35.3325,690.6838],[1.151,35.3351,676.2023],[1.1496,35.3311,683.9323],[1.1402,35.3199,635.6337],[1.1393,35.3149,618.4979],[1.1487,35.3192,624.267],[1.1771,35.3096,674.502],[1.1811,35.3139,668.6245],[1.1858,35.3148,691.1859],[1.1913,35.3157,711.8475],[1.1965,35.3131,739.7369],[1.1986,35.3072,796.3237],[1.2025,35.3027,822.6317],[1.2014,35.2957,865.6827],[1.1896,35.2885,863.0312],[1.1925,35.2841,802.0742],[1.1939,35.2779,842.6906],[1.1988,35.2766,905.688],[1.242,35.2824,901.6295],[1.2617,35.2891,900.4833],[1.2733,35.2899,896.5038],[1.2869,35.2974,926.5853],[1.2906,35.3066,989.1109],[1.294,35.3283,1037.6716],[1.276,35.3434,907.1113],[1.2743,35.3481,917.4211],[1.2834,35.3549,953.2104],[1.2804,35.3581,1048.3691],[1.2714,35.3607,1119.8336],[1.2699,35.3662,1136.7765],[1.2667,35.3705,1176.9852],[1.2503,35.3649,935.38],[1.2425,35.3582,866.6412],[1.2368,35.3586,856.5214],[1.2263,35.3658,960.4318],[1.2216,35.3657,996.5978],[1.2114,35.3548,959.3584],[1.1968,35.3541,873.321],[1.184,35.3594,1036.8267],[1.1783,35.3645,904.0879],[1.1784,35.3727,991.2844],[1.1807,35.3793,1031.5258],[1.1786,35.3846,1120.7587],[1.17,35.392,1005.416],[1.1641,35.4094,838.5968],[1.1585,35.4195,765.0698],[1.1611,35.4276,719.1722],[1.1565,35.4305,735.1533],[1.144,35.4312,796.9825],[1.1347,35.434,750.6654],[1.1263,35.4414,663.256],[1.1245,35.4373,700.8953],[1.1206,35.4399,670.2009],[1.109,35.4416,636.4653]]]]}
,"properties": {"GID_2": "DZA.43.37_1","GID_0": "DZA","country": "Algeria","GID_1": "DZA.43_1","province": "Tiaret","NL_NAME_1": "ولايةتيارت","county": "Tagdemt","VARNAME_2": "NA","NL_NAME_2": "NA","TYPE_2": "Commune","ENGTYPE_2": "Commune","CC_2": "1432","HASC_2": "DZ.TR.TG","name": "Tagdemt.county","area_km2": 148.3597,"hist_schema_id": "Elevation0-9000","hist_area_km2": {"625": 0.5016,"650": 2.1789,"675": 3.787,"700": 6.7436,"725": 7.3825,"750": 8.5936,"775": 12.8668,"800": 14.0436,"825": 14.1998,"850": 12.5558,"875": 11.4142,"900": 13.0744,"925": 12.0016,"950": 9.0269,"975": 6.9173,"1000": 5.3093,"1025": 2.7491,"1050": 1.6597,"1075": 1.1237,"1100": 1.141,"1125": 0.7088,"1150": 0.3458,"1175": 0.0346}}}