{"type": "Feature","bbox": [7.4497,36.8268,7.6729,37.0413],"geometry": {"type": "MultiPolygon","coordinates": [[[[7.6057,36.8273,19.7525],[7.6201,36.8268,35.259],[7.6517,36.8321,13.5493],[7.6729,36.8419,9.6206],[7.6673,36.8446,17.3859],[7.6578,36.8557,216.5693],[7.654,36.8646,508.7436],[7.6533,36.8705,421.7421],[7.65,36.8749,524.9442],[7.6508,36.881,661.2782],[7.6432,36.888,874.1124],[7.6207,36.8762,713.0483],[7.6156,36.8752,656.9736],[7.6068,36.8776,499.5956],[7.6019,36.8764,405.6776],[7.5964,36.8777,261.7756],[7.5769,36.8941,106.5149],[7.5713,36.8966,82.0498],[7.5651,36.9038,102.4433],[7.5716,36.9059,96.6094],[7.5744,36.9103,139.5526],[7.5703,36.9157,194.2842],[7.5655,36.9311,352.1322],[7.561,36.9377,567.1587],[7.5624,36.9439,692.1561],[7.5593,36.9626,574.4344],[7.5536,36.9666,726.7306],[7.5404,36.9706,524.5665],[7.5275,36.9795,374.7516],[7.5302,36.998,377.6492],[7.5386,37.0084,113.8511],[7.5392,37.0131,13.3787],[7.5251,37.0209,0.0],[7.5159,37.0405,0.0],[7.5111,37.0413,70.597],[7.5048,37.024,474.5098],[7.4877,37.0135,215.107],[7.4799,37.0093,183.251],[7.4602,37.009,137.9722],[7.4497,37.003,135.5944],[7.4619,37.0006,143.1882],[7.4772,36.9898,196.052],[7.4885,36.9846,232.1011],[7.4876,36.9744,282.2527],[7.492,36.9588,415.5292],[7.4849,36.9502,263.0542],[7.48,36.9237,96.6239],[7.4705,36.9157,88.3303],[7.4674,36.9101,89.4636],[7.4698,36.9055,75.6651],[7.4636,36.9016,56.5258],[7.4589,36.8892,22.9234],[7.4586,36.8752,55.4046],[7.4629,36.8713,100.9419],[7.4688,36.8688,106.3193],[7.4961,36.8625,149.0037],[7.496,36.8569,119.7249],[7.5021,36.844,111.4915],[7.509,36.841,80.7284],[7.5146,36.8394,14.4827],[7.5249,36.8428,16.3564],[7.5315,36.8425,47.2922],[7.5579,36.8336,16.5618],[7.5878,36.832,15.6803],[7.6057,36.8273,19.7525]]]]}
,"properties": {"GID_2": "DZA.5.9_1","GID_0": "DZA","country": "Algeria","GID_1": "DZA.5_1","province": "Annaba","NL_NAME_1": "ولايةعنابة","county": "OuedElAneb","VARNAME_2": "NA","NL_NAME_2": "NA","TYPE_2": "Commune-Cotiere","ENGTYPE_2": "Commune-Cotiere","CC_2": "2306","HASC_2": "DZ.AN.OA","name": "Oued_El_Aneb.county","area_km2": 189.5077,"hist_schema_id": "Elevation0-9000","hist_area_km2": {"0": 0.3387,"25": 12.7062,"50": 16.6392,"75": 12.5162,"100": 10.8703,"125": 10.5638,"150": 11.8,"175": 11.6123,"200": 11.2553,"225": 10.9667,"250": 9.4579,"275": 8.7113,"300": 7.8303,"325": 6.101,"350": 5.6608,"375": 5.4064,"400": 5.5084,"425": 4.5933,"450": 3.9663,"475": 3.9495,"500": 3.3397,"525": 3.2041,"550": 2.8651,"575": 1.5765,"600": 1.3731,"625": 1.2035,"650": 1.0848,"675": 1.034,"700": 0.7966,"725": 0.7288,"750": 0.8473,"775": 0.5424,"800": 0.1695,"825": 0.1018,"850": 0.0848,"875": 0.0509,"900": 0.0339,"925": 0.017}}}