{"type": "Feature","bbox": [5.1311,31.3525,5.9776,32.001],"geometry": {"type": "MultiPolygon","coordinates": [[[[5.4623,31.9361,163.4263],[5.4108,31.9409,144.6864],[5.3973,31.9806,129.2448],[5.393,31.9869,131.3779],[5.3503,32.001,129.1035],[5.344,31.9996,127.4464],[5.3539,31.9599,133.7148],[5.3534,31.9448,133.3862],[5.3581,31.9454,132.813],[5.3582,31.9408,131.0722],[5.3943,31.9307,147.2395],[5.3861,31.873,154.5965],[5.3263,31.6454,144.6511],[5.1311,31.3525,159.5925],[5.4799,31.5121,144.8894],[5.6745,31.6396,158.4191],[5.8005,31.7192,145.4016],[5.9776,31.8281,139.7107],[5.9651,31.8325,169.929],[5.9386,31.8487,163.6673],[5.9129,31.8556,172.9876],[5.9052,31.8564,167.9215],[5.8791,31.8489,171.5739],[5.869,31.8481,174.3568],[5.8616,31.8505,167.5272],[5.8563,31.8559,172.456],[5.852,31.8701,174.899],[5.8463,31.875,176.0247],[5.816,31.8793,164.4382],[5.8062,31.8842,175.9496],[5.7879,31.8861,175.9628],[5.771,31.8909,161.3328],[5.7487,31.8885,156.319],[5.7403,31.8918,181.2764],[5.7159,31.8878,180.874],[5.7015,31.8881,182.6032],[5.6835,31.8961,155.1277],[5.6552,31.8958,143.3466],[5.5842,31.9001,149.3528],[5.5652,31.9044,148.5848],[5.4714,31.9345,156.3831],[5.4623,31.9361,163.4263]]]]}
,"properties": {"GID_2": "DZA.33.1_1","GID_0": "DZA","country": "Algeria","GID_1": "DZA.33_1","province": "Ouargla","NL_NAME_1": "ورقلة","county": "AinBeida","VARNAME_2": "`AynBaydā","NL_NAME_2": "NA","TYPE_2": "Commune","ENGTYPE_2": "Commune","CC_2": "3002","HASC_2": "DZ.OG.AB","name": "Ain_Beida.county","area_km2": 1980.197,"hist_schema_id": "Elevation0-9000","hist_area_km2": {"125": 45.767,"150": 1522.534,"175": 408.866,"200": 3.03}}}