{"type": "Feature","bbox": [2.84,36.714,2.9073,36.7678],"geometry": {"type": "MultiPolygon","coordinates": [[[[2.8789,36.7678,4.6531],[2.868,36.7624,2.2314],[2.8594,36.7606,0.8952],[2.8513,36.7602,2.8026],[2.847,36.7629,0.0],[2.84,36.7635,9.1528],[2.846,36.7525,0.176],[2.8418,36.732,7.438],[2.8491,36.7318,12.2092],[2.8542,36.7279,15.4137],[2.8672,36.7222,40.8663],[2.8784,36.714,85.4941],[2.891,36.7253,97.3552],[2.9073,36.7355,110.6621],[2.9027,36.7491,100.908],[2.8951,36.7541,68.4743],[2.8869,36.7639,21.9912],[2.8789,36.7678,4.6531]]]]}
,"properties": {"GID_2": "DZA.4.24_1","GID_0": "DZA","country": "Algeria","GID_1": "DZA.4_1","province": "Alger","NL_NAME_1": "ولايةالجزائر","county": "Staoueli","VARNAME_2": "Stawāli","NL_NAME_2": "NA","TYPE_2": "Commune-Cotiere","ENGTYPE_2": "Commune-Cotiere","CC_2": "1645","HASC_2": "DZ.AL.ST","name": "Staoueli.county","area_km2": 21.78115,"hist_schema_id": "Elevation0-9000","hist_area_km2": {"0": 3.44851,"25": 6.94862,"50": 4.2984,"75": 3.87418,"100": 3.19444,"125": 0.01699}}}