{"type": "Feature","bbox": [6.4014,36.629,6.66,36.7725],"geometry": {"type": "MultiPolygon","coordinates": [[[[6.5044,36.6451,854.7693],[6.5139,36.6373,855.4935],[6.5358,36.6317,643.9135],[6.566,36.629,592.838],[6.5765,36.6333,551.3408],[6.5821,36.6384,483.8451],[6.5837,36.644,349.4075],[6.5891,36.6464,410.1413],[6.5888,36.6517,394.6515],[6.594,36.6602,231.4172],[6.595,36.6681,379.5074],[6.5907,36.6691,303.0785],[6.5877,36.6746,259.1104],[6.5949,36.6946,176.4665],[6.6378,36.7148,120.473],[6.6452,36.7158,117.274],[6.6409,36.7211,222.9157],[6.6497,36.7349,105.1516],[6.6487,36.7433,113.021],[6.6514,36.7497,156.0292],[6.66,36.7554,114.0728],[6.6594,36.7616,114.6286],[6.6389,36.7593,239.1917],[6.6264,36.7639,222.6468],[6.6087,36.7593,452.953],[6.5961,36.7609,381.4174],[6.5774,36.7725,141.9284],[6.5579,36.7695,331.4827],[6.5427,36.765,375.2113],[6.5372,36.7546,437.0149],[6.5308,36.7539,410.2024],[6.5298,36.7634,363.9747],[6.5256,36.7642,248.8102],[6.5215,36.7628,215.2632],[6.5154,36.759,224.5693],[6.5104,36.7483,254.9348],[6.5008,36.7419,285.8354],[6.4872,36.7362,346.8876],[6.4765,36.7348,290.1572],[6.4629,36.7294,228.1611],[6.4569,36.7288,267.5655],[6.4464,36.7305,162.1923],[6.4196,36.7279,131.9442],[6.4142,36.73,122.4497],[6.4076,36.73,124.2687],[6.4026,36.7335,106.2542],[6.4014,36.7286,125.7292],[6.4037,36.7236,179.0487],[6.4091,36.7206,197.4708],[6.4106,36.7143,269.0678],[6.4101,36.7012,469.4565],[6.4141,36.6976,464.5345],[6.4228,36.6957,465.7078],[6.4379,36.6966,615.8719],[6.4449,36.6931,640.1882],[6.4598,36.6905,456.9062],[6.473,36.6912,610.9156],[6.4876,36.6895,641.8187],[6.4978,36.6812,700.2555],[6.5036,36.6762,788.3727],[6.506,36.6708,795.0607],[6.5105,36.6661,631.795],[6.5021,36.6547,816.2272],[6.5044,36.6451,854.7693]]]]}
,"properties": {"GID_2": "DZA.39.31_1","GID_0": "DZA","country": "Algeria","GID_1": "DZA.39_1","province": "Skikda","NL_NAME_1": "سكيكدة","county": "OumToub","VARNAME_2": "NA","NL_NAME_2": "NA","TYPE_2": "Commune","ENGTYPE_2": "Commune","CC_2": "2128","HASC_2": "DZ.SK.OT","name": "Oum_Toub.county","area_km2": 181.5855,"hist_schema_id": "Elevation0-9000","hist_area_km2": {"75": 0.1359,"100": 0.5266,"125": 1.988,"150": 4.1293,"175": 6.3047,"200": 9.279,"225": 11.5737,"250": 11.268,"275": 11.6424,"300": 11.9143,"325": 12.0848,"350": 12.51,"375": 11.5073,"400": 10.1987,"425": 9.9269,"450": 8.8051,"475": 7.8191,"500": 6.8845,"525": 6.0858,"550": 4.7773,"575": 3.9954,"600": 3.4175,"625": 2.9753,"650": 2.6525,"675": 2.0235,"700": 1.6324,"725": 1.4454,"750": 1.1054,"775": 0.8674,"800": 0.6803,"825": 0.5102,"850": 0.4933,"875": 0.2382,"900": 0.1021,"925": 0.068,"950": 0.017}}}