{"type": "Feature","bbox": [-1.2191,35.4722,-1.0396,35.5778],"geometry": {"type": "MultiPolygon","coordinates": [[[[-1.1875,35.5773,11.689],[-1.1978,35.5746,21.5058],[-1.1974,35.5682,3.1034],[-1.1933,35.565,2.2072],[-1.1933,35.5597,18.4103],[-1.1969,35.5488,0.0],[-1.2044,35.5404,6.0466],[-1.2106,35.5212,4.9913],[-1.217,35.5082,32.4557],[-1.2191,35.4967,112.6076],[-1.2019,35.5018,82.3351],[-1.1802,35.5113,192.3957],[-1.1735,35.5124,186.4432],[-1.163,35.5092,198.9048],[-1.1587,35.511,212.286],[-1.1569,35.5155,220.25],[-1.1452,35.5138,135.7623],[-1.1334,35.5193,182.7455],[-1.1293,35.5172,213.5893],[-1.1104,35.5185,219.9278],[-1.092,35.5082,218.3351],[-1.0777,35.4968,196.927],[-1.077,35.4877,198.5432],[-1.0741,35.4803,219.8655],[-1.0696,35.4753,226.7854],[-1.0626,35.4722,229.5922],[-1.0595,35.4776,238.9408],[-1.0583,35.4881,201.0158],[-1.0535,35.5004,139.6621],[-1.0512,35.5041,133.0214],[-1.0413,35.5082,109.2712],[-1.0396,35.5137,111.9097],[-1.0412,35.5278,109.4923],[-1.0397,35.5344,123.4671],[-1.0423,35.5409,164.7186],[-1.0549,35.5483,190.7663],[-1.0774,35.5739,226.586],[-1.0829,35.5778,199.062],[-1.0883,35.5763,218.4471],[-1.0914,35.5717,249.0476],[-1.089,35.5648,234.9467],[-1.0961,35.5637,237.7652],[-1.1005,35.5649,245.6368],[-1.1009,35.5697,268.0705],[-1.1057,35.5714,254.6502],[-1.1122,35.5619,234.6422],[-1.1354,35.5523,238.5958],[-1.1509,35.5528,227.7423],[-1.1656,35.5585,231.8289],[-1.1875,35.5773,11.689]]]]}
,"properties": {"GID_2": "DZA.3.13_1","GID_0": "DZA","country": "Algeria","GID_1": "DZA.3_1","province": "AïnTémouchent","NL_NAME_1": "ولايةعينتموشنت","county": "ElMessaid","VARNAME_2": "ElMsaid","NL_NAME_2": "NA","TYPE_2": "Commune-Cotiere","ENGTYPE_2": "Commune-Cotiere","CC_2": "4628","HASC_2": "DZ.AT.ES","name": "El_Messaid.county","area_km2": 91.94706,"hist_schema_id": "Elevation0-9000","hist_area_km2": {"0": 0.51758,"25": 0.69011,"50": 1.01796,"75": 1.39745,"100": 1.46657,"125": 4.90059,"150": 7.09253,"175": 8.28266,"200": 20.03317,"225": 27.76085,"250": 15.85505,"275": 2.93253}}}