{"type":"Feature","properties":{"GID_2":"DZA.8.24_1","GID_0":"DZA","country":"Algeria","GID_1":"DZA.8_1","province":"Béjaïa","NL_NAME_1":"بجاية","county":"IfelainIlmathen","VARNAME_2":"NA","NL_NAME_2":"NA","TYPE_2":"Commune","ENGTYPE_2":"Commune","CC_2":"618","HASC_2":"#N/A","name":"Ifelain_Ilmathen.county"},
"geometry":{"type": "MultiPolygon","coordinates": [[[[4.8,36.7015,243.2606],[4.7949,36.6988,280.5934],[4.7668,36.6956,453.6371],[4.7408,36.6873,596.6292],[4.7272,36.6853,715.2676],[4.7224,36.6827,737.7203],[4.7255,36.6785,655.633],[4.7415,36.6729,606.965],[4.7458,36.6675,497.9197],[4.7425,36.6563,256.6252],[4.738,36.6511,145.6427],[4.7479,36.6428,87.2076],[4.7497,36.6335,69.8524],[4.7558,36.6314,66.4549],[4.7618,36.6332,67.0921],[4.7647,36.6373,62.2838],[4.7741,36.6408,61.7112],[4.779,36.6385,61.1048],[4.785,36.6388,56.6397],[4.786,36.6467,55.8255],[4.7897,36.6497,54.5488],[4.7963,36.6493,55.0075],[4.8112,36.6447,48.8485],[4.8276,36.6476,45.1532],[4.8331,36.6517,46.5108],[4.8261,36.6549,90.7864],[4.8297,36.6599,108.7568],[4.8437,36.6664,81.5892],[4.8438,36.6712,64.3693],[4.8339,36.6741,119.9104],[4.8246,36.6801,119.119],[4.8184,36.6806,142.3628],[4.8085,36.6856,263.8599],[4.8043,36.6911,436.1132],[4.8036,36.6974,351.6821],[4.8,36.7015,243.2606]]]]}}