{"type": "Feature","bbox": [0.5048,35.3087,0.7643,35.5196],"geometry": {"type": "MultiPolygon","coordinates": [[[[0.7596,35.4605,241.8731],[0.7488,35.4633,236.3606],[0.7431,35.4615,233.2968],[0.7399,35.4583,233.6052],[0.7339,35.4592,232.3722],[0.7309,35.4639,265.864],[0.7264,35.4668,266.8724],[0.7295,35.4713,252.2226],[0.7235,35.4795,281.9516],[0.7196,35.4816,323.8153],[0.7031,35.4816,241.2405],[0.6984,35.4847,218.9725],[0.6929,35.4858,221.5512],[0.6873,35.4783,227.4483],[0.6763,35.475,276.7728],[0.6683,35.4754,299.0974],[0.6583,35.4825,349.8324],[0.6515,35.4854,313.5978],[0.6427,35.4795,265.942],[0.6384,35.4789,273.8898],[0.6252,35.5003,190.7028],[0.5956,35.513,274.5082],[0.59,35.5111,296.3935],[0.5728,35.5126,321.8467],[0.5621,35.5149,340.3836],[0.5518,35.5196,378.3774],[0.536,35.5114,415.3464],[0.5048,35.5101,558.9139],[0.5201,35.4942,491.4797],[0.5369,35.4818,393.5976],[0.544,35.4789,347.5323],[0.5705,35.4775,315.6202],[0.5758,35.4753,260.6459],[0.5801,35.4712,253.224],[0.5756,35.4674,255.6813],[0.5704,35.4657,262.2114],[0.5633,35.457,304.7292],[0.5624,35.4504,306.9035],[0.5671,35.4444,348.9484],[0.5665,35.4384,346.7143],[0.5683,35.4337,390.5233],[0.5716,35.4302,418.7815],[0.6071,35.4281,412.8827],[0.614,35.4259,394.5456],[0.6359,35.4145,412.6519],[0.6435,35.4136,371.4543],[0.6584,35.416,336.0911],[0.6675,35.4207,305.1583],[0.679,35.4224,269.1124],[0.6841,35.4216,266.5118],[0.6805,35.4184,270.5578],[0.6778,35.4086,278.601],[0.6839,35.4012,285.1554],[0.6788,35.3978,288.4727],[0.6703,35.3868,319.0598],[0.6648,35.3887,302.1038],[0.66,35.384,326.2819],[0.6609,35.3797,342.0685],[0.6691,35.3754,346.2256],[0.672,35.3723,346.9514],[0.6686,35.3677,341.3219],[0.6697,35.357,337.4252],[0.672,35.352,344.9848],[0.6719,35.342,364.989],[0.6698,35.3362,376.2707],[0.6655,35.3309,392.3614],[0.6797,35.3114,407.8571],[0.6858,35.3087,455.342],[0.6971,35.3109,483.869],[0.6921,35.3166,469.9134],[0.6902,35.3227,483.1973],[0.7044,35.3296,528.5364],[0.7116,35.3368,743.7925],[0.7114,35.343,857.3481],[0.7146,35.3467,816.1142],[0.7141,35.3561,694.9854],[0.7164,35.3616,606.6429],[0.7277,35.37,568.6658],[0.7382,35.3743,563.3408],[0.7548,35.399,536.7385],[0.752,35.4214,445.5475],[0.7587,35.4314,369.3832],[0.7643,35.4439,257.3044],[0.7572,35.4552,244.5199],[0.7596,35.4605,241.8731]]]]}
,"properties": {"GID_2": "DZA.27.34_1","GID_0": "DZA","country": "Algeria","GID_1": "DZA.27_1","province": "Mascara","NL_NAME_1": "ولايةمعسكر","county": "OuedElAbtal","VARNAME_2": "Wadial-Abtal","NL_NAME_2": "NA","TYPE_2": "Commune","ENGTYPE_2": "Commune","CC_2": "2910","HASC_2": "DZ.MC.OA","name": "Oued_El_Abtal.county","area_km2": 201.1994,"hist_schema_id": "Elevation0-9000","hist_area_km2": {"200": 1.9679,"225": 12.9329,"250": 15.6447,"275": 16.7158,"300": 18.6343,"325": 19.9483,"350": 23.2317,"375": 19.3304,"400": 15.5842,"425": 13.41,"450": 12.133,"475": 10.7694,"500": 6.5856,"525": 4.2168,"550": 2.385,"575": 2.1254,"600": 1.5557,"625": 1.0717,"650": 0.7952,"675": 0.4494,"700": 0.536,"725": 0.4323,"750": 0.2594,"775": 0.2594,"800": 0.0692,"825": 0.0519,"850": 0.0692,"875": 0.0346}}}