{"type": "Feature","bbox": [7.4008,36.5516,7.6194,36.6743],"geometry": {"type": "MultiPolygon","coordinates": [[[[7.4861,36.6743,174.4265],[7.485,36.6701,145.7771],[7.4805,36.6664,150.2408],[7.4676,36.6669,169.0562],[7.4567,36.6626,180.9182],[7.4447,36.6549,270.0041],[7.4339,36.6551,340.1721],[7.4298,36.6515,262.6103],[7.4236,36.6396,494.1674],[7.4217,36.6282,718.8139],[7.4074,36.6207,585.1632],[7.4036,36.6001,375.6432],[7.4008,36.5942,514.2733],[7.4091,36.592,442.2476],[7.4148,36.5883,377.0303],[7.4241,36.5767,390.0801],[7.4334,36.5711,510.3033],[7.4535,36.5768,540.2944],[7.4714,36.5852,555.0356],[7.4831,36.5817,505.9843],[7.4821,36.5763,522.36],[7.4878,36.5683,566.9512],[7.5169,36.5654,557.5795],[7.5299,36.5516,843.9943],[7.5387,36.5523,802.7371],[7.5466,36.5557,805.1829],[7.567,36.5546,765.017],[7.5697,36.564,567.549],[7.57,36.5764,452.1252],[7.5674,36.58,459.885],[7.5771,36.5828,382.9058],[7.5819,36.5893,375.2318],[7.6141,36.5995,241.0646],[7.6194,36.6038,276.6913],[7.611,36.6134,172.9077],[7.6005,36.6045,196.7099],[7.5949,36.604,194.0097],[7.5628,36.6094,204.709],[7.5567,36.6089,208.8318],[7.5456,36.6163,202.4625],[7.5437,36.6206,248.8995],[7.5355,36.6257,224.2745],[7.5325,36.6305,191.1332],[7.5284,36.6331,197.2483],[7.5185,36.6313,211.7539],[7.5133,36.6284,220.3352],[7.5006,36.6266,274.9921],[7.4937,36.6298,245.2384],[7.4922,36.6481,205.2596],[7.4972,36.6586,168.3734],[7.4907,36.6699,150.7531],[7.4861,36.6743,174.4265]]]]}
,"properties": {"GID_2": "DZA.21.27_1","GID_0": "DZA","country": "Algeria","GID_1": "DZA.21_1","province": "Guelma","NL_NAME_1": "ولايةقالمة","county": "Nechemaya","VARNAME_2": "Nechmaya","NL_NAME_2": "NA","TYPE_2": "Commune","ENGTYPE_2": "Commune","CC_2": "2402","HASC_2": "DZ.GL.NE","name": "Nechemaya.county","area_km2": 121.13251,"hist_schema_id": "Elevation0-9000","hist_area_km2": {"125": 0.20408,"150": 0.61226,"175": 1.53098,"200": 4.06646,"225": 8.01443,"250": 9.32519,"275": 9.00232,"300": 8.59456,"325": 8.95237,"350": 9.25917,"375": 9.37861,"400": 8.73219,"425": 8.1025,"450": 6.99619,"475": 6.23033,"500": 5.97494,"525": 4.73238,"550": 3.59189,"575": 2.196,"600": 1.46401,"625": 0.78315,"650": 0.68099,"675": 0.64704,"700": 0.61297,"725": 0.42569,"750": 0.44278,"775": 0.37464,"800": 0.17031,"825": 0.03406}}}