{"type": "Feature","bbox": [4.0567,36.6271,4.1211,36.6892],"geometry": {"type": "MultiPolygon","coordinates": [[[[4.1208,36.6639,158.0],[4.1211,36.6705,158.0],[4.1112,36.6871,82.5998],[4.1003,36.6843,143.726],[4.0952,36.6846,142.4852],[4.0892,36.6885,133.1249],[4.0833,36.6892,140.4111],[4.0788,36.6869,123.4487],[4.0725,36.6746,215.1229],[4.0691,36.6714,231.6448],[4.0675,36.6653,290.4923],[4.0605,36.6566,400.485],[4.0574,36.6435,501.3428],[4.0588,36.6375,566.8278],[4.0567,36.6318,566.8243],[4.0703,36.6271,579.6748],[4.071,36.6366,494.1066],[4.0754,36.64,482.1468],[4.0893,36.6495,291.5841],[4.1176,36.6592,164.415],[4.1208,36.6639,158.0]]]]}
,"properties": {"GID_2": "DZA.47.24_1","GID_0": "DZA","country": "Algeria","GID_1": "DZA.47_1","province": "TiziOuzou","NL_NAME_1": "ولايةغليزان","county": "BeniAissi","VARNAME_2": "NA","NL_NAME_2": "NA","TYPE_2": "Commune","ENGTYPE_2": "Commune","CC_2": "1515","HASC_2": "DZ.TO.BA","name": "Beni_Aissi.county","area_km2": 20.66431,"hist_schema_id": "Elevation0-9000","hist_area_km2": {"75": 0.017,"100": 0.11902,"125": 0.47609,"150": 1.41137,"175": 1.10529,"200": 0.85026,"225": 0.81627,"250": 0.74825,"275": 0.79928,"300": 0.91836,"325": 0.90136,"350": 0.71429,"375": 0.76534,"400": 0.93541,"425": 1.02046,"450": 0.91843,"475": 0.91844,"500": 1.13961,"525": 1.32674,"550": 1.58194,"575": 1.53096,"600": 0.73149,"625": 0.68047,"650": 0.23817}}}