{"type":"Feature","properties":{"GID_2":"DZA.18.2_1","GID_0":"DZA","country":"Algeria","GID_1":"DZA.18_1","province":"ElOued","NL_NAME_1":"ولايةالوادي","county":"BenGuecha","VARNAME_2":"BeniGuecha","NL_NAME_2":"NA","TYPE_2":"Commune","ENGTYPE_2":"Commune","CC_2":"3919","HASC_2":"DZ.EO.BG","name":"Ben_Guecha.county"},
"geometry":{"type": "MultiPolygon","coordinates": [[[[7.3605,34.2969,58.1748],[7.2315,34.3401,65.0138],[7.0228,34.3323,22.8664],[7.0218,34.2889,13.0094],[7.0118,34.2047,0.9866],[7.01,34.1545,-9.629],[6.9656,34.0933,-17.4496],[6.9723,34.0552,-17.0289],[6.9538,33.991,-4.9643],[6.9708,33.9015,0.6298],[6.9702,33.8952,10.1818],[7.0077,33.8954,3.7862],[7.3235,33.9084,27.6329],[7.3799,33.9209,21.0971],[7.5308,33.9137,31.3884],[7.5533,33.9433,23.6638],[7.5474,33.9813,20.8467],[7.5634,34.0223,11.2027],[7.5372,34.0465,-4.7],[7.5307,34.0592,-15.8038],[7.5301,34.0658,-15.0204],[7.5319,34.0697,-14.8412],[7.5371,34.0734,-13.6585],[7.5593,34.0786,-18.8886],[7.5637,34.0831,-16.5417],[7.5808,34.0857,-21.0653],[7.587,34.0903,-21.1825],[7.5892,34.096,-20.3175],[7.5831,34.0944,-19.1389],[7.579,34.0967,-16.8992],[7.5824,34.0996,-18.6579],[7.5868,34.1032,-18.6893],[7.5983,34.1064,-19.1612],[7.6016,34.1096,-17.4765],[7.6125,34.1128,-16.4585],[7.6192,34.1392,-2.7957],[7.6612,34.1966,15.6686],[7.7381,34.1671,-4.0338],[7.8159,34.2129,13.8635],[7.8133,34.2408,23.9394],[7.7851,34.2455,19.4395],[7.6551,34.2592,30.0405],[7.6431,34.2618,39.282],[7.4274,34.2746,52.3067],[7.3605,34.2969,58.1748]]]]}}