{"type": "Feature","bbox": [5.471,36.1075,5.6219,36.255],"geometry": {"type": "MultiPolygon","coordinates": [[[[5.6219,36.1363,946.5221],[5.6202,36.1412,945.3462],[5.6212,36.1469,947.1483],[5.6159,36.152,956.7911],[5.6042,36.1567,978.871],[5.5986,36.1557,995.5031],[5.5948,36.1598,1008.3141],[5.593,36.1639,1043.1171],[5.5948,36.1688,1043.2404],[5.5862,36.1843,1099.4807],[5.5915,36.1869,1084.9547],[5.6084,36.1877,1057.3921],[5.6043,36.1928,1100.9634],[5.5858,36.1969,1144.0454],[5.5781,36.2093,1197.5681],[5.5648,36.2027,1224.7736],[5.5586,36.2027,1216.2278],[5.5534,36.2058,1226.2317],[5.5473,36.2186,1228.4783],[5.5508,36.2255,1261.4326],[5.5673,36.2326,1252.5427],[5.5706,36.2447,1128.3638],[5.5706,36.251,979.6779],[5.5739,36.255,941.9951],[5.5419,36.2489,1256.7015],[5.5329,36.2487,1274.3303],[5.5022,36.2361,1208.129],[5.5065,36.2238,1163.835],[5.5064,36.2191,1150.288],[5.4991,36.2121,1130.7075],[5.4953,36.2018,1133.5397],[5.4988,36.1856,1074.1277],[5.4957,36.1827,1064.813],[5.4946,36.1785,1058.9163],[5.478,36.1718,1053.3588],[5.4777,36.1652,1042.0201],[5.471,36.1584,1048.3256],[5.4729,36.154,1037.5922],[5.4929,36.1404,1009.6378],[5.5254,36.1299,996.0186],[5.5324,36.1299,998.3038],[5.5366,36.1245,993.387],[5.5538,36.113,994.9492],[5.5833,36.1103,1005.3417],[5.589,36.1079,1016.0942],[5.5958,36.1075,1005.9546],[5.601,36.1116,1001.6858],[5.6049,36.1157,996.3581],[5.6054,36.1231,976.349],[5.6103,36.1285,967.0457],[5.6219,36.1363,946.5221]]]]}
,"properties": {"GID_2": "DZA.37.49_1","GID_0": "DZA","country": "Algeria","GID_1": "DZA.37_1","province": "Sétif","NL_NAME_1": "ولايةسطيف","county": "OuledSaber","VARNAME_2": "OuledSabor","NL_NAME_2": "NA","TYPE_2": "Commune","ENGTYPE_2": "Commune","CC_2": "1947","HASC_2": "DZ.SF.OS","name": "Ouled_Saber.county","area_km2": 119.0704,"hist_schema_id": "Elevation0-9000","hist_area_km2": {"950": 2.3285,"975": 3.54419,"1000": 21.13138,"1025": 19.82578,"1050": 14.01886,"1075": 11.26138,"1100": 8.3166,"1125": 7.35749,"1150": 6.96334,"1175": 7.28726,"1200": 6.61965,"1225": 5.08001,"1250": 3.19829,"1275": 1.79566,"1300": 0.3249,"1325": 0.0171}}}