{"type":"Feature","properties":{"GID_2":"DZA.34.9_1","GID_0":"DZA","country":"Algeria","GID_1":"DZA.34_1","province":"OumelBouaghi","NL_NAME_1":"ولايةأمالبواقي","county":"Berriche","VARNAME_2":"NA","NL_NAME_2":"NA","TYPE_2":"Commune","ENGTYPE_2":"Commune","CC_2":"409","HASC_2":"DZ.OB.BR","name":"Berriche.county"},
"geometry":{"type": "MultiPolygon","coordinates": [[[[7.2308,35.9069,862.0919],[7.238,35.8949,879.7992],[7.2309,35.8829,887.8629],[7.2316,35.8731,898.4817],[7.2343,35.8679,909.161],[7.2251,35.8635,906.4897],[7.2266,35.8552,905.9467],[7.2307,35.8489,910.624],[7.2476,35.8423,912.177],[7.2537,35.8152,924.0539],[7.2621,35.803,923.2537],[7.2622,35.7967,913.4995],[7.2851,35.7986,923.5984],[7.3058,35.7927,906.9927],[7.3144,35.7968,914.6538],[7.3311,35.7973,927.8409],[7.3322,35.803,929.3456],[7.3082,35.822,930.5004],[7.3076,35.8278,929.1997],[7.3184,35.8267,932.4082],[7.3339,35.822,931.4376],[7.3405,35.823,934.3372],[7.3581,35.8305,948.8518],[7.3736,35.8181,971.7139],[7.3778,35.8228,975.2714],[7.388,35.8224,990.7174],[7.3994,35.8255,1016.3732],[7.4046,35.8242,1011.1402],[7.4046,35.8173,1023.4124],[7.4112,35.8163,1050.7183],[7.4162,35.8189,1062.3796],[7.4219,35.8227,1092.0898],[7.4228,35.8284,1029.6921],[7.4224,35.8332,1013.0028],[7.419,35.8361,1009.3281],[7.4321,35.8552,979.946],[7.4392,35.8683,956.8806],[7.4445,35.8669,973.6154],[7.4553,35.8573,1016.097],[7.459,35.8642,991.1727],[7.4637,35.8618,1002.6992],[7.4697,35.8641,961.0703],[7.4739,35.8682,946.0679],[7.4791,35.8704,937.9977],[7.481,35.8747,926.1392],[7.4787,35.8876,923.889],[7.4842,35.8959,918.978],[7.4561,35.9102,890.9952],[7.438,35.9141,919.8129],[7.43,35.9297,879.9266],[7.4318,35.9435,847.8527],[7.4271,35.9475,858.261],[7.4197,35.9502,842.6886],[7.4074,35.952,867.3805],[7.4023,35.9566,876.391],[7.3986,35.9632,850.2737],[7.3924,35.9681,870.2748],[7.3868,35.9866,852.6628],[7.3725,35.9994,874.6465],[7.3668,36.0057,862.8244],[7.3638,36.0125,849.7735],[7.3538,36.0213,825.2255],[7.3485,36.0253,818.6434],[7.3439,36.0241,818.8091],[7.3336,36.0246,833.2467],[7.3132,36.0318,804.0138],[7.3053,36.0323,799.1209],[7.2984,36.0234,789.0635],[7.2887,36.0181,801.1757],[7.2893,36.0016,816.0961],[7.2832,35.9989,800.8615],[7.2836,35.9916,829.322],[7.2801,35.9864,829.2373],[7.2678,35.975,827.7911],[7.2679,35.9668,832.9594],[7.2709,35.9538,842.6871],[7.2843,35.9405,859.9996],[7.2816,35.9361,850.9549],[7.2813,35.9299,861.8663],[7.2764,35.9295,853.4791],[7.2671,35.9233,864.9397],[7.2585,35.912,873.5558],[7.2527,35.9096,875.163],[7.2431,35.91,864.1929],[7.2308,35.9069,862.0919]]]]}}