{"type":"Feature","properties":{"GID_2":"DZA.43.12_1","GID_0":"DZA","country":"Algeria","GID_1":"DZA.43_1","province":"Tiaret","NL_NAME_1":"ولايةتيارت","county":"Frenda","VARNAME_2":"Firindah","NL_NAME_2":"NA","TYPE_2":"Commune","ENGTYPE_2":"Commune","CC_2":"1427","HASC_2":"DZ.TR.FR","name":"Frenda.county"},
"geometry":{"type": "MultiPolygon","coordinates": [[[[1.0088,34.9907,1160.3197],[1.0165,34.9902,1112.5654],[1.0306,34.9824,1147.0343],[1.0452,34.9878,1159.8041],[1.0506,34.9883,1107.224],[1.0607,34.9769,1219.1643],[1.0701,34.9751,1224.2847],[1.1025,34.9742,1232.1359],[1.107,34.9749,1237.1548],[1.1115,34.9782,1238.9495],[1.1223,34.9806,1223.0105],[1.1261,34.9894,1230.3466],[1.1317,34.9924,1235.7592],[1.1587,34.9971,1215.7831],[1.1641,35.0009,1225.235],[1.1708,35.019,1237.0747],[1.1879,35.0263,1244.7737],[1.189,35.0368,1229.7657],[1.192,35.0422,1223.9883],[1.2012,35.0495,1204.1631],[1.2118,35.0636,1186.0596],[1.2136,35.0698,1179.4575],[1.2121,35.0763,1161.4725],[1.2086,35.08,1154.8712],[1.1938,35.088,1165.7747],[1.1751,35.0912,1175.5834],[1.1624,35.0973,1129.785],[1.1555,35.1019,1099.0684],[1.1509,35.1069,1039.3531],[1.1486,35.1126,1044.2631],[1.1437,35.1167,1013.7308],[1.1384,35.1183,1026.4816],[1.1153,35.1325,984.3517],[1.114,35.1376,959.8512],[1.1155,35.1536,905.4703],[1.1119,35.1605,989.3556],[1.1036,35.1729,966.0977],[1.092,35.1804,903.2166],[1.0846,35.1832,936.2971],[1.0771,35.1843,989.4642],[1.0693,35.17,1027.0724],[1.0442,35.1624,917.0963],[1.0304,35.1627,1032.2208],[1.0234,35.1559,1095.6172],[1.0072,35.161,1117.8246],[0.9982,35.1593,1088.469],[0.9738,35.1482,963.7828],[0.959,35.1437,902.1038],[0.9453,35.1515,782.0781],[0.9401,35.1478,726.9261],[0.9237,35.15,686.5999],[0.9261,35.1374,688.1839],[0.9217,35.1338,693.8535],[0.9275,35.0901,770.6546],[0.9317,35.0755,798.186],[0.9278,35.063,832.6169],[0.9275,35.0487,850.9146],[0.935,35.0428,866.0493],[0.9475,35.0403,896.3381],[0.9644,35.0331,845.215],[0.9791,35.0322,829.6335],[0.9828,35.028,840.3743],[0.9863,35.0179,861.8087],[1.0078,35.0202,874.4076],[1.0123,35.0151,891.5471],[1.0238,35.0068,926.62],[1.018,34.9974,1002.2372],[1.0088,34.9907,1160.3197]]]]}}