{"type":"Feature","properties":{"GID_2":"DZA.11.18_1","GID_0":"DZA","country":"Algeria","GID_1":"DZA.11_1","province":"BordjBouArréridj","NL_NAME_1":"ولايةبرجبوعريريج","county":"Haraza","VARNAME_2":"NA","NL_NAME_2":"NA","TYPE_2":"Commune","ENGTYPE_2":"Commune","CC_2":"3434","HASC_2":"DZ.BB.HZ","name":"Haraza.county"},
"geometry":{"type": "MultiPolygon","coordinates": [[[[4.2389,36.1069,882.8092],[4.2493,36.109,786.835],[4.2548,36.106,778.3608],[4.2638,36.1085,815.3747],[4.2764,36.1085,762.5351],[4.2821,36.1111,691.654],[4.2898,36.1216,645.7594],[4.2846,36.125,680.8817],[4.286,36.1316,646.316],[4.3129,36.1358,583.9086],[4.3212,36.1421,576.8165],[4.3236,36.1489,606.4219],[4.3274,36.1542,599.537],[4.3258,36.1592,614.3313],[4.3219,36.1626,629.659],[4.3159,36.173,659.7614],[4.3169,36.1803,689.8247],[4.3204,36.1858,716.4944],[4.3151,36.1882,853.9459],[4.3031,36.1863,836.3388],[4.2981,36.1871,833.3391],[4.2944,36.1908,949.9329],[4.2887,36.2067,1067.9587],[4.2844,36.2082,1039.7354],[4.2749,36.2081,917.2251],[4.2572,36.232,647.6508],[4.2409,36.2272,746.6692],[4.2365,36.2241,773.2116],[4.231,36.2066,921.6418],[4.2186,36.2009,1013.8737],[4.2112,36.1942,1125.6072],[4.1977,36.1903,1247.8029],[4.1842,36.1889,1117.092],[4.1746,36.1841,1021.6138],[4.1702,36.1795,945.684],[4.1518,36.1744,887.5226],[4.1552,36.1715,883.6935],[4.1607,36.1711,890.3175],[4.1653,36.1684,894.6481],[4.1568,36.1582,1012.7283],[4.1534,36.1511,997.8017],[4.1535,36.1404,1116.2863],[4.1507,36.1346,1062.5267],[4.1466,36.1314,1037.9657],[4.1562,36.1279,1103.8074],[4.1483,36.1229,1134.6237],[4.1436,36.1175,1213.4031],[4.1419,36.1062,1191.376],[4.1477,36.0991,1030.9094],[4.1755,36.0942,960.2643],[4.1932,36.0943,855.7081],[4.1983,36.0922,855.9802],[4.2152,36.0944,879.8655],[4.2389,36.1069,882.8092]]]]}}