{"type": "Feature","bbox": [5.6879,35.4,5.8896,35.5479],"geometry": {"type": "MultiPolygon","coordinates": [[[[5.8436,35.4365,1033.9722],[5.8464,35.4414,1105.3506],[5.8522,35.4464,1168.8668],[5.8597,35.4485,1235.1681],[5.8641,35.4517,1171.4496],[5.8543,35.4603,1181.8318],[5.8569,35.4655,1285.9933],[5.8661,35.4732,1371.074],[5.8733,35.4848,1417.8871],[5.8666,35.4943,1730.8392],[5.8674,35.5134,1523.626],[5.8819,35.5241,1595.1383],[5.8828,35.5319,1658.6749],[5.8896,35.5416,1855.6292],[5.8844,35.5462,1791.6736],[5.88,35.5479,1877.5551],[5.871,35.5345,1721.9171],[5.8592,35.5337,1704.7771],[5.8468,35.5288,1664.7037],[5.8415,35.5227,1619.178],[5.8408,35.5173,1660.5565],[5.83,35.5068,1539.245],[5.8176,35.5098,1533.2821],[5.807,35.5183,1650.8904],[5.8024,35.5157,1562.2054],[5.7957,35.5155,1526.7017],[5.786,35.5256,1365.9313],[5.7785,35.5262,1495.4283],[5.7741,35.523,1588.1434],[5.7634,35.5199,1623.7887],[5.7095,35.4859,1462.283],[5.7044,35.4813,1471.2075],[5.7009,35.4752,1429.0355],[5.6879,35.4718,1429.6217],[5.707,35.4596,1342.0232],[5.7163,35.4559,1263.5381],[5.7172,35.4378,1064.1764],[5.7145,35.4316,946.7786],[5.7085,35.4271,928.635],[5.7134,35.4169,1057.5706],[5.7118,35.4013,912.8854],[5.7374,35.4,1148.0123],[5.7537,35.4018,1214.8702],[5.7622,35.4142,1046.9921],[5.767,35.4183,1030.5378],[5.7868,35.421,1005.4698],[5.795,35.4268,1000.3715],[5.8115,35.4285,1019.1125],[5.8253,35.4336,1025.392],[5.8316,35.4338,1029.7469],[5.8363,35.4293,1011.8953],[5.8433,35.4299,1023.7449],[5.8436,35.4365,1033.9722]]]]}
,"properties": {"GID_2": "DZA.6.42_1","GID_0": "DZA","country": "Algeria","GID_1": "DZA.6_1","province": "Batna","NL_NAME_1": "ولايةباتنة","county": "OuledAouf","VARNAME_2": "NA","NL_NAME_2": "NA","TYPE_2": "Commune","ENGTYPE_2": "Commune","CC_2": "540","HASC_2": "DZ.BT.OO","name": "Ouled_Aouf.county","area_km2": 150.7977,"hist_schema_id": "Elevation0-9000","hist_area_km2": {"925": 0.1728,"950": 0.4666,"975": 0.8639,"1000": 2.5743,"1025": 5.8395,"1050": 6.3922,"1075": 7.7396,"1100": 6.3917,"1125": 4.9923,"1150": 5.1475,"1175": 5.4755,"1200": 6.0105,"1225": 4.5595,"1250": 4.7664,"1275": 4.1791,"1300": 4.3516,"1325": 4.5933,"1350": 4.1786,"1375": 4.8346,"1400": 4.6445,"1425": 4.7825,"1450": 4.6441,"1475": 4.7301,"1500": 4.4365,"1525": 5.8691,"1550": 7.6812,"1575": 7.4395,"1600": 6.5936,"1625": 4.5566,"1650": 3.5553,"1675": 4.4007,"1700": 2.0709,"1725": 0.8111,"1750": 0.2416,"1775": 0.1553,"1800": 0.1208,"1825": 0.1725,"1850": 0.1725,"1875": 0.1208,"1900": 0.0345,"1925": 0.0345}}}