{"type": "Feature","bbox": [5.9267,36.6981,6.0319,36.826],"geometry": {"type": "MultiPolygon","coordinates": [[[[6.0319,36.7882,917.9742],[6.0223,36.7896,762.7681],[6.0158,36.7877,696.7933],[6.0103,36.7882,514.8834],[6.0007,36.7919,364.8785],[5.9809,36.7871,226.9001],[5.9711,36.7903,195.5739],[5.9525,36.8045,21.6061],[5.9545,36.8181,4.5574],[5.9516,36.8241,6.287],[5.945,36.826,10.5373],[5.9407,36.8234,6.7266],[5.9318,36.8135,9.0964],[5.9308,36.8081,10.5151],[5.935,36.7972,15.696],[5.9304,36.7945,15.0635],[5.9267,36.7811,21.1104],[5.9316,36.7768,24.2024],[5.9345,36.7718,26.5911],[5.9392,36.7704,30.1004],[5.9425,36.7657,43.5962],[5.9434,36.7504,39.0581],[5.9531,36.7249,101.0214],[5.9512,36.721,111.4802],[5.9576,36.7174,272.6239],[5.9651,36.7156,298.8309],[5.9692,36.7125,279.0307],[5.9686,36.7069,163.4014],[5.9713,36.7023,193.3464],[5.9846,36.6981,178.3197],[5.998,36.7006,242.7554],[6.0076,36.7086,313.8252],[6.0,36.715,532.7265],[5.9985,36.719,705.4744],[6.0011,36.7255,701.6238],[6.0115,36.7375,811.5759],[6.0232,36.7417,807.2159],[6.0252,36.7455,738.929],[5.9989,36.7568,211.7971],[5.9951,36.76,309.8205],[5.9989,36.7673,429.9835],[6.003,36.7741,272.0952],[6.0246,36.7835,672.8961],[6.0319,36.7882,917.9742]]]]}
,"properties": {"GID_2": "DZA.23.6_1","GID_0": "DZA","country": "Algeria","GID_1": "DZA.23_1","province": "Jijel","NL_NAME_1": "ولايةجيجل","county": "Chekfa","VARNAME_2": "Shifka","NL_NAME_2": "NA","TYPE_2": "Commune","ENGTYPE_2": "Commune","CC_2": "1807","HASC_2": "DZ.JJ.CK","name": "Chekfa.county","area_km2": 61.60979,"hist_schema_id": "Elevation0-9000","hist_area_km2": {"0": 3.10623,"25": 6.68981,"50": 6.89547,"75": 5.16329,"100": 2.78551,"125": 1.61368,"150": 1.5968,"175": 1.66475,"200": 1.63093,"225": 1.57996,"250": 1.90279,"275": 1.66493,"300": 1.88589,"325": 1.61406,"350": 1.69899,"375": 1.93692,"400": 1.80095,"425": 1.86889,"450": 1.4781,"475": 1.71599,"500": 1.44412,"525": 1.20633,"550": 1.13828,"575": 1.35931,"600": 0.90054,"625": 0.83263,"650": 1.01951,"675": 0.91752,"700": 0.52676,"725": 0.6287,"750": 0.49273,"775": 0.28882,"800": 0.22085,"825": 0.16987,"850": 0.08494,"875": 0.08492}}}