{"type": "Feature","bbox": [4.3645,36.5487,4.4248,36.6108],"geometry": {"type": "MultiPolygon","coordinates": [[[[4.3645,36.5763,535.3351],[4.3813,36.5594,1083.0647],[4.3835,36.5522,1263.798],[4.3887,36.5505,1137.7733],[4.4019,36.5523,755.1444],[4.4126,36.5487,539.0947],[4.4215,36.5632,484.9242],[4.4219,36.5712,441.645],[4.4218,36.5776,382.3488],[4.4142,36.5916,329.6214],[4.4124,36.5983,317.5258],[4.4248,36.6005,420.9727],[4.4236,36.6056,428.0728],[4.4193,36.6108,432.7567],[4.4036,36.6097,279.5622],[4.4015,36.6046,310.575],[4.3863,36.6006,331.8153],[4.3676,36.5877,519.1837],[4.3645,36.5763,535.3351]]]]}
,"properties": {"GID_2": "DZA.47.42_1","GID_0": "DZA","country": "Algeria","GID_1": "DZA.47_1","province": "TiziOuzou","NL_NAME_1": "ولايةغليزان","county": "Imsouhal","VARNAME_2": "NA","NL_NAME_2": "NA","TYPE_2": "Commune","ENGTYPE_2": "Commune","CC_2": "1563","HASC_2": "DZ.TO.IM","name": "Imsouhal.county","area_km2": 23.97288,"hist_schema_id": "Elevation0-9000","hist_area_km2": {"275": 0.1702,"300": 0.42552,"325": 0.83406,"350": 1.29367,"375": 1.29372,"400": 1.24267,"425": 1.07248,"450": 0.81718,"475": 1.08963,"500": 0.62997,"525": 0.52779,"550": 0.64698,"575": 0.59592,"600": 0.74913,"625": 0.62997,"650": 0.61296,"675": 0.40864,"700": 0.52786,"725": 0.49378,"750": 0.78329,"775": 0.5619,"800": 0.613,"825": 0.52786,"850": 0.5449,"875": 0.68113,"900": 0.45977,"925": 0.66412,"950": 0.39166,"975": 0.39166,"1000": 0.57898,"1025": 0.47682,"1050": 0.44277,"1075": 0.44276,"1100": 0.30653,"1125": 0.39168,"1150": 0.32356,"1175": 0.23842,"1200": 0.45981,"1225": 0.25545,"1250": 0.2214,"1275": 0.11921,"1300": 0.03406}}}