{"type":"Feature","properties":{"GID_2":"DZA.17.15_1","GID_0":"DZA","country":"Algeria","GID_1":"DZA.17_1","province":"ElBayadh","NL_NAME_1":"ولايةالبيض","county":"KefElAhmar","VARNAME_2":"NA","NL_NAME_2":"NA","TYPE_2":"Commune","ENGTYPE_2":"Commune","CC_2":"3212","HASC_2":"DZ.EB.KA","name":"Kef_El_Ahmar.county"},
"geometry":{"type": "MultiPolygon","coordinates": [[[[0.3866,33.7255,1224.7095],[0.3929,33.7251,1233.5247],[0.4545,33.6763,1252.5958],[0.5078,33.6409,1364.3281],[0.5517,33.6031,1255.8445],[0.661,33.6732,1271.9182],[0.7092,33.6189,1290.4619],[0.8199,33.6419,1281.4547],[0.9099,33.6587,1292.8688],[0.8977,33.6816,1267.7356],[0.9034,33.7026,1246.8617],[0.908,33.7066,1248.1918],[0.9154,33.7316,1232.4655],[0.9152,33.7367,1231.0212],[0.9109,33.7412,1232.7889],[0.9068,33.7598,1221.426],[0.8942,33.7695,1210.9452],[0.8872,33.778,1204.1332],[0.882,33.7903,1189.1276],[0.8825,33.8047,1145.4094],[0.8804,33.8099,1138.5239],[0.8764,33.8116,1138.2693],[0.8677,33.8199,1129.7216],[0.864,33.8278,1127.6742],[0.8557,33.8355,1119.6244],[0.8538,33.8417,1117.4823],[0.8584,33.8507,1124.4174],[0.847,33.8621,1103.0653],[0.8398,33.8757,1099.7656],[0.8222,33.8965,1117.7455],[0.7621,33.9529,1094.3638],[0.7337,33.9885,1082.5743],[0.719,34.002,1076.563],[0.6734,34.0265,1066.1039],[0.6531,34.0417,1055.3331],[0.6394,34.0452,1035.1697],[0.5953,34.0708,989.8055],[0.501,34.0598,1002.051],[0.4939,34.0187,1023.9735],[0.4955,34.011,1029.348],[0.4991,34.0069,1032.1553],[0.4996,34.0026,1033.5735],[0.4918,33.9957,1038.1941],[0.4904,33.9759,1050.7263],[0.4945,33.9648,1057.2693],[0.4949,33.9594,1060.2491],[0.4937,33.9547,1063.0084],[0.4947,33.9389,1071.9725],[0.4918,33.9294,1077.5237],[0.4943,33.9238,1080.698],[0.4927,33.9187,1083.7136],[0.4946,33.9145,1085.4303],[0.4889,33.9051,1091.3903],[0.4794,33.8969,1100.6963],[0.4787,33.8866,1103.1788],[0.4595,33.866,1116.9651],[0.4284,33.8467,1138.2188],[0.4228,33.847,1144.0083],[0.4134,33.8441,1151.4786],[0.4013,33.8359,1157.5189],[0.3974,33.8309,1163.7661],[0.3956,33.8261,1169.5406],[0.3986,33.8149,1182.3615],[0.4048,33.8084,1196.9314],[0.4037,33.8024,1204.9545],[0.4046,33.7966,1210.7333],[0.3998,33.7903,1222.8372],[0.3991,33.7843,1240.5271],[0.3928,33.7679,1275.6182],[0.389,33.7383,1247.3115],[0.3895,33.7311,1238.2927],[0.3866,33.7255,1224.7095]]]]}}