{"type": "Feature","bbox": [6.2111,34.2826,6.744,34.7163],"geometry": {"type": "MultiPolygon","coordinates": [[[[6.2369,34.5253,-24.7977],[6.236,34.519,-25.0199],[6.2303,34.5057,-25.7926],[6.2312,34.5011,-26.0005],[6.2258,34.463,-26.877],[6.2111,34.4284,-27.3937],[6.2157,34.4234,-27.5232],[6.2344,34.4191,-27.6628],[6.2633,34.403,-28.3063],[6.2956,34.4007,-27.8053],[6.3122,34.3961,-28.088],[6.3242,34.3899,-27.887],[6.3613,34.3644,-27.6162],[6.3906,34.3617,-27.4378],[6.4724,34.3393,-27.6231],[6.492,34.3236,-27.8843],[6.5068,34.3059,-27.9582],[6.512,34.3041,-27.8629],[6.5227,34.2903,-27.8368],[6.5314,34.2845,-27.7943],[6.538,34.283,-27.7532],[6.5632,34.2826,-27.5738],[6.587,34.2871,-27.5056],[6.6214,34.3059,-26.0729],[6.6529,34.3309,-23.9986],[6.6667,34.3456,-22.887],[6.6866,34.3616,-20.8027],[6.6917,34.374,-18.9618],[6.7093,34.3924,-16.0501],[6.711,34.4009,-15.4984],[6.7083,34.413,-14.1673],[6.6967,34.4238,-12.0722],[6.6943,34.4294,-11.2287],[6.6925,34.4451,-9.2233],[6.6838,34.4588,-6.787],[6.6853,34.469,-4.8336],[6.688,34.4742,-3.9117],[6.6977,34.4826,-1.0718],[6.7005,34.4884,0.3482],[6.7094,34.4993,4.7016],[6.7176,34.5065,7.692],[6.7186,34.5113,10.3026],[6.7267,34.5229,13.4394],[6.7266,34.5302,13.8636],[6.7284,34.5359,15.1985],[6.7339,34.5387,17.0569],[6.7365,34.5561,23.3539],[6.7406,34.5608,25.1675],[6.7415,34.5883,32.0814],[6.7356,34.6059,39.1482],[6.7372,34.6118,41.4118],[6.7362,34.6188,44.8965],[6.733,34.6253,47.0118],[6.7338,34.6393,54.396],[6.7383,34.6427,56.4576],[6.744,34.6507,60.3728],[6.7347,34.6746,70.1531],[6.7412,34.6849,75.7406],[6.726,34.6923,80.2068],[6.7214,34.6972,82.6476],[6.7214,34.7133,92.0962],[6.7177,34.7163,94.3984],[6.7034,34.7072,87.1629],[6.6998,34.6941,79.2533],[6.6839,34.6855,71.1335],[6.6857,34.6786,66.5572],[6.6669,34.6737,67.0768],[6.6657,34.6631,63.041],[6.6182,34.6719,61.3641],[6.5701,34.678,51.9608],[6.5463,34.6183,25.5223],[6.5299,34.6155,24.958],[6.5107,34.6139,22.0313],[6.5022,34.6148,21.2341],[6.5031,34.6195,21.056],[6.5086,34.622,22.1646],[6.51,34.634,25.0556],[6.5032,34.6332,26.2615],[6.4868,34.6254,24.2341],[6.4527,34.6258,21.6406],[6.4392,34.6528,28.279],[6.4343,34.6585,29.7126],[6.4163,34.6038,7.2552],[6.4077,34.5944,3.9592],[6.3822,34.5777,-3.5239],[6.3736,34.5691,-7.0336],[6.365,34.566,-8.4466],[6.3365,34.5718,-12.07],[6.299,34.592,-11.7813],[6.2949,34.5829,-14.3386],[6.294,34.5685,-18.3913],[6.2878,34.5565,-20.8772],[6.2668,34.5457,-23.2497],[6.2623,34.5419,-23.532],[6.2652,34.5282,-24.271],[6.2414,34.5333,-24.3474],[6.2374,34.5321,-24.4713],[6.2369,34.5253,-24.7977]]]]}
,"properties": {"GID_2": "DZA.9.12_1","GID_0": "DZA","country": "Algeria","GID_1": "DZA.9_1","province": "Biskra","NL_NAME_1": "ولايةبسكرة","county": "ElFeidh","VARNAME_2": "NA","NL_NAME_2": "NA","TYPE_2": "Commune","ENGTYPE_2": "Commune","CC_2": "716","HASC_2": "DZ.BS.EF","name": "El_Feidh.county","area_km2": 1372.956,"hist_schema_id": "Elevation0-9000","hist_area_km2": {"-25": 689.352,"0": 374.19,"25": 185.1,"50": 100.515,"75": 22.632,"100": 1.168}}}