{"type": "Feature","bbox": [5.1796,36.519,5.269,36.5858],"geometry": {"type": "MultiPolygon","coordinates": [[[[5.2134,36.519,1756.3167],[5.2324,36.5367,814.9119],[5.2448,36.5421,444.5974],[5.2457,36.5498,536.4174],[5.2671,36.5524,278.8278],[5.269,36.5577,420.9297],[5.2646,36.5665,631.2153],[5.2469,36.5858,1241.8987],[5.2445,36.5799,1200.0779],[5.2439,36.5712,1496.9939],[5.2402,36.5668,1487.5771],[5.2301,36.5662,1406.2113],[5.2253,36.5691,1576.532],[5.2131,36.5646,1511.8822],[5.2018,36.564,1494.3123],[5.1828,36.5485,983.6254],[5.1796,36.5424,1053.4553],[5.1808,36.5374,994.9962],[5.1858,36.5346,1031.5892],[5.2007,36.5206,1606.8932],[5.2134,36.519,1756.3167]]]]}
,"properties": {"GID_2": "DZA.8.2_1","GID_0": "DZA","country": "Algeria","GID_1": "DZA.8_1","province": "Béjaïa","NL_NAME_1": "بجاية","county": "Ait-Smail","VARNAME_2": "AitSmail","NL_NAME_2": "NA","TYPE_2": "Commune","ENGTYPE_2": "Commune","CC_2": "647","HASC_2": "DZ.BJ.AS","name": "Ait-Smail.county","area_km2": 26.97972,"hist_schema_id": "Elevation0-9000","hist_area_km2": {"250": 0.03406,"275": 0.03406,"300": 0.05109,"325": 0.06812,"350": 0.08515,"375": 0.17031,"400": 0.15328,"425": 0.17031,"450": 0.27251,"475": 0.18735,"500": 0.35767,"525": 0.45987,"550": 0.37472,"575": 0.45987,"600": 0.51096,"625": 0.51098,"650": 0.52799,"675": 0.45987,"700": 0.52799,"725": 0.54503,"750": 0.66427,"775": 0.56206,"800": 0.61318,"825": 1.09012,"850": 1.37967,"875": 1.49891,"900": 1.48185,"925": 1.46485,"950": 1.49892,"975": 1.039,"1000": 0.91975,"1025": 0.85165,"1050": 0.69835,"1075": 0.57911,"1100": 0.56205,"1125": 0.47691,"1150": 0.54505,"1175": 0.49398,"1200": 0.27253,"1225": 0.39177,"1250": 0.27251,"1275": 0.39173,"1300": 0.28955,"1325": 0.25548,"1350": 0.22142,"1375": 0.25548,"1400": 0.34065,"1425": 0.20438,"1450": 0.30655,"1475": 0.30657,"1500": 0.18737,"1525": 0.25546,"1550": 0.1022,"1575": 0.1363,"1600": 0.03406,"1625": 0.10222,"1650": 0.06815,"1675": 0.05112,"1700": 0.05111,"1725": 0.03408,"1750": 0.01704,"1775": 0.03408,"1825": 0.01704}}}