{"type": "Feature","bbox": [6.0899,34.9799,6.3605,35.1445],"geometry": {"type": "MultiPolygon","coordinates": [[[[6.3579,35.0612,1616.0869],[6.3557,35.0674,1535.9404],[6.3584,35.0743,1459.5139],[6.3563,35.0792,1411.5127],[6.3511,35.079,1402.4368],[6.3416,35.0865,1335.0999],[6.3529,35.0902,1388.5195],[6.3554,35.0941,1458.424],[6.3605,35.1129,1526.3594],[6.3561,35.1186,1449.4224],[6.3513,35.1196,1497.0347],[6.3427,35.1174,1515.7058],[6.323,35.1062,1335.8512],[6.3163,35.1042,1307.5812],[6.3114,35.1071,1318.707],[6.2931,35.1069,1109.4473],[6.2722,35.1091,880.4878],[6.2587,35.1139,858.9587],[6.2436,35.1238,860.0055],[6.2407,35.1281,799.5576],[6.236,35.1287,831.6101],[6.2301,35.1338,964.5208],[6.2251,35.1351,991.9072],[6.2222,35.1399,1053.0737],[6.2223,35.1445,1392.6506],[6.2095,35.1398,1462.2437],[6.2054,35.136,1385.0518],[6.1992,35.1337,1290.1833],[6.1643,35.1237,1346.7339],[6.1462,35.1123,1269.6533],[6.1469,35.0991,955.4534],[6.1432,35.0867,832.6169],[6.1326,35.0788,782.3063],[6.1236,35.0758,745.2451],[6.1164,35.0689,757.43],[6.1178,35.0644,701.4869],[6.1044,35.0568,690.361],[6.1007999999999996,35.0529,679.1215],[6.1019,35.0403,640.5712],[6.0992,35.0362,635.4212],[6.0944,35.033,640.8375],[6.0953,35.0277,644.4236],[6.0899,35.0172,631.1278],[6.0927,35.0113,653.6552],[6.0989,35.0073,701.9816],[6.1196,34.9988,810.9507],[6.1272,34.9923,915.9067],[6.129,34.9882,1082.6586],[6.1342,34.9855,1219.8928],[6.1445,34.9826,1429.9889],[6.1498,34.9844,1384.2218],[6.1503,34.9886,1442.7844],[6.1608,34.9936,1430.428],[6.1675,34.9948,1553.5215],[6.1833,34.989,1609.6475],[6.1879,34.9804,1422.0229],[6.1937,34.9799,1451.0107],[6.1973,34.9858,1577.7903],[6.2053,34.9906,1633.2482],[6.2095,34.9956,1673.6432],[6.2076,35.0063,1799.6464],[6.2042,35.0109,1714.011],[6.2074,35.0156,1724.7148],[6.2206,35.0251,1651.3712],[6.2238,35.03,1586.3821],[6.2296,35.0328,1465.567],[6.2324,35.0296,1635.5691],[6.2373,35.0301,1768.4705],[6.2526,35.0359,1733.7301],[6.2534,35.0422,1594.9817],[6.2574,35.0468,1591.0988],[6.2616,35.0484,1601.1951],[6.2671,35.0476,1544.712],[6.2757,35.0433,1783.7003],[6.2952,35.0453,1657.0332],[6.3065,35.0448,1538.978],[6.3099,35.0416,1459.5518],[6.3151,35.0431,1511.5947],[6.3216,35.0408,1449.4667],[6.3273,35.0412,1479.6781],[6.3431,35.0472,1414.2496],[6.3492,35.0472,1450.8274],[6.3512,35.0535,1547.2455],[6.3579,35.0612,1616.0869]]]]}
,"properties": {"GID_2": "DZA.6.22_1","GID_0": "DZA","country": "Algeria","GID_1": "DZA.6_1","province": "Batna","NL_NAME_1": "ولايةباتنة","county": "Ghessira","VARNAME_2": "Ghassira","NL_NAME_2": "NA","TYPE_2": "Commune","ENGTYPE_2": "Commune","CC_2": "502","HASC_2": "DZ.BT.GH","name": "Ghessira.county","area_km2": 238.7766,"hist_schema_id": "Elevation0-9000","hist_area_km2": {"550": 0.2605,"575": 0.5556,"600": 0.5729,"625": 1.3021,"650": 4.1319,"675": 6.1627,"700": 6.9955,"725": 9.8935,"750": 10.899,"775": 10.7767,"800": 11.5915,"825": 11.5218,"850": 13.1179,"875": 11.2261,"900": 10.411,"925": 9.2486,"950": 9.1441,"975": 7.7038,"1000": 6.0209,"1025": 4.9971,"1050": 4.0952,"1075": 3.6439,"1100": 3.5054,"1125": 3.1238,"1150": 3.1759,"1175": 3.0542,"1200": 3.8178,"1225": 4.026,"1250": 3.4012,"1275": 3.4708,"1300": 3.4361,"1325": 3.0025,"1350": 3.0543,"1375": 3.2279,"1400": 3.1411,"1425": 3.5403,"1450": 3.6616,"1475": 3.6966,"1500": 4.8421,"1525": 4.564,"1550": 3.8355,"1575": 2.7602,"1600": 2.222,"1625": 1.9965,"1650": 2.1355,"1675": 1.8924,"1700": 2.1875,"1725": 1.2327,"1750": 0.8682,"1775": 0.573,"1800": 0.5905,"1825": 0.1737,"1850": 0.1737,"1875": 0.1042,"1900": 0.0174}}}