{"type":"Feature","properties":{"GID_2":"DZA.28.23_1","GID_0":"DZA","country":"Algeria","GID_1":"DZA.28_1","province":"Médéa","NL_NAME_1":"ولايةالمدية","county":"DraaSmar","VARNAME_2":"DraaEssmar","NL_NAME_2":"NA","TYPE_2":"Commune","ENGTYPE_2":"Commune","CC_2":"2654","HASC_2":"DZ.MD.DS","name":"Draa_Smar.county"},
"geometry":{"type": "MultiPolygon","coordinates": [[[[2.726,36.3129,699.7433],[2.7211,36.3141,671.9568],[2.7095,36.3114,720.2509],[2.7061,36.306,752.9691],[2.7057,36.3004,774.4525],[2.701,36.2972,746.1957],[2.6706,36.3051,486.0309],[2.6657,36.3033,477.5652],[2.6614,36.2993,441.5237],[2.6653,36.2891,459.1495],[2.6729,36.2815,502.3855],[2.6803,36.2687,551.8682],[2.6818,36.2634,588.2319],[2.6875,36.2594,683.22],[2.6866,36.2491,608.7714],[2.6816,36.2395,574.0996],[2.6829,36.2351,603.7274],[2.6863,36.2311,563.9587],[2.6981,36.2263,544.8492],[2.7084,36.2269,559.0872],[2.7119,36.2243,553.9862],[2.7194,36.2268,561.8739],[2.7246,36.2267,570.5653],[2.7352,36.2314,581.9666],[2.7248,36.2427,655.1261],[2.7258,36.2504,688.7921],[2.7293,36.2572,713.1222],[2.735,36.263,753.6268],[2.7316,36.2695,815.1678],[2.7289,36.2835,1016.2784],[2.7251,36.2922,1027.6957],[2.7287,36.3031,845.2911],[2.726,36.3129,699.7433]]]]}}