{"type":"Feature","properties":{"GID_2":"DZA.48.13_1","GID_0":"DZA","country":"Algeria","GID_1":"DZA.48_1","province":"Tlemcen","NL_NAME_1":"تلمسان","county":"BeniKhellad","VARNAME_2":"NA","NL_NAME_2":"NA","TYPE_2":"Commune-Cotiere","ENGTYPE_2":"Commune-Cotiere","CC_2":"1348","HASC_2":"#N/A","name":"Beni_Khellad.county"},
"geometry":{"type": "MultiPolygon","coordinates": [[[[-1.5841,35.2383,17.3524],[-1.5885,35.2391,45.9181],[-1.5936,35.2353,40.278],[-1.6072,35.2315,9.8174],[-1.6106,35.2267,0.0],[-1.6115,35.2217,19.3037],[-1.617,35.2217,0.0],[-1.6367,35.2118,5.5076],[-1.6371,35.2063,0.0],[-1.6266,35.2031,16.025],[-1.6212,35.1987,53.4086],[-1.6122,35.1847,318.4071],[-1.6138,35.1691,373.2278],[-1.6227,35.1572,422.6262],[-1.6056,35.149,754.6679],[-1.5901,35.1505,405.869],[-1.5808,35.1536,247.0835],[-1.5651,35.1466,383.962],[-1.5445,35.1482,306.9494],[-1.5398,35.1472,251.3848],[-1.5322,35.1434,227.1704],[-1.5246,35.1419,161.0252],[-1.5218,35.1328,278.4221],[-1.5122,35.128,283.4082],[-1.5024,35.1293,249.4626],[-1.4706,35.1508,44.1863],[-1.4778,35.1536,47.7017],[-1.4871,35.152,75.1173],[-1.5012,35.1523,86.8407],[-1.5057,35.154,100.1697],[-1.5063,35.1584,142.9512],[-1.5096,35.1635,162.4662],[-1.5308,35.1709,177.7512],[-1.5303,35.1754,175.1007],[-1.5364,35.1768,196.5216],[-1.5475,35.1763,279.077],[-1.5547,35.1793,373.3305],[-1.5524,35.1952,352.2849],[-1.5469,35.2031,332.4224],[-1.5457,35.2118,331.7461],[-1.5504,35.2151,215.6998],[-1.574,35.2231,220.4721],[-1.5841,35.2383,17.3524]]]]}}