{"type": "Feature","bbox": [-1.0894,35.2274,-0.9873,35.358],"geometry": {"type": "MultiPolygon","coordinates": [[[[-1.0132,35.2737,227.3929],[-1.0094,35.2783,221.2579],[-1.0097,35.2837,212.4917],[-1.005,35.2866,221.4545],[-1.0025,35.2914,206.0314],[-1.0029,35.2958,198.7404],[-0.9974,35.2971,200.8115],[-0.9873,35.3218,164.0529],[-0.9877,35.3299,155.6888],[-0.9922,35.3462,141.9419],[-0.9982,35.3533,126.0118],[-0.9982,35.358,118.0092],[-1.0036,35.3567,171.3574],[-1.0274,35.3379,277.2726],[-1.0407,35.331,276.7438],[-1.0536,35.3177,255.5583],[-1.0487,35.3163,221.6417],[-1.0449,35.3118,208.3729],[-1.0592,35.3006,268.6859],[-1.0622,35.2961,267.094],[-1.0629,35.2917,257.3368],[-1.0696,35.2806,297.2328],[-1.069,35.2734,341.9699],[-1.0716,35.2699,358.9213],[-1.0852,35.266,308.8609],[-1.0874,35.2604,314.8098],[-1.0871,35.2465,412.753],[-1.0894,35.2317,465.2196],[-1.0852,35.2274,511.0185],[-1.0785,35.2276,522.0137],[-1.0714,35.2327,563.9923],[-1.0642,35.2353,436.665],[-1.0582,35.2456,411.1747],[-1.0534,35.2482,435.5399],[-1.0561,35.2517,419.4674],[-1.0462,35.2644,335.5034],[-1.0417,35.267,303.131],[-1.0329,35.2672,325.0185],[-1.0212,35.2726,273.087],[-1.0132,35.2737,227.3929]]]]}
,"properties": {"GID_2": "DZA.3.10_1","GID_0": "DZA","country": "Algeria","GID_1": "DZA.3_1","province": "AïnTémouchent","NL_NAME_1": "ولايةعينتموشنت","county": "Chentouf","VARNAME_2": "NA","NL_NAME_2": "NA","TYPE_2": "Commune","ENGTYPE_2": "Commune","CC_2": "4611","HASC_2": "DZ.AT.CT","name": "Chentouf.county","area_km2": 56.51841,"hist_schema_id": "Elevation0-9000","hist_area_km2": {"125": 0.29399,"150": 3.45926,"175": 8.84026,"200": 7.11112,"225": 6.3499,"250": 4.74091,"275": 3.94533,"300": 4.17087,"325": 4.43113,"350": 3.96412,"375": 3.20286,"400": 2.33745,"425": 1.35063,"450": 0.72731,"475": 0.36367,"500": 0.43295,"525": 0.41564,"550": 0.20782,"575": 0.13855,"600": 0.03464}}}