{"type":"Feature","properties":{"GID_2":"DZA.18.27_1","GID_0":"DZA","country":"Algeria","GID_1":"DZA.18_1","province":"ElOued","NL_NAME_1":"ولايةالوادي","county":"Taghzout","VARNAME_2":"NA","NL_NAME_2":"NA","TYPE_2":"Commune","ENGTYPE_2":"Commune","CC_2":"3910","HASC_2":"DZ.BU.TZ","name":"Taghzout.county"},
"geometry":{"type": "MultiPolygon","coordinates": [[[[6.7248,33.5278,63.904],[6.7176,33.5243,64.4152],[6.6962,33.4996,69.9259],[6.3533,33.5672,70.106],[6.4062,33.4323,91.6632],[6.4447,33.4308,85.4816],[6.4788,33.4321,84.785],[6.6955,33.4475,80.0214],[6.7859,33.4462,70.5138],[6.7902,33.4504,69.5019],[6.791,33.4566,68.1972],[6.8026,33.4645,67.8119],[6.821,33.4613,66.1403],[6.8669,33.462,64.8143],[6.8655,33.4906,64.5367],[6.7658,33.4961,65.8987],[6.7248,33.5278,63.904]]]]}}