{"type": "Feature","bbox": [7.3082,36.2097,7.49,36.3635],"geometry": {"type": "MultiPolygon","coordinates": [[[[7.4015,36.3559,1311.516],[7.3947,36.3635,1347.1265],[7.3711,36.3488,771.2227],[7.3528,36.3485,538.7427],[7.3482,36.3514,474.5714],[7.3438,36.3472,435.2513],[7.3418,36.3379,438.5423],[7.3222,36.3179,485.0789],[7.32,36.3025,509.8177],[7.3154,36.2983,547.9941],[7.3131,36.2917,574.9212],[7.3222,36.2712,573.1391],[7.3284,36.2696,578.9036],[7.3315,36.2647,599.3649],[7.333,36.2585,631.0959],[7.3241,36.2526,589.4183],[7.3205,36.2551,614.884],[7.3082,36.25,587.9893],[7.3097,36.2444,600.3451],[7.3145,36.2383,634.9935],[7.3145,36.2311,604.8332],[7.3276,36.2223,677.1699],[7.3621,36.22,718.6008],[7.3828,36.2139,779.4506],[7.4087,36.2099,770.3602],[7.4152,36.211,786.7837],[7.4229,36.2097,803.8053],[7.4265,36.2169,978.9398],[7.4318,36.2201,1070.7253],[7.451,36.2207,1060.6726],[7.4559,36.2194,975.0439],[7.4604,36.2151,909.2664],[7.4623,36.2193,953.4746],[7.4612,36.2318,1225.6633],[7.49,36.2423,1224.0437],[7.4856,36.2499,1190.5754],[7.4882,36.2591,1053.3738],[7.4811,36.2688,872.9842],[7.4837,36.2734,809.7333],[7.4824,36.2802,891.8229],[7.4674,36.286,838.9084],[7.4666,36.291,850.0383],[7.4329,36.2877,807.6742],[7.4206,36.2895,844.0048],[7.4123,36.2934,891.1553],[7.4115,36.3,789.5994],[7.4132999999999996,36.3051,716.2089],[7.4203,36.3133,742.6727],[7.4194,36.3243,830.1389],[7.4015,36.3559,1311.516]]]]}
,"properties": {"GID_2": "DZA.21.2_1","GID_0": "DZA","country": "Algeria","GID_1": "DZA.21_1","province": "Guelma","NL_NAME_1": "ولايةقالمة","county": "AinLarbi","VARNAME_2": "NA","NL_NAME_2": "NA","TYPE_2": "Commune","ENGTYPE_2": "Commune","CC_2": "2423","HASC_2": "DZ.GL.AL","name": "Ain_Larbi.county","area_km2": 167.614,"hist_schema_id": "Elevation0-9000","hist_area_km2": {"400": 0.0171,"425": 0.1366,"450": 0.1708,"475": 0.3416,"500": 0.7003,"525": 0.7174,"550": 0.9224,"575": 1.4183,"600": 2.4782,"625": 3.2306,"650": 4.0684,"675": 6.0518,"700": 6.1886,"725": 6.3767,"750": 6.6159,"775": 7.1457,"800": 8.4105,"825": 7.3162,"850": 8.1364,"875": 8.8542,"900": 10.3239,"925": 11.1958,"950": 9.8113,"975": 8.8542,"1000": 8.7855,"1025": 7.0422,"1050": 6.1363,"1075": 4.8886,"1100": 4.4443,"1125": 3.846,"1150": 3.128,"1175": 1.7433,"1200": 1.6747,"1225": 1.9826,"1250": 1.8118,"1275": 1.2988,"1300": 0.444,"1325": 0.3586,"1350": 0.3415,"1375": 0.1707,"1400": 0.0341}}}