{"type": "Feature","bbox": [-1.3694,34.8579,-1.2581,34.9349],"geometry": {"type": "MultiPolygon","coordinates": [[[[-1.2581,34.8949,651.856],[-1.2814,34.8954,645.5217],[-1.3022,34.9063,627.7557],[-1.3054,34.91,625.803],[-1.309,34.9188,589.0835],[-1.3439,34.9349,485.919],[-1.355,34.9251,563.4525],[-1.354,34.9198,572.47],[-1.3688,34.9094,672.8934],[-1.3694,34.9043,664.3481],[-1.3645,34.8989,692.5317],[-1.358,34.8995,699.4446],[-1.3472,34.8976,697.6678],[-1.3322,34.8896,740.0594],[-1.3288,34.885,770.1727],[-1.3258,34.87,890.7694],[-1.3203,34.861,1035.3223],[-1.3,34.8579,1171.174],[-1.289,34.8657,1175.2999],[-1.2807,34.8677,1155.0082],[-1.2679,34.8604,897.0243],[-1.2622,34.8653,881.1365],[-1.2614,34.8813,714.2073],[-1.2581,34.8949,651.856]]]]}
,"properties": {"GID_2": "DZA.48.52_1","GID_0": "DZA","country": "Algeria","GID_1": "DZA.48_1","province": "Tlemcen","NL_NAME_1": "تلمسان","county": "Tlemcen","VARNAME_2": "Tīlīmsān","NL_NAME_2": "NA","TYPE_2": "Chef-Lieu-Wilaya","ENGTYPE_2": "Chef-Lieu-Wilaya","CC_2": "1301","HASC_2": "DZ.TL.TL","name": "Tlemcen.county","area_km2": 41.75433,"hist_schema_id": "Elevation0-9000","hist_area_km2": {"475": 0.01738,"500": 0.08691,"525": 0.38243,"550": 0.8518,"575": 1.68635,"600": 3.11199,"625": 3.72077,"650": 4.0689,"675": 4.86891,"700": 4.05191,"725": 2.95649,"750": 2.15661,"775": 1.94798,"800": 1.89584,"825": 1.6698,"850": 0.90451,"875": 0.73057,"900": 0.90453,"925": 0.60883,"950": 0.52186,"975": 0.3653,"1000": 0.52186,"1025": 1.04377,"1050": 0.60887,"1075": 0.26094,"1100": 0.29573,"1125": 0.38272,"1150": 0.5045,"1175": 0.45231,"1200": 0.10438,"1225": 0.06959}}}