{"type": "Feature","bbox": [5.1462,36.5424,5.2604,36.6385],"geometry": {"type": "MultiPolygon","coordinates": [[[[5.2469,36.5858,1241.8987],[5.2604,36.5878,801.9504],[5.2527,36.5985,496.0573],[5.2379,36.6131,231.8447],[5.2367,36.6197,153.8895],[5.2312,36.633,316.5391],[5.2208,36.6385,115.9056],[5.2072,36.6301,59.5277],[5.1958,36.6292,136.4809],[5.1866,36.6227,69.9486],[5.177,36.6064,162.6808],[5.175,36.5991,214.97],[5.168,36.5888,249.743],[5.1664,36.5755,323.9476],[5.1562,36.5664,428.1964],[5.1462,36.5661,455.884],[5.1476,36.5599,640.3362],[5.1539,36.5564,799.256],[5.1572,36.5507,969.9071],[5.167,36.5503,1109.2446],[5.1696,36.5458,1240.7607],[5.1761,36.5454,1201.9524],[5.1796,36.5424,1053.4553],[5.1828,36.5485,983.6254],[5.2018,36.564,1494.3123],[5.2131,36.5646,1511.8822],[5.2253,36.5691,1576.532],[5.2301,36.5662,1406.2113],[5.2402,36.5668,1487.5771],[5.2439,36.5712,1496.9939],[5.2445,36.5799,1200.0779],[5.2469,36.5858,1241.8987]]]]}
,"properties": {"GID_2": "DZA.8.47_1","GID_0": "DZA","country": "Algeria","GID_1": "DZA.8_1","province": "Béjaïa","NL_NAME_1": "بجاية","county": "Tizi-N'Berber","VARNAME_2": "TiziNberber","NL_NAME_2": "NA","TYPE_2": "Commune","ENGTYPE_2": "Commune","CC_2": "649","HASC_2": "DZ.BJ.TN","name": "Tizi-N'Berber.county","area_km2": 53.1479,"hist_schema_id": "Elevation0-9000","hist_area_km2": {"25": 0.30626,"50": 0.40837,"75": 0.40837,"100": 0.51048,"125": 0.59558,"150": 0.93593,"175": 1.05509,"200": 1.19124,"225": 1.46358,"250": 1.3785,"275": 1.39558,"300": 1.61686,"325": 1.87219,"350": 1.54883,"375": 1.65102,"400": 1.61704,"425": 1.46393,"450": 1.63413,"475": 1.68525,"500": 1.60015,"525": 1.36191,"550": 1.22568,"575": 1.39599,"600": 1.03848,"625": 0.90234,"650": 0.85129,"675": 0.98748,"700": 0.98752,"725": 0.81727,"750": 0.83426,"775": 0.80023,"800": 0.68106,"825": 0.647,"850": 0.6811,"875": 0.80028,"900": 0.49376,"925": 0.85133,"950": 0.54488,"975": 0.71517,"1000": 0.7322,"1025": 0.93652,"1050": 0.98767,"1075": 0.56196,"1100": 1.03878,"1125": 0.98768,"1150": 0.8174,"1175": 0.86849,"1200": 0.71522,"1225": 0.57899,"1250": 0.52787,"1275": 0.49384,"1300": 0.40867,"1325": 0.35759,"1350": 0.30651,"1375": 0.17028,"1400": 0.34057,"1425": 0.15326,"1450": 0.17028,"1475": 0.13623,"1500": 0.22137,"1525": 0.13623,"1550": 0.10217,"1575": 0.23839,"1600": 0.03406,"1625": 0.01703,"1650": 0.05108,"1675": 0.03406,"1700": 0.03406,"1725": 0.03406}}}