{"type": "Feature","bbox": [2.0708,36.0357,2.2699,36.1647],"geometry": {"type": "MultiPolygon","coordinates": [[[[2.1822,36.1641,346.2303],[2.1737,36.1647,325.78],[2.155,36.151,343.2875],[2.1441,36.1493,367.0021],[2.134,36.1411,445.8234],[2.1373,36.1368,453.6116],[2.1368,36.1308,503.1657],[2.1241,36.1223,463.7941],[2.1087,36.1155,440.8283],[2.0973,36.1074,393.9037],[2.0891,36.0927,468.2732],[2.0844,36.0878,576.2217],[2.0708,36.0825,645.6775],[2.0768,36.0808,759.4224],[2.0793,36.0714,617.671],[2.0836,36.071,647.3278],[2.0874,36.067,614.7719],[2.0883,36.0616,612.3263],[2.0924,36.0595,616.0417],[2.0939,36.0553,606.7218],[2.0996,36.0581,613.6284],[2.1041,36.0547,575.223],[2.1019,36.0476,624.0588],[2.1158,36.0459,693.6125],[2.1267,36.0504,678.5223],[2.1303,36.0544,675.6009],[2.1423,36.0571,679.4125],[2.1484,36.0559,726.1386],[2.1524,36.0519,681.6089],[2.1765,36.0426,562.8186],[2.1794,36.0395,505.3144],[2.2077,36.0441,680.3758],[2.2203,36.0412,732.7561],[2.2311,36.0357,782.9965],[2.2388,36.0365,783.7937],[2.2495,36.0425,810.5876],[2.2549,36.0491,774.3729],[2.257,36.0556,712.5189],[2.2623,36.0605,722.7661],[2.2631,36.0679,616.7968],[2.2611,36.0718,552.5598],[2.2613,36.0774,484.9169],[2.2556,36.0801,469.2581],[2.2499,36.0798,542.8294],[2.2507,36.0842,481.4761],[2.2584,36.0915,450.5331],[2.2618,36.0976,442.0876],[2.2548,36.108,430.3695],[2.2648,36.1175,376.8499],[2.2699,36.1202,372.4579],[2.2669,36.1262,363.3375],[2.2557,36.135,369.3049],[2.2572,36.1407,342.986],[2.253,36.1445,351.3321],[2.244,36.1581,330.7686],[2.2383,36.1596,331.7704],[2.2324,36.1567,362.6499],[2.2251,36.1562,331.6145],[2.2205,36.1576,318.0155],[2.2006,36.1583,345.8737],[2.1822,36.1641,346.2303]]]]}
,"properties": {"GID_2": "DZA.2.13_1","GID_0": "DZA","country": "Algeria","GID_1": "DZA.2_1","province": "AïnDefla","NL_NAME_1": "ولايةعينالدفلى","county": "BordjEmirKhaled","VARNAME_2": "NA","NL_NAME_2": "NA","TYPE_2": "Commune","ENGTYPE_2": "Commune","CC_2": "4422","HASC_2": "DZ.AD.BE","name": "Bordj_Emir_Khaled.county","area_km2": 169.9472,"hist_schema_id": "Elevation0-9000","hist_area_km2": {"325": 1.9859,"350": 9.5362,"375": 12.4144,"400": 12.0734,"425": 13.9765,"450": 15.9991,"475": 17.268,"500": 16.3786,"525": 13.4333,"550": 11.3441,"575": 10.0939,"600": 8.8946,"625": 7.4724,"650": 7.0099,"675": 4.7306,"700": 2.9995,"725": 1.7141,"750": 1.2684,"775": 0.6,"800": 0.6343,"825": 0.12}}}