{"type":"Feature","properties":{"GID_2":"DZA.11.29_1","GID_0":"DZA","country":"Algeria","GID_1":"DZA.11_1","province":"BordjBouArréridj","NL_NAME_1":"ولايةبرجبوعريريج","county":"SidiEmbarek","VARNAME_2":"NA","NL_NAME_2":"NA","TYPE_2":"Commune","ENGTYPE_2":"Commune","CC_2":"3410","HASC_2":"DZ.BB.SE","name":"Sidi_Embarek.county"},
"geometry":{"type": "MultiPolygon","coordinates": [[[[4.9664,36.1018,953.5706],[4.9685,36.1086,921.163],[4.9658,36.1137,923.1555],[4.9672,36.1232,940.8658],[4.9724,36.1291,974.9096],[4.966,36.1365,951.8598],[4.9499,36.145,938.9457],[4.9504,36.1574,905.5748],[4.9464,36.1636,896.6193],[4.9563,36.1881,958.3672],[4.9523,36.1925,991.7294],[4.9409,36.1999,976.8536],[4.9369,36.2058,975.2931],[4.9317,36.2004,960.9559],[4.9269,36.1989,927.8165],[4.9157,36.1988,884.7552],[4.9091,36.2003,875.4901],[4.9038,36.2063,921.02739999999994],[4.899,36.2085,946.6453],[4.894,36.2063,935.1343],[4.8871,36.197,906.9365],[4.8859,36.1912,873.9421],[4.8936,36.1767,831.7334],[4.9012,36.1692,870.9735],[4.8979,36.1521,828.3846],[4.8941,36.1482,817.5008],[4.8865,36.1442,842.9362],[4.8803,36.1436,852.8348],[4.8754,36.141,853.39],[4.8744,36.1354,912.2258],[4.8674,36.1337,916.89],[4.8617,36.1358,878.785],[4.8509,36.1298,831.0786],[4.8493,36.1241,845.1289],[4.8464,36.1209,849.7852],[4.8421,36.0979,938.8007],[4.8376,36.0901,1013.2473],[4.8377,36.0843,985.0576],[4.8393,36.077,984.1481],[4.8533,36.0792,1008.7651],[4.8676,36.073,1050.1309],[4.8629,36.0647,1024.9486],[4.8686,36.0638,1042.6809],[4.8717,36.0588,1051.5549],[4.859,36.0529,1002.0328],[4.8643,36.0488,1048.2817],[4.8762,36.0485,1031.7411],[4.8835,36.0514,1043.1097],[4.8947,36.0602,1051.5076],[4.8981,36.0555,1042.6365],[4.8965,36.0426,1018.3154],[4.8982,36.0372,1007.2506],[4.9027,36.0326,1001.3011],[4.9264,36.0301,977.3021],[4.9314,36.032,994.3574],[4.932,36.0431,1001.9657],[4.92,36.0434,1010.5644],[4.9253,36.0504,1018.8586],[4.9301,36.0518,1021.3075],[4.9327,36.0614,1053.2203],[4.9532,36.0637,1035.1688],[4.9589,36.066,1041.8174],[4.9527,36.0737,1001.8337],[4.9469,36.0781,1036.2853],[4.957,36.0864,976.4172],[4.9664,36.0898,989.7031],[4.9664,36.1018,953.5706]]]]}}