{"type": "Feature","bbox": [6.8079,36.7035,7.0323,36.8104],"geometry": {"type": "MultiPolygon","coordinates": [[[[7.0058,36.7736,251.9813],[7.0009,36.7702,250.8153],[6.9936,36.7697,148.2031],[6.9815,36.7719,102.9088],[6.9736,36.7659,110.7537],[6.9487,36.7677,54.4948],[6.9432,36.7696,49.7775],[6.935,36.7775,40.3156],[6.9357,36.7827,48.516],[6.9338,36.7883,28.1732],[6.9339,36.7956,24.8666],[6.94,36.8009,25.0868],[6.9244,36.8104,123.9383],[6.9019,36.8002,186.7998],[6.8954,36.7998,193.161],[6.8865,36.7947,205.7536],[6.8666,36.7901,151.3514],[6.8624,36.7864,205.7935],[6.8431,36.7862,327.487],[6.8381,36.7884,265.5367],[6.8275,36.7834,145.6102],[6.8256,36.7793,122.3278],[6.8193,36.7752,162.4255],[6.8079,36.7717,274.9673],[6.8081,36.766,252.0417],[6.8208,36.7597,127.9754],[6.8257,36.7556,109.0437],[6.8355,36.752,63.9146],[6.8409,36.7485,55.9967],[6.8439,36.7428,55.6147],[6.8487,36.741,47.2704],[6.8539,36.7422,45.4564],[6.8589,36.7413,69.5957],[6.8625,36.737,41.5443],[6.8727,36.7431,41.1966],[6.8785,36.744,41.8832],[6.8805,36.7397,41.4343],[6.8962,36.733,80.022],[6.9039,36.7309,51.2485],[6.909,36.7316,46.5808],[6.9157,36.7229,58.7206],[6.9334,36.7165,70.6804],[6.944,36.7163,68.6873],[6.9541,36.7132,82.4538],[6.9576,36.7106,89.1494],[6.9703,36.7074,83.9743],[6.9842,36.7072,121.6838],[6.9938,36.7037,272.2318],[6.9996,36.7035,236.4564],[7.0116,36.7122,243.2095],[7.0237,36.7276,229.9405],[7.0209,36.74,336.1913],[7.031,36.754,439.8478],[7.0323,36.7585,463.2639],[7.0109,36.7603,255.0891],[7.0079,36.7642,274.863],[7.0092,36.7701,291.4233],[7.0058,36.7736,251.9813]]]]}
,"properties": {"GID_2": "DZA.39.32_1","GID_0": "DZA","country": "Algeria","GID_1": "DZA.39_1","province": "Skikda","NL_NAME_1": "سكيكدة","county": "RamdaneDjamel","VARNAME_2": "RamadānJamāl","NL_NAME_2": "NA","TYPE_2": "Commune","ENGTYPE_2": "Commune","CC_2": "2123","HASC_2": "DZ.SK.RD","name": "Ramdane_Djamel.county","area_km2": 116.56761,"hist_schema_id": "Elevation0-9000","hist_area_km2": {"25": 12.41511,"50": 15.52633,"75": 13.28405,"100": 12.52005,"125": 11.16108,"150": 9.68322,"175": 8.08608,"200": 7.3216,"225": 6.89716,"250": 5.21561,"275": 4.8418,"300": 3.24474,"325": 2.42937,"350": 1.57998,"375": 0.86648,"400": 0.66257,"425": 0.28879,"450": 0.11891,"475": 0.23782,"500": 0.11891,"525": 0.06795}}}