{"type":"Feature","properties":{"GID_2":"DZA.48.23_1","GID_0":"DZA","country":"Algeria","GID_1":"DZA.48_1","province":"Tlemcen","NL_NAME_1":"تلمسان","county":"Djebala","VARNAME_2":"NA","NL_NAME_2":"NA","TYPE_2":"Commune","ENGTYPE_2":"Commune","CC_2":"1309","HASC_2":"DZ.TL.DJ","name":"Djebala.county"},
"geometry":{"type": "MultiPolygon","coordinates": [[[[-1.7407,34.9813,966.6005],[-1.7585,34.9785,770.7122],[-1.7622,34.9814,738.1614],[-1.7699,34.9944,516.8541],[-1.7743,34.9974,478.5386],[-1.7856,35.0104,303.0525],[-1.7956,35.0154,246.8905],[-1.8005,35.0197,228.6396],[-1.808,35.0127,253.8791],[-1.8235,35.0126,260.5369],[-1.8357,35.0045,304.6868],[-1.8393,34.9981,258.5862],[-1.8534,34.9971,234.5328],[-1.8714,34.9882,337.0355],[-1.8771,34.9876,354.4545],[-1.8855,34.978,362.1869],[-1.8915,34.979,333.0697],[-1.8942,34.9692,366.5491],[-1.9046,34.9656,388.6099],[-1.9072,34.9557,447.1967],[-1.9058,34.9509,551.7004],[-1.8982,34.9429,690.1889],[-1.8884,34.9364,646.0327],[-1.8846,34.916,663.0778],[-1.8801,34.9107,626.3738],[-1.8691,34.9154,640.5826],[-1.8644,34.9099,559.1548],[-1.8519,34.9019,532.3788],[-1.8507,34.9143,731.8875],[-1.8446,34.9143,816.5776],[-1.8324,34.9092,679.8282],[-1.7905,34.939,896.2835],[-1.7782,34.9422,884.9114],[-1.773,34.9398,839.9015],[-1.766,34.9442,827.5297],[-1.7679,34.9486,813.7986],[-1.7636,34.9537,763.3246],[-1.754,34.9556,671.4247],[-1.7404,34.952,588.4317],[-1.7361,34.9485,577.0225],[-1.7324,34.9521,624.0795],[-1.7302,34.9585,578.4054],[-1.7391,34.9753,952.0408],[-1.7407,34.9813,966.6005]]]]}}