{"type":"Feature","properties":{"GID_2":"DZA.47.9_1","GID_0":"DZA","country":"Algeria","GID_1":"DZA.47_1","province":"TiziOuzou","NL_NAME_1":"ولايةغليزان","county":"AitAggouacha","VARNAME_2":"NA","NL_NAME_2":"NA","TYPE_2":"Commune","ENGTYPE_2":"Commune","CC_2":"1535","HASC_2":"DZ.TO.AA","name":"Ait_Aggouacha.county"},
"geometry":{"type": "MultiPolygon","coordinates": [[[[4.2884,36.6021,648.6755],[4.2887,36.6088,628.3703],[4.274,36.6159,511.0108],[4.2616,36.6402,366.8597],[4.2527,36.6495,314.3666],[4.2471,36.6523,266.1774],[4.2427,36.6455,412.1004],[4.2427,36.6374,493.3547],[4.2331,36.6295,639.6753],[4.2265,36.6283,798.3464],[4.2211,36.6228,982.9273],[4.2225,36.6145,680.2177],[4.2171,36.6114,595.4231],[4.2086,36.5997,378.9609],[4.218,36.5907,329.2601],[4.2243,36.5871,335.1067],[4.2394,36.5913,615.3748],[4.2434,36.5866,424.5659],[4.2463,36.5912,556.1884],[4.2533,36.5922,504.0045],[4.2555,36.5969,682.4079],[4.26,36.5986,839.1872],[4.2738,36.6002,807.4763],[4.2819,36.5992,845.4062],[4.2884,36.6021,648.6755]]]]}}