{"type": "Feature","bbox": [2.8392,35.9481,2.9766,36.0488],"geometry": {"type": "MultiPolygon","coordinates": [[[[2.8991,35.9481,1049.0303],[2.9139,35.9577,1132.4106],[2.9197,35.9589,1079.4946],[2.9352,35.9573,970.6254],[2.9402,35.959,880.5302],[2.9521,35.9714,764.6132],[2.9513,35.9781,752.4224],[2.9533,35.984,718.9951],[2.9521,35.9899,702.6844],[2.9566,35.9987,789.1769],[2.9491,36.0108,894.5823],[2.9491,36.0226,1012.0045],[2.9513,36.0283,995.1662],[2.9559,36.0313,986.048],[2.9766,36.0356,842.4504],[2.9744,36.0412,850.9183],[2.9698,36.0461,862.901],[2.9636,36.0482,897.8137],[2.9482,36.0488,846.856],[2.9375,36.0424,810.6396],[2.9239,36.0292,723.3041],[2.9114,36.0312,780.1848],[2.9046,36.0291,703.4944],[2.8952,36.032,688.5945],[2.8907,36.0298,733.7581],[2.8895,36.0244,733.3784],[2.8758,36.0152,756.2693],[2.8736,36.0098,844.2689],[2.8686,36.0049,754.8661],[2.8618,36.0026,705.3196],[2.8445,36.003,783.1591],[2.8453,35.9972,773.6805],[2.8412,35.9909,795.2173],[2.8392,35.9839,717.3159],[2.8443,35.9693,623.1769],[2.8735,35.9545,921.7471],[2.8991,35.9481,1049.0303]]]]}
,"properties": {"GID_2": "DZA.28.51_1","GID_0": "DZA","country": "Algeria","GID_1": "DZA.28_1","province": "Médéa","NL_NAME_1": "ولايةالمدية","county": "Seghouane","VARNAME_2": "NA","NL_NAME_2": "NA","TYPE_2": "Commune","ENGTYPE_2": "Commune","CC_2": "2648","HASC_2": "DZ.MD.SG","name": "Seghouane.county","area_km2": 75.87305,"hist_schema_id": "Elevation0-9000","hist_area_km2": {"625": 1.01232,"650": 4.76931,"675": 8.2851,"700": 7.59895,"725": 7.41017,"750": 7.82215,"775": 7.58242,"800": 6.22719,"825": 5.26654,"850": 4.95766,"875": 4.18569,"900": 3.07044,"925": 2.26426,"950": 1.69832,"975": 1.78385,"1000": 0.89208,"1025": 0.46314,"1050": 0.18872,"1075": 0.1373,"1100": 0.15446,"1125": 0.10297}}}