{"type": "Feature","bbox": [0.8821,35.1437,1.0934,35.3287],"geometry": {"type": "MultiPolygon","coordinates": [[[[0.9453,35.1515,782.0781],[0.959,35.1437,902.1038],[0.9738,35.1482,963.7828],[0.9982,35.1593,1088.469],[1.0072,35.161,1117.8246],[1.0234,35.1559,1095.6172],[1.0304,35.1627,1032.2208],[1.0487,35.1634,953.3532],[1.0532,35.173,909.7111],[1.0597,35.1765,951.463],[1.0805,35.2002,831.2039],[1.068,35.2093,921.7386],[1.065,35.2193,1024.2925],[1.0715,35.239,1009.8036],[1.0844,35.2595,914.8369],[1.0858,35.271,975.5244],[1.0934,35.2868,932.3709],[1.0901,35.2895,858.759],[1.0785,35.2932,759.9139],[1.0654,35.2954,949.1881],[1.0559,35.3055,738.9365],[1.0443,35.3101,683.0009],[1.0295,35.3068,870.1575],[1.023,35.2946,938.4036],[1.0111,35.2898,1056.8513],[1.0059,35.2841,1082.2917],[0.9848,35.2923,1011.926],[0.9863,35.2973,1023.7726],[0.9925,35.3042,913.9678],[0.9928,35.309,859.6538],[0.9917,35.3161,844.4943],[0.9813,35.3287,727.3845],[0.9745,35.3267,728.1903],[0.969,35.3222,756.3085],[0.9655,35.3124,842.2355],[0.9622,35.3077,854.9872],[0.963,35.3034,872.0739],[0.9603,35.2859,929.7557],[0.9551,35.2801,911.1732],[0.9526,35.2745,892.5845],[0.9573,35.2672,881.7275],[0.9548,35.2561,920.414],[0.9479,35.2503,994.0917],[0.9235,35.2356,1082.9037],[0.9181,35.235,1138.3167],[0.9098,35.2473,1107.7644],[0.9069,35.2426,1116.7388],[0.9085,35.2375,1123.8232],[0.9203,35.2224,1102.7714],[0.918,35.2168,945.3944],[0.8975,35.2119,683.639],[0.8839,35.2126,641.2557],[0.8821,35.2073,631.7938],[0.8854,35.1999,631.8353],[0.8853,35.193,635.4082],[0.8941,35.185,645.985],[0.9082,35.1783,654.3806],[0.9156,35.1775,671.9188],[0.9212,35.1787,691.7583],[0.9253,35.1742,693.4857],[0.9385,35.1721,730.9214],[0.9427,35.1688,726.4585],[0.9415,35.1577,818.321],[0.9453,35.1515,782.0781]]]]}
,"properties": {"GID_2": "DZA.43.34_1","GID_0": "DZA","country": "Algeria","GID_1": "DZA.43_1","province": "Tiaret","NL_NAME_1": "ولايةتيارت","county": "SidiBakhti","VARNAME_2": "NA","NL_NAME_2": "NA","TYPE_2": "Commune","ENGTYPE_2": "Commune","CC_2": "1407","HASC_2": "DZ.TR.SB","name": "Sidi_Bakhti.county","area_km2": 215.2104,"hist_schema_id": "Elevation0-9000","hist_area_km2": {"625": 0.2599,"650": 3.0321,"675": 3.4303,"700": 3.9146,"725": 4.9015,"750": 5.0216,"775": 4.9518,"800": 4.813,"825": 5.1767,"850": 7.1334,"875": 9.1429,"900": 12.5549,"925": 16.0872,"950": 17.4737,"975": 18.3407,"1000": 18.0655,"1025": 19.9199,"1050": 20.0938,"1075": 18.603,"1100": 11.3808,"1125": 6.6348,"1150": 3.3777,"1175": 0.7622,"1200": 0.1386}}}