{"type": "Feature","bbox": [4.0733,35.1018,4.294,35.3239],"geometry": {"type": "MultiPolygon","coordinates": [[[[4.2928,35.2743,467.4579],[4.2889,35.3091,454.2253],[4.294,35.3184,449.8025],[4.2755,35.3239,452.3704],[4.229,35.2936,472.9553],[4.2212,35.2776,484.0168],[4.1689,35.2779,834.6179],[4.1375,35.2673,942.5226],[4.1005,35.2585,925.0888],[4.1096,35.2321,591.2557],[4.102,35.2201,610.6193],[4.0976,35.2166,617.9042],[4.0966,35.2074,655.8381],[4.0987,35.2031,691.9578],[4.0898,35.1949,730.3199],[4.0878,35.1896,824.2704],[4.0822,35.1859,857.54],[4.0739,35.1835,951.1682],[4.0733,35.1763,1045.738],[4.0793,35.1725,920.0229],[4.0853,35.1716,873.6583],[4.0961,35.1769,853.8141],[4.1001,35.1746,898.5405],[4.1036,35.1692,799.6449],[4.1099,35.1664,772.3837],[4.1157,35.1664,758.1919],[4.1353,35.1783,743.9684],[4.141,35.1783,729.3723],[4.1446,35.174,728.452],[4.1433,35.1698,738.8096],[4.1461,35.1663,681.3525],[4.1427,35.1634,707.8365],[4.139,35.1534,733.7661],[4.1404,35.148,765.4983],[4.1377,35.1408,759.8662],[4.1387,35.1306,791.146],[4.1433,35.1262,813.3171],[4.1493,35.113,882.7244],[4.1599,35.1044,1135.7842],[4.1664,35.1018,1113.6498],[4.1761,35.1057,1248.953],[4.1807,35.109,1099.1177],[4.1842,35.1172,1088.6351],[4.1785,35.1253,1080.9292],[4.1869,35.1301,1058.5776],[4.1973,35.1302,1130.1906],[4.2118,35.1255,777.9143],[4.2235,35.1363,716.3328],[4.2249,35.1412,710.9278],[4.2231,35.1468,700.713],[4.2253,35.1559,666.2083],[4.2283,35.1603,650.6608],[4.2386,35.1631,638.1965],[4.2456,35.1708,645.4642],[4.2472,35.1753,616.8585],[4.2455,35.1813,615.3151],[4.2478,35.1871,597.1941],[4.2471,35.1966,581.3268],[4.2569,35.2019,569.6459],[4.2576,35.2082,556.871],[4.2756,35.2122,534.2211],[4.281,35.222,524.7473],[4.2812,35.2289,503.6926],[4.2926,35.2434,487.4673],[4.2928,35.2506,486.0643],[4.2886,35.2675,474.0756],[4.2928,35.2743,467.4579]]]]}
,"properties": {"GID_2": "DZA.26.12_1","GID_0": "DZA","country": "Algeria","GID_1": "DZA.26_1","province": "M'Sila","NL_NAME_1": "ولايةالمسيلة","county": "BouSaada","VARNAME_2": "Bousaada|BūSā`adah","NL_NAME_2": "NA","TYPE_2": "Commune","ENGTYPE_2": "Commune","CC_2": "2820","HASC_2": "DZ.MS.BD","name": "Bou_Saada.county","area_km2": 249.7281,"hist_schema_id": "Elevation0-9000","hist_area_km2": {"450": 6.3151,"475": 28.057,"500": 27.5817,"525": 19.2048,"550": 17.0242,"575": 14.2195,"600": 15.1565,"625": 17.2891,"650": 15.1082,"675": 14.7286,"700": 12.4079,"725": 9.202,"750": 8.3182,"775": 7.0881,"800": 5.5804,"825": 4.8868,"850": 4.4366,"875": 5.2511,"900": 3.4659,"925": 2.6515,"950": 2.3048,"975": 1.4212,"1000": 1.1267,"1025": 1.0056,"1050": 1.1965,"1075": 0.8497,"1100": 0.659,"1125": 0.6937,"1150": 0.5376,"1175": 0.4683,"1200": 0.4162,"1225": 0.3469,"1250": 0.3295,"1275": 0.2428,"1300": 0.1214,"1325": 0.0347}}}