{"type": "Feature","id": "2197","bbox": [3.73365,36.46625,4.64807,36.91161],"geometry": {"type": "Polygon","coordinates": [[[4.59151,36.89525,0.0],[4.59148,36.89525,0.0],[4.58155,36.89492,0.0],[4.55055,36.88373,21.2095],[4.53639,36.88858,0.0],[4.50408,36.88931,0.0],[4.49195,36.8946,25.9157],[4.48243,36.90046,0.0],[4.46811,36.90599,0.0],[4.45297,36.91006,0.0],[4.44068,36.91161,0.0],[4.32032,36.89802,1.477],[4.306,36.90046,0.0],[4.27858,36.91047,0.0],[4.26197,36.91161,0.0],[4.24928,36.90786,0.0],[4.22283,36.89419,79.675],[4.21046,36.89118,32.4334],[4.19703,36.89326,56.2765],[4.17156,36.90217,2.3421],[4.15952,36.9042,107.7718],[4.14649,36.9018,0.0],[4.10483,36.88373,122.6322],[4.08546,36.89208,47.0638],[4.03948,36.89692,124.0982],[4.03946,36.89692,124.0982],[4.03916,36.89155,200.9726],[4.03761,36.86312,559.6289],[4.03374,36.84964,635.2959],[4.02599,36.83599,413.9839],[3.99695,36.8039,667.204],[3.97214,36.78148,446.6653],[3.95509,36.77551,397.7329],[3.94186,36.773,265.8812],[3.93256,36.769,269.3298],[3.9307,36.76127,129.7419],[3.93318,36.75388,21.5662],[3.93876,36.7452,62.1514],[3.94718,36.7345,78.8129],[3.96392,36.71934,112.663],[3.96501,36.71213,125.9125],[3.95912,36.70401,88.8792],[3.94201,36.69006,61.7402],[3.93225,36.67952,104.5242],[3.92046,36.67073,108.1405],[3.90884,36.66732,220.2636],[3.88894,36.66825,359.2562],[3.85732,36.67761,474.4834],[3.84646,36.67973,483.5029],[3.83639,36.67786,666.3472],[3.82719,36.66688,641.1373],[3.82176,36.6574,471.7811],[3.81386,36.64869,413.9771],[3.80409,36.6465,542.3272],[3.79541,36.64776,522.8278],[3.78998,36.65182,478.3977],[3.78549,36.65712,622.1682],[3.77897,36.66107,676.8292],[3.76993,36.662,602.1763],[3.76063,36.6613,581.6739],[3.7521,36.65942,545.9329],[3.74466,36.65626,408.9767],[3.7383,36.64792,179.4753],[3.73551,36.64076,176.1721],[3.73365,36.60761,251.7529],[3.76187,36.56779,646.4238],[3.79231,36.54676,656.0128],[3.81851,36.53247,452.0105],[3.85142,36.5063,632.3004],[3.88879,36.48852,644.022],[3.93612,36.47441,939.9202],[4.18629,36.46625,1704.8621],[4.2021,36.46935,1744.5115],[4.23409,36.48064,1827.5986],[4.24882,36.48002,1402.8484],[4.29119,36.4702,1430.9564],[4.30933,36.47005,1566.6818],[4.35108,36.47801,1555.5068],[4.37093,36.47266,1794.9126],[4.42663,36.48852,1629.77],[4.44059,36.49542,1434.4027],[4.45004,36.49906,1455.2603],[4.45366,36.50154,1430.0214],[4.52813,36.56854,1319.146],[4.53774,36.58133,1178.7557],[4.55154,36.60919,1283.84],[4.59205,36.66161,1255.2981],[4.5981,36.675,1214.9581],[4.59949,36.68825,1394.2751],[4.59453,36.69662,1226.9175],[4.58724,36.70239,1089.3352],[4.57841,36.70587,925.0506],[4.56818,36.70859,983.1781],[4.55774,36.71246,880.7579],[4.54828,36.71735,819.679],[4.54192,36.72499,870.3651],[4.54084,36.73179,679.448],[4.5441,36.74442,439.6649],[4.5534,36.7523,495.5071],[4.56523,36.75781,588.9901],[4.57856,36.75962,582.1108],[4.58957,36.7584,558.3678],[4.61391,36.75016,705.5076],[4.62466,36.74897,699.7548],[4.63474,36.75367,559.7969],[4.64032,36.76292,722.8512],[4.64652,36.78517,836.4814],[4.64807,36.79548,882.7473],[4.64667,36.80414,623.7415],[4.64264,36.81171,546.7042],[4.60151,36.86137,332.4553],[4.59546,36.87245,233.0254],[4.59329,36.88829,0.0],[4.59151,36.89525,0.0]]]}
,"properties": {"ISO3166-1-Alpha-3": "DZA","country": "Algeria","fill": "#F0F","name": "Tizi Ouzou","area_km2": 2825.302,"hist_schema_id": "Elevation0-9000","hist_area_km2": {"0": 23.416,"25": 14.401,"50": 31.885,"75": 46.554,"100": 60.268,"125": 71.076,"150": 84.42,"175": 87.101,"200": 88.669,"225": 85.306,"250": 85.239,"275": 82.826,"300": 89.933,"325": 94.263,"350": 96.493,"375": 95.661,"400": 96.256,"425": 93.753,"450": 89.162,"475": 86.063,"500": 82.56,"525": 78.082,"550": 77.879,"575": 74.85,"600": 72.417,"625": 69.272,"650": 66.446,"675": 60.393,"700": 56.128,"725": 50.862,"750": 47.297,"775": 43.729,"800": 41.142,"825": 38.716,"850": 34.84,"875": 31.56,"900": 29.434,"925": 27.89,"950": 26.358,"975": 24.168,"1000": 20.953,"1025": 19.642,"1050": 18.673,"1075": 17.84,"1100": 17.942,"1125": 17.261,"1150": 15.95,"1175": 14.42,"1200": 12.989,"1225": 11.442,"1250": 9.792,"1275": 9.333,"1300": 8.72,"1325": 7.988,"1350": 7.988,"1375": 8.363,"1400": 7.342,"1425": 6.644,"1450": 5.895,"1475": 5.162,"1500": 5.026,"1525": 4.822,"1550": 4.005,"1575": 3.766,"1600": 3.085,"1625": 2.847,"1650": 2.591,"1675": 2.335,"1700": 2.25,"1725": 2.336,"1750": 1.824,"1775": 1.688,"1800": 1.364,"1825": 1.262,"1850": 0.921,"1875": 0.716,"1900": 0.529,"1925": 0.426,"1950": 0.29,"1975": 0.375,"2000": 0.273,"2025": 0.205,"2050": 0.17,"2075": 0.256,"2100": 0.136,"2125": 0.119,"2150": 0.222,"2175": 0.119,"2200": 0.051,"2225": 0.136,"2275": 0.051}}}