{"type":"Feature","properties":{"GID_2":"DZA.43.17_1","GID_0":"DZA","country":"Algeria","GID_1":"DZA.43_1","province":"Tiaret","NL_NAME_1":"ولايةتيارت","county":"Mahdia","VARNAME_2":"Mahdīyah","NL_NAME_2":"NA","TYPE_2":"Commune","ENGTYPE_2":"Commune","CC_2":"1415","HASC_2":"DZ.TR.MH","name":"Mahdia.county"},
"geometry":{"type": "MultiPolygon","coordinates": [[[[1.8206,35.4168,888.8222],[1.8276,35.4259,887.5629],[1.8199,35.4348,889.7258],[1.8144,35.4337,890.9815],[1.803,35.447,894.6738],[1.7991,35.4604,899.0],[1.7957,35.466,896.924],[1.7951,35.471,896.4291],[1.7979,35.4855,910.3099],[1.7709,35.4973,922.0704],[1.7558,35.5172,909.9086],[1.749,35.5175,909.52],[1.7496,35.5226,904.7001],[1.7409,35.5281,911.3139],[1.7364,35.5332,854.7655],[1.7372,35.5377,840.2281],[1.7326,35.539,847.0533],[1.7183,35.5267,849.1316],[1.7121,35.5245,848.4859],[1.7206,35.5099,907.9025],[1.7123,35.491,927.4655],[1.7076,35.4879,926.2524],[1.7031,35.4745,915.5549],[1.6738,35.4442,935.8281],[1.6577,35.4349,930.6733],[1.658,35.4306,930.0476],[1.6631,35.4274,933.8212],[1.6623,35.4158,937.5961],[1.6648,35.4028,936.8419],[1.6624,35.396,940.0325],[1.6723,35.3814,935.9966],[1.6744,35.3755,936.2507],[1.6799,35.3748,932.3545],[1.6846,35.3754,925.1394],[1.7185,35.3892,923.5348],[1.7622,35.4027,905.759],[1.8155,35.4122,889.3144],[1.8206,35.4168,888.8222]]]]}}