{"type": "Feature","bbox": [5.4003,35.7297,5.6672,35.9067],"geometry": {"type": "MultiPolygon","coordinates": [[[[5.5214,35.7566,1043.2944],[5.5268,35.7612,1026.7063],[5.5261,35.7675,1034.3702],[5.5344,35.7803,1053.0057],[5.5405,35.7851,1084.5956],[5.5554,35.7779,1035.1678],[5.5612,35.7766,1019.9426],[5.5702,35.7797,1159.6696],[5.5966,35.7717,1178.3788],[5.6079,35.7665,1223.1523],[5.6291,35.7527,1337.5951],[5.646,35.7466,1421.802],[5.6565,35.7478,1540.7815],[5.6613,35.7516,1508.1229],[5.6672,35.765,1370.5474],[5.655,35.778,1256.8141],[5.623,35.7909,1236.5376],[5.6185,35.8068,1020.7411],[5.6136,35.8101,1001.3161],[5.6145,35.8165,978.6433],[5.5848,35.8162,1000.405],[5.5811,35.8186,989.1173],[5.5789,35.8305,944.5507],[5.5824,35.8359,938.8637],[5.582,35.8405,938.1661],[5.5879,35.844,955.1975],[5.5998,35.8555,920.3217],[5.5665,35.8721,939.1985],[5.5652,35.8773,948.1323],[5.5719,35.8792,944.3593],[5.5763,35.883,987.4045],[5.5727,35.8887,936.3094],[5.5723,35.8955,900.8934],[5.5574,35.8813,907.1545],[5.5524,35.8826,901.594],[5.5483,35.8764,903.38],[5.5157,35.886,905.0256],[5.5168,35.8759,909.1476],[5.5036,35.8802,914.7465],[5.5019,35.8874,912.47],[5.4976,35.8863,917.0059],[5.4807,35.8911,1034.6877],[5.4601,35.9065,1153.6884],[5.4451,35.9048,1237.7812],[5.4325,35.9067,1248.2621],[5.4222,35.9053,1351.9723],[5.424,35.9,1269.8407],[5.4222,35.8895,1352.1597],[5.4127,35.8815,1113.5739],[5.4123,35.8751,1090.2061],[5.4168,35.8714,1100.8367],[5.4182,35.8567,1134.2794],[5.424,35.8539,1071.3027],[5.4238,35.8461,1099.0253],[5.4165,35.8303,1082.7424],[5.4047,35.8165,1177.6487],[5.4022,35.8115,1196.4114],[5.4067,35.7946,1158.9348],[5.4019,35.7893,1226.5344],[5.4003,35.7828,1274.2482],[5.4048,35.7775,1189.6641],[5.4103,35.7742,1252.5912],[5.4131,35.7634,1448.354],[5.4117,35.7549,1599.3259],[5.4194,35.7522,1605.1483],[5.423,35.7466,1498.3306],[5.4256,35.7357,1503.2109],[5.4292,35.7307,1478.4463],[5.4355,35.7297,1468.9066],[5.4448,35.7332,1281.319],[5.4549,35.7342,1213.0121],[5.4685,35.7397,1161.3688],[5.4741,35.7474,1275.8422],[5.4732,35.7536,1335.8379],[5.479,35.7585,1243.6797],[5.4881,35.763,1185.7339],[5.494,35.7635,1189.4338],[5.4982,35.7613,1198.7803],[5.5139,35.76,1056.0066],[5.5214,35.7566,1043.2944]]]]}
,"properties": {"GID_2": "DZA.37.5_1","GID_0": "DZA","country": "Algeria","GID_1": "DZA.37_1","province": "Sétif","NL_NAME_1": "ولايةسطيف","county": "AinAzel","VARNAME_2": "AinAzal|`Ayn`Azl","NL_NAME_2": "NA","TYPE_2": "Commune","ENGTYPE_2": "Commune","CC_2": "1940","HASC_2": "DZ.SF.AZ","name": "Ain_Azel.county","area_km2": 257.5447,"hist_schema_id": "Elevation0-9000","hist_area_km2": {"900": 14.2782,"925": 36.2445,"950": 26.7284,"975": 21.7288,"1000": 18.4977,"1025": 19.1359,"1050": 18.5341,"1075": 15.1469,"1100": 12.3451,"1125": 9.9724,"1150": 8.6319,"1175": 7.6352,"1200": 5.6751,"1225": 5.0391,"1250": 4.5236,"1275": 5.0059,"1300": 5.2295,"1325": 4.5762,"1350": 4.1462,"1375": 3.0625,"1400": 2.4948,"1425": 2.0991,"1450": 1.7894,"1475": 1.6517,"1500": 1.4108,"1525": 0.7226,"1550": 0.5334,"1575": 0.3957,"1600": 0.1376,"1625": 0.1549,"1650": 0.0172}}}