{"type":"Feature","properties":{"GID_2":"DZA.47.22_1","GID_0":"DZA","country":"Algeria","GID_1":"DZA.47_1","province":"TiziOuzou","NL_NAME_1":"ولايةغليزان","county":"Beni-Douala","VARNAME_2":"BeniDouala|Bani-Duwala","NL_NAME_2":"NA","TYPE_2":"Commune","ENGTYPE_2":"Commune","CC_2":"1532","HASC_2":"DZ.TO.BD","name":"Beni-Douala.county"},
"geometry":{"type": "MultiPolygon","coordinates": [[[[4.1354,36.6459,158.0],[4.131,36.6515,158.0],[4.1298,36.6566,158.0],[4.1208,36.6639,158.0],[4.1176,36.6592,164.415],[4.0893,36.6495,291.5841],[4.071,36.6366,494.1066],[4.0703,36.6271,579.6748],[4.0567,36.6318,566.8243],[4.0534,36.6225,583.9379],[4.0544,36.618,603.2479],[4.0525,36.6112,616.661],[4.0283,36.6059,423.1558],[4.0312,36.5896,625.6519],[4.0343,36.5861,652.7507],[4.0402,36.5855,634.2913],[4.0462,36.5874,508.1361],[4.0514,36.5853,547.1158],[4.0579,36.5865,565.2332],[4.0675,36.5834,745.5644],[4.0716,36.5888,784.8011],[4.079,36.5909,785.4437],[4.0868,36.5915,703.0988],[4.0997,36.589,427.2297],[4.0984,36.5946,424.7059],[4.0848,36.5976,620.4458],[4.0826,36.6048,817.2211],[4.0939,36.6086,741.9549],[4.1003,36.6134,608.7254],[4.1078,36.6158,494.2723],[4.1131,36.6195,411.849],[4.1103,36.6239,599.7769],[4.1115,36.6284,529.4952],[4.1103,36.6331,353.3264],[4.1308,36.6389,159.4974],[4.1354,36.6459,158.0]]]]}}