{"type":"Feature","properties":{"GID_2":"DZA.17.10_1","GID_0":"DZA","country":"Algeria","GID_1":"DZA.17_1","province":"ElBayadh","NL_NAME_1":"ولايةالبيض","county":"ElBiodhSidiCheikh","VARNAME_2":"ElAbiodhSidiCheikh|al-AbyadS","NL_NAME_2":"NA","TYPE_2":"Commune","ENGTYPE_2":"Commune","CC_2":"3207","HASC_2":"DZ.EB.ES","name":"El_Biodh_Sidi_Cheikh.county"},
"geometry":{"type": "MultiPolygon","coordinates": [[[[2.0587,31.658,500.176],[1.9919,31.7071,559.7201],[1.8266,31.8366,505.5228],[1.7324,32.0196,609.9406],[1.6592,32.1508,606.7001],[1.2568,32.4338,751.7137],[1.188,32.6641,841.0687],[1.0195,32.8018,889.4521],[0.8854,32.924,979.4229],[0.8841,32.9907,946.5729],[0.8702,33.0006,950.5843],[0.866,33.0072,958.1949],[0.8258,33.0358,994.8279],[0.8306,33.0642,994.1125],[0.8149,33.0541,978.0258],[0.7949,33.0485,971.7708],[0.7708,33.0557,967.1384],[0.7275,33.0376,955.2889],[0.7049,33.0302,949.2766],[0.6882,33.0223,944.1695],[0.6796,33.0147,940.8638],[0.6728,33.0195,939.9683],[0.6684,33.0205,939.5651],[0.6597,33.0195,940.4958],[0.6449,33.0206,946.5983],[0.6232,33.0161,949.5767],[0.5911,33.0145,960.3494],[0.5632,33.0047,969.3195],[0.5479,33.0121,974.3602],[0.5425,33.0122,975.3323],[0.5274,33.0042,982.851],[0.5064,32.9849,1002.818],[0.4902,32.9732,1015.5896],[0.4551,32.9541,989.169],[0.4368,32.949,970.4516],[0.4101,32.947,958.4536],[0.3875,32.936,949.4512],[0.356,32.9272,941.3399],[0.3483,32.9235,936.222],[0.3481,32.9167,931.8871],[0.3454,32.9105,927.4745],[0.3282,32.9034,920.6025],[0.3126,32.9033,914.8045],[0.3027,32.8918,908.6774],[0.2668,32.8726,895.0291],[0.2197,32.8776,1066.3589],[0.2156,32.8764,1006.1108],[0.2168,32.8698,944.8983],[0.2203,32.8641,932.9866],[0.2468,32.8291,881.106],[0.2318,32.8264,890.5388],[0.2218,32.8212,896.6437],[0.1893,32.8,919.3374],[0.1882,32.7942,925.6434],[0.1725,32.7869,943.3249],[0.1646,32.7796,954.3538],[0.1569,32.7779,943.2969],[0.1421,32.7712,932.4887],[0.1321,32.759,917.7273],[0.104,32.7325,886.8847],[0.0943,32.7186,873.4958],[0.09,32.714,869.1092],[0.085,32.7121,865.9572],[0.0769,32.7026,858.1387],[0.0751,32.6933,852.4402],[0.0723,32.6875,849.5775],[0.0604,32.6731,840.6799],[0.0594,32.6665,838.5822],[0.0174,32.6781,854.7706],[-0.0045,32.6879,865.4319],[-0.0098,32.6918,867.455],[-0.016,32.7004,871.1118],[-0.0106,32.6856,861.1733],[-0.0005,32.669,851.5907],[0.0236,32.6426,838.4942],[0.0278,32.6251,832.3297],[0.0367,32.609,824.7963],[0.0363,32.5924,815.8604],[0.0418,32.5754,807.8024],[0.0503,32.5615,804.5243],[0.1337,32.5468,789.039],[0.2593,32.5659,823.7795],[0.3018,32.5676,826.0489],[0.3866,32.5746,875.3434],[0.4059,32.5741,861.4398],[0.4003,32.5561,862.0989],[0.4014,32.5382,854.0297],[0.4098,32.5223,853.1385],[0.4357,32.3798,828.5511],[0.4413,32.3626,824.6943],[0.4509,32.3468,821.6285],[0.4718,32.2958,810.2238],[0.505,32.1914,782.5585],[0.5302,32.1226,765.2004],[0.54,32.1069,761.6808],[0.5563,32.0954,756.4849],[0.5751,32.0871,755.2755],[0.5919,32.0764,749.6248],[0.6224,32.0514,738.134],[0.6467,32.0221,733.7296],[0.6623,32.0099,728.666],[0.6856,31.9809,690.132],[0.6981,31.9775,721.4651],[0.7004,31.9644,692.4868],[0.7117,31.9509,689.2635],[0.7254,31.945,704.6306],[0.7655,31.9183,694.7154],[0.7784,31.9047,704.3511],[0.7935,31.893,708.1817],[0.8112,31.8868,683.0201],[0.8378,31.8716,675.2588],[0.8321,31.8596,661.1597],[0.84,31.8435,635.0253],[0.8906,31.8132,631.085],[0.8975,31.7966,627.0659],[0.895,31.7793,676.2675],[0.9242,31.7808,678.8945],[0.9424,31.7778,671.3135],[0.9578,31.7661,680.0772],[0.9604,31.7521,660.2609],[0.9727,31.7454,675.4091],[0.9923,31.7187,642.682],[1.0004,31.7027,652.4709],[1.0259,31.6768,647.8951],[1.033,31.6604,655.6854],[1.0465,31.6523,640.332],[1.0585,31.6398,656.6129],[1.0562,31.6249,644.0243],[1.0635,31.61,651.1072],[1.0661,31.5959,633.8039],[1.0719,31.5873,627.2775],[1.0765,31.5753,646.6902],[1.0744,31.5582,639.566],[1.0795,31.5461,622.2407],[1.0778,31.5338,622.5303],[1.0832,31.5195,635.5376],[1.0861,31.5031,629.5583],[1.0922,31.4879,620.485],[1.0963,31.4588,605.0575],[1.0932,31.4432,626.123],[1.0978,31.4347,622.6525],[1.0979,31.4186,604.0915],[1.0941,31.4059,599.7921],[1.0929,31.3889,591.8359],[1.0987,31.1415,557.7985],[1.4945,31.3575,562.8212],[2.0587,31.658,500.176]]]]}}