{"type":"Feature","properties":{"GID_2":"DZA.30.32_1","GID_0":"DZA","country":"Algeria","GID_1":"DZA.30_1","province":"Mostaganem","NL_NAME_1":"ولايةمستغانم","county":"Touahria","VARNAME_2":"NA","NL_NAME_2":"NA","TYPE_2":"Commune","ENGTYPE_2":"Commune","CC_2":"2731","HASC_2":"DZ.MG.TO","name":"Touahria.county"},
"geometry":{"type": "MultiPolygon","coordinates": [[[[0.1753,35.7931,50.4632],[0.2001,35.7914,61.4198],[0.2064,35.7884,76.7904],[0.2222,35.7867,221.4541],[0.2279,35.7868,248.6636],[0.2343,35.7892,230.2431],[0.2534,35.8032,216.5317],[0.265,35.8201,235.6555],[0.2682,35.8288,264.5834],[0.2518,35.8304,144.8571],[0.2483,35.8258,145.407],[0.2427,35.8256,124.4966],[0.2201,35.8304,104.9557],[0.2086,35.836,116.776],[0.2034,35.8356,108.7628],[0.1926,35.8266,80.2381],[0.1909,35.8207,73.4605],[0.1843,35.8118,63.499],[0.1839,35.8067,58.3839],[0.1799,35.8015,54.0395],[0.1742,35.8012,53.783],[0.1753,35.7931,50.4632]]]]}}