{"type":"Feature","properties":{"GID_2":"DZA.45.7_1","GID_0":"DZA","country":"Algeria","GID_1":"DZA.45_1","province":"Tipaza","NL_NAME_1":"ولايةتيبازة","county":"Chaiba","VARNAME_2":"NA","NL_NAME_2":"NA","TYPE_2":"Commune","ENGTYPE_2":"Commune","CC_2":"4212","HASC_2":"DZ.TP.CB","name":"Chaiba.county"},
"geometry":{"type": "MultiPolygon","coordinates": [[[[2.7346,36.5757,31.2522],[2.7488,36.5758,27.2823],[2.7641,36.5791,22.7972],[2.7821,36.5888,16.3578],[2.7821,36.5951,15.6671],[2.7663,36.6005,20.7326],[2.7543,36.6068,23.61],[2.7599,36.6076,22.596],[2.7602,36.6143,34.5935],[2.7567,36.6212,85.8611],[2.7532,36.6238,120.9932],[2.7474,36.6238,132.6547],[2.7447,36.6284,148.2478],[2.7479,36.6369,164.8491],[2.7382,36.6443,177.2398],[2.7316,36.6466,163.4002],[2.7266,36.6452,168.0849],[2.7309,36.6381,195.2081],[2.7269,36.6351,188.6312],[2.7151,36.634,180.7732],[2.7155,36.6296,192.7589],[2.7123,36.6265,188.4498],[2.7131,36.622,188.4487],[2.7117,36.615,179.0419],[2.7049,36.6102,207.6025],[2.7027,36.6066,208.4586],[2.7129,36.5991,120.581],[2.7196,36.5861,31.8344],[2.727,36.5859,32.8406],[2.7327,36.5836,29.8251],[2.7346,36.5757,31.2522]]]]}}