{"type":"Feature","properties":{"GID_2":"DZA.42.17_1","GID_0":"DZA","country":"Algeria","GID_1":"DZA.42_1","province":"Tébessa","NL_NAME_1":"ولايةتبسة","county":"Ferkane","VARNAME_2":"NA","NL_NAME_2":"NA","TYPE_2":"Commune","ENGTYPE_2":"Commune","CC_2":"1228","HASC_2":"DZ.TB.FE","name":"Ferkane.county"},
"geometry":{"type": "MultiPolygon","coordinates": [[[[7.3605,34.2969,58.1748],[7.4085,34.3647,94.9162],[7.4439,34.3884,107.2062],[7.4854,34.434,149.9372],[7.4869,34.4483,165.072],[7.4861,34.4676,197.4028],[7.4805,34.4692,203.6619],[7.4746,34.4846,217.0122],[7.4706,34.49,219.3929],[7.4469,34.5117,241.6707],[7.4455,34.5458,330.1175],[7.4464,34.5595,270.3146],[7.4441,34.5945,269.0818],[7.4397,34.6289,287.6378],[7.4368,34.6334,290.0214],[7.4332,34.645,287.872],[7.4214,34.6724,309.6008],[7.4175,34.6772,315.6799],[7.4032,34.6848,333.8737],[7.3869,34.6894,359.6577],[7.3775,34.6657,340.5296],[7.353,34.6356,276.682],[7.3267,34.5988,284.1982],[7.3182,34.5896,231.2976],[7.3091,34.5764,195.6025],[7.2999,34.5579,161.7254],[7.2782,34.536,140.5081],[7.2458,34.4432,100.6369],[7.2315,34.3401,65.0138],[7.3605,34.2969,58.1748]]]]}}