{"type": "Feature","bbox": [0.2432,26.9229,2.0033,28.5743],"geometry": {"type": "MultiPolygon","coordinates": [[[[0.9779,28.4812,429.669],[0.9575,28.0484,429.0948],[0.9514,28.0442,426.7921],[0.9472,28.0494,426.4265],[0.9464,28.0556,413.9081],[0.9371,28.0502,397.636],[0.939,28.0578,402.8667],[0.9372,28.0634,404.8674],[0.9275,28.0585,396.9201],[0.9205,28.0629,407.6362],[0.9141,28.0533,393.9362],[0.9054,28.0507,420.304],[0.9097,28.042,408.4837],[0.8953,28.024,407.8951],[0.8969,28.0132,421.3872],[0.908,28.0119,422.8223],[0.9039,28.0001,419.3234],[0.8999,27.9921,424.9436],[0.889,27.9865,420.9583],[0.879,27.9787,422.1401],[0.8795,27.9626,420.8016],[0.8627,27.96,417.4227],[0.8691,27.9573,387.7574],[0.8762,27.9414,423.1887],[0.8682,27.9307,423.7152],[0.857,27.9203,418.8461],[0.8527,27.9088,414.7308],[0.8406,27.9023,417.4994],[0.8272,27.8722,415.3476],[0.8171,27.861,418.5059],[0.808,27.853,391.9656],[0.7938,27.8482,402.3949],[0.7755,27.829,410.088],[0.7658,27.8225,409.4275],[0.7523,27.8165,407.6008],[0.749,27.8015,405.631],[0.7426,27.7894,401.5255],[0.7209,27.7766,364.2024],[0.7181,27.7874,398.7147],[0.7102,27.7916,401.6411],[0.7063,27.7884,363.1328],[0.6993,27.7991,364.3098],[0.6889,27.8014,400.2842],[0.6636,27.7983,350.5953],[0.6561,27.8006,365.4179],[0.649,27.8087,397.3562],[0.6415,27.8093,379.6256],[0.6329,27.8136,393.26],[0.6261,27.8107,393.7677],[0.6212,27.8014,375.701],[0.6138,27.8002,390.6037],[0.6095,27.7862,363.7552],[0.5979,27.782,384.1617],[0.603,27.7645,386.001],[0.5942,27.7568,375.3452],[0.5944,27.7427,375.3727],[0.472,27.552,328.2967],[0.455,27.5493,330.0751],[0.4412,27.5426,330.7563],[0.4206,27.5296,327.0107],[0.4092,27.5295,325.4205],[0.3847,27.523,324.9477],[0.3795,27.514,325.1651],[0.3732,27.5102,324.736],[0.3634,27.4985,322.7634],[0.3582,27.5019,322.0657],[0.3528,27.5032,321.5779],[0.3474,27.5023,323.2074],[0.3364,27.4962,321.3137],[0.3294,27.4952,321.8213],[0.3264,27.4831,319.7098],[0.3223,27.4806,319.6204],[0.2985,27.473,318.5423],[0.2922,27.4724,319.0394],[0.2846,27.4664,318.6654],[0.264,27.4575,316.492],[0.2432,27.4526,316.5744],[0.4334,27.1471,303.7466],[0.4763,27.0653,295.3267],[0.5171,26.9953,295.2159],[0.518,26.9229,293.1468],[0.9617,26.986,280.0052],[1.0123,26.9893,265.946],[1.0925,26.9917,287.6619],[1.1185,26.9997,291.3685],[1.2933,27.0402,316.4126],[1.445,27.2221,341.9203],[1.5203,27.2276,360.9756],[1.5956,27.2307,357.7385],[1.6056,27.2326,358.765],[1.7059,27.2403,349.6171],[1.7635,27.2553,365.8113],[1.7728,27.2633,367.729],[1.7806,27.2766,368.7473],[1.6996,27.3856,424.1343],[1.6975,27.6292,492.3488],[1.7794,27.7536,592.9764],[1.7976,27.9378,584.0268],[1.8108,28.0027,584.056],[1.8156,28.1485,576.61],[1.9561,28.3455,592.1993],[2.0033,28.4793,519.5138],[1.9985,28.4755,530.1015],[1.9916,28.4771,538.124],[1.9883,28.4823,513.6064],[1.9873,28.4865,515.5206],[1.9959,28.4953,517.2432],[1.9938,28.4995,512.1311],[1.9898,28.5012,509.5583],[1.9702,28.5009,507.2139],[1.964,28.5051,509.2446],[1.9575,28.5053,520.7202],[1.9487,28.4966,511.7041],[1.9427,28.4965,523.9693],[1.94,28.5025,498.5663],[1.9401,28.5077,505.6258],[1.9301,28.4995,557.2728],[1.9164,28.5115,498.726],[1.9054,28.5141,505.8509],[1.9,28.5107,504.88869999999997],[1.8952,28.5004,492.6917],[1.8828,28.4961,494.4197],[1.8765,28.4966,489.4523],[1.8732,28.5027,479.2123],[1.8776,28.5088,487.2659],[1.8792,28.5153,482.0705],[1.8742,28.5191,475.0721],[1.8688,28.5206,479.2162],[1.8578,28.5205,476.9024],[1.8543,28.5231,475.5032],[1.853,28.5468,474.779],[1.855,28.5577,464.739],[1.8424,28.5556,471.2709],[1.836,28.5569,463.2573],[1.8312,28.5613,463.2737],[1.8248,28.5643,460.0572],[1.8079,28.5678,458.5478],[1.8011,28.5743,456.3048],[1.7919,28.5733,466.948],[1.7778,28.5681,465.6882],[1.7552,28.5565,459.7363],[1.7487,28.5557,450.0477],[1.7287,28.5594,447.4294],[1.716,28.5662,443.4444],[1.7096,28.565,452.6856],[1.7045,28.5602,442.7045],[1.6997,28.5583,445.212],[1.6771,28.5549,443.7192],[1.6631,28.5604,436.9332],[1.6555,28.5585,444.6175],[1.1883,28.5648,420.0199],[0.9779,28.4812,429.669]]]]}
,"properties": {"GID_2": "DZA.1.21_1","GID_0": "DZA","country": "Algeria","GID_1": "DZA.1_1","province": "Adrar","NL_NAME_1": "ولايةأدرا","county": "Tamekten","VARNAME_2": "Timokten","NL_NAME_2": "NA","TYPE_2": "Commune","ENGTYPE_2": "Commune","CC_2": "113","HASC_2": "DZ.AR.TA","name": "Tamekten.county","area_km2": 18324.7,"hist_schema_id": "Elevation0-9000","hist_area_km2": {"250": 0.17,"275": 55.21,"300": 1753.41,"325": 2613.35,"350": 2193.95,"375": 1162.53,"400": 2275.46,"425": 1761.15,"450": 1062.25,"475": 1164.03,"500": 1220.26,"525": 1101.48,"550": 1053.22,"575": 849.23,"600": 58.99}}}