{"type": "Feature","bbox": [7.1658,35.975,7.3709,36.1461],"geometry": {"type": "MultiPolygon","coordinates": [[[[7.3124,36.1461,671.0303],[7.3063,36.1444,708.1623],[7.2682,36.1459,743.8339],[7.2579,36.1405,747.591],[7.2559,36.1342,715.3547],[7.248,36.128,770.5468],[7.2449,36.1228,806.3456],[7.2359,36.119,792.2309],[7.2335,36.1029,843.4696],[7.2286,36.0986,886.679],[7.2285,36.093,913.9426],[7.2257,36.0869,948.4055],[7.2261,36.0804,929.4199],[7.2235,36.077,990.1357],[7.2195,36.0741,1014.6478],[7.2155,36.0772,989.1315],[7.2012,36.0732,1000.2381],[7.1658,36.0574,920.3138],[7.1731,36.0519,911.4155],[7.1747,36.0375,928.1207],[7.1784,36.033,877.8298],[7.1833,36.0312,849.5479],[7.1907,36.0249,829.2156],[7.1935,36.0206,846.1342],[7.1883,36.0168,848.8447],[7.1873,36.0117,851.952],[7.1876,36.0062,859.8262],[7.1924,36.0016,857.455],[7.1978,35.9991,894.7274],[7.2106,36.0072,881.7176],[7.2173,36.0098,892.0464],[7.2227,36.0099,856.7991],[7.2301,36.0022,824.9182],[7.2347,36.0035,823.7183],[7.2376,35.9992,830.024],[7.2513,35.991,859.5242],[7.2678,35.975,827.7911],[7.2801,35.9864,829.2373],[7.2836,35.9916,829.322],[7.2832,35.9989,800.8615],[7.2893,36.0016,816.0961],[7.2887,36.0181,801.1757],[7.2984,36.0234,789.0635],[7.3053,36.0323,799.1209],[7.3132,36.0318,804.0138],[7.3336,36.0246,833.2467],[7.3439,36.0241,818.8091],[7.3485,36.0253,818.6434],[7.3638,36.0125,849.7735],[7.3684,36.0155,848.2551],[7.3709,36.0209,840.4875],[7.3667,36.0238,841.7657],[7.367,36.0285,823.8215],[7.3633,36.0378,802.4822],[7.3628,36.0448,795.5672],[7.3659,36.0489,796.6202],[7.3461,36.058,745.9257],[7.343,36.0544,756.6595],[7.3362,36.0517,758.5837],[7.3319,36.0542,757.8802],[7.338,36.0774,793.0078],[7.3379,36.0853,811.7469],[7.3291,36.0954,872.4413],[7.3299,36.1034,983.7841],[7.3234,36.1019,1005.5668],[7.3225,36.1092,845.2687],[7.3241,36.1159,778.7513],[7.3205,36.1204,753.3879],[7.3164,36.1312,779.0125],[7.3151,36.1374,766.9695],[7.3167,36.1421,691.9342],[7.3124,36.1461,671.0303]]]]}
,"properties": {"GID_2": "DZA.34.20_1","GID_0": "DZA","country": "Algeria","GID_1": "DZA.34_1","province": "OumelBouaghi","NL_NAME_1": "ولايةأمالبواقي","county": "KsarElSbihi","VARNAME_2": "KsarSbahi","NL_NAME_2": "NA","TYPE_2": "Commune","ENGTYPE_2": "Commune","CC_2": "422","HASC_2": "DZ.OB.KS","name": "Ksar_El_Sbihi.county","area_km2": 176.76,"hist_schema_id": "Elevation0-9000","hist_area_km2": {"675": 0.137,"700": 0.6678,"725": 1.4725,"750": 3.8715,"775": 28.6757,"800": 45.8559,"825": 34.3898,"850": 18.5622,"875": 11.8575,"900": 11.3946,"925": 8.1388,"950": 5.6716,"975": 3.4267,"1000": 2.0559,"1025": 0.4797,"1050": 0.1028}}}