{"type":"Feature","properties":{"GID_2":"DZA.17.21_1","GID_0":"DZA","country":"Algeria","GID_1":"DZA.17_1","province":"ElBayadh","NL_NAME_1":"ولايةالبيض","county":"Stitten","VARNAME_2":"NA","NL_NAME_2":"NA","TYPE_2":"Commune","ENGTYPE_2":"Commune","CC_2":"3203","HASC_2":"DZ.EB.SN","name":"Stitten.county"},
"geometry":{"type": "MultiPolygon","coordinates": [[[[1.0172,33.7655,1261.1877],[1.0699,33.7782,1402.739],[1.1027,33.7843,1472.035],[1.1184,33.7905,1429.5209],[1.1221,33.7881,1417.1453],[1.1334,33.7859,1393.5103],[1.1381,33.7898,1382.5785],[1.1442,33.7912,1374.0096],[1.1767,33.7677,1740.6534],[1.134,33.6951,1495.2976],[1.1216,33.6713,1827.2463],[1.1315,33.6576,1611.3264],[1.1552,33.6433,1456.2986],[1.1621,33.6421,1431.8458],[1.1748,33.6317,1371.3679],[1.1818,33.6302,1357.2583],[1.1917,33.6329,1341.5197],[1.1965,33.6297,1326.4376],[1.2001,33.6242,1320.2831],[1.2217,33.6126,1318.2852],[1.2573,33.6037,1328.1708],[1.2699,33.6051,1325.0823],[1.2906,33.6044,1313.7588],[1.3105,33.6009,1297.0718],[1.3254,33.6006,1319.7412],[1.3268,33.6063,1323.8455],[1.3258,33.6182,1307.7427],[1.3246,33.6229,1317.7356],[1.3208,33.6259,1323.2585],[1.3223,33.6311,1325.2026],[1.3195,33.6346,1329.8096],[1.3192,33.6412,1334.0787],[1.3218,33.6485,1336.636],[1.3279,33.6539,1342.3982],[1.3318,33.6659,1348.9102],[1.3349,33.6691,1352.4512],[1.3552,33.679,1363.8147],[1.362,33.6876,1380.7266],[1.3679,33.6917,1383.6677],[1.3708,33.6964,1394.9369],[1.3691,33.7149,1428.6682],[1.376,33.7285,1480.6023],[1.377,33.7349,1470.4058],[1.3741,33.7454,1451.6354],[1.36,33.7633,1387.1736],[1.3588,33.7708,1366.3618],[1.3598,33.7813,1359.8918],[1.3658,33.7887,1348.9323],[1.3652,33.8022,1343.6655],[1.3681,33.8092,1324.1553],[1.3679,33.8218,1319.9375],[1.3634,33.8348,1299.8865],[1.3599,33.8412,1279.2646],[1.3504,33.8427,1287.3074],[1.3473,33.8473,1274.5815],[1.3316,33.8556,1261.5806],[1.3284,33.8594,1248.6682],[1.3176,33.8661,1240.4849],[1.3103,33.8883,1239.8652],[1.3107,33.8957,1234.0452],[1.3149,33.9055,1218.6218],[1.3121,33.9106,1220.6161],[1.3146,33.917,1214.545],[1.3144,33.9233,1211.0623],[1.3301,33.9339,1207.7313],[1.3321,33.9382,1206.3391],[1.3361,33.9404,1202.2009],[1.3376999999999999,33.9498,1204.6504],[1.3459,33.9515,1194.0225],[1.3534,33.9621,1196.9055],[1.3524,33.968,1199.2294],[1.3592,33.9766,1183.028],[1.3574,33.983,1178.0179],[1.3606,33.9888,1188.0482],[1.3649,33.9919,1176.4205],[1.3635,33.9959,1170.8286],[1.3691,34.0003,1178.6836],[1.3695,34.0129,1173.1649],[1.3747,34.0172,1176.1072],[1.3683,34.0204,1160.027],[1.3677,34.0269,1177.1206],[1.352,34.0446,1144.8723],[1.3442,34.0653,1139.7966],[1.3378,34.0652,1151.3408],[1.3371,34.0701,1144.5437],[1.3146,34.0509,1170.1703],[1.2963,34.0401,1209.083],[1.2712,34.0217,1185.7412],[1.224,33.9912,1202.7211],[1.1513,33.9401,1198.797],[1.0842,33.8315,1263.7463],[1.0484,33.7946,1271.6747],[1.0172,33.7655,1261.1877]]]]}}