{"type":"Feature","properties":{"GID_2":"DZA.47.48_1","GID_0":"DZA","country":"Algeria","GID_1":"DZA.47_1","province":"TiziOuzou","NL_NAME_1":"ولايةغليزان","county":"Mechtrass","VARNAME_2":"NA","NL_NAME_2":"NA","TYPE_2":"Commune","ENGTYPE_2":"Commune","CC_2":"1506","HASC_2":"DZ.TO.MC","name":"Mechtrass.county"},
"geometry":{"type": "MultiPolygon","coordinates": [[[[4.0281,36.5404,410.0049],[4.0271,36.5447,393.4697],[4.0224,36.5478,472.5878],[4.0136,36.5587,314.5573],[4.0168,36.5652,362.8941],[4.0119,36.5692,456.4315],[4.0006,36.571,368.7019],[3.9923,36.5684,255.7195],[3.976,36.5772,302.0568],[3.9715,36.5721,220.8572],[3.9675,36.5703,223.8375],[3.9685,36.5661,293.1935],[3.9665,36.562,433.3065],[3.9676,36.5561,446.2844],[3.974,36.5487,332.6245],[3.9785,36.5352,441.2513],[3.9827,36.5325,482.4253],[3.9902,36.5315,494.0803],[4.0281,36.5404,410.0049]]]]}}