{"type": "Feature","bbox": [4.6277,36.6277,4.7458,36.6952],"geometry": {"type": "MultiPolygon","coordinates": [[[[4.642,36.6787,980.2263],[4.6432,36.6703,873.3531],[4.642,36.6652,956.7546],[4.6277,36.6433,597.7902],[4.6469,36.6398,423.3807],[4.6514,36.6376,462.8721],[4.6489,36.6315,687.7406],[4.6533,36.6277,804.8254],[4.6693,36.6322,606.2303],[4.672,36.6355,502.878],[4.6721,36.6408,419.8119],[4.6768,36.6428,340.0593],[4.689,36.6446,339.2236],[4.6945,36.6432,404.2546],[4.7047,36.6438,388.5244],[4.706,36.649,203.6549],[4.7195,36.6542,140.8559],[4.738,36.6511,145.6427],[4.7425,36.6563,256.6252],[4.7458,36.6675,497.9197],[4.7415,36.6729,606.965],[4.7255,36.6785,655.633],[4.7224,36.6827,737.7203],[4.7176,36.6834,718.4851],[4.7126,36.6865,818.2937],[4.7044,36.6952,921.9473],[4.6911,36.6938,966.1442],[4.6857,36.6896,950.8207],[4.6898,36.6839,832.9492],[4.686,36.6794,852.1255],[4.642,36.6787,980.2263]]]]}
,"properties": {"GID_2": "DZA.8.44_1","GID_0": "DZA","country": "Algeria","GID_1": "DZA.8_1","province": "Béjaïa","NL_NAME_1": "بجاية","county": "Tifra","VARNAME_2": "NA","NL_NAME_2": "NA","TYPE_2": "Commune","ENGTYPE_2": "Commune","CC_2": "614","HASC_2": "DZ.BJ.TF","name": "Tifra.county","area_km2": 40.6146,"hist_schema_id": "Elevation0-9000","hist_area_km2": {"125": 0.15309,"150": 0.34019,"175": 0.62936,"200": 0.78243,"225": 1.08861,"250": 1.19065,"275": 1.36075,"300": 1.19065,"325": 1.36074,"350": 1.39474,"375": 1.66685,"400": 1.49677,"425": 1.41173,"450": 1.41173,"475": 1.56479,"500": 1.88792,"525": 1.71781,"550": 1.81989,"575": 1.51371,"600": 1.66676,"625": 1.6327,"650": 1.30955,"675": 1.37752,"700": 1.41153,"725": 1.34354,"750": 1.30945,"775": 0.93533,"800": 1.07136,"825": 0.95228,"850": 1.07133,"875": 0.74824,"900": 0.76528,"925": 0.54415,"950": 0.30609,"975": 0.06802,"1000": 0.06802,"1025": 0.05101}}}