{"type": "Feature","bbox": [4.2855,34.6522,4.7097,34.8329],"geometry": {"type": "MultiPolygon","coordinates": [[[[4.5463,34.6741,598.3699],[4.56,34.6751,725.1152],[4.5616,34.6792,723.8867],[4.5691,34.6832,825.3909],[4.5745,34.6823,759.3254],[4.5812,34.6853,791.3573],[4.5819,34.6915,716.6335],[4.5849,34.6973,774.716],[4.5933,34.7047,723.3386],[4.6002,34.7066,745.4784],[4.6054,34.7064,744.3951],[4.6134,34.7028,774.8398],[4.6278,34.6884,859.3246],[4.6325,34.6927,838.1732],[4.6328,34.7019,800.0109],[4.6352,34.7064,790.015],[4.6397,34.707,803.1799],[4.6443,34.705,819.5443],[4.6614,34.7053,758.6404],[4.6663,34.703,797.5118],[4.6721,34.7043,739.7686],[4.6766,34.708,754.0291],[4.6755,34.7122,711.153],[4.6707,34.7159,629.3282],[4.6274,34.7375,605.0338],[4.6233,34.7411,616.27],[4.6199,34.7483,631.6828],[4.6207,34.7534,635.5582],[4.6282,34.7607,643.7651],[4.6324,34.7595,637.48],[4.6393,34.7654,639.5796],[4.6432,34.7632,637.2634],[4.6478,34.767,639.8069],[4.6537,34.7687,642.9982],[4.6656,34.761,632.5026],[4.6655,34.769,645.7233],[4.6696,34.7748,654.7322],[4.6742,34.7779,687.3701],[4.6852,34.7904,695.8248],[4.6944,34.7969,725.3101],[4.7016,34.8068,777.6069],[4.7097,34.8139,819.7],[4.7086,34.8187,835.4359],[4.7034,34.8269,966.3632],[4.6954,34.8329,1091.9138],[4.6905,34.8302,1083.189],[4.6832,34.8298,1129.9443],[4.6605,34.822,1269.8229],[4.6484,34.815,1161.764],[4.6438,34.8147,1153.8073],[4.6128,34.8009,1032.5029],[4.6076,34.8014,1003.5834],[4.5965,34.7939,1109.5737],[4.5908,34.7919,1053.9958],[4.568,34.7874,1042.8118],[4.5635,34.7952,922.646],[4.5578,34.7946,887.0389],[4.5517,34.7933,916.1152],[4.549,34.7888,904.6851],[4.5261,34.7823,1036.6765],[4.5143,34.7768,1026.5594],[4.4849,34.7758,1054.415],[4.4736,34.7788,994.91],[4.4696,34.7808,1093.5208],[4.4601,34.7982,1145.4626],[4.4535,34.7959,1167.5166],[4.4383,34.7966,1069.3059],[4.4356,34.7921,1005.0152],[4.4301,34.7878,1064.5996],[4.3979,34.7915,806.2906],[4.3929,34.7877,817.7649],[4.387,34.7704,827.0661],[4.3822,34.764,830.7687],[4.3353,34.7343,892.2858],[4.353,34.7192,1200.2809],[4.3428,34.7116,1105.0326],[4.3317,34.7065,1008.2773],[4.3285,34.6998,954.0119],[4.3118,34.6911,950.5974],[4.2978,34.6802,872.2878],[4.2902,34.6709,913.5771],[4.2855,34.6681,939.2445],[4.3052,34.6522,877.9],[4.3239,34.6605,949.4245],[4.3583,34.6528,723.9955],[4.3923,34.6604,713.1508],[4.4417,34.666,656.2931],[4.5132,34.6648,685.8135],[4.5401,34.6736,597.6351],[4.5463,34.6741,598.3699]]]]}
,"properties": {"GID_2": "DZA.26.4_1","GID_0": "DZA","country": "Algeria","GID_1": "DZA.26_1","province": "M'Sila","NL_NAME_1": "ولايةالمسيلة","county": "AinFares","VARNAME_2": "NA","NL_NAME_2": "NA","TYPE_2": "Commune","ENGTYPE_2": "Commune","CC_2": "2837","HASC_2": "DZ.MC.AF","name": "Ain_Fares.county","area_km2": 387.8571,"hist_schema_id": "Elevation0-9000","hist_area_km2": {"600": 1.9869,"625": 9.1841,"650": 31.1417,"675": 50.7478,"700": 56.7276,"725": 45.2765,"750": 29.1357,"775": 17.8583,"800": 14.3557,"825": 15.3652,"850": 21.0784,"875": 23.8175,"900": 21.118,"925": 14.4081,"950": 9.3727,"975": 6.672,"1000": 5.4169,"1025": 3.4488,"1050": 2.9608,"1075": 2.6472,"1100": 1.7763,"1125": 0.975,"1150": 0.8533,"1175": 0.5922,"1200": 0.4876,"1225": 0.2612,"1250": 0.1393,"1275": 0.0522}}}