{"type": "Feature","bbox": [3.4534,36.5758,3.5327,36.6933],"geometry": {"type": "MultiPolygon","coordinates": [[[[3.5172,36.6089,671.7103],[3.5277,36.613,598.5439],[3.5327,36.6167,562.4712],[3.5297,36.6284,504.2213],[3.5247,36.6331,463.6493],[3.5203,36.6433,445.594],[3.5069,36.6539,207.9297],[3.4967,36.6568,172.4699],[3.492,36.6614,212.0288],[3.4964,36.6643,291.7189],[3.4993,36.6686,274.0962],[3.4949,36.6738,249.8519],[3.4932,36.679,186.7373],[3.4825,36.683,103.0425],[3.4718,36.6933,74.4486],[3.4657,36.687,82.1927],[3.4689,36.6694,127.8099],[3.4657,36.6657,142.1],[3.4585,36.6643,225.5562],[3.4624,36.6556,206.6977],[3.4631,36.6421,309.0744],[3.4534,36.6344,137.0],[3.4581,36.6216,159.5153],[3.4615,36.6175,192.5602],[3.4613,36.613,230.6055],[3.4665,36.6095,291.4482],[3.4584,36.5813,429.0985],[3.4632,36.576,473.052],[3.4698,36.5773,526.1233],[3.4743,36.5758,627.5748],[3.4779,36.5802,649.7186],[3.4757,36.5859,566.4853],[3.4851,36.5892,427.4101],[3.4899,36.5926,490.7578],[3.4898,36.5979,621.9617],[3.4943,36.6079,763.3447],[3.4988,36.6112,760.6345],[3.5041,36.6122,685.3861],[3.5172,36.6089,671.7103]]]]}
,"properties": {"GID_2": "DZA.13.10_1","GID_0": "DZA","country": "Algeria","GID_1": "DZA.13_1","province": "Boumerdès","NL_NAME_1": "ولايةبومرداس","county": "BouzegzaKeddara","VARNAME_2": "NA","NL_NAME_2": "NA","TYPE_2": "Commune","ENGTYPE_2": "Commune","CC_2": "3519","HASC_2": "DZ.BM.BK","name": "Bouzegza_Keddara.county","area_km2": 45.47911,"hist_schema_id": "Elevation0-9000","hist_area_km2": {"75": 0.06801,"100": 0.39107,"125": 0.90137,"150": 1.61571,"175": 1.88795,"200": 2.78951,"225": 2.95972,"250": 3.16401,"275": 3.41924,"300": 3.11316,"325": 2.9262,"350": 1.95658,"375": 1.73552,"400": 1.58249,"425": 1.3784,"450": 1.25941,"475": 1.2764,"500": 1.32748,"525": 1.32758,"550": 1.42967,"575": 1.51478,"600": 1.53185,"625": 1.58292,"650": 1.75309,"675": 1.1744,"700": 0.78292,"725": 0.42547,"750": 0.17019,"775": 0.03404}}}