{"type": "Feature","bbox": [1.4017,34.0466,1.7536,34.2686],"geometry": {"type": "MultiPolygon","coordinates": [[[[1.6186,34.2366,1183.5262],[1.613,34.2357,1184.9965],[1.5905,34.2249,1187.291],[1.5772,34.2686,1128.8453],[1.4783,34.2047,1142.637],[1.4111,34.1857,1160.3047],[1.4017,34.1804,1162.9546],[1.4104,34.1564,1164.6588],[1.4272,34.1306,1170.8296],[1.4327,34.1284,1167.7035],[1.438,34.1296,1171.3286],[1.4427,34.1267,1173.4943],[1.4783,34.0994,1243.9908],[1.4825,34.0945,1282.5114],[1.4792,34.0865,1275.7621],[1.521,34.0745,1247.6244],[1.6765,34.0466,1374.7715],[1.7071,34.092,1367.2551],[1.7244,34.1021,1346.8733],[1.7367,34.1291,1314.4923],[1.7536,34.1381,1292.2104],[1.7211,34.1686,1219.5465],[1.6955,34.2004,1274.5308],[1.6489,34.2106,1205.7462],[1.6364,34.2229,1209.8678],[1.6186,34.2366,1183.5262]]]]}
,"properties": {"GID_2": "DZA.25.3_1","GID_0": "DZA","country": "Algeria","GID_1": "DZA.25_1","province": "Laghouat","NL_NAME_1": "ولايةالأغواط","county": "AinSidiAli","VARNAME_2": "NA","NL_NAME_2": "NA","TYPE_2": "Commune","ENGTYPE_2": "Commune","CC_2": "311","HASC_2": "DZ.LG.AS","name": "Ain_Sidi_Ali.county","area_km2": 448.5841,"hist_schema_id": "Elevation0-9000","hist_area_km2": {"1125": 6.4343,"1150": 49.5567,"1175": 50.6556,"1200": 41.2398,"1225": 36.4891,"1250": 124.4097,"1275": 74.6797,"1300": 25.9799,"1325": 16.469,"1350": 12.3448,"1375": 7.5511,"1400": 2.5111,"1425": 0.2633}}}