{"type":"Feature","properties":{"GID_2":"DZA.32.5_1","GID_0":"DZA","country":"Algeria","GID_1":"DZA.32_1","province":"Oran","NL_NAME_1":"ولايةوهران","county":"BenFreha","VARNAME_2":"NA","NL_NAME_2":"NA","TYPE_2":"Commune","ENGTYPE_2":"Commune","CC_2":"3120","HASC_2":"DZ.OR.BF","name":"Ben_Freha.county"},
"geometry":{"type": "MultiPolygon","coordinates": [[[[-0.3056,35.7382,133.431],[-0.3388,35.7535,134.2263],[-0.3487,35.7551,103.9944],[-0.3583,35.7623,85.0059],[-0.3641,35.7631,83.7374],[-0.3687,35.7612,83.5],[-0.3708,35.7505,83.5],[-0.3859,35.7442,84.1293],[-0.3989,35.7361,85.383],[-0.3969,35.7319,84.5385],[-0.4003,35.7251,84.6619],[-0.4086,35.7286,86.7628],[-0.43,35.742,108.3915],[-0.4345,35.7439,110.6175],[-0.4387,35.7434,108.9164],[-0.449,35.7235,93.4057],[-0.4567,35.7138,110.0462],[-0.4508,35.7092,106.3243],[-0.4363,35.6777,138.7936],[-0.4306,35.6801,133.0652],[-0.4226,35.6864,109.5744],[-0.3955,35.6886,86.1759],[-0.3921,35.6938,86.1655],[-0.3912,35.7012,88.9476],[-0.387,35.7044,88.1507],[-0.3708,35.7016,89.0002],[-0.3444,35.7058,105.5641],[-0.3296,35.7041,63.3065],[-0.3086,35.7102,56.0],[-0.2937,35.7198,56.0],[-0.2861,35.7312,56.0],[-0.2946,35.7326,119.7747],[-0.3056,35.7382,133.431]]]]}}