{"type":"Feature","properties":{"GID_2":"DZA.46.7_1","GID_0":"DZA","country":"Algeria","GID_1":"DZA.46_1","province":"Tissemsilt","NL_NAME_1":"ولايةتسمسيلت","county":"ElYoussoufia","VARNAME_2":"Youssoufia","NL_NAME_2":"NA","TYPE_2":"Commune","ENGTYPE_2":"Commune","CC_2":"3814","HASC_2":"DZ.TS.EY","name":"El_Youssoufia.county"},
"geometry":{"type": "MultiPolygon","coordinates": [[[[2.0556,35.9459,965.7994],[2.0485,35.9331,1094.9155],[2.0534,35.931,1109.8281],[2.0574,35.9189,1110.8446],[2.072,35.9064,1059.5338],[2.0764,35.9043,1113.1733],[2.0823,35.8836,1287.1587],[2.0907,35.881,1209.8552],[2.0962,35.8718,1163.2329],[2.0995,35.8626,1128.666],[2.0989,35.8566,1129.6458],[2.1086,35.853,1124.0269],[2.1161,35.8438,1103.8772],[2.1255,35.8388,1064.9268],[2.1317,35.83,991.085],[2.1502,35.832,1080.3348],[2.1562,35.8285,1067.4126],[2.1623,35.8325,1158.0031],[2.155,35.8414,1182.8745],[2.154,35.8458,1194.7727],[2.1569,35.8567,1221.3695],[2.1498,35.8754,1564.7657],[2.1647,35.8848,1397.6174],[2.1693,35.89,1239.8325],[2.1752,35.8926,1204.1774],[2.181,35.9079,918.38],[2.1819,35.918,808.6753],[2.1882,35.9196,781.9994],[2.1946,35.9266,758.5325],[2.1687,35.931,844.9988],[2.1632,35.9295,867.1302],[2.1405,35.9306,1074.1987],[2.1358,35.94,939.9839],[2.1337,35.9485,801.4637],[2.1286,35.9508,807.655],[2.1267,35.9559,882.2164],[2.1297,35.9605,917.368],[2.1204,35.9643,912.8317],[2.1154,35.961,924.5546],[2.115,35.9559,856.9207],[2.1101,35.954,838.0184],[2.0927,35.9581,836.1705],[2.0812,35.959,879.0729],[2.0751,35.9579,878.6299],[2.0662,35.948,928.5432],[2.0612,35.9458,925.2222],[2.0556,35.9459,965.7994]]]]}}