{"type":"Feature","properties":{"GID_2":"DZA.14.16_1","GID_0":"DZA","country":"Algeria","GID_1":"DZA.14_1","province":"Chlef","NL_NAME_1":"ولايةالشلف","county":"Harchoune","VARNAME_2":"Harchoun","NL_NAME_2":"NA","TYPE_2":"Commune","ENGTYPE_2":"Commune","CC_2":"209","HASC_2":"DZ.CH.HA","name":"Harchoune.county"},
"geometry":{"type": "MultiPolygon","coordinates": [[[[1.4351,36.12,287.2231],[1.4385,36.1148,300.9192],[1.4553,36.1021,409.9831],[1.4583,36.0924,440.4073],[1.4574,36.0832,452.2179],[1.4585,36.0782,426.2756],[1.4683,36.0693,498.2626],[1.4705,36.0742,490.74],[1.4869,36.0793,363.6483],[1.493,36.0796,292.9778],[1.5004,36.0789,306.1667],[1.5044,36.0723,423.2382],[1.5087,36.0693,343.5954],[1.5144,36.0682,310.5252],[1.5182,36.0705,352.7399],[1.5219,36.0685,357.5737],[1.5324,36.0733,400.9075],[1.5468,36.0726,506.9547],[1.5485,36.0892,284.7281],[1.5483,36.1079,228.5308],[1.5431,36.1113,221.3412],[1.543,36.1191,243.5561],[1.5391,36.1246,222.2928],[1.5357,36.1355,191.843],[1.525,36.139,185.4073],[1.5222,36.1451,179.7776],[1.5276,36.1505,175.2655],[1.5304,36.1566,172.3879],[1.5315,36.1615,169.3444],[1.5289,36.1656,170.3102],[1.5167,36.1676,170.0903],[1.5024,36.1636,180.2572],[1.4669,36.169,280.3831],[1.4617,36.1644,344.9022],[1.4554,36.155,309.2684],[1.4501,36.1526,322.223],[1.4514,36.1352,321.11],[1.4491,36.1244,315.5636],[1.4351,36.12,287.2231]]]]}}