{"type":"Feature","properties":{"GID_2":"DZA.11.1_1","GID_0":"DZA","country":"Algeria","GID_1":"DZA.11_1","province":"BordjBouArréridj","NL_NAME_1":"ولايةبرجبوعريريج","county":"AinTaghrout","VARNAME_2":"NA","NL_NAME_2":"NA","TYPE_2":"Commune","ENGTYPE_2":"Commune","CC_2":"3408","HASC_2":"DZ.BB.AG","name":"Ain_Taghrout.county"},
"geometry":{"type": "MultiPolygon","coordinates": [[[[5.1492,36.2076,827.8348],[5.1366,36.2166,831.7627],[5.124,36.2117,791.6271],[5.1178,36.2187,791.5996],[5.1031,36.1867,917.2063],[5.0998,36.1823,926.9806],[5.0931,36.1798,937.0131],[5.096,36.1742,946.0618],[5.0866,36.1531,940.2794],[5.082,36.1506,938.3134],[5.0748,36.15,949.2604],[5.0632,36.1551,970.4061],[5.0511,36.1377,949.6307],[5.0503,36.1311,940.0568],[5.0355,36.1301,942.958],[5.0371,36.1259,957.1757],[5.0506,36.1118,952.4076],[5.0424,36.1045,968.4488],[5.0436,36.0981,966.4325],[5.0464,36.0948,964.9931],[5.0421,36.0906,978.5996],[5.0456,36.0877,978.2206],[5.0824,36.0819,975.6329],[5.091,36.0783,985.3032],[5.0981,36.0775,955.7079],[5.1034,36.0788,945.5228],[5.1175,36.0744,934.2129],[5.1356,36.0803,921.9174],[5.1396,36.0757,919.9198],[5.149,36.0805,907.8467],[5.1562,36.0785,885.5763],[5.1608,36.0812,896.8514],[5.1613,36.086,889.8288],[5.1653,36.0885,898.2249],[5.1747,36.0896,893.7374],[5.1879,36.0866,896.7805],[5.1917,36.0909,868.6212],[5.1875,36.0934,867.7622],[5.185,36.0975,868.5663],[5.174,36.1018,866.4424],[5.1557,36.1159,861.1876],[5.164,36.122,865.3838],[5.1642,36.128,851.5],[5.166,36.132,851.5],[5.1714,36.1336,851.5],[5.1733,36.1389,851.5],[5.1671,36.1473,851.5],[5.1663,36.1527,851.5],[5.161,36.163,863.2759],[5.1618,36.1688,853.0298],[5.1593,36.1743,856.0924],[5.1591,36.1792,887.855],[5.1645,36.1882,909.3455],[5.1638,36.1948,943.3035],[5.1598,36.2006,908.6016],[5.1498,36.1998,856.3429],[5.1492,36.2076,827.8348]]]]}}