{"type":"Feature","properties":{"GID_2":"DZA.40.24_1","GID_0":"DZA","country":"Algeria","GID_1":"DZA.40_1","province":"SoukAhras","NL_NAME_1":"ولايةسوقأهراس","county":"Tiffech","VARNAME_2":"NA","NL_NAME_2":"NA","TYPE_2":"Commune","ENGTYPE_2":"Commune","CC_2":"4106","HASC_2":"DZ.SA.TI","name":"Tiffech.county"},
"geometry":{"type": "MultiPolygon","coordinates": [[[[7.8813,36.1513,731.6018],[7.8813,36.1573,720.2194],[7.8961,36.1648,691.5297],[7.9005,36.1697,696.0332],[7.8965,36.1744,763.8486],[7.8897,36.1759,808.5185],[7.869,36.1882,888.4198],[7.8724,36.1918,901.5475],[7.8728,36.2025,691.062],[7.8912,36.2128,661.8348],[7.8898,36.2188,786.3331],[7.8817,36.2172,767.9044],[7.8725,36.223,696.3317],[7.8479,36.2154,722.851],[7.8432,36.2118,731.3484],[7.8302,36.2099,768.8611],[7.8231,36.2094,798.6509],[7.8167,36.2129,842.3416],[7.8133,36.2199,913.0699],[7.8006,36.2232,1066.3904],[7.7638,36.2077,1030.8704],[7.7542,36.2079,980.866],[7.749,36.211,943.5652],[7.7442,36.2113,828.8362],[7.7083,36.2084,770.8571],[7.6963,36.2119,787.2977],[7.6867,36.2087,791.9116],[7.6803,36.2095,798.2582],[7.6761,36.2051,805.928],[7.6719,36.2037,807.5859],[7.6617,36.2041,824.4198],[7.656,36.2014,831.6276],[7.6586,36.198,878.3386],[7.6677,36.1951,930.9156],[7.6808,36.1798,1053.4382],[7.6875,36.1784,1064.0745],[7.6928,36.1754,1036.5448],[7.7002,36.1611,948.717],[7.7052,36.1572,912.4413],[7.7161,36.1546,884.092],[7.7212,36.1508,880.1483],[7.7378,36.1287,849.8873],[7.7558,36.1248,908.0487],[7.7672,36.124,948.3939],[7.7778,36.119,980.2687],[7.7839,36.1219,967.5694],[7.7894,36.133,971.566],[7.7891,36.1374,1000.7212],[7.7929,36.1418,1034.4319],[7.825,36.1529,1110.3699],[7.8448,36.1565,1021.4987],[7.8571,36.1551,863.4408],[7.8749,36.1497,775.2751],[7.8813,36.1513,731.6018]]]]}}