{"type": "Feature","bbox": [3.9009,36.7693,3.9802,36.8178],"geometry": {"type": "MultiPolygon","coordinates": [[[[3.9566,36.8178,493.186],[3.9484,36.8177,374.7747],[3.9386,36.8124,311.1567],[3.9298,36.8098,285.119],[3.9118,36.811,148.6652],[3.9061,36.8013,330.1328],[3.9066,36.7944,269.4236],[3.9009,36.7819,102.2646],[3.9065,36.7797,166.6759],[3.9173,36.7832,218.3196],[3.9237,36.7832,154.8412],[3.922,36.775,55.7149],[3.9321,36.7693,269.3298],[3.955,36.7728,419.9533],[3.9701,36.7778,446.4534],[3.9802,36.8023,726.2578],[3.9782,36.807,697.464],[3.9731,36.8082,625.9882],[3.9638,36.8156,585.6038],[3.9566,36.8178,493.186]]]]}
,"properties": {"GID_2": "DZA.13.28_1","GID_0": "DZA","country": "Algeria","GID_1": "DZA.13_1","province": "Boumerdès","NL_NAME_1": "ولايةبومرداس","county": "Taourga","VARNAME_2": "NA","NL_NAME_2": "NA","TYPE_2": "Commune","ENGTYPE_2": "Commune","CC_2": "3520","HASC_2": "DZ.BM.TA","name": "Taourga.county","area_km2": 25.94333,"hist_schema_id": "Elevation0-9000","hist_area_km2": {"50": 0.1019,"75": 0.20379,"100": 0.27171,"125": 0.59437,"150": 0.71322,"175": 0.76414,"200": 0.89995,"225": 1.05276,"250": 1.32444,"275": 1.17159,"300": 1.54512,"325": 1.90162,"350": 2.03741,"375": 2.17322,"400": 2.22415,"425": 1.90157,"450": 1.40915,"475": 1.18841,"500": 1.10351,"525": 0.61116,"550": 0.47534,"575": 0.39045,"600": 0.50927,"625": 0.47532,"650": 0.32255,"675": 0.23768,"700": 0.11884,"725": 0.15279,"750": 0.06791}}}