{"type":"Feature","properties":{"GID_2":"DZA.48.16_1","GID_0":"DZA","country":"Algeria","GID_1":"DZA.48_1","province":"Tlemcen","NL_NAME_1":"تلمسان","county":"BeniSmiel","VARNAME_2":"BeniSemiel","NL_NAME_2":"NA","TYPE_2":"Commune","ENGTYPE_2":"Commune","CC_2":"1352","HASC_2":"DZ.TL.BL","name":"Beni_Smiel.county"},
"geometry":{"type": "MultiPolygon","coordinates": [[[[-0.9713,34.8424,1045.1101],[-0.9849,34.8429,1056.0386],[-1.0066,34.8573,969.6075],[-1.0229,34.8649,783.7783],[-1.0481,34.8692,898.4911],[-1.056,34.8725,1020.8901],[-1.061,34.8705,1165.6147],[-1.0829,34.8556,1151.5698],[-1.1016,34.836,1021.0337],[-1.1145,34.8259,1093.3984],[-1.1145,34.8142,1299.6375],[-1.1378,34.8055,1354.1365],[-1.1418,34.8091,1246.8798],[-1.1469,34.8093,1352.994],[-1.1549,34.7988,1335.218],[-1.1734,34.7801,1522.0867],[-1.1712,34.7684,1416.4167],[-1.181,34.7579,1423.0906],[-1.2016,34.7466,1480.2212],[-1.2123,34.7364,1435.8604],[-1.1793,34.7018,1161.1931],[-1.1761,34.7058,1164.9639],[-1.1518,34.7093,1325.561],[-1.142,34.7157,1455.1021],[-1.1313,34.7161,1513.554],[-1.1207,34.7197,1540.0393],[-1.1021,34.7194,1563.9233],[-1.0988,34.7223,1569.6111],[-1.0861,34.724,1493.8677],[-1.0698,34.7186,1257.3069],[-1.0558,34.7199,1202.1102],[-1.0512,34.7184,1203.3138],[-1.0454,34.7135,1164.7644],[-1.0388,34.7029,1125.5696],[-1.0336,34.7008,1100.2406],[-1.0191,34.7117,1076.986],[-1.0087,34.7401,1102.1594],[-1.0081,34.7444,1116.0714],[-1.0099,34.7487,1123.9614],[-1.0208,34.7554,1189.1841],[-1.0207,34.77,1359.8069],[-1.0179,34.7791,1510.5197],[-0.9983,34.7977,1334.334],[-0.9951,34.8039,1389.8488],[-0.9948,34.8132,1226.78],[-0.9913,34.8211,1227.6554],[-0.9869,34.8272,1247.5482],[-0.9759,34.8315,1020.0695],[-0.9713,34.8424,1045.1101]]]]}}