{"type": "Feature","bbox": [2.3046,36.551,2.5186,36.6439],"geometry": {"type": "MultiPolygon","coordinates": [[[[2.5186,36.5922,0.0],[2.5025,36.5927,1.2046],[2.4955,36.5911,0.0],[2.484,36.5941,0.8218],[2.4776,36.593,0.0],[2.4384,36.5961,5.3858],[2.4319,36.5943,0.1581],[2.4269,36.5949,4.1094],[2.4099,36.6043,0.0],[2.4055,36.6146,0.0],[2.4076,36.6191,30.1211],[2.4065,36.6251,12.4513],[2.4016,36.6345,1.1431],[2.379,36.6401,10.0064],[2.3486,36.6439,3.0638],[2.3389,36.6405,2.7167],[2.3258,36.6402,10.6655],[2.3089,36.6373,0.0],[2.3046,36.634,76.8244],[2.3089,36.6308,187.8696],[2.3158,36.6327,168.3073],[2.3286,36.6287,321.3356],[2.3369,36.6279,282.0721],[2.3431,36.6311,254.4609],[2.3501,36.6304,353.9701],[2.3571,36.6267,386.437],[2.3646,36.6165,634.987],[2.3688,36.6031,771.9435],[2.3752,36.5898,372.631],[2.3852,36.5902,211.9603],[2.3976,36.5841,123.5403],[2.4038,36.5856,101.0461],[2.4128,36.5826,13.8119],[2.4116,36.5782,13.4717],[2.4058,36.5767,18.552],[2.4009,36.5719,19.8242],[2.4,36.5655,23.3592],[2.401,36.5603,82.3007],[2.4117,36.5511,129.6412],[2.4299,36.551,145.8584],[2.4357,36.5527,116.8104],[2.4463,36.56,172.1182],[2.4524,36.5593,194.442],[2.4592,36.5608,214.7775],[2.4655,36.5652,228.1084],[2.4738,36.5667,242.0253],[2.4835,36.566,238.0321],[2.4867,36.5693,231.8388],[2.4912,36.5709,225.0637],[2.4956,36.5757,162.3464],[2.4992,36.5722,206.4953],[2.504,36.5727,202.0055],[2.5102,36.5755,181.1964],[2.5099,36.5818,149.8161],[2.5155,36.5861,51.0894],[2.5186,36.5922,0.0]]]]}
,"properties": {"GID_2": "DZA.45.26_1","GID_0": "DZA","country": "Algeria","GID_1": "DZA.45_1","province": "Tipaza","NL_NAME_1": "ولايةتيبازة","county": "Tipaza","VARNAME_2": "Tibāzah","NL_NAME_2": "NA","TYPE_2": "Chef-Lieu-Wilaya","ENGTYPE_2": "Chef-Lieu-Wilaya","CC_2": "4201","HASC_2": "DZ.TP.TI","name": "Tipaza.county","area_km2": 61.9451,"hist_schema_id": "Elevation0-9000","hist_area_km2": {"0": 5.02144,"25": 7.09828,"50": 5.71966,"75": 5.26034,"100": 5.44784,"125": 4.97122,"150": 5.56718,"175": 4.30702,"200": 3.28568,"225": 2.92802,"250": 1.65082,"275": 1.17418,"300": 0.86786,"325": 1.03809,"350": 0.61265,"375": 0.83391,"400": 0.52758,"425": 0.56162,"450": 0.30636,"475": 0.34036,"500": 0.45953,"525": 0.30634,"550": 0.39144,"575": 0.34036,"600": 0.27232,"625": 0.59566,"650": 0.28933,"675": 0.2723,"700": 0.30634,"725": 0.28933,"750": 0.13616,"775": 0.1702,"800": 0.15318,"825": 0.15318,"850": 0.1702,"875": 0.10212,"900": 0.01702}}}