{"type":"Feature","properties":{"GID_2":"DZA.13.16_1","GID_0":"DZA","country":"Algeria","GID_1":"DZA.13_1","province":"Boumerdès","NL_NAME_1":"ولايةبومرداس","county":"Hammadi","VARNAME_2":"Hammedi","NL_NAME_2":"NA","TYPE_2":"Commune","ENGTYPE_2":"Commune","CC_2":"3530","HASC_2":"DZ.BM.HA","name":"Hammadi.county"},
"geometry":{"type": "MultiPolygon","coordinates": [[[[3.2585,36.6902,31.7324],[3.2283,36.6711,27.6583],[3.2317,36.6673,29.8196],[3.237,36.6677,32.6599],[3.2592,36.636,80.0039],[3.2724,36.6417,70.8225],[3.2741,36.6474,59.2027],[3.2776,36.6503,57.6773],[3.2759,36.6606,47.9513],[3.2775,36.667,44.3459],[3.2826,36.6646,47.0692],[3.2991,36.6644,50.642],[3.2985,36.6709,49.0959],[3.285,36.6768,39.91],[3.2823,36.6812,39.8117],[3.2881,36.6825,40.7639],[3.2977,36.6883,39.4567],[3.2967,36.6936,41.894],[3.2913,36.7022,30.3028],[3.2847,36.7023,29.6778],[3.2737,36.6996,31.3298],[3.2606,36.7141,22.1812],[3.2568,36.7161,21.4537],[3.2541,36.7043,26.6352],[3.2558,36.6986,26.4465],[3.26,36.6945,28.7573],[3.2585,36.6902,31.7324]]],
[[[3.2514,36.7183,20.3839],[3.2568,36.7161,21.4537],[3.2552,36.7201,21.3747],[3.2514,36.7183,20.3839]]]]}}