{"type": "Feature","bbox": [1.7462,36.4468,1.8599,36.569],"geometry": {"type": "MultiPolygon","coordinates": [[[[1.852,36.5428,350.2402],[1.8493,36.5505,434.9094],[1.8599,36.569,8.3941],[1.8438,36.5685,39.1569],[1.8245,36.5624,4.4609],[1.7867,36.5576,0.0],[1.7633,36.559,0.0],[1.7581,36.5612,26.299],[1.7466,36.5579,15.4766],[1.7462,36.5524,141.774],[1.7592,36.5484,181.1449],[1.762,36.5441,278.0601],[1.7601,36.5393,171.7369],[1.7654,36.5357,179.9568],[1.7683,36.531,147.5101],[1.77,36.5128,296.9639],[1.774,36.5079,277.9138],[1.7722,36.4883,602.0516],[1.7738,36.4729,1030.458],[1.7882,36.4749,859.22],[1.787,36.4686,655.0656],[1.7893,36.4625,566.6705],[1.7875,36.4563,525.777],[1.7789,36.4468,455.1179],[1.7868,36.4482,437.3959],[1.7952,36.4542,465.4337],[1.8154,36.464,494.4656],[1.8224,36.4713,542.6459],[1.8332,36.4757,639.2706],[1.8247,36.4946,411.2158],[1.8187,36.4973,415.893],[1.8119,36.4946,523.9335],[1.8063,36.4952,692.5364],[1.8035,36.5009,590.5013],[1.8054,36.511,553.0096],[1.8199,36.5135,341.5866],[1.8254,36.5175,255.9526],[1.8318,36.5263,219.7371],[1.8338,36.5324,154.8116],[1.833,36.5387,207.3171],[1.8387,36.5418,262.4994],[1.852,36.5428,350.2402]]]]}
,"properties": {"GID_2": "DZA.45.17_1","GID_0": "DZA","country": "Algeria","GID_1": "DZA.45_1","province": "Tipaza","NL_NAME_1": "ولايةتيبازة","county": "Larhat","VARNAME_2": "NA","NL_NAME_2": "NA","TYPE_2": "Commune-Cotiere","ENGTYPE_2": "Commune-Cotiere","CC_2": "4203","HASC_2": "DZ.TP.LA","name": "Larhat.county","area_km2": 60.86427,"hist_schema_id": "Elevation0-9000","hist_area_km2": {"0": 0.47684,"25": 1.17509,"50": 1.48167,"75": 1.46469,"100": 1.32846,"125": 1.54996,"150": 2.06105,"175": 1.89074,"200": 2.01002,"225": 2.38476,"250": 2.23154,"275": 2.16338,"300": 2.2316,"325": 2.01024,"350": 2.24876,"375": 2.02733,"400": 1.92518,"425": 1.56744,"450": 2.07904,"475": 1.70436,"500": 2.02817,"525": 1.95994,"550": 1.92602,"575": 1.96,"600": 1.78971,"625": 1.60213,"650": 1.32952,"675": 1.17612,"700": 1.27841,"725": 1.31252,"750": 1.12503,"775": 1.00574,"800": 0.85238,"825": 1.05694,"850": 0.83532,"875": 0.56257,"900": 0.57961,"925": 0.4603,"950": 0.63077,"975": 0.3921,"1000": 0.30686,"1025": 0.34097,"1050": 0.23868,"1075": 0.10229}}}