{"type":"Feature","properties":{"GID_2":"DZA.16.33_1","GID_0":"DZA","country":"Algeria","GID_1":"DZA.16_1","province":"Djelfa","NL_NAME_1":"ولايةالجلفة","county":"SidiLadjel","VARNAME_2":"SidiLaadjel","NL_NAME_2":"NA","TYPE_2":"Commune","ENGTYPE_2":"Commune","CC_2":"1719","HASC_2":"DZ.DJ.SL","name":"Sidi_Ladjel.county"},
"geometry":{"type": "MultiPolygon","coordinates": [[[[2.6075,35.451,723.9514],[2.5923,35.4657,700.5536],[2.5695,35.48,680.6823],[2.559,35.4862,676.7643],[2.5355,35.4936,673.5483],[2.5158,35.5173,671.0422],[2.5141,35.512,670.8513],[2.5144,35.5056,669.8157],[2.5061,35.4991,671.6079],[2.5015,35.5011,672.2752],[2.4979,35.5068,678.7953],[2.4925,35.5102,683.844],[2.4279,35.4844,721.6537],[2.4074,35.4742,729.6683],[2.388,35.4677,741.8566],[2.3972,35.4052,710.2532],[2.3944,35.3992,715.3318],[2.3631,35.3521,726.8615],[2.3652,35.3462,725.8652],[2.3485,35.3386,733.9941],[2.3417,35.3302,732.5075],[2.3309,35.3276,733.7311],[2.3158,35.3211,736.8263],[2.3345,35.314,749.7234],[2.3473,35.3151,743.373],[2.3586,35.3055,748.9581],[2.3713,35.2869,769.349],[2.3798,35.2705,804.2437],[2.3956,35.2514,899.3383],[2.3965,35.2463,959.3969],[2.4027,35.2451,989.6596],[2.4078,35.2519,1063.8334],[2.4351,35.2774,846.6497],[2.4466,35.2835,857.5753],[2.4635,35.2843,826.5478],[2.481,35.3127,751.451],[2.5022,35.3109,756.1368],[2.5257,35.3337,709.3058],[2.5405,35.3729,835.5723],[2.6075,35.451,723.9514]]]]}}