{"type":"Feature","properties":{"GID_2":"DZA.2.27_1","GID_0":"DZA","country":"Algeria","GID_1":"DZA.2_1","province":"AïnDefla","NL_NAME_1":"ولايةعينالدفلى","county":"Mekhatria","VARNAME_2":"NA","NL_NAME_2":"NA","TYPE_2":"Commune","ENGTYPE_2":"Commune","CC_2":"4430","HASC_2":"DZ.AD.ME","name":"Mekhatria.county"},
"geometry":{"type": "MultiPolygon","coordinates": [[[[1.9833,36.2873,232.0321],[1.9881,36.2902,242.5066],[1.9896,36.2957,236.1763],[1.9931,36.2998,240.5382],[1.9985,36.3022,246.3823],[1.9988,36.3068,247.6878],[2.0048,36.3079,254.9971],[2.01,36.306,259.189],[2.0187,36.3126,277.1017],[2.015,36.3227,352.1374],[2.0166,36.3293,314.5],[2.0001,36.3375,340.2759],[1.9967,36.3423,375.0373],[1.9975,36.3497,409.6476],[1.9943,36.3596,405.2224],[1.9962,36.3641,439.8545],[1.9929,36.3698,451.2472],[1.9917,36.3753,574.6141],[1.994,36.3855,604.4729],[1.9782,36.4011,748.2946],[1.9785,36.4109,942.8212],[1.9747,36.4138,989.8048],[1.9566,36.4189,943.3692],[1.9512,36.4286,1018.058],[1.9126,36.4303,923.0251],[1.915,36.424,821.3764],[1.9234,36.4132,796.053],[1.925,36.4075,645.4247],[1.9331,36.3935,497.3226],[1.9256,36.3853,500.5106],[1.9241,36.3811,503.3155],[1.9258,36.3691,453.7893],[1.9318,36.3577,425.8993],[1.9298,36.3508,391.3588],[1.9129,36.3425,315.7444],[1.9094,36.3376,410.3127],[1.9121,36.3332,284.6718],[1.9082,36.3147,243.1035],[1.8958,36.2973,212.4077],[1.9091,36.2906,219.0349],[1.9149,36.2896,217.3731],[1.9232,36.2798,218.863],[1.9286,36.2809,218.5234],[1.9287,36.2876,220.2514],[1.9309,36.2916,219.2411],[1.9367,36.2928,222.6689],[1.9409,36.2957,229.3953],[1.9478,36.2866,223.2591],[1.9595,36.2877,226.4659],[1.9707,36.2866,227.4073],[1.9766,36.2891,230.6022],[1.9833,36.2873,232.0321]]]]}}