{"type": "Feature","bbox": [1.056,36.2558,1.1774,36.4113],"geometry": {"type": "MultiPolygon","coordinates": [[[[1.117,36.4076,447.8008],[1.1047,36.389,669.4143],[1.0828,36.3796,826.816],[1.072,36.3787,789.983],[1.056,36.3709,656.8778],[1.0697,36.3396,336.6073],[1.0732,36.3349,290.2806],[1.0823,36.3293,285.0353],[1.0837,36.324,267.2552],[1.0782,36.3185,267.7498],[1.0755,36.3071,246.2789],[1.0754,36.2961,234.4495],[1.0776,36.2917,254.7426],[1.0737,36.2801,214.2496],[1.0852,36.2754,284.0416],[1.1046,36.2642,268.3032],[1.112,36.2558,200.0695],[1.1302,36.266,231.5811],[1.1374,36.2679,238.2544],[1.1461,36.2785,269.9001],[1.1513,36.2827,264.351],[1.1571,36.285,296.3541],[1.1712,36.2997,348.1208],[1.1718,36.3049,312.3361],[1.1774,36.3124,330.0258],[1.1756,36.3217,353.5206],[1.1703,36.3262,368.4408],[1.1662,36.3395,413.2374],[1.1663,36.346,462.0856],[1.17,36.3502,488.1747],[1.1722,36.3559,561.6899],[1.1569,36.3509,497.9503],[1.154,36.3553,385.3576],[1.1577,36.3688,273.8667],[1.162,36.3726,242.4153],[1.1637,36.3781,259.2701],[1.1592,36.3915,224.4359],[1.161,36.3981,199.3788],[1.146,36.3968,231.1425],[1.1402,36.402,382.2804],[1.1384,36.4081,356.8298],[1.1337,36.4113,321.0399],[1.1275,36.4113,331.0287],[1.117,36.4076,447.8008]]]]}
,"properties": {"GID_2": "DZA.14.31_1","GID_0": "DZA","country": "Algeria","GID_1": "DZA.14_1","province": "Chlef","NL_NAME_1": "ولايةالشلف","county": "Tadjena","VARNAME_2": "NA","NL_NAME_2": "NA","TYPE_2": "Commune","ENGTYPE_2": "Commune","CC_2": "205","HASC_2": "DZ.CH.TJ","name": "Tadjena.county","area_km2": 116.31509,"hist_schema_id": "Elevation0-9000","hist_area_km2": {"200": 0.39289,"225": 2.69816,"250": 4.81634,"275": 6.49079,"300": 7.05499,"325": 9.00275,"350": 10.26701,"375": 12.6416,"400": 11.30789,"425": 9.76959,"450": 8.8301,"475": 7.13913,"500": 6.40423,"525": 5.77239,"550": 4.52577,"575": 1.86102,"600": 1.41699,"625": 1.07549,"650": 1.04133,"675": 1.19492,"700": 0.9047,"725": 0.54624,"750": 0.47796,"775": 0.3414,"800": 0.15363,"825": 0.1707,"850": 0.01707}}}