{"type": "Feature","bbox": [2.9406,35.0993,3.2482,35.3306],"geometry": {"type": "MultiPolygon","coordinates": [[[[2.9479,35.1652,880.4519],[2.9441,35.1552,909.5022],[2.9451,35.1474,916.8899],[2.9406,35.1409,929.3663],[2.9476,35.1359,920.0984],[2.9592,35.1322,945.6199],[2.9858,35.1291,976.3868],[3.0696,35.0993,895.2443],[3.103,35.1169,905.0267],[3.1425,35.1287,911.1694],[3.1634,35.1414,912.1387],[3.2172,35.1696,879.6906],[3.2482,35.1838,882.9406],[3.2455,35.2131,996.5042],[3.2349,35.2421,980.539],[3.2358,35.2635,907.1961],[3.2285,35.2924,809.8032],[3.1877,35.3306,760.7073],[3.1814,35.3271,760.8188],[3.1244,35.2811,772.0948],[3.0999,35.2583,790.3737],[3.0622,35.2362,819.7195],[3.0112,35.229,810.0203],[3.0001,35.2184,814.9387],[2.9834,35.2106,835.0339],[2.9749,35.1994,850.3379],[2.9696,35.1952,856.7283],[2.966,35.189,853.6238],[2.9615,35.1855,849.3784],[2.9531,35.1699,876.2],[2.9479,35.1652,880.4519]]]]}
,"properties": {"GID_2": "DZA.16.10_1","GID_0": "DZA","country": "Algeria","GID_1": "DZA.16_1","province": "Djelfa","NL_NAME_1": "ولايةالجلفة","county": "BouiraLahdab","VARNAME_2": "NA","NL_NAME_2": "NA","TYPE_2": "Commune","ENGTYPE_2": "Commune","CC_2": "1709","HASC_2": "DZ.DJ.BL","name": "Bouira_Lahdab.county","area_km2": 382.2107,"hist_schema_id": "Elevation0-9000","hist_area_km2": {"750": 4.4812,"775": 23.3797,"800": 28.8766,"825": 40.4372,"850": 33.31,"875": 26.248,"900": 36.4675,"925": 42.1051,"950": 34.926,"975": 31.5438,"1000": 26.6177,"1025": 20.6017,"1050": 13.7738,"1075": 8.7145,"1100": 4.6264,"1125": 1.9931,"1150": 2.1667,"1175": 1.1268,"1200": 0.5547,"1225": 0.26}}}