{"type": "Feature","bbox": [7.1639,36.1321,7.333,36.3231],"geometry": {"type": "MultiPolygon","coordinates": [[[[7.3188,36.146,672.9545],[7.3124,36.1461,671.0303],[7.3167,36.1421,691.9342],[7.3216,36.1418,673.0496],[7.3188,36.146,672.9545]]],
[[[7.3213,36.3117,531.2579],[7.3222,36.3179,485.0789],[7.2997,36.3144,578.8126],[7.2736,36.3174,686.591],[7.2647,36.3231,654.1034],[7.2585,36.3196,661.1015],[7.262,36.3065,719.5255],[7.2621,36.2939,743.2879],[7.2553,36.2907,777.203],[7.2475,36.2895,829.7252],[7.2356,36.2916,967.4327],[7.2324,36.2957,908.5441],[7.2269,36.2958,953.8578],[7.2264,36.2896,1073.8186],[7.2161,36.2783,1111.3668],[7.2165,36.268,1020.0799],[7.205,36.2625,1028.0552],[7.1984,36.2619,1015.0453],[7.1848,36.2573,994.065],[7.1806,36.2532,984.7195],[7.1795,36.2345,869.5199],[7.1815,36.23,852.3613],[7.1814,36.2241,836.1649],[7.1738,36.2163,809.7946],[7.1706,36.2064,793.1308],[7.1667,36.2028,786.4718],[7.1643,36.1968,772.6705],[7.1639,36.1904,770.2735],[7.1727,36.1772,759.3206],[7.1776,36.1601,731.026],[7.1905,36.1488,724.8732],[7.1996,36.1431,740.7413],[7.2215,36.147,730.6323],[7.2273,36.1453,795.926],[7.2519,36.1321,743.1176],[7.2559,36.1342,715.3547],[7.2579,36.1405,747.591],[7.2682,36.1459,743.8339],[7.3063,36.1444,708.1623],[7.3124,36.1461,671.0303],[7.2986,36.1514,665.1038],[7.2904,36.1579,678.3215],[7.2938,36.1639,657.9257],[7.2842,36.1777,832.7458],[7.2881,36.1801,760.6805],[7.2842,36.193,793.5776],[7.2913,36.2013,818.8179],[7.292,36.208,765.4081],[7.2961,36.2173,748.7637],[7.3032,36.2259,727.4438],[7.3145,36.2311,604.8332],[7.3145,36.2383,634.9935],[7.3097,36.2444,600.3451],[7.3082,36.25,587.9893],[7.3205,36.2551,614.884],[7.3241,36.2526,589.4183],[7.333,36.2585,631.0959],[7.3315,36.2647,599.3649],[7.3284,36.2696,578.9036],[7.3222,36.2712,573.1391],[7.3131,36.2917,574.9212],[7.3154,36.2983,547.9941],[7.32,36.3025,509.8177],[7.3213,36.3117,531.2579]]]]}
,"properties": {"GID_2": "DZA.21.3_1","GID_0": "DZA","country": "Algeria","GID_1": "DZA.21_1","province": "Guelma","NL_NAME_1": "ولايةقالمة","county": "AinMakhlouf","VARNAME_2": "NA","NL_NAME_2": "NA","TYPE_2": "Commune","ENGTYPE_2": "Commune","CC_2": "2413","HASC_2": "DZ.GL.AM","name": "Ain_Makhlouf.county","area_km2": 191.293,"hist_schema_id": "Elevation0-9000","hist_area_km2": {"475": 0.1025,"500": 0.2734,"525": 0.3759,"550": 0.581,"575": 2.3928,"600": 3.1453,"625": 2.9229,"650": 4.3942,"675": 7.8682,"700": 8.9807,"725": 15.9454,"750": 23.2331,"775": 25.1653,"800": 23.3858,"825": 21.3659,"850": 14.8114,"875": 10.2086,"900": 7.4548,"925": 5.0094,"950": 4.4794,"975": 3.6073,"1000": 2.8037,"1025": 1.3162,"1050": 0.5982,"1075": 0.3077,"1100": 0.2906,"1125": 0.2564,"1150": 0.0171}}}