{"type":"Feature","properties":{"GID_2":"DZA.25.18_1","GID_0":"DZA","country":"Algeria","GID_1":"DZA.25_1","province":"Laghouat","NL_NAME_1":"ولايةالأغواط","county":"OuedMora","VARNAME_2":"OuedMorra","NL_NAME_2":"NA","TYPE_2":"Commune","ENGTYPE_2":"Commune","CC_2":"321","HASC_2":"DZ.LG.OR","name":"Oued_Mora.county"},
"geometry":{"type": "MultiPolygon","coordinates": [[[[2.2218,34.1725,1405.807],[2.2677,34.1524,1320.886],[2.2731,34.1525,1317.8567],[2.2778,34.1504,1313.7656],[2.2816,34.1389,1294.8604],[2.2848,34.1348,1292.8964],[2.2912,34.1348,1274.8406],[2.3062,34.139,1264.8232],[2.3318,34.1305,1234.8335],[2.3365,34.1259,1217.3544],[2.3463,34.1261,1191.3591],[2.3529,34.1235,1181.8481],[2.3599,34.1258,1174.6455],[2.3639,34.1234,1158.9872],[2.3679,34.1147,1204.0942],[2.3674,34.1045,1136.6951],[2.3737,34.0992,1119.3689],[2.3743,34.0926,1144.9615],[2.3804,34.0892,1105.3622],[2.3855,34.084,1091.0933],[2.3868,34.0782,1078.6804],[2.3951,34.0849,1092.2166],[2.4078,34.108,1123.0009],[2.4355,34.1306,1214.1111],[2.4688,34.1493,1196.3807],[2.4555,34.1716,1237.866],[2.4412,34.1858,1281.5613],[2.4317,34.2012,1296.6964],[2.4216,34.2108,1327.0996],[2.3953,34.2247,1305.5237],[2.3904,34.2288,1308.4846],[2.3857,34.301,1222.0306],[2.3818,34.3087,1251.3806],[2.3704,34.3224,1179.5454],[2.3672,34.3287,1178.3936],[2.3664,34.3357,1153.7072],[2.3259,34.325,1190.8381],[2.3204,34.3193,1190.9126],[2.3202,34.3149,1195.6649],[2.3145,34.3025,1211.3895],[2.3096,34.2984,1226.4221],[2.3036,34.2775,1292.5155],[2.2938,34.2749,1273.0033],[2.2907,34.2716,1288.4697],[2.2887,34.263,1308.1038],[2.2729,34.2487,1435.8674],[2.231,34.2334,1463.0728],[2.2437,34.2068,1541.1052],[2.2383,34.1914,1498.0773],[2.2268,34.1864,1464.5938],[2.2201,34.181,1437.0332],[2.2218,34.1725,1405.807]]]]}}