{"type":"Feature","properties":{"GID_2":"DZA.6.17_1","GID_0":"DZA","country":"Algeria","GID_1":"DZA.6_1","province":"Batna","NL_NAME_1":"ولايةباتنة","county":"Djezzar","VARNAME_2":"NA","NL_NAME_2":"NA","TYPE_2":"Commune","ENGTYPE_2":"Commune","CC_2":"543","HASC_2":"DZ.BT.DZ","name":"Djezzar.county"},
"geometry":{"type": "MultiPolygon","coordinates": [[[[5.4221,35.405,495.8905],[5.4286,35.4048,512.1411],[5.4334,35.4082,506.1631],[5.4344,35.4127,509.8419],[5.4464,35.4206,519.5685],[5.462,35.4247,531.7953],[5.4615,35.4297,530.9924],[5.4647,35.4358,535.3436],[5.4659,35.4437,535.8993],[5.4711,35.4541,546.4069],[5.4733,35.4653,555.434],[5.4715,35.473,557.5633],[5.4646,35.4732,565.585],[5.4606,35.4782,576.7168],[5.4344,35.5232,700.8773],[5.42,35.539,951.4595],[5.4219,35.5446,960.1595],[5.4207,35.5523,1001.2348],[5.4147,35.555,885.6112],[5.3991,35.5715,747.5748],[5.388,35.5798,712.3586],[5.3879,35.5954,737.0598],[5.3923,35.6089,791.7822],[5.3908,35.6148,797.8107],[5.3838,35.6182,805.1068],[5.3561,35.6219,782.0027],[5.3503,35.6239,758.657],[5.338,35.6317,770.7321],[5.3372,35.625,760.9596],[5.3337,35.6188,752.2441],[5.3006,35.5888,689.7748],[5.2871,35.5839,669.8773],[5.2778,35.5778,676.6572],[5.2647,35.5724,611.0801],[5.2541,35.5633,595.4325],[5.2369,35.5572,571.0819],[5.2299,35.5527,561.8212],[5.2234,35.5416,560.6605],[5.2159,35.5339,551.3073],[5.2159,35.5292,534.2505],[5.2133,35.5251,520.7249],[5.2089,35.52,508.4467],[5.2031,35.5176,505.3031],[5.1979,35.5127,495.8801],[5.209,35.4996,485.4905],[5.2114,35.4947,482.865],[5.2068,35.491,476.6958],[5.2071,35.4863,476.3518],[5.2307,35.4485,475.3452],[5.236,35.4603,477.232],[5.2447,35.4701,494.8812],[5.249,35.4722,494.4087],[5.2697,35.4574,485.8763],[5.2827,35.4503,478.2284],[5.2879,35.4505,482.4997],[5.3234,35.4718,524.3582],[5.3507,35.4715,548.6181],[5.3551,35.4705,550.1956],[5.3549,35.454,520.7566],[5.358,35.4497,518.3162],[5.37,35.4402,519.681],[5.3843,35.4335,513.697],[5.3795,35.423,499.5899],[5.387,35.4162,501.0656],[5.3944,35.4146,504.3506],[5.4061,35.4178,512.1929],[5.4221,35.405,495.8905]]]]}}