{"type":"Feature","properties":{"GID_2":"DZA.29.19_1","GID_0":"DZA","country":"Algeria","GID_1":"DZA.29_1","province":"Mila","NL_NAME_1":"ولايةميلة","county":"OuedEndja","VARNAME_2":"NA","NL_NAME_2":"NA","TYPE_2":"Commune","ENGTYPE_2":"Commune","CC_2":"4310","HASC_2":"DZ.ML.OE","name":"Oued_Endja.county"},
"geometry":{"type": "MultiPolygon","coordinates": [[[[6.1641,36.4048,402.0673],[6.169,36.4091,394.1465],[6.1691,36.4174,327.3335],[6.1747,36.4215,341.9638],[6.1914,36.427,378.7029],[6.1962,36.4306,388.7696],[6.195,36.4368,409.6884],[6.1909,36.4409,416.8978],[6.1813,36.4459,345.3202],[6.1773,36.4437,329.443],[6.1722,36.4435,318.677],[6.1413,36.452,277.1548],[6.1342,36.4522,279.4606],[6.1219,36.4597,265.1444],[6.1233,36.4708,282.8523],[6.1187,36.4808,215.9729],[6.1196,36.4914,198.6037],[6.1218,36.4962,197.0],[6.1169,36.4988,203.1705],[6.0953,36.4972,208.7114],[6.0816,36.4926,206.4891],[6.0756,36.4886,305.0706],[6.0768,36.4827,332.8259],[6.0738,36.4664,500.4641],[6.0816,36.4531,321.8256],[6.0889,36.4443,270.1098],[6.0882,36.4368,276.1359],[6.093,36.4357,304.3613],[6.0968,36.4201,343.6522],[6.1071,36.4143,445.8177],[6.1182,36.4135,370.6039],[6.1199,36.408,409.4252],[6.13,36.4114,425.9141],[6.1366,36.4112,403.8365],[6.1541,36.4166,333.4911],[6.158,36.4135,362.1356],[6.1602,36.4077,381.1494],[6.1641,36.4048,402.0673]]]]}}