{"type": "Feature","bbox": [5.7715,34.8052,5.9151,34.9262],"geometry": {"type": "MultiPolygon","coordinates": [[[[5.7937,34.808,70.2458],[5.8212,34.8052,63.0715],[5.8465,34.809,69.2445],[5.8674,34.8237,83.2286],[5.8744,34.8336,93.0416],[5.8796,34.8359,96.3173],[5.8848,34.8357,101.8661],[5.9051,34.8413,124.2146],[5.9094,34.8601,298.3346],[5.9151,34.8618,300.5634],[5.9091,34.8754,235.6836],[5.9077,34.8923,211.5071],[5.9025,34.8974,260.5645],[5.8993,34.9032,259.1371],[5.9014,34.9091,260.5599],[5.901,34.9151,278.0579],[5.8984,34.9208,297.3391],[5.8921,34.9262,350.4946],[5.8869,34.9246,419.7943],[5.8733,34.9192,417.8147],[5.86,34.9111,356.3541],[5.8523,34.9041,299.354],[5.8385,34.8969,273.5881],[5.8217,34.8921,272.1816],[5.8011,34.8906,247.0634],[5.7771,34.8974,208.9242],[5.7747,34.8929,189.5853],[5.7757,34.8805,157.4902],[5.7733,34.8758,151.3033],[5.7734,34.869,126.4603],[5.7715,34.8629,115.6461],[5.7775,34.8587,111.2786],[5.778,34.8456,90.3182],[5.7836,34.8433,86.0382],[5.7928,34.8354,80.9255],[5.7941,34.831,76.827],[5.7937,34.808,70.2458]]]]}
,"properties": {"GID_2": "DZA.9.8_1","GID_0": "DZA","country": "Algeria","GID_1": "DZA.9_1","province": "Biskra","NL_NAME_1": "ولايةبسكرة","county": "Chetma","VARNAME_2": "NA","NL_NAME_2": "NA","TYPE_2": "Commune","ENGTYPE_2": "Commune","CC_2": "704","HASC_2": "DZ.BS.CH","name": "Chetma.county","area_km2": 110.07081,"hist_schema_id": "Elevation0-9000","hist_area_km2": {"75": 21.14731,"100": 16.56543,"125": 17.08439,"150": 13.46423,"175": 12.24524,"200": 8.83549,"225": 6.53921,"250": 7.00814,"275": 3.51255,"300": 1.73878,"325": 0.79987,"350": 0.48689,"375": 0.31296,"400": 0.13908,"425": 0.15646,"450": 0.03477}}}