{"type": "Feature","bbox": [2.8792,36.6306,3.0048,36.7078],"geometry": {"type": "MultiPolygon","coordinates": [[[[2.986,36.6494,86.7259],[2.9763,36.6612,200.7961],[2.9671,36.6694,194.6186],[2.9751,36.6756,165.4364],[2.9759,36.6852,131.7451],[2.9836,36.6844,131.7361],[3.0048,36.6918,109.5453],[2.9895,36.7024,147.8973],[2.9751,36.7059,150.5832],[2.9643,36.7078,195.7182],[2.958,36.7069,171.3766],[2.9489,36.7021,194.2637],[2.9339,36.7049,154.104],[2.9276,36.7009,192.2524],[2.9168,36.6981,182.3034],[2.9008,36.6878,174.6611],[2.8959,36.6879,133.0138],[2.8956,36.681,159.9224],[2.8975,36.6747,179.5063],[2.9023,36.6732,204.153],[2.9017,36.6685,186.6089],[2.8956,36.6599,124.6497],[2.8895,36.6589,128.382],[2.8833,36.6503,100.101],[2.8792,36.6344,30.3345],[2.8866,36.6327,28.5643],[2.9182,36.6306,36.6942],[2.9399,36.6325,44.622],[2.9481,36.649,152.8091],[2.9496,36.6554,128.7119],[2.9537,36.6576,142.6794],[2.9582,36.6561,126.7053],[2.9603,36.6513,146.2855],[2.9615,36.6367,55.57],[2.9821,36.64,51.9472],[2.9882,36.6426,57.1349],[2.986,36.6494,86.7259]]]]}
,"properties": {"GID_2": "DZA.4.9_1","GID_0": "DZA","country": "Algeria","GID_1": "DZA.4_1","province": "Alger","NL_NAME_1": "ولايةالجزائر","county": "Douera","VARNAME_2": "Duwīrah","NL_NAME_2": "NA","TYPE_2": "Commune","ENGTYPE_2": "Commune","CC_2": "1654","HASC_2": "DZ.AL.DO","name": "Douera.county","area_km2": 57.70274,"hist_schema_id": "Elevation0-9000","hist_area_km2": {"25": 1.07188,"50": 5.10395,"75": 4.64421,"100": 5.27301,"125": 7.68745,"150": 12.03911,"175": 15.74497,"200": 5.88305,"225": 0.25511}}}