{"type":"Feature","properties":{"GID_2":"DZA.11.12_1","GID_0":"DZA","country":"Algeria","GID_1":"DZA.11_1","province":"BordjBouArréridj","NL_NAME_1":"ولايةبرجبوعريريج","county":"ElAchir","VARNAME_2":"al-Ashir","NL_NAME_2":"NA","TYPE_2":"Commune","ENGTYPE_2":"Commune","CC_2":"3407","HASC_2":"DZ.BB.ER","name":"El_Achir.county"},
"geometry":{"type": "MultiPolygon","coordinates": [[[[4.7277,36.0378,860.6005],[4.7197,36.0418,860.889],[4.7219,36.0376,855.1442],[4.7277,36.0378,860.6005]]],
[[[4.6915,36.069,901.3862],[4.6924,36.074,919.2922],[4.688,36.0746,912.1227],[4.6805,36.0804,922.0102],[4.6714,36.0916,974.4194],[4.6643,36.0918,978.4573],[4.6355,36.0979,1065.9674],[4.6277,36.1046,1117.538],[4.622,36.1055,1142.4404],[4.6127,36.1104,1234.9065],[4.6024,36.1105,1217.8276],[4.5987,36.1136,1140.5918],[4.5881,36.1165,996.4047],[4.5825,36.1223,900.6286],[4.5657,36.1219,836.4207],[4.5552,36.1241,819.5476],[4.5566,36.1127,851.4965],[4.5603,36.1073,862.3321],[4.5692,36.0993,937.933],[4.5817,36.0925,1006.5269],[4.5838,36.0887,1034.1116],[4.5829,36.0838,994.4095],[4.5782,36.0802,973.7999],[4.5812,36.0756,1002.2988],[4.5808,36.0712,1010.5179],[4.5777,36.0676,1038.2698],[4.5677,36.0682,1095.7509],[4.5647,36.0597,1168.4113],[4.5602,36.0563,1240.3801],[4.5521,36.0554,1280.3046],[4.5271,36.0462,1398.9089],[4.5218,36.0428,1436.2938],[4.5595,36.0355,1104.4741],[4.5573,36.0264,1299.2089],[4.5644,36.0244,1290.0981],[4.5867,36.0259,1208.4292],[4.6129,36.0113,1083.6735],[4.6221,36.0138,987.0954],[4.6259,36.0258,915.6831],[4.6381,36.0258,894.0601],[4.643,36.0317,919.8496],[4.6497,36.0355,965.8173],[4.6547,36.0359,945.9764],[4.6599,36.0329,950.2611],[4.6851,36.0355,937.6309],[4.6786,36.0396,921.7566],[4.678,36.0438,920.1079],[4.6924,36.0442,894.6614],[4.7125,36.0407,867.4915],[4.7197,36.0418,860.889],[4.7073,36.0509,881.5161],[4.6967,36.0657,899.4751],[4.6915,36.069,901.3862]]]]}}