{"type": "Feature","bbox": [-1.6197,34.7629,-1.4124,34.9323],"geometry": {"type": "MultiPolygon","coordinates": [[[[-1.4211,34.7904,1373.7888],[-1.424,34.796,1241.4797],[-1.4227,34.8005,1225.3055],[-1.4124,34.8121,1231.2722],[-1.4246,34.8216,852.7305],[-1.4386,34.8242,737.657],[-1.4513,34.8353,644.2094],[-1.4569,34.8364,582.5449],[-1.4618,34.8401,624.1108],[-1.4665,34.8456,589.4601],[-1.4654,34.8528,542.5847],[-1.471,34.8682,458.1544],[-1.4696,34.8849,404.2835],[-1.4664,34.8906,369.566],[-1.4704,34.8952,420.7522],[-1.4953,34.9033,335.4093],[-1.5128,34.9024,410.7042],[-1.526,34.9029,446.498],[-1.5377,34.9056,443.7367],[-1.5452,34.9045,443.9948],[-1.5487,34.9071,399.2892],[-1.5513,34.9117,385.4021],[-1.5635,34.9068,413.6672],[-1.5687,34.9194,365.947],[-1.5704,34.9309,342.5675],[-1.5747,34.9323,342.4371],[-1.5786,34.9298,324.275],[-1.5835,34.9296,314.3912],[-1.5888,34.9174,342.6956],[-1.5922,34.9201,294.516],[-1.5953,34.916,313.994],[-1.6012,34.8996,324.7091],[-1.6158,34.8893,311.9624],[-1.6165,34.883,320.4896],[-1.6197,34.8777,378.8871],[-1.6178,34.8717,378.2933],[-1.6091,34.8643,463.4493],[-1.597,34.8635,410.3328],[-1.5977,34.8569,431.2603],[-1.5926,34.85,454.8208],[-1.5864,34.8469,473.1525],[-1.5833,34.8297,514.7778],[-1.5765,34.8277,485.1974],[-1.5761,34.8223,511.8314],[-1.5731,34.8178,519.4732],[-1.5671,34.8168,525.8409],[-1.5521,34.8063,582.444],[-1.5403,34.8082,629.949],[-1.5182,34.7933,1077.5076],[-1.5017,34.7934,988.2072],[-1.4921,34.79,1167.0887],[-1.4741,34.781,1137.9177],[-1.4622,34.7702,1213.1658],[-1.4429,34.7629,1229.3635],[-1.4385,34.7676,1160.6409],[-1.4381,34.7745,1224.5824],[-1.4323,34.7814,1306.7234],[-1.4269,34.7837,1303.7277],[-1.4211,34.7904,1373.7888]]]]}
,"properties": {"GID_2": "DZA.48.41_1","GID_0": "DZA","country": "Algeria","GID_1": "DZA.48_1","province": "Tlemcen","NL_NAME_1": "تلمسان","county": "Sabra","VARNAME_2": "NA","NL_NAME_2": "NA","TYPE_2": "Commune","ENGTYPE_2": "Commune","CC_2": "1306","HASC_2": "DZ.TL.SB","name": "Sabra.county","area_km2": 168.6765,"hist_schema_id": "Elevation0-9000","hist_area_km2": {"275": 0.1217,"300": 0.8345,"325": 1.9474,"350": 3.5993,"375": 6.9037,"400": 10.2436,"425": 14.1925,"450": 14.4543,"475": 12.5075,"500": 12.0043,"525": 10.3354,"550": 9.3269,"575": 8.4749,"600": 7.0307,"625": 4.1595,"650": 3.0807,"675": 2.3671,"700": 2.6283,"725": 2.3672,"750": 2.1062,"775": 2.3673,"800": 2.1411,"825": 2.1586,"850": 2.1586,"875": 1.9323,"900": 1.7235,"925": 1.8975,"950": 1.4449,"975": 1.4449,"1000": 1.3927,"1025": 1.4102,"1050": 1.2187,"1075": 0.9749,"1100": 1.3928,"1125": 2.1938,"1150": 1.9849,"1175": 2.194,"1200": 2.1244,"1225": 1.9328,"1250": 1.5324,"1275": 1.6717,"1300": 1.3234,"1325": 0.7662,"1350": 0.3831,"1375": 0.1741,"1400": 0.0522}}}