{"type": "Feature","bbox": [5.0485,36.5135,5.1285,36.5775],"geometry": {"type": "MultiPolygon","coordinates": [[[[5.0622,36.5708,1024.1213],[5.0527,36.5632,738.3704],[5.0559,36.5569,568.0438],[5.0638,36.5522,642.7295],[5.0525,36.5231,1201.6343],[5.0485,36.5215,1336.9926],[5.053,36.517,1245.3423],[5.0609,36.5135,1200.2866],[5.0786,36.5161,1257.2681],[5.1168,36.5343,1493.4329],[5.1236,36.5337,1384.7333],[5.1285,36.536,1271.1439],[5.1152,36.5403,1602.4651],[5.1094,36.5444,1547.6082],[5.0987,36.5626,966.194],[5.0818,36.5669,881.4384],[5.0831,36.5729,707.8077],[5.08,36.5775,685.4185],[5.0671,36.5738,948.12],[5.0622,36.5708,1024.1213]]]]}
,"properties": {"GID_2": "DZA.37.11_1","GID_0": "DZA","country": "Algeria","GID_1": "DZA.37_1","province": "Sétif","NL_NAME_1": "ولايةسطيف","county": "AitNaoualMezada","VARNAME_2": "Mzada","NL_NAME_2": "NA","TYPE_2": "Commune","ENGTYPE_2": "Commune","CC_2": "1951","HASC_2": "DZ.SF.AN","name": "Ait_Naoual_Mezada.county","area_km2": 25.72149,"hist_schema_id": "Elevation0-9000","hist_area_km2": {"600": 0.08516,"625": 0.10218,"650": 0.22141,"675": 0.44283,"700": 0.40876,"725": 0.45987,"750": 0.6302,"775": 0.5791,"800": 0.80052,"825": 0.78349,"850": 0.91974,"875": 0.78348,"900": 1.14118,"925": 1.14116,"950": 1.12415,"975": 1.22628,"1000": 1.26045,"1025": 1.29454,"1050": 1.17538,"1075": 1.43101,"1100": 1.31177,"1125": 1.2096,"1150": 1.12441,"1175": 1.00515,"1200": 0.83479,"1225": 0.73258,"1250": 0.69854,"1275": 0.3237,"1300": 0.25555,"1325": 0.23849,"1350": 0.20441,"1375": 0.13628,"1400": 0.11924,"1425": 0.23849,"1450": 0.20442,"1475": 0.15332,"1500": 0.15331,"1525": 0.23849,"1550": 0.13628,"1575": 0.10221,"1600": 0.08517,"1625": 0.13628,"1650": 0.0511,"1675": 0.01703}}}