{"type":"Feature","properties":{"GID_2":"DZA.29.30_1","GID_0":"DZA","country":"Algeria","GID_1":"DZA.29_1","province":"Mila","NL_NAME_1":"ولايةميلة","county":"Tiberguent","VARNAME_2":"NA","NL_NAME_2":"NA","TYPE_2":"Commune","ENGTYPE_2":"Commune","CC_2":"4313","HASC_2":"DZ.ML.TI","name":"Tiberguent.county"},
"geometry":{"type": "MultiPolygon","coordinates": [[[[6.0968,36.4201,343.6522],[6.093,36.4357,304.3613],[6.0882,36.4368,276.1359],[6.0815,36.4334,285.7032],[6.0759,36.4329,291.3774],[6.0709,36.4283,300.1351],[6.0657,36.4264,309.5312],[6.0289,36.4368,493.3686],[5.9943,36.4368,589.6556],[5.9823,36.4341,723.7139],[5.9858,36.4299,623.1044],[5.9996,36.423,470.3068],[6.0052,36.4218,444.3897],[6.0155,36.4241,419.8645],[6.0252,36.4182,367.1021],[6.0279,36.4129,372.7138],[6.0248,36.4019,403.8354],[6.0261,36.3964,431.8472],[6.0328,36.3871,483.0546],[6.0303,36.3641,510.9386],[6.0321,36.3586,593.5369],[6.0384,36.3586,691.7904],[6.0586,36.3683,766.7468],[6.0657,36.3681,791.8239],[6.0724,36.3698,730.7097],[6.0967,36.3808,491.9173],[6.0999,36.3866,477.4529],[6.0934,36.3895,537.6365],[6.0928,36.4024,477.5229],[6.0968,36.4201,343.6522]]]]}}