{"type":"Feature","properties":{"GID_2":"DZA.48.51_1","GID_0":"DZA","country":"Algeria","GID_1":"DZA.48_1","province":"Tlemcen","NL_NAME_1":"تلمسان","county":"Tianet","VARNAME_2":"Tienet","NL_NAME_2":"NA","TYPE_2":"Commune","ENGTYPE_2":"Commune","CC_2":"1345","HASC_2":"DZ.TL.TI","name":"Tianet.county"},
"geometry":{"type": "MultiPolygon","coordinates": [[[[-1.8005,35.0197,228.6396],[-1.8118,35.0298,215.0273],[-1.8066,35.0323,187.6341],[-1.8033,35.0425,155.8871],[-1.8026,35.0487,133.0302],[-1.8055,35.0587,84.9885],[-1.8198,35.0638,70.9099],[-1.821,35.0696,46.1263],[-1.8286,35.0717,40.2573],[-1.8318,35.0664,113.2345],[-1.839,35.0649,155.8647],[-1.8463,35.0581,131.8791],[-1.8529,35.0566,175.6103],[-1.8571,35.0507,280.6134],[-1.8575,35.0438,301.2502],[-1.8612,35.0339,397.8401],[-1.8516,35.0193,226.1489],[-1.8455,35.0191,166.9557],[-1.8356,35.0218,157.1735],[-1.8347,35.0165,182.6871],[-1.8383,35.0095,251.1688],[-1.8357,35.0045,304.6868],[-1.8235,35.0126,260.5369],[-1.808,35.0127,253.8791],[-1.8005,35.0197,228.6396]]]]}}