{"type":"Feature","properties":{"GID_2":"DZA.12.42_1","GID_0":"DZA","country":"Algeria","GID_1":"DZA.12_1","province":"Bouira","NL_NAME_1":"ولايةالبويرة","county":"SourElGhouzlane","VARNAME_2":"SourElGhozlane|Sūr-al-Ghuzlān","NL_NAME_2":"NA","TYPE_2":"Commune","ENGTYPE_2":"Commune","CC_2":"1038","HASC_2":"DZ.BU.SG","name":"Sour_El_Ghouzlane.county"},
"geometry":{"type": "MultiPolygon","coordinates": [[[[3.6862,36.2516,701.9762],[3.6798,36.2432,714.5665],[3.6781,36.2381,734.3157],[3.6796,36.2192,763.4973],[3.6736,36.2047,820.7238],[3.673,36.1989,845.991],[3.6689,36.1961,823.4185],[3.6622,36.1823,909.6652],[3.6479,36.171,984.4319],[3.6415,36.1598,1108.2581],[3.6349,36.1546,1126.8137],[3.64,36.1456,1144.8097],[3.6379,36.1404,1173.2008],[3.6217,36.1365,1298.4824],[3.6166,36.1339,1196.0742],[3.6062,36.1214,1031.5947],[3.6056,36.1162,981.1675],[3.6113,36.1176,1004.1614],[3.6214,36.1115,1157.6743],[3.6241,36.1074,1207.4008],[3.6257,36.0966,1437.3552],[3.6288,36.0934,1505.8998],[3.6373,36.0854,1741.3655],[3.649,36.0795,1628.2633],[3.6653,36.0799,1706.304],[3.6749,36.0767,1669.2051],[3.6802,36.0769,1641.7416],[3.686,36.0793,1615.6123],[3.7022,36.0785,1275.8723],[3.7126,36.0917,1215.897],[3.7239,36.0954,1041.4575],[3.7404,36.0909,1024.078],[3.7506,36.1067,1062.0569],[3.7511,36.1179,963.3375],[3.7466,36.1272,994.1536],[3.749,36.1334,999.9579],[3.7538,36.1364,997.4984],[3.7687,36.1376,913.5826],[3.7859,36.1457,830.6249],[3.7919,36.146,832.0614],[3.7901,36.1506,864.7283],[3.7828,36.1579,891.7475],[3.7744,36.1632,920.4163],[3.76,36.1678,979.5907],[3.7586,36.1778,929.8027],[3.7592,36.1909,842.3541],[3.7656,36.203,795.3329],[3.76,36.2054,824.7521],[3.7485,36.2056,835.9794],[3.7449,36.2097,819.6587],[3.7339,36.2107,800.0962],[3.732,36.2152,753.1772],[3.7349,36.2207,755.7052],[3.7361,36.2279,763.3835],[3.7415,36.2315,743.8552],[3.7418,36.2378,737.7006],[3.7363,36.2343,698.0847],[3.7334,36.2407,693.7695],[3.7286,36.2444,697.8939],[3.731,36.2482,680.8904],[3.7258,36.251,686.0084],[3.7166,36.261,678.9393],[3.709,36.2636,677.0],[3.7023,36.2631,677.0],[3.6918,36.2543,686.9498],[3.6862,36.2516,701.9762]]]]}}