{"type":"Feature","properties":{"GID_2":"DZA.12.32_1","GID_0":"DZA","country":"Algeria","GID_1":"DZA.12_1","province":"Bouira","NL_NAME_1":"ولايةالبويرة","county":"M'Chedallah","VARNAME_2":"Mchedallah","NL_NAME_2":"NA","TYPE_2":"Commune","ENGTYPE_2":"Commune","CC_2":"1037","HASC_2":"DZ.BU.MC","name":"M'Chedallah.county"},
"geometry":{"type": "MultiPolygon","coordinates": [[[[4.2829,36.3936,466.6972],[4.2781,36.3912,494.5777],[4.2615,36.3888,729.6558],[4.2561,36.3855,689.8802],[4.2453,36.3829,664.4631],[4.2162,36.3825,639.5549],[4.1784,36.3927,534.7692],[4.1761,36.3891,500.8373],[4.1912,36.345,369.0291],[4.2001,36.3369,370.9326],[4.2144,36.3442,344.3085],[4.2146,36.3491,342.4486],[4.2205,36.3489,340.8293],[4.2274,36.3428,334.8897],[4.2388,36.3388,327.6375],[4.2654,36.3406,315.1815],[4.2775,36.34,308.4014],[4.2826,36.337,311.7245],[4.2919,36.3433,310.7103],[4.3052,36.3363,295.7173],[4.3106,36.3355,292.1973],[4.3229,36.3413,284.3292],[4.3294,36.3407,281.938],[4.3336,36.3425,284.5431],[4.3365,36.3486,277.3711],[4.3305,36.3498,285.2784],[4.3205,36.3485,291.753],[4.3143,36.3494,302.3572],[4.3013,36.355,329.1965],[4.2975,36.3592,347.998],[4.2979,36.365,376.7339],[4.3013,36.3717,419.6857],[4.2991,36.3799,487.9287],[4.2999,36.3863,582.645],[4.2974,36.3914,677.1564],[4.2829,36.3936,466.6972]]]]}}