{"type":"Feature","properties":{"GID_2":"DZA.38.46_1","GID_0":"DZA","country":"Algeria","GID_1":"DZA.38_1","province":"SidiBelAbbès","NL_NAME_1":"ولايةسيديبلعباس","county":"Taghlimet","VARNAME_2":"Teghalimet","NL_NAME_2":"NA","TYPE_2":"Commune","ENGTYPE_2":"Commune","CC_2":"2244","HASC_2":"DZ.SB.TG","name":"Taghlimet.county"},
"geometry":{"type": "MultiPolygon","coordinates": [[[[-0.5996,34.8973,795.3579],[-0.5999,34.8917,928.0111],[-0.6064,34.8726,794.0704],[-0.6063,34.8657,792.2492],[-0.6045,34.8611,793.227],[-0.5723,34.8456,788.4557],[-0.5564,34.8746,745.1595],[-0.5379,34.8807,741.2808],[-0.5299,34.8788,735.4175],[-0.5236,34.8685,760.5964],[-0.524,34.8618,769.3695],[-0.5407,34.8477,782.9302],[-0.5432,34.8436,791.3007],[-0.5234,34.8384,808.2507],[-0.519,34.8388,812.5356],[-0.5203,34.8446,798.2418],[-0.4794,34.8598,787.6103],[-0.4716,34.8557,796.0964],[-0.4624,34.8543,795.5906],[-0.4582,34.8521,802.726],[-0.4514,34.8405,821.3047],[-0.4455,34.8407,834.1506],[-0.4386,34.8374,862.574],[-0.4313,34.8408,866.1096],[-0.4208,34.8532,872.9443],[-0.4147,34.8571,857.9725],[-0.4081,34.8597,869.5887],[-0.3963,34.8583,852.8858],[-0.3926,34.8699,831.0411],[-0.3888,34.8749,820.4879],[-0.3869,34.8854,804.2797],[-0.3655,34.9109,803.5889],[-0.3738,34.9206,841.1047],[-0.3972,34.9348,875.0179],[-0.4129,34.9414,925.7434],[-0.4227,34.9426,895.3405],[-0.42,34.9519,907.3976],[-0.4158,34.9588,907.5038],[-0.4289,34.9678,1013.7602],[-0.4539,34.9658,841.5029],[-0.4928,34.9719,818.0517],[-0.4961,34.9621,721.1387],[-0.5051,34.9548,732.3385],[-0.498,34.9538,756.8087],[-0.5053,34.9458,700.5242],[-0.5125,34.9469,695.2094],[-0.5091,34.9332,733.9444],[-0.5199,34.9286,705.8302],[-0.5405,34.9298,675.2918],[-0.5442,34.9232,681.3881],[-0.5792,34.9212,735.7747],[-0.5834,34.918,757.3098],[-0.5829,34.9055,756.6324],[-0.5884,34.8914,812.2181],[-0.5996,34.8973,795.3579]]]]}}