{"type":"Feature","properties":{"GID_2":"DZA.1.19_1","GID_0":"DZA","country":"Algeria","GID_1":"DZA.1_1","province":"Adrar","NL_NAME_1":"ولايةأدرا","county":"Talmine","VARNAME_2":"NA","NL_NAME_2":"NA","TYPE_2":"Commune","ENGTYPE_2":"Commune","CC_2":"124","HASC_2":"DZ.AR.TL","name":"Talmine.county"},
"geometry":{"type": "MultiPolygon","coordinates": [[[[-0.3198,29.6178,420.0626],[-0.4838,29.7538,434.3638],[-0.6266,29.7574,456.6242],[-0.6536,29.6797,430.7503],[-0.6626,29.6594,427.8798],[-0.6908,29.5509,415.2584],[-0.6395,29.2849,381.5954],[-0.6643,29.1781,366.215],[-0.8778,29.0069,337.5268],[-0.9194,28.9803,319.9286],[-0.6606,28.8365,289.4041],[-0.5645,28.9092,402.2945],[-0.5047,29.06,326.9197],[-0.3367,29.2125,314.4743],[-0.3198,29.6178,420.0626]]]]}}