{"type":"Feature","properties":{"GID_2":"DZA.29.4_1","GID_0":"DZA","country":"Algeria","GID_1":"DZA.29_1","province":"Mila","NL_NAME_1":"ولايةميلة","county":"AinTine","VARNAME_2":"NA","NL_NAME_2":"NA","TYPE_2":"Commune","ENGTYPE_2":"Commune","CC_2":"4325","HASC_2":"DZ.ML.AT","name":"Ain_Tine.county"},
"geometry":{"type": "MultiPolygon","coordinates": [[[[6.3459,36.4522,245.9231],[6.3228,36.4442,364.4129],[6.3103,36.4459,447.842],[6.3042,36.4432,493.1695],[6.3028,36.4375,518.2393],[6.299,36.4335,598.2789],[6.2978,36.4272,668.502],[6.3111,36.4244,672.4635],[6.2864,36.4029,1050.2289],[6.2817,36.4001,1086.5083],[6.2705,36.3998,1089.1512],[6.2639,36.3962,1056.7765],[6.2731,36.3791,1040.264],[6.2812,36.3782,1106.9282],[6.2934,36.3815,1180.3999],[6.3045,36.3787,919.3113],[6.315,36.3802,749.7351],[6.3221,36.3782,607.4987],[6.3386,36.3945,502.3802],[6.3447,36.3975,454.5192],[6.3514,36.4036,425.0303],[6.3577,36.4162,405.3374],[6.3526,36.4317,308.1281],[6.3471,36.4406,270.3921],[6.3459,36.4522,245.9231]]]]}}