{"type":"Feature","properties":{"GID_2":"DZA.10.11_1","GID_0":"DZA","country":"Algeria","GID_1":"DZA.10_1","province":"Blida","NL_NAME_1":"البليدة","county":"Chiffa","VARNAME_2":"Shiffa","NL_NAME_2":"NA","TYPE_2":"Commune","ENGTYPE_2":"Commune","CC_2":"908","HASC_2":"DZ.BL.CF","name":"Chiffa.county"},
"geometry":{"type": "MultiPolygon","coordinates": [[[[2.7252,36.3763,1514.4529],[2.7334,36.3753,1482.9067],[2.7441,36.3771,1225.9857],[2.7683,36.3746,645.5402],[2.7742,36.3769,321.9297],[2.7697,36.3828,507.0894],[2.7666,36.4046,272.87],[2.7605,36.4143,317.1309],[2.7611,36.4199,247.4941],[2.7638,36.424,172.4953],[2.7582,36.4262,141.3358],[2.7551,36.4316,147.7051],[2.7568,36.4415,122.0667],[2.754,36.4539,105.8299],[2.7547,36.4604,105.709],[2.7576,36.4644,109.6689],[2.7523,36.4701,98.3401],[2.7501,36.4816,83.1385],[2.74,36.4927,76.8656],[2.7344,36.5094,65.1925],[2.731,36.5148,58.1038],[2.7205,36.5096,64.1892],[2.7181,36.4905,82.7433],[2.7132,36.4795,99.0079],[2.7095,36.4568,145.9796],[2.7064,36.4533,154.5481],[2.7053,36.4477,168.1576],[2.7097,36.4442,179.446],[2.7217,36.4413,178.6728],[2.7287,36.4378,173.464],[2.7262,36.4315,199.1911],[2.7284,36.4262,297.7934],[2.7329,36.4219,367.1159],[2.7289,36.415,448.2107],[2.7276,36.3967,1058.4886],[2.7291,36.3859,1301.1086],[2.7252,36.3763,1514.4529]]]]}}