{"type": "Feature","bbox": [4.0958,35.8385,4.2666,36.0241],"geometry": {"type": "MultiPolygon","coordinates": [[[[4.138,35.9982,1423.2319],[4.1341,35.989,1229.0619],[4.135,35.984,1104.2219],[4.1319,35.9782,996.3657],[4.125,35.9729,950.0671],[4.1283,35.9616,851.2072],[4.1276,35.9521,823.8947],[4.1333,35.935,765.0577],[4.1213,35.9161,708.3581],[4.1036,35.9113,686.3423],[4.0958,35.9018,675.2347],[4.1012,35.8895,630.523],[4.0971,35.8792,620.7583],[4.0965,35.8686,599.1906],[4.1045,35.8561,613.3181],[4.1239,35.8403,599.8066],[4.1509,35.8385,598.9344],[4.1465,35.8543,615.5764],[4.1553,35.8699,622.042],[4.1557,35.8817,645.8681],[4.1626,35.8841,656.8531],[4.1638,35.8902,647.0905],[4.1697,35.8997,672.576],[4.1835,35.9023,705.5388],[4.2065,35.91,739.9977],[4.2401,35.9363,825.0629],[4.2401,35.9461,848.0548],[4.2335,35.9486,894.7452],[4.2365,35.9634,884.7706],[4.251,35.976,1054.4521],[4.2644,35.971,1020.6902],[4.2666,35.9855,961.2584],[4.265,35.9926,961.4016],[4.2658,35.997,973.6922],[4.265,36.0016,996.9801],[4.2566,36.0071,1065.9551],[4.245,36.0013,1053.5771],[4.2409,36.0034,1113.9747],[4.2372,36.0073,1208.2371],[4.237,36.0117,1210.7938],[4.2303,36.0173,1346.5939],[4.2191,36.022,1532.4399],[4.1997,36.0241,1597.1523],[4.1843,36.0224,1751.0775],[4.1701,36.0232,1781.9839],[4.1455,36.0187,1535.0894],[4.1411,36.0147,1494.054],[4.1446,36.0087,1344.1045],[4.138,35.9982,1423.2319]]]]}
,"properties": {"GID_2": "DZA.26.31_1","GID_0": "DZA","country": "Algeria","GID_1": "DZA.26_1","province": "M'Sila","NL_NAME_1": "ولايةالمسيلة","county": "Ouanougha","VARNAME_2": "Ouenougha|Wanugha","NL_NAME_2": "NA","TYPE_2": "Commune","ENGTYPE_2": "Commune","CC_2": "2819","HASC_2": "DZ.MS.ON","name": "Ouanougha.county","area_km2": 164.2328,"hist_schema_id": "Elevation0-9000","hist_area_km2": {"600": 5.1728,"625": 11.0995,"650": 10.4444,"675": 8.8966,"700": 10.3206,"725": 11.0918,"750": 9.8373,"775": 7.5703,"800": 5.9904,"825": 5.6982,"850": 5.2345,"875": 5.1483,"900": 4.2043,"925": 3.9124,"950": 4.1867,"975": 4.7698,"1000": 4.8726,"1025": 5.7644,"1050": 4.7692,"1075": 3.2767,"1100": 3.0537,"1125": 2.436,"1150": 2.4016,"1175": 2.0242,"1200": 2.0412,"1225": 1.6295,"1250": 1.4579,"1275": 1.3722,"1300": 1.4922,"1325": 1.3379,"1350": 1.2521,"1375": 1.2864,"1400": 1.0462,"1425": 0.9604,"1450": 1.1662,"1475": 1.1662,"1500": 1.1148,"1525": 1.0118,"1550": 0.7031,"1575": 0.5145,"1600": 0.3087,"1625": 0.3601,"1650": 0.3944,"1675": 0.343,"1700": 0.343,"1725": 0.2058,"1750": 0.1372,"1775": 0.1372,"1800": 0.1715,"1825": 0.1029}}}