{"type": "Feature","bbox": [5.0423,35.8428,5.1336,35.9513],"geometry": {"type": "MultiPolygon","coordinates": [[[[5.1229,35.9418,1138.2994],[5.1181,35.9427,1132.2687],[5.1027,35.9506,1127.1968],[5.0979,35.9513,1116.2078],[5.0925,35.946,1106.215],[5.0838,35.9468,1098.1205],[5.0702,35.9377,1079.6187],[5.061,35.937,1080.2517],[5.0603,35.9317,1092.1575],[5.062,35.9202,1126.0853],[5.0591,35.9105,1158.7599],[5.055,35.9038,1184.446],[5.0423,35.8939,1387.3975],[5.0442,35.8871,1416.4092],[5.0522,35.8729,1301.7362],[5.0478,35.8678,1419.8289],[5.054,35.8636,1397.5691],[5.0502,35.8612,1368.783],[5.0479,35.8513,1481.3369],[5.0823,35.8428,1409.0701],[5.0998,35.8435,1458.9253],[5.1322,35.8522,1578.1052],[5.1336,35.8566,1529.0365],[5.1241,35.8623,1363.1453],[5.1216,35.8754,1304.9182],[5.1244,35.8864,1219.9791],[5.1171,35.8987,1162.6613],[5.1287,35.9005,1208.4702],[5.1302,35.906,1245.9443],[5.1294,35.9233,1255.6929],[5.1249,35.9273,1203.9397],[5.1165,35.9302,1138.8789],[5.1229,35.9418,1138.2994]]]]}
,"properties": {"GID_2": "DZA.11.24_1","GID_0": "DZA","country": "Algeria","GID_1": "DZA.11_1","province": "BordjBouArréridj","NL_NAME_1": "ولايةبرجبوعريريج","county": "OuledBrahem","VARNAME_2": "NA","NL_NAME_2": "NA","TYPE_2": "Commune","ENGTYPE_2": "Commune","CC_2": "3417","HASC_2": "DZ.BB.OB","name": "Ouled_Brahem.county","area_km2": 70.59417,"hist_schema_id": "Elevation0-9000","hist_area_km2": {"1075": 0.90985,"1100": 8.84158,"1125": 9.68391,"1150": 8.39776,"1175": 8.51923,"1200": 6.01205,"1225": 3.36686,"1250": 2.71414,"1275": 2.86916,"1300": 4.07211,"1325": 3.31615,"1350": 2.85233,"1375": 2.38848,"1400": 2.35426,"1425": 1.4951,"1450": 1.09985,"1475": 0.60149,"1500": 0.44682,"1525": 0.32652,"1550": 0.18904,"1575": 0.10311,"1600": 0.03437}}}