{"type":"Feature","properties":{"ISO3166-1-Alpha-3":"DZA","country":"Algeria","fill":"#00F","id":"2150","name":"Tindouf"},
"geometry":{"type": "Polygon","coordinates": [[[-5.26678,28.20724,440.84],[-6.00077,29.57913,641.9053],[-6.12656,29.57913,506.7256],[-6.27333,29.57913,514.3611],[-6.34391,29.57207,555.5771],[-6.41311,29.56515,590.1582],[-6.55987,29.5302,515.4865],[-6.69965,29.51623,736.1172],[-6.78351,29.44634,470.1765],[-6.95824,29.50924,453.4027],[-7.07006,29.51623,604.9202],[-7.14693,29.50924,424.3799],[-7.25876,29.46731,420.854],[-7.34961,29.38344,428.5117],[-7.46329,29.38914,371.6547],[-7.48406,29.38245,370.1461],[-7.50613,29.38022,367.6234],[-7.5285,29.38095,364.848],[-7.57269,29.38761,361.5061],[-7.61945,29.38942,358.0667],[-7.65361,29.37619,357.4251],[-7.71467,29.32183,355.0172],[-7.72999,29.31116,358.8373],[-7.778,29.28932,339.8355],[-7.83913,29.23904,335.0461],[-7.94501,29.17623,326.5254],[-8.03633,29.09985,318.7126],[-8.06966,29.07934,316.0536],[-8.18231,29.03554,305.0372],[-8.25047,28.99477,299.2751],[-8.31677,28.93906,293.2423],[-8.33326,28.93038,295.7968],[-8.36845,28.91653,288.9858],[-8.38349,28.90578,287.8903],[-8.4178,28.85235,287.3331],[-8.43041,28.84101,281.4214],[-8.47583,28.81876,279.045],[-8.52082,28.78708,275.5901],[-8.64885,28.72595,271.3275],[-8.66761,28.71169,296.8065],[-8.67877,28.69282,273.3724],[-8.68239,28.6659,498.8241],[-8.68239,28.62022,292.7425],[-8.68239,28.56027,288.254],[-8.68239,28.50041,313.5612],[-8.68239,28.44049,564.8923],[-8.68239,28.38054,550.6505],[-8.68239,28.32062,548.823],[-8.68239,28.26068,542.4337],[-8.68239,28.20076,530.0171],[-8.68239,28.14089,514.8635],[-8.68239,28.08095,504.0922],[-8.68239,28.02103,492.4456],[-8.68239,27.96109,488.6436],[-8.68239,27.90114,483.5747],[-8.68239,27.84122,479.294],[-8.68239,27.78135,476.7157],[-8.68239,27.72144,473.6199],[-8.68239,27.66144,471.9236],[-8.68239,27.56741,469.0958],[-8.68239,27.47347,464.7024],[-8.68239,27.37947,461.1422],[-8.68239,27.28542,448.3862],[-8.48441,27.16899,458.8983],[-8.28644,27.05267,426.0571],[-8.08862,26.93624,372.1337],[-7.89075,26.81991,350.0108],[-7.69278,26.70349,379.6995],[-7.49491,26.58716,389.2563],[-7.29704,26.47074,375.6639],[-7.09912,26.35436,350.3299],[-6.9012,26.23793,387.0827],[-6.70333,26.12156,397.9316],[-6.50541,26.00518,387.075],[-6.30749,25.88881,388.7196],[-6.1399,25.79021,367.296],[-5.97227,25.69161,351.5468],[-5.80463,25.59296,349.2972],[-5.66152,25.50888,381.7651],[-5.66143,25.50896,381.7651],[-5.64903,25.5195,380.5481],[-2.97426,27.20328,382.9092],[-3.75064,28.56689,434.0492],[-5.26678,28.20724,440.84]]]}}