{"type":"Feature","properties":{"GID_2":"DZA.39.22_1","GID_0":"DZA","country":"Algeria","GID_1":"DZA.39_1","province":"Skikda","NL_NAME_1":"سكيكدة","county":"Filfila","VARNAME_2":"FilFila","NL_NAME_2":"NA","TYPE_2":"Commune-Cotiere","ENGTYPE_2":"Commune-Cotiere","CC_2":"2130","HASC_2":"DZ.SK.FI","name":"Filfila.county"},
"geometry":{"type": "MultiPolygon","coordinates": [[[[7.1653,36.9166,22.5843],[7.1517,36.9173,0.0],[7.1455,36.9162,0.0],[7.1416,36.9113,3.1348],[7.1349,36.909,0.0],[7.122,36.9092,0.0],[7.1122,36.917,27.0831],[7.1022,36.9205,0.0],[7.0955,36.921,0.0],[7.082,36.9195,3.1315],[7.0688,36.9146,0.0],[7.0556,36.9134,9.9384],[7.0519,36.9076,1.0035],[7.0165,36.8951,26.0413],[7.0181,36.8894,54.7378],[7.025,36.884,77.7281],[7.0281,36.8786,84.2956],[7.0089,36.8785,110.2595],[6.9896,36.8693,81.2081],[6.9866,36.8655,50.2702],[7.0015,36.8649,120.3525],[7.0098,36.8562,205.4244],[7.0151,36.8537,210.8145],[7.0272,36.8521,556.3149],[7.0411,36.8567,508.5257],[7.0512,36.8563,519.4711],[7.0614,36.8602,502.3851],[7.0714,36.8679,396.1719],[7.0788,36.8704,417.194],[7.0895,36.8697,387.373],[7.1053,36.8716,332.2305],[7.121,36.8686,492.71],[7.1328,36.8747,449.2105],[7.1349,36.8792,502.323],[7.1511,36.8833,525.8538],[7.1611,36.8879,422.8379],[7.1706,36.8951,175.7936],[7.1734,36.8994,94.6867],[7.1739,36.9095,52.0614],[7.1709,36.9143,39.8732],[7.1653,36.9166,22.5843]]]]}}