{"type":"Feature","properties":{"GID_2":"DZA.27.27_1","GID_0":"DZA","country":"Algeria","GID_1":"DZA.27_1","province":"Mascara","NL_NAME_1":"ولايةمعسكر","county":"MagtaaDouz","VARNAME_2":"Moctadouz","NL_NAME_2":"NA","TYPE_2":"Commune","ENGTYPE_2":"Commune","CC_2":"2936","HASC_2":"DZ.MC.MD","name":"Magtaa_Douz.county"},
"geometry":{"type": "MultiPolygon","coordinates": [[[[-0.1712,35.6555,9.073],[-0.1603,35.6549,7.1029],[-0.1433,35.6297,7.4456],[-0.1017,35.5915,9.6347],[-0.0965,35.5901,10.0146],[-0.0578,35.5957,13.145],[-0.0172,35.5878,21.2738],[-0.0127,35.5894,21.8192],[-0.0085,35.5924,22.4243],[-0.0026,35.6051,25.5255],[-0.0043,35.6097,22.5008],[-0.0036,35.6191,22.4593],[0.0042,35.6275,22.1456],[0.0044,35.6332,22.4054],[0.0001,35.6334,21.2322],[-0.0202,35.6513,17.566],[-0.04,35.6579,15.3467],[-0.0439,35.6608,14.4097],[-0.0518,35.6765,10.33],[-0.0511,35.6816,9.483],[-0.0691,35.6921,7.9337],[-0.085,35.715,5.381],[-0.1008,35.7454,2.8848],[-0.0941,35.7476,5.3953],[-0.0926,35.7666,19.7416],[-0.0973,35.7727,5.5913],[-0.1046,35.7756,13.4011],[-0.1079,35.7816,17.1652],[-0.114,35.7831,1.4708],[-0.1212,35.7748,0.9662],[-0.1324,35.7558,0.8426],[-0.1429,35.7465,0.6936],[-0.1477,35.7399,1.0447],[-0.1681,35.727,0.9286],[-0.181,35.7112,2.1592],[-0.1873,35.7099,3.22],[-0.1854,35.7035,1.3822],[-0.1863,35.6986,1.6506],[-0.1904,35.6945,4.2387],[-0.1825,35.689,2.4923],[-0.1717,35.6613,6.2775],[-0.1712,35.6555,9.073]]]]}}