{"type":"Feature","properties":{"GID_2":"DZA.27.26_1","GID_0":"DZA","country":"Algeria","GID_1":"DZA.27_1","province":"Mascara","NL_NAME_1":"ولايةمعسكر","county":"Khalouia","VARNAME_2":"NA","NL_NAME_2":"NA","TYPE_2":"Commune","ENGTYPE_2":"Commune","CC_2":"2920","HASC_2":"DZ.MC.KH","name":"Khalouia.county"},
"geometry":{"type": "MultiPolygon","coordinates": [[[[0.2833,35.4376,537.2565],[0.2994,35.4343,559.7563],[0.307,35.4355,551.7211],[0.3168,35.4499,594.8611],[0.3176,35.4566,587.5513],[0.3134,35.479,618.0181],[0.3014,35.4931,634.4552],[0.2935,35.4914,664.0991],[0.2931,35.4867,646.6597],[0.2877,35.4871,651.5099],[0.2835,35.4853,650.2283],[0.2822,35.477,649.4333],[0.2853,35.4694,586.3055],[0.2824,35.4651,574.4185],[0.2901,35.4519,549.1188],[0.2834,35.4423,548.4028],[0.2833,35.4376,537.2565]]]]}}