{"type": "Feature","bbox": [3.4951,36.4413,3.621,36.5458],"geometry": {"type": "MultiPolygon","coordinates": [[[[3.6049,36.4617,772.2729],[3.6071,36.4807,354.4714],[3.6161,36.4884,276.2744],[3.621,36.5069,484.5373],[3.6123,36.5129,594.2141],[3.6012,36.5123,619.7373],[3.5963,36.5138,549.8036],[3.5943,36.5178,493.5684],[3.5955,36.5307,442.3612],[3.5923,36.5344,359.5086],[3.5861,36.5359,302.8521],[3.5753,36.5353,199.6224],[3.561,36.5458,589.5137],[3.5564,36.5436,574.8514],[3.5461,36.5424,583.0838],[3.5375,36.5286,627.958],[3.529,36.5248,757.0496],[3.5242,36.5246,748.8474],[3.5032,36.531,473.109],[3.4951,36.5354,217.2105],[3.5033,36.5164,320.2601],[3.5047,36.5091,426.1734],[3.511,36.5061,575.0253],[3.5215,36.5023,628.0784],[3.5277,36.5039,483.4805],[3.5372,36.5119,458.1584],[3.5484,36.5162,312.7872],[3.548,36.5114,394.5556],[3.5635,36.5049,593.2627],[3.561,36.4897,452.4478],[3.5659,36.4787,298.5],[3.5607,36.4746,298.5],[3.5551,36.4628,298.5],[3.5588,36.4534,311.2859],[3.5694,36.4413,459.4447],[3.5795,36.4433,624.6136],[3.5918,36.4505,821.351],[3.5984,36.4607,767.4488],[3.6049,36.4617,772.2729]]]]}
,"properties": {"GID_2": "DZA.12.33_1","GID_0": "DZA","country": "Algeria","GID_1": "DZA.12_1","province": "Bouira","NL_NAME_1": "ولايةالبويرة","county": "Maala","VARNAME_2": "NA","NL_NAME_2": "NA","TYPE_2": "Commune","ENGTYPE_2": "Commune","CC_2": "1014","HASC_2": "DZ.BU.ML","name": "Maala.county","area_km2": 54.82969,"hist_schema_id": "Elevation0-9000","hist_area_km2": {"175": 0.22147,"200": 0.35782,"225": 1.49976,"250": 1.17582,"275": 1.63586,"300": 5.71042,"325": 2.70976,"350": 2.88016,"375": 3.1019,"400": 3.27216,"425": 3.16994,"450": 3.49394,"475": 3.28931,"500": 3.18703,"525": 2.98267,"550": 2.72695,"575": 2.52257,"600": 2.48838,"625": 1.80675,"650": 1.44874,"675": 1.22735,"700": 0.64774,"725": 1.10808,"750": 0.69893,"775": 0.9035,"800": 0.44331,"825": 0.10232,"850": 0.01705}}}