{"type": "Feature","bbox": [-1.0028,35.065,-0.8671,35.1921],"geometry": {"type": "MultiPolygon","coordinates": [[[[-1.0028,35.0935,487.5378],[-0.9996,35.0885,440.5805],[-0.988,35.0821,454.0793],[-0.9794,35.0837,504.5716],[-0.9734,35.0804,483.7552],[-0.9704,35.0761,493.5655],[-0.9633,35.0766,497.3862],[-0.9561,35.0749,525.1796],[-0.9407,35.065,642.8502],[-0.9336,35.0684,653.1581],[-0.9379,35.0737,612.0225],[-0.9257,35.077,648.8906],[-0.9027,35.0884,654.3953],[-0.8916,35.1003,669.2698],[-0.8808,35.1069,643.2222],[-0.8718,35.1307,691.6022],[-0.8671,35.1391,717.7799],[-0.8728,35.1528,719.8647],[-0.8732,35.1577,733.1812],[-0.8712,35.1649,724.9274],[-0.8722,35.1705,722.1942],[-0.8816,35.1921,648.2972],[-0.9027,35.1855,619.8391],[-0.922,35.1842,524.1889],[-0.9267,35.1797,530.1543],[-0.9361,35.1752,569.2037],[-0.9536,35.1692,589.0206],[-0.9475,35.1642,625.6338],[-0.9464,35.1599,633.8794],[-0.9528,35.1459,686.1074],[-0.9617,35.1392,675.2283],[-0.9621,35.123,570.4338],[-0.9654,35.1153,563.2983],[-0.971,35.1122,545.5018],[-0.9763,35.1127,544.6394],[-0.9865,35.1094,499.6975],[-1.0028,35.0935,487.5378]]]]}
,"properties": {"GID_2": "DZA.38.39_1","GID_0": "DZA","country": "Algeria","GID_1": "DZA.38_1","province": "SidiBelAbbès","NL_NAME_1": "ولايةسيديبلعباس","county": "SidiDahouZair","VARNAME_2": "SidiDaho","NL_NAME_2": "NA","TYPE_2": "Commune","ENGTYPE_2": "Commune","CC_2": "2236","HASC_2": "DZ.SB.SD","name": "Sidi_Dahou_Zair.county","area_km2": 94.16049,"hist_schema_id": "Elevation0-9000","hist_area_km2": {"450": 0.53782,"475": 2.15118,"500": 3.41753,"525": 3.79881,"550": 3.86757,"575": 5.16704,"600": 6.51901,"625": 7.47225,"650": 9.95331,"675": 15.29589,"700": 15.17338,"725": 10.16085,"750": 6.64094,"775": 2.9474,"800": 1.05751}}}