{"type":"Feature","properties":{"GID_2":"DZA.17.13_1","GID_0":"DZA","country":"Algeria","GID_1":"DZA.17_1","province":"ElBayadh","NL_NAME_1":"ولايةالبيض","county":"ElMehara","VARNAME_2":"NA","NL_NAME_2":"NA","TYPE_2":"Commune","ENGTYPE_2":"Commune","CC_2":"3219","HASC_2":"DZ.EB.EM","name":"El_Mehara.county"},
"geometry":{"type": "MultiPolygon","coordinates": [[[[0.8541,33.5815,1364.3438],[0.9207,33.6263,1355.7601],[0.9227,33.6309,1360.4974],[0.9149,33.6404,1314.849],[0.9099,33.6587,1292.8688],[0.8199,33.6419,1281.4547],[0.7092,33.6189,1290.4619],[0.661,33.6732,1271.9182],[0.525,33.5851,1250.9283],[0.4682,33.5639,1236.4227],[0.4453,33.5515,1248.3319],[0.4264,33.5391,1260.4967],[0.3523,33.5016,1262.0004],[0.3439,33.4987,1259.0149],[0.2935,33.4951,1254.0607],[0.2686,33.4997,1227.3906],[0.2601,33.5041,1212.8118],[0.24,33.5054,1212.1848],[0.1934,33.5161,1213.332],[0.0988,33.5151,1197.7328],[0.0692,33.5056,1196.9448],[0.0163,33.3341,1214.0973],[0.0203,33.3319,1221.9041],[0.0252,33.3259,1214.3601],[0.0246,33.3175,1222.5364],[0.0089,33.253,1196.1169],[0.0059,33.2239,1204.7416],[0.0079,33.211,1196.3778],[0.0049,33.1904,1196.1459],[0.0,33.1701,1201.3042],[-0.0135,33.1416,1208.0348],[-0.0163,33.1163,1210.5645],[-0.0023,33.1095,1177.8307],[0.0726,33.0879,1266.2095],[0.1652,33.0583,1161.2927],[0.181,33.0052,1225.3114],[0.1819,32.994,1204.5347],[0.1856,32.9824,1169.2222],[0.1463,32.9694,1133.7805],[0.1185,32.9761,1128.4012],[0.1085,32.9765,1096.5076],[0.0875,32.9255,1058.2205],[0.1849,32.9185,1137.2622],[0.2047,32.8933,1081.9811],[0.2156,32.8764,1006.1108],[0.2197,32.8776,1066.3589],[0.2668,32.8726,895.0291],[0.3027,32.8918,908.6774],[0.3126,32.9033,914.8045],[0.3282,32.9034,920.6025],[0.3454,32.9105,927.4745],[0.3481,32.9167,931.8871],[0.3483,32.9235,936.222],[0.356,32.9272,941.3399],[0.3875,32.936,949.4512],[0.4047,32.9453,956.9118],[0.4006,32.9476,958.6837],[0.3817,32.946,950.8754],[0.3632,32.9464,947.7547],[0.3384,32.9538,967.0045],[0.3276,32.961,986.2585],[0.3371,32.9639,978.9328],[0.3419,32.974,986.6597],[0.3596,32.9873,992.8434],[0.3736,33.0046,1013.2121],[0.3747,33.0112,1013.7255],[0.3711,33.0218,1027.1594],[0.3659,33.0239,1033.6809],[0.358,33.0358,1098.818],[0.3371,33.0845,1158.8274],[0.3772,33.1574,1152.6387],[0.3784,33.167,1160.9325],[0.3814,33.171,1165.5435],[0.3814,33.1777,1186.9589],[0.3743,33.1864,1195.9496],[0.3715,33.1926,1202.8784],[0.3709,33.2035,1219.6675],[0.377,33.227,1252.8051],[0.3871,33.2423,1254.4324],[0.3892,33.2476,1257.1823],[0.3904,33.2615,1267.0796],[0.3963,33.273,1287.2985],[0.4022,33.2804,1310.5415],[0.4144,33.2872,1359.2404],[0.4274,33.2892,1507.8049],[0.4342,33.286,1486.5986],[0.4422,33.2856,1486.5077],[0.4522,33.2876,1467.8455],[0.5093,33.3095,1365.126],[0.53,33.3205,1407.6412],[0.5659,33.3298,1380.0721],[0.6275,33.3411,1365.3123],[0.6317,33.3438,1438.1301],[0.6679,33.3709,1377.735],[0.7426,33.5121,1366.5372],[0.8541,33.5815,1364.3438]]]]}}