{"type":"Feature","properties":{"GID_2":"DZA.27.39_1","GID_0":"DZA","country":"Algeria","GID_1":"DZA.27_1","province":"Mascara","NL_NAME_1":"ولايةمعسكر","county":"SidiAbdeldjebar","VARNAME_2":"SidiAbdeldjabar","NL_NAME_2":"NA","TYPE_2":"Commune","ENGTYPE_2":"Commune","CC_2":"2946","HASC_2":"DZ.MC.SD","name":"Sidi_Abdeldjebar.county"},
"geometry":{"type": "MultiPolygon","coordinates": [[[[0.5665,35.4384,346.7143],[0.5671,35.4444,348.9484],[0.5624,35.4504,306.9035],[0.5633,35.457,304.7292],[0.5704,35.4657,262.2114],[0.5756,35.4674,255.6813],[0.5801,35.4712,253.224],[0.5758,35.4753,260.6459],[0.5705,35.4775,315.6202],[0.544,35.4789,347.5323],[0.5369,35.4818,393.5976],[0.5201,35.4942,491.4797],[0.5048,35.5101,558.9139],[0.4975,35.5079,555.3976],[0.4967,35.5027,456.9241],[0.4934,35.4972,463.4985],[0.4805,35.49,426.5114],[0.479,35.4848,453.418],[0.4755,35.4803,444.9447],[0.4791,35.4701,428.6411],[0.4753,35.4662,430.767],[0.4697,35.4624,406.0461],[0.4409,35.4634,473.4946],[0.435,35.4618,525.5768],[0.4324,35.4564,511.76],[0.4324,35.4432,476.635],[0.4373,35.4402,465.052],[0.4661,35.4304,427.8757],[0.4706,35.4279,421.9701],[0.4677,35.4236,445.0486],[0.4788,35.4222,440.9344],[0.4881,35.4182,405.7383],[0.4985,35.4225,362.9365],[0.5163,35.4192,409.7911],[0.5207,35.4214,419.7651],[0.525,35.4165,441.407],[0.5299,35.4157,434.2846],[0.5492,35.4189,438.2031],[0.5539,35.4231,430.5255],[0.5625,35.4358,373.2011],[0.5665,35.4384,346.7143]]]]}}