{"type":"Feature","properties":{"GID_2":"DZA.6.26_1","GID_0":"DZA","country":"Algeria","GID_1":"DZA.6_1","province":"Batna","NL_NAME_1":"ولايةباتنة","county":"Ichmoul","VARNAME_2":"Ichemoul","NL_NAME_2":"NA","TYPE_2":"Commune","ENGTYPE_2":"Commune","CC_2":"530","HASC_2":"DZ.BT.IC","name":"Ichmoul.county"},
"geometry":{"type": "MultiPolygon","coordinates": [[[[6.3939,35.2431,1449.3401],[6.409,35.2479,1475.8671],[6.4272,35.2504,1511.887],[6.4448,35.2559,1367.5638],[6.4587,35.2644,1303.8265],[6.463,35.2624,1461.5107],[6.4931,35.2705,1335.9302],[6.5012,35.2741,1306.759],[6.5311,35.2942,1494.9735],[6.538,35.2946,1429.2195],[6.5478,35.3059,1445.1128],[6.5961,35.316,1948.5521],[6.5899,35.3264,1638.8375],[6.5872,35.3374,1555.9083],[6.5837,35.3431,1699.6479],[6.5784,35.3435,1728.2574],[6.5744,35.3416,1748.6936],[6.5505,35.34,1740.0499],[6.5393,35.3348,1694.6322],[6.5334,35.3353,1667.1824],[6.5215,35.3399,1629.9702],[6.5153,35.3376,1683.9089],[6.4969,35.3456,1723.592],[6.4912,35.3461,1731.6429],[6.4836,35.3419,1769.7235],[6.4786,35.3436,1770.4952],[6.4759,35.3483,1800.7008],[6.4717,35.3454,1862.6886],[6.4672,35.3445,1810.0248],[6.4602,35.3505,1758.0823],[6.45,35.3546,1729.3018],[6.4398,35.3632,1672.3788],[6.433,35.3647,1657.0205],[6.4427,35.3468,1791.8254],[6.4418,35.342,1633.1577],[6.4339,35.3321,1487.3342],[6.4317,35.3223,1410.9673],[6.42,35.3204,1475.7322],[6.4051,35.3108,1613.5372],[6.391,35.3085,1684.6177],[6.3834,35.3005,1480.2969],[6.3825,35.2942,1648.951],[6.3899,35.2819,1388.4554],[6.3944,35.2704,1211.8446],[6.395,35.2629,1172.9204],[6.388,35.2551,1123.0115],[6.388,35.2488,1220.0361],[6.3939,35.2431,1449.3401]]]]}}