{"type": "Feature","bbox": [8.1937,35.1287,8.4774,35.3455],"geometry": {"type": "MultiPolygon","coordinates": [[[[8.1937,35.3293,1141.2583],[8.1963,35.3126,1119.9777],[8.1949,35.2946,1103.1602],[8.2001,35.2696,1074.1348],[8.2148,35.2527,1076.9568],[8.2202,35.2486,1064.3494],[8.2385,35.243,1105.8811],[8.2457,35.2348,1122.1959],[8.2443,35.2282,1141.1132],[8.2406,35.224,1150.8132],[8.2349,35.2216,1151.0186],[8.2314,35.2147,1125.0],[8.2319,35.2065,1134.7738],[8.2347,35.2008,1110.0332],[8.2507,35.2082,1150.9519],[8.2791,35.2089,1225.7662],[8.2979,35.217,1281.845],[8.3167,35.1848,1270.9368],[8.3287,35.1705,1210.564],[8.3867,35.1394,1123.9602],[8.4022,35.1287,1088.0752],[8.418,35.1519,1147.0823],[8.4248,35.1798,1145.9716],[8.4306,35.1849,1144.6165],[8.4564,35.2207,1123.6509],[8.4755,35.2368,1081.418],[8.4774,35.241,1073.7645],[8.4669,35.2385,1089.0035],[8.4454,35.2382,1115.2354],[8.435,35.2409,1091.6416],[8.4251,35.2469,1036.9248],[8.4081,35.2471,1033.5945],[8.4082,35.2491,1021.9724],[8.4,35.2523,1035.1796],[8.3896,35.2615,1074.274],[8.3772,35.2686,1112.6405],[8.3653,35.2721,1184.094],[8.3586,35.2774,1160.7954],[8.3352,35.2808,1232.7546],[8.3261,35.2912,1206.8788],[8.3255,35.2991,1200.6294],[8.3225,35.3054,1187.9761],[8.314,35.3143,1167.8062],[8.3144,35.3267,1143.3025],[8.3189,35.3283,1143.1799],[8.2887,35.341,1042.2324],[8.2709,35.3455,1062.6746],[8.2573,35.3444,1050.9854],[8.2451,35.3302,1155.3163],[8.2402,35.327,1282.8784],[8.2328,35.325,1293.903],[8.2085,35.3269,1248.3662],[8.2012,35.3295,1168.5583],[8.1937,35.3293,1141.2583]]]]}
,"properties": {"GID_2": "DZA.42.10_1","GID_0": "DZA","country": "Algeria","GID_1": "DZA.42_1","province": "Tébessa","NL_NAME_1": "ولايةتبسة","county": "ElHouidjbet","VARNAME_2": "NA","NL_NAME_2": "NA","TYPE_2": "Commune","ENGTYPE_2": "Commune","CC_2": "1206","HASC_2": "DZ.TB.EH","name": "El_Houidjbet.county","area_km2": 277.6095,"hist_schema_id": "Elevation0-9000","hist_area_km2": {"1025": 0.4675,"1050": 3.6698,"1075": 18.4865,"1100": 42.669,"1125": 39.9931,"1150": 50.9313,"1175": 38.3408,"1200": 30.2541,"1225": 24.4734,"1250": 16.803,"1275": 7.5534,"1300": 3.0666,"1325": 0.7622,"1350": 0.1386}}}