{"type":"Feature","properties":{"GID_2":"DZA.16.27_1","GID_0":"DZA","country":"Algeria","GID_1":"DZA.16_1","province":"Djelfa","NL_NAME_1":"ولايةالجلفة","county":"Messaad","VARNAME_2":"Mi-s`ad","NL_NAME_2":"NA","TYPE_2":"Commune","ENGTYPE_2":"Commune","CC_2":"1717","HASC_2":"DZ.DJ.ME","name":"Messaad.county"},
"geometry":{"type": "MultiPolygon","coordinates": [[[[3.5102,34.0807,777.9882],[3.5256,34.0898,793.991],[3.5309,34.0982,861.9142],[3.54,34.1054,828.3286],[3.5677,34.1171,779.5196],[3.5676,34.1246,850.4747],[3.5566,34.1841,746.0704],[3.5445,34.2023,781.2279],[3.5366,34.2114,803.0573],[3.53,34.2146,794.6075],[3.4966,34.2389,819.1991],[3.4508,34.2255,807.4084],[3.43,34.2213,801.5823],[3.4253,34.2177,794.6249],[3.3987,34.2083,798.173],[3.4089,34.195,811.2521],[3.4134,34.1929,808.4257],[3.4227,34.1844,799.7723],[3.4707,34.1184,876.9995],[3.5102,34.0807,777.9882]]]]}}