{"type":"Feature","properties":{"GID_2":"DZA.28.19_1","GID_0":"DZA","country":"Algeria","GID_1":"DZA.28_1","province":"Médéa","NL_NAME_1":"ولايةالمدية","county":"Cheniguel","VARNAME_2":"NA","NL_NAME_2":"NA","TYPE_2":"Commune","ENGTYPE_2":"Commune","CC_2":"2640","HASC_2":"DZ.MD.CG","name":"Cheniguel.county"},
"geometry":{"type": "MultiPolygon","coordinates": [[[[3.5334,36.0228,1207.53],[3.522,36.0244,1230.7787],[3.5121,36.0227,1156.615],[3.4971,36.0303,1210.8219],[3.4833,36.0336,1168.2484],[3.4657,36.0333,1189.4529],[3.4613,36.0217,1096.0084],[3.4624,36.0125,1153.0798],[3.4487,36.0115,1082.209],[3.4465,36.0065,1089.304],[3.4508,36.0019,1072.6731],[3.4445,35.9936,1041.0476],[3.4499,35.9827,1001.7475],[3.4505,35.9762,975.0392],[3.4543,35.9666,891.64],[3.4809,35.9495,835.0278],[3.4955,35.9373,813.9874],[3.4958,35.9311,824.5281],[3.4979,35.9266,797.6778],[3.4954,35.923,787.2294],[3.4932,35.9135,881.9113],[3.4865,35.8995,897.2582],[3.4802,35.896,927.4132],[3.496,35.889,1037.0751],[3.5121,35.8894,1073.8939],[3.5262,35.8841,1105.9072],[3.5341,35.8842,1097.6161],[3.5465,35.8886,1107.9012],[3.5612,35.889,1022.6072],[3.5794,35.8921,1012.9015],[3.5854,35.8975,922.3519],[3.5978,35.8806,737.9057],[3.63,35.8821,666.0293],[3.6211,35.8996,682.7609],[3.6087,35.9123,714.5577],[3.6196,35.915,687.2883],[3.6169,35.9211,697.7981],[3.6045,35.9353,721.0015],[3.5893,35.9476,759.2071],[3.5869,35.9554,775.3583],[3.5894,35.9626,831.8234],[3.5749,35.9685,738.9345],[3.5674,35.9758,795.8865],[3.5684,35.98,840.5248],[3.5654,35.9882,867.6058],[3.5651,35.994,868.2595],[3.5533,36.016,872.5081],[3.5334,36.0228,1207.53]]]]}}