{"type":"Feature","properties":{"GID_2":"DZA.46.8_1","GID_0":"DZA","country":"Algeria","GID_1":"DZA.46_1","province":"Tissemsilt","NL_NAME_1":"ولايةتسمسيلت","county":"Khemisti","VARNAME_2":"NA","NL_NAME_2":"NA","TYPE_2":"Commune","ENGTYPE_2":"Commune","CC_2":"3811","HASC_2":"DZ.TS.KH","name":"Khemisti.county"},
"geometry":{"type": "MultiPolygon","coordinates": [[[[1.9925,35.5967,788.799],[1.9893,35.604,809.1042],[1.983,35.6093,822.5646],[1.9787,35.6154,835.881],[1.9792,35.62,851.8189],[1.9866,35.62,836.279],[1.991,35.6243,819.3577],[1.9804,35.6374,868.2732],[1.9792,35.6442,901.5048],[1.9826,35.654,938.8879],[1.9791,35.6605,942.4924],[1.9818,35.6684,926.1325],[1.9874,35.6718,951.8203],[1.9832,35.677,964.1506],[1.9834,35.6821,999.3221],[1.9813,35.6867,981.459],[1.9533,35.6912,1004.3133],[1.9505,35.6954,955.2178],[1.9553,35.6989,931.4389],[1.9616,35.7083,925.4453],[1.9615,35.7129,917.9861],[1.9579,35.716,916.6838],[1.9597,35.7206,937.8424],[1.9648,35.7206,920.4237],[1.9973,35.7383,903.5852],[2.0098,35.7501,930.0559],[2.022,35.7574,937.5087],[2.0297,35.7651,918.7035],[2.0338,35.7729,912.0138],[2.0306,35.7855,884.6606],[2.0331,35.7926,938.9317],[2.0309,35.7973,966.6097],[2.0309,35.8029,967.2679],[2.0251,35.805,1004.1528],[2.0197,35.8049,1037.2727],[2.0076,35.8016,1280.2166],[1.9999,35.7943,1203.6704],[2.0018,35.7885,1083.6201],[1.9961,35.7764,1065.1307],[1.9843,35.77,1151.6482],[1.978,35.7699,1254.2368],[1.9716,35.7724,1275.8158],[1.9587,35.7742,1315.4214],[1.9473,35.7796,1169.6338],[1.9426,35.7748,1091.1897],[1.9297,35.77,925.4052],[1.9251,35.7667,916.3324],[1.9193,35.7673,914.6256],[1.9124,35.7688,888.4666],[1.8993,35.7786,791.1193],[1.895,35.7785,778.9072],[1.8862,35.7833,771.226],[1.8794,35.7781,845.8617],[1.8625,35.7726,862.6931],[1.8572,35.7683,877.0075],[1.8566,35.7617,916.8451],[1.8613,35.7511,912.8681],[1.8582,35.739,954.0002],[1.8551,35.7337,928.4084],[1.8634,35.7056,926.7859],[1.8866,35.7034,918.3128],[1.8917,35.7047,899.4203],[1.8934,35.6986,1013.8354],[1.9042,35.6946,1041.1577],[1.9054,35.6887,1061.7269],[1.9006,35.684,1061.2957],[1.8796,35.6785,1104.0509],[1.8759,35.6723,963.4768],[1.8764,35.6669,929.5034],[1.8826,35.6665,936.01],[1.9073,35.6425,898.2784],[1.9262,35.6458,919.1266],[1.9313,35.6455,934.269],[1.9362,35.6424,932.9501],[1.9382,35.6357,911.627],[1.9343,35.5995,865.2848],[1.9437,35.5834,843.6833],[1.9547,35.5703,807.2476],[1.9541,35.5633,798.3604],[1.966,35.5655,796.6237],[1.9704,35.5686,809.1384],[1.9752,35.579,803.1642],[1.9837,35.5841,804.424],[1.9866,35.5935,789.9108],[1.9925,35.5967,788.799]]]]}}