{"type":"Feature","properties":{"GID_2":"DZA.39.11_1","GID_0":"DZA","country":"Algeria","GID_1":"DZA.39_1","province":"Skikda","NL_NAME_1":"سكيكدة","county":"BinElOuiden","VARNAME_2":"BirElOuiden","NL_NAME_2":"NA","TYPE_2":"Commune","ENGTYPE_2":"Commune","CC_2":"2129","HASC_2":"DZ.SK.BE","name":"Bin_El_Ouiden.county"},
"geometry":{"type": "MultiPolygon","coordinates": [[[[6.5215,36.7628,215.2632],[6.5256,36.7642,248.8102],[6.5298,36.7634,363.9747],[6.5308,36.7539,410.2024],[6.5372,36.7546,437.0149],[6.5427,36.765,375.2113],[6.5579,36.7695,331.4827],[6.5774,36.7725,141.9284],[6.5961,36.7609,381.4174],[6.6087,36.7593,452.953],[6.6153,36.7688,408.9569],[6.6066,36.7744,273.1017],[6.6147,36.7935,256.5384],[6.6157,36.8074,101.2903],[6.6102,36.826,46.2951],[6.6008,36.8271,64.4846],[6.5948,36.8298,80.0341],[6.5948,36.8355,108.3205],[6.5889,36.8379,177.2188],[6.5829,36.8427,127.8657],[6.5783,36.8491,215.772],[6.577,36.8601,432.7023],[6.5534,36.8673,156.8635],[6.5471,36.8752,168.6403],[6.5427,36.877,131.7957],[6.5411,36.8818,66.2026],[6.5345,36.88,114.54],[6.5297,36.8752,51.8668],[6.524,36.8723,54.3205],[6.502,36.8718,109.347],[6.5001,36.865,178.6171],[6.5005,36.8562,142.4375],[6.5042,36.8489,166.3071],[6.5043,36.8414,109.0983],[6.4904,36.827,182.2447],[6.4923,36.8202,131.4249],[6.4917,36.8118,196.4718],[6.4879,36.7982,194.3883],[6.4936,36.7954,192.4999],[6.4978,36.7898,205.5163],[6.5029,36.7881,271.5264],[6.5083,36.7806,259.4683],[6.5116,36.7705,384.1905],[6.5215,36.7628,215.2632]]]]}}