{"type": "Feature","bbox": [-1.018,35.4445,-0.5746,35.7109],"geometry": {"type": "MultiPolygon","coordinates": [[[[-0.9049,35.4765,83.3361],[-0.9017,35.4809,83.0762],[-0.8976,35.4823,81.0],[-0.893,35.4797,82.358],[-0.887,35.4797,81.5054],[-0.8827,35.4758,81.0],[-0.8714,35.4759,82.1314],[-0.8616,35.472,83.5724],[-0.8521,35.4732,84.3737],[-0.8222,35.4834,85.4723],[-0.8035,35.4956,81.7716],[-0.7634,35.5074,83.5917],[-0.7514,35.5134,83.1118],[-0.7411,35.5164,85.3823],[-0.7361,35.5156,83.4955],[-0.7188,35.5194,81.0],[-0.6952,35.5221,81.0],[-0.6884,35.5209,86.8307],[-0.6811,35.5233,85.3874],[-0.6452,35.5268,90.4163],[-0.6242,35.5358,89.1909],[-0.6193,35.5362,86.94],[-0.6034,35.5537,85.5],[-0.5887,35.5651,85.6159],[-0.5914,35.5699,86.387],[-0.5914,35.5745,86.2787],[-0.5746,35.5914,86.8244],[-0.5779,35.596,86.7291],[-0.5787,35.6019,85.0238],[-0.5822,35.6045,84.3398],[-0.5957,35.6082,82.2101],[-0.6063,35.6091,82.5281],[-0.6117,35.6116,87.9115],[-0.6219,35.6065,81.0],[-0.6281,35.6054,81.0],[-0.6561,35.6058,82.3799],[-0.676,35.6046,82.2841],[-0.6811,35.6025,81.1802],[-0.6873,35.6045,82.3884],[-0.6883,35.6105,87.2499],[-0.6778,35.623,98.6316],[-0.6729,35.631,137.0245],[-0.6732,35.6353,153.3758],[-0.7032,35.647,208.8838],[-0.7049,35.6534,216.081],[-0.7058,35.6825,336.9413],[-0.716,35.7036,448.9247],[-0.7176,35.7109,500.5269],[-0.7272,35.7091,488.2125],[-0.736,35.705,503.972],[-0.7428,35.7043,428.9149],[-0.7473,35.7007,508.4612],[-0.7682,35.6983,534.8106],[-0.8022,35.683,518.7986],[-0.8125,35.6807,487.3329],[-0.8158,35.6775,519.5567],[-0.8176,35.6719,487.7719],[-0.8259,35.6666,518.7546],[-0.8347,35.6668,566.7137],[-0.8293,35.6627,527.5283],[-0.8174,35.6573,464.8821],[-0.8126,35.6513,453.1927],[-0.8107,35.6436,364.5355],[-0.8119,35.6284,284.4581],[-0.8092,35.6232,328.0586],[-0.8081,35.6109,278.5225],[-0.8034,35.602,196.3251],[-0.7966,35.5947,112.1029],[-0.8033,35.5823,94.678],[-0.8043,35.5743,88.2893],[-0.8029,35.5675,84.2785],[-0.8136,35.5642,81.9026],[-0.8202,35.5528,81.0821],[-0.8264,35.5532,81.4774],[-0.8371,35.5577,82.6807],[-0.8561,35.5575,81.0],[-0.894,35.5611,83.1101],[-0.9121,35.5589,81.5217],[-0.9258,35.5533,81.0],[-0.9424,35.5427,81.0],[-0.9587,35.5408,81.8475],[-0.9672,35.5353,81.0],[-0.9734,35.5172,81.0],[-0.9881,35.5072,81.0],[-0.9965,35.5058,82.9323],[-1.0156,35.5067,85.4477],[-1.018,35.4949,82.0025],[-1.0137,35.4828,81.0],[-1.0175,35.4667,81.0],[-1.0135,35.4643,81.0],[-1.0105,35.4594,81.5],[-1.01,35.4539,81.5388],[-1.0053,35.4445,85.784],[-1.0015,35.4474,83.851],[-0.9946,35.4478,85.078],[-0.9985,35.4589,84.0048],[-1.0077,35.4639,85.7955],[-1.0052,35.4686,84.2172],[-0.9644,35.4739,81.0],[-0.969,35.4787,82.76],[-0.9801,35.4844,85.9335],[-0.983,35.4879,86.8131],[-0.9798,35.4923,85.1551],[-0.9747,35.4942,83.7204],[-0.9586,35.4954,93.4263],[-0.9369,35.4796,81.0],[-0.9362,35.4736,81.0],[-0.932,35.47,84.2978],[-0.9154,35.4712,83.0516],[-0.9049,35.4765,83.3361]]]]}
,"properties": {"GID_2": "DZA.32.21_1","GID_0": "DZA","country": "Algeria","GID_1": "DZA.32_1","province": "Oran","NL_NAME_1": "ولايةوهران","county": "Misserghin","VARNAME_2": "NA","NL_NAME_2": "NA","TYPE_2": "Commune","ENGTYPE_2": "Commune","CC_2": "3123","HASC_2": "DZ.OR.MI","name": "Misserghin.county","area_km2": 434.2976,"hist_schema_id": "Elevation0-9000","hist_area_km2": {"75": 309.1177,"100": 21.775,"125": 6.1017,"150": 5.5325,"175": 5.0842,"200": 6.1006,"225": 7.5302,"250": 7.3574,"275": 6.1336,"300": 6.5293,"325": 6.305,"350": 8.0102,"375": 7.08,"400": 5.1679,"425": 5.2882,"450": 6.5798,"475": 5.632,"500": 5.5968,"525": 3.1515,"550": 0.2239}}}