{"type":"Feature","properties":{"GID_2":"DZA.13.21_1","GID_0":"DZA","country":"Algeria","GID_1":"DZA.13_1","province":"Boumerdès","NL_NAME_1":"ولايةبومرداس","county":"Naciria","VARNAME_2":"Naghāus","NL_NAME_2":"NA","TYPE_2":"Commune","ENGTYPE_2":"Commune","CC_2":"3507","HASC_2":"DZ.BM.NA","name":"Naciria.county"},
"geometry":{"type": "MultiPolygon","coordinates": [[[[3.8315,36.7824,106.35],[3.824,36.7811,139.7468],[3.8164,36.7735,270.929],[3.8103,36.7732,294.4406],[3.7925,36.7598,140.7063],[3.7717,36.7576,102.6536],[3.768,36.7533,60.2147],[3.769,36.7455,47.872],[3.7774,36.7357,113.5076],[3.79,36.733,226.0954],[3.7931,36.7268,262.0894],[3.8079,36.7103,347.3707],[3.8129,36.6963,501.9574],[3.81,36.6929,647.2128],[3.8193,36.686,812.1332],[3.8349,36.6859,715.3816],[3.8416,36.6812,535.4637],[3.8626,36.6718,319.0956],[3.8673,36.6718,266.0037],[3.8714,36.674,271.978],[3.8805,36.6738,248.4177],[3.8703,36.6844,377.9071],[3.8645,36.6866,448.1395],[3.8632,36.6929,710.4368],[3.8594,36.6976,810.8082],[3.8548,36.6984,767.3227],[3.8492,36.7025,661.8063],[3.8462,36.7101,438.8327],[3.8463,36.7168,365.2422],[3.8497,36.7206,242.9083],[3.8493,36.7262,173.2116],[3.8587,36.7408,61.1228],[3.8665,36.7461,53.1021],[3.8685,36.7539,55.9351],[3.8661,36.761,81.1292],[3.8411,36.7677,146.5082],[3.8311,36.7658,212.0276],[3.8241,36.7675,246.5411],[3.826,36.7717,202.2967],[3.8301,36.7742,159.5027],[3.8323,36.7781,144.4222],[3.8315,36.7824,106.35]]]]}}