{"type": "Feature","bbox": [6.2206,35.6332,6.3721,35.7371],"geometry": {"type": "MultiPolygon","coordinates": [[[[6.3525,35.7333,825.076],[6.348,35.7371,820.3976],[6.3368,35.7347,818.7349],[6.326,35.7366,820.2061],[6.3074,35.7368,813.8976],[6.2982,35.7279,817.9883],[6.3007,35.7205,831.2479],[6.2954,35.7162,902.1113],[6.285,35.7123,897.8514],[6.2795,35.7111,880.1088],[6.2768,35.7161,833.585],[6.2601,35.7103,835.6408],[6.2475,35.7103,820.3452],[6.2354,35.7055,828.3942],[6.2306,35.7056,832.3906],[6.2295,35.7097,831.4604],[6.2242,35.7044,838.2004],[6.2206,35.6944,853.0914],[6.2325,35.6784,945.9938],[6.2356,35.6567,1420.9841],[6.2404,35.6557,1430.1752],[6.2445,35.6435,1129.766],[6.2502,35.64,1290.9969],[6.2565,35.6405,1214.7349],[6.2673,35.6332,971.0465],[6.2721,35.6342,942.1759],[6.2809,35.6435,924.8607],[6.2949,35.6529,883.1205],[6.3016,35.6566,874.5293],[6.3145,35.6597,866.0314],[6.3246,35.6507,865.1542],[6.332,35.6399,866.1816],[6.3379,35.641,862.5812],[6.3438,35.639,858.8762],[6.3483,35.6402,855.6412],[6.3457,35.6453,857.0928],[6.3413,35.6493,856.7388],[6.34,35.6539,856.5721],[6.3617,35.666,846.1941],[6.3632,35.6727,844.2306],[6.3604,35.6778,843.3524],[6.3598,35.6833,840.8142],[6.3709,35.6919,835.6768],[6.3721,35.6963,833.78],[6.3616,35.7218,827.2185],[6.3583,35.7277,827.2297],[6.3525,35.7333,825.076]]]]}
,"properties": {"GID_2": "DZA.6.16_1","GID_0": "DZA","country": "Algeria","GID_1": "DZA.6_1","province": "Batna","NL_NAME_1": "ولايةباتنة","county": "Djerma","VARNAME_2": "NA","NL_NAME_2": "NA","TYPE_2": "Commune","ENGTYPE_2": "Commune","CC_2": "513","HASC_2": "DZ.BT.DR","name": "Djerma.county","area_km2": 99.88084,"hist_schema_id": "Elevation0-9000","hist_area_km2": {"825": 21.15656,"850": 25.52204,"875": 9.83337,"900": 6.9747,"925": 5.5973,"950": 4.75358,"975": 3.85794,"1000": 4.11628,"1025": 4.89142,"1050": 3.7204,"1075": 2.32537,"1100": 1.70535,"1125": 1.13697,"1150": 0.70632,"1175": 0.65462,"1200": 0.53404,"1225": 0.53406,"1250": 0.53404,"1275": 0.37901,"1300": 0.22395,"1325": 0.2584,"1350": 0.18949,"1375": 0.15504,"1400": 0.03445,"1425": 0.05168,"1450": 0.03445}}}