{"type": "Feature","bbox": [5.7186,35.5068,5.9035,35.6214],"geometry": {"type": "MultiPolygon","coordinates": [[[[5.9013,35.5888,1389.0955],[5.9006,35.5957,1340.448],[5.9023,35.6023,1310.1135],[5.8998,35.6079,1340.5615],[5.8905,35.6175,1088.0471],[5.8579,35.6103,1271.9163],[5.8548,35.6142,1272.6403],[5.8502,35.6154,1285.4574],[5.8488,35.61,1409.2205],[5.8385,35.612,1186.4325],[5.8341,35.617,1120.4731],[5.8285,35.6201,1050.0129],[5.8048,35.6167,1250.657],[5.7989,35.6195,1185.6809],[5.7856,35.6214,1145.9545],[5.767,35.6213,1283.4901],[5.738,35.6166,1333.2988],[5.7323,35.618,1233.2838],[5.7284,35.615,1267.2413],[5.7215,35.6033,1021.3712],[5.7186,35.5932,931.9584],[5.7188,35.5871,908.211],[5.7268,35.5743,923.8961],[5.7236,35.5711,906.8],[5.7367,35.566,934.817],[5.7339,35.5605,1026.7028],[5.7395,35.5484,1206.0876],[5.7443,35.5438,1223.012],[5.768,35.5299,1495.2931],[5.7785,35.5262,1495.4283],[5.786,35.5256,1365.9313],[5.7957,35.5155,1526.7017],[5.8024,35.5157,1562.2054],[5.807,35.5183,1650.8904],[5.8176,35.5098,1533.2821],[5.83,35.5068,1539.245],[5.8408,35.5173,1660.5565],[5.8415,35.5227,1619.178],[5.8468,35.5288,1664.7037],[5.8592,35.5337,1704.7771],[5.871,35.5345,1721.9171],[5.8751,35.539,1696.9164],[5.88,35.5479,1877.5551],[5.8719,35.5551,1978.7937],[5.8684,35.5635,2007.0828],[5.8892,35.5662,1906.9933],[5.9035,35.5727,1675.9159],[5.8998,35.5837,1509.4594],[5.9013,35.5888,1389.0955]]]]}
,"properties": {"GID_2": "DZA.6.54_1","GID_0": "DZA","country": "Algeria","GID_1": "DZA.6_1","province": "Batna","NL_NAME_1": "ولايةباتنة","county": "Taxlent","VARNAME_2": "NA","NL_NAME_2": "NA","TYPE_2": "Commune","ENGTYPE_2": "Commune","CC_2": "538","HASC_2": "DZ.BT.TX","name": "Taxlent.county","area_km2": 146.4636,"hist_schema_id": "Elevation0-9000","hist_area_km2": {"875": 0.0345,"900": 0.5518,"925": 3.7418,"950": 3.7245,"975": 3.5002,"1000": 3.9312,"1025": 4.362,"1050": 4.6034,"1075": 4.6207,"1100": 4.7415,"1125": 5.2415,"1150": 4.8106,"1175": 4.362,"1200": 3.8451,"1225": 3.8969,"1250": 3.6556,"1275": 4.1901,"1300": 3.7764,"1325": 4.0524,"1350": 4.3283,"1375": 4.1214,"1400": 4.1561,"1425": 4.1391,"1450": 3.777,"1475": 3.6218,"1500": 3.3289,"1525": 4.6053,"1550": 4.5021,"1575": 5.2784,"1600": 5.0026,"1625": 5.451,"1650": 4.347,"1675": 3.7432,"1700": 2.6563,"1725": 2.0352,"1750": 1.6213,"1775": 1.3453,"1800": 0.9141,"1825": 0.8624,"1850": 0.6899,"1875": 0.7589,"1900": 0.483,"1925": 0.7071,"1950": 0.6554,"1975": 0.4312,"2000": 0.3622,"2025": 0.3795,"2050": 0.1725,"2075": 0.0862,"2100": 0.138,"2125": 0.1035,"2150": 0.0172}}}