{"type":"Feature","properties":{"GID_2":"DZA.14.18_1","GID_0":"DZA","country":"Algeria","GID_1":"DZA.14_1","province":"Chlef","NL_NAME_1":"ولايةالشلف","county":"LabiodMedjadja","VARNAME_2":"LabiodhMedjadja","NL_NAME_2":"NA","TYPE_2":"Commune","ENGTYPE_2":"Commune","CC_2":"228","HASC_2":"DZ.CH.LM","name":"Labiod_Medjadja.county"},
"geometry":{"type": "MultiPolygon","coordinates": [[[[1.3724,36.3287,403.7623],[1.3723,36.3129,391.5413],[1.3646,36.2972,545.3642],[1.3486,36.2852,377.7867],[1.3235,36.2766,326.7263],[1.3429,36.2553,467.234],[1.3362,36.2479,480.1538],[1.3368,36.2312,243.9485],[1.3452,36.2174,146.1916],[1.3537,36.2106,134.8944],[1.395,36.2228,129.9464],[1.3974,36.2335,152.7911],[1.4008,36.2371,152.9015],[1.406,36.238,161.082],[1.418,36.2547,183.3727],[1.4202,36.2401,177.5421],[1.4247,36.2372,183.3804],[1.4314,36.2361,159.777],[1.4489,36.2392,174.8777],[1.4615,36.254,309.872],[1.4671,36.256,301.2298],[1.4647,36.2739,532.5013],[1.4681,36.2849,578.0034],[1.4765,36.2947,437.3045],[1.483,36.2991,391.8531],[1.4841,36.3035,372.8234],[1.4639,36.3077,439.5748],[1.4579,36.3122,459.8714],[1.4459,36.3137,464.6923],[1.4227,36.3211,436.6041],[1.4136,36.319,445.2907],[1.4091,36.3205,416.4864],[1.397,36.3179,442.8755],[1.39,36.3185,446.2402],[1.3857,36.3214,450.7229],[1.3791,36.3305,415.7237],[1.3724,36.3287,403.7623]]]]}}