{"type": "Feature","bbox": [6.8494,36.5325,7.0121,36.6417],"geometry": {"type": "MultiPolygon","coordinates": [[[[6.8786,36.5618,699.6796],[6.8849,36.5639,671.4116],[6.907,36.561,557.293],[6.9207,36.564,443.7182],[6.9281,36.563,240.6287],[6.935,36.56,248.3247],[6.9308,36.5553,219.1922],[6.9316,36.5511,268.2586],[6.9357,36.5477,257.0278],[6.9434,36.5447,229.6382],[6.9494,36.5388,283.1705],[6.9573,36.5365,262.8176],[6.9869,36.5325,299.7957],[6.9935,36.5409,435.0205],[7.004,36.5436,609.386],[7.0103,36.5424,772.6518],[7.0121,36.5574,725.7773],[7.0121,36.563,855.9578],[6.9978,36.5689,740.6111],[6.9839,36.5808,734.0831],[6.9729,36.5984,496.0725],[6.9757999999999996,36.603,511.3065],[6.9712,36.6062,441.901],[6.9597,36.5967,497.7753],[6.9554,36.5985,529.1727],[6.9462,36.6076,427.4715],[6.9452,36.6129,440.623],[6.9543,36.6126,459.514],[6.954,36.6269,346.7863],[6.9381,36.632,328.1299],[6.9198,36.6417,369.7606],[6.9093,36.6404,280.0673],[6.9054,36.6383,228.0268],[6.9007,36.6383,192.9019],[6.8966,36.6416,321.0217],[6.8906,36.6411,354.4703],[6.8734,36.6344,225.059],[6.8691,36.6293,196.5847],[6.8734,36.6237,113.1143],[6.8679,36.6196,192.7046],[6.8651,36.6074,533.0356],[6.855,36.5998,486.2112],[6.8496,36.5876,498.7002],[6.8494,36.5773,672.4657],[6.8524,36.5662,739.2401],[6.864,36.5627,633.0197],[6.8786,36.5618,699.6796]]]]}
,"properties": {"GID_2": "DZA.39.37_1","GID_0": "DZA","country": "Algeria","GID_1": "DZA.39_1","province": "Skikda","NL_NAME_1": "سكيكدة","county": "Zerdeza","VARNAME_2": "Zerdezas","NL_NAME_2": "NA","TYPE_2": "Commune","ENGTYPE_2": "Commune","CC_2": "2117","HASC_2": "DZ.SK.ZE","name": "Zerdeza.county","area_km2": 99.64406,"hist_schema_id": "Elevation0-9000","hist_area_km2": {"100": 0.03403,"125": 0.6126,"150": 1.5487,"175": 1.70187,"200": 4.15376,"225": 2.94482,"250": 3.77908,"275": 4.35787,"300": 4.7495,"325": 5.41363,"350": 6.02638,"375": 5.75419,"400": 5.87308,"425": 6.02646,"450": 5.29439,"475": 5.34558,"500": 5.29447,"525": 4.57944,"550": 3.9839,"575": 3.88189,"600": 2.48608,"625": 2.48617,"650": 2.31592,"675": 1.97532,"700": 1.87312,"725": 1.49847,"750": 1.41333,"775": 1.27711,"800": 1.07276,"825": 0.98762,"850": 0.7322,"875": 0.17028}}}