{"type":"Feature","properties":{"GID_2":"DZA.17.18_1","GID_0":"DZA","country":"Algeria","GID_1":"DZA.17_1","province":"ElBayadh","NL_NAME_1":"ولايةالبيض","county":"SidiAmeur","VARNAME_2":"NA","NL_NAME_2":"NA","TYPE_2":"Commune","ENGTYPE_2":"Commune","CC_2":"3218","HASC_2":"DZ.EB.SA","name":"Sidi_Ameur.county"},
"geometry":{"type": "MultiPolygon","coordinates": [[[[1.5345,33.8813,1414.213],[1.4969,33.9092,1277.8339],[1.486,33.9268,1263.9465],[1.4734,33.9392,1244.4893],[1.4537,33.945,1230.4033],[1.4471,33.9449,1228.0795],[1.4411,33.9477,1220.4739],[1.4341,33.9482,1215.2523],[1.4238,33.9537,1211.2651],[1.4105,33.9647,1203.7559],[1.3972,33.9663,1193.874],[1.3881,33.9724,1188.2985],[1.3731,33.9752,1183.1877],[1.3685,33.9785,1178.8221],[1.3672,33.9882,1175.8416],[1.3649,33.9919,1176.4205],[1.3606,33.9888,1188.0482],[1.3574,33.983,1178.0179],[1.3592,33.9766,1183.028],[1.3524,33.968,1199.2294],[1.3534,33.9621,1196.9055],[1.3459,33.9515,1194.0225],[1.3376999999999999,33.9498,1204.6504],[1.3361,33.9404,1202.2009],[1.3321,33.9382,1206.3391],[1.3301,33.9339,1207.7313],[1.3144,33.9233,1211.0623],[1.3146,33.917,1214.545],[1.3121,33.9106,1220.6161],[1.3149,33.9055,1218.6218],[1.3107,33.8957,1234.0452],[1.3103,33.8883,1239.8652],[1.3176,33.8661,1240.4849],[1.3284,33.8594,1248.6682],[1.3316,33.8556,1261.5806],[1.3473,33.8473,1274.5815],[1.3504,33.8427,1287.3074],[1.3599,33.8412,1279.2646],[1.3679,33.8218,1319.9375],[1.3681,33.8092,1324.1553],[1.3652,33.8022,1343.6655],[1.3658,33.7887,1348.9323],[1.3598,33.7813,1359.8918],[1.3588,33.7708,1366.3618],[1.36,33.7633,1387.1736],[1.3741,33.7454,1451.6354],[1.377,33.7349,1470.4058],[1.376,33.7285,1480.6023],[1.3691,33.7149,1428.6682],[1.3708,33.6964,1394.9369],[1.3679,33.6917,1383.6677],[1.362,33.6876,1380.7266],[1.3552,33.679,1363.8147],[1.3349,33.6691,1352.4512],[1.3318,33.6659,1348.9102],[1.3279,33.6539,1342.3982],[1.3218,33.6485,1336.636],[1.3192,33.6412,1334.0787],[1.3195,33.6346,1329.8096],[1.3223,33.6311,1325.2026],[1.3208,33.6259,1323.2585],[1.3246,33.6229,1317.7356],[1.3258,33.6182,1307.7427],[1.3268,33.6063,1323.8455],[1.3254,33.6006,1319.7412],[1.3088,33.5871,1286.3097],[1.2892,33.5651,1260.6329],[1.289,33.5591,1255.849],[1.2913,33.5515,1243.2056],[1.2886,33.5369,1228.4858],[1.2839,33.5305,1223.1074],[1.2812,33.5151,1209.6262],[1.2852,33.5106,1209.8705],[1.2929,33.5126,1224.2144],[1.2991,33.5152,1229.2954],[1.3125,33.5256,1249.9963],[1.3231,33.5304,1259.0608],[1.3318,33.5277,1284.8135],[1.3467,33.5198,1251.6399],[1.3497,33.5118,1243.2722],[1.3472,33.5075,1245.7781],[1.3375,33.4994,1230.0988],[1.3166,33.4888,1216.0033],[1.3184,33.4725,1284.9447],[1.3311,33.416,1372.3364],[1.361,33.3591,1403.3328],[1.4078,33.3101,1182.3702],[1.4006,33.2447,1055.1112],[1.4707,33.2397,988.1809],[1.5137,33.2716,1016.7627],[1.5312,33.2825,1016.5085],[1.6039,33.3198,1001.437],[1.6622,33.3393,1019.2828],[1.7199,33.3526,997.1609],[1.7002,33.364,1023.0298],[1.697,33.3673,1030.187],[1.6855,33.3869,1083.1794],[1.6827,33.3976,1126.7748],[1.6827,33.415,1116.7485],[1.6789,33.42,1097.3251],[1.6629,33.4265,1136.4526],[1.6558,33.4264,1142.2736],[1.6468,33.4191,1161.2192],[1.6374,33.4168,1157.9978],[1.6096,33.3942,1136.6587],[1.6046,33.3931,1133.5035],[1.5854,33.3949,1134.5945],[1.5761,33.4005,1144.1859],[1.57,33.3998,1135.7881],[1.5613,33.4032,1141.672],[1.5582,33.4065,1154.5259],[1.5569,33.4108,1198.0306],[1.5544,33.4282,1216.2472],[1.5581,33.4371,1261.0801],[1.5522,33.44,1283.8427],[1.5493,33.4434,1322.5129],[1.5486,33.4493,1339.7909],[1.5523,33.4545,1323.9293],[1.5547,33.463,1299.2642],[1.5475,33.464,1248.8118],[1.5339,33.4752,1204.0123],[1.5112,33.4816,1196.2037],[1.502,33.4912,1202.9366],[1.5019,33.4968,1218.8246],[1.4943,33.4967,1220.1763],[1.4831,33.4991,1224.2581],[1.4551,33.5085,1258.2766],[1.4515,33.5117,1244.6981],[1.4463,33.5251,1339.0582],[1.4424,33.5276,1306.9513],[1.4229,33.5302,1292.0088],[1.4205,33.5451,1303.1486],[1.4218,33.5566,1335.0073],[1.4104,33.5812,1425.7264],[1.4078,33.5992,1476.9187],[1.4132,33.6494,1475.7124],[1.4193,33.6808,1524.8347],[1.4302,33.6942,1516.4092],[1.4435,33.72,1509.6515],[1.4556,33.7379,1494.0101],[1.4936,33.8039,1373.0752],[1.5004,33.8066,1381.379],[1.522,33.8104,1395.2373],[1.5269,33.8139,1383.3496],[1.5162,33.8191,1397.9563],[1.5124,33.8222,1394.8962],[1.5098,33.8271,1405.3353],[1.5145,33.8483,1401.3602],[1.5225,33.8624,1375.8813],[1.527,33.8799,1328.4347],[1.5345,33.8813,1414.213]]]]}}