{"type":"Feature","properties":{"GID_2":"DZA.34.26_1","GID_0":"DZA","country":"Algeria","GID_1":"DZA.34_1","province":"OumelBouaghi","NL_NAME_1":"ولايةأمالبواقي","county":"OumElBouaghi","VARNAME_2":"Umm-al-Bawāghī","NL_NAME_2":"NA","TYPE_2":"Chef-Lieu-Wilaya","ENGTYPE_2":"Chef-Lieu-Wilaya","CC_2":"401","HASC_2":"DZ.OB.OB","name":"Oum_El_Bouaghi.county"},
"geometry":{"type": "MultiPolygon","coordinates": [[[[7.047,35.9611,957.7799],[7.0277,35.9563,993.541],[7.026,35.944,985.6769],[7.0225,35.9407,979.5076],[7.0171,35.9387,972.3544],[7.0115,35.9392,983.5789],[7.0072,35.9422,1000.3369],[6.9688,35.9494,1118.2623],[6.9633,35.9541,1093.1307],[6.9575,35.9518,1055.7795],[6.954,35.9478,1038.3555],[6.9453,35.958,1080.124],[6.9394,35.9543,1059.7451],[6.9391,35.9387,996.4897],[6.9363,35.9329,997.5967],[6.937,35.9276,985.2689],[6.9402,35.9216,965.2437],[6.9459,35.917,960.6898],[6.956,35.8913,935.9156],[6.9497,35.8866,930.0648],[6.943,35.8842,927.166],[6.9363,35.8741,924.5229],[6.9336,35.8625,908.2042],[6.9363,35.8491,897.9871],[6.936,35.842,952.3417],[6.9301,35.832,913.1152],[6.9635,35.8312,945.4434],[6.972,35.8385,978.9071],[6.9741,35.8448,977.7698],[6.9784,35.8489,986.5422],[7.0144,35.8572,920.7579],[7.047,35.8766,902.6266],[7.0577,35.8714,893.9815],[7.0627,35.8738,893.9231],[7.0621,35.8824,908.0179],[7.0679,35.8784,910.9329],[7.0679,35.8725,889.9299],[7.0825,35.8649,884.8982],[7.0877,35.8596,881.157],[7.0849,35.8548,883.026],[7.0687,35.8383,948.3823],[7.0725,35.8332,928.7645],[7.0988,35.8158,867.2629],[7.1032,35.8098,856.3734],[7.0992,35.8047,851.0078],[7.1059,35.7928,847.6857],[7.0829,35.7636,1090.1139],[7.0808,35.7576,1092.887],[7.0802,35.7523,981.2425],[7.0886,35.7321,840.3386],[7.0936,35.7302,831.4478],[7.1131,35.731,830.7577],[7.1243,35.7364,835.101],[7.1454,35.7406,839.692],[7.1642,35.7507,831.6041],[7.1703,35.7515,835.7975],[7.1852,35.7463,839.9955],[7.2132,35.7422,842.6155],[7.2185,35.7391,842.3701],[7.2242,35.7277,842.8106],[7.2256,35.715,839.5956],[7.2469,35.716,841.8168],[7.2494,35.7265,850.1395],[7.2507,35.7454,862.5167],[7.2463,35.7888,915.4995],[7.2586,35.7926,924.5173],[7.2622,35.7967,913.4995],[7.2621,35.803,923.2537],[7.2537,35.8152,924.0539],[7.2476,35.8423,912.177],[7.2307,35.8489,910.624],[7.2266,35.8552,905.9467],[7.2251,35.8635,906.4897],[7.2343,35.8679,909.161],[7.2316,35.8731,898.4817],[7.2309,35.8829,887.8629],[7.238,35.8949,879.7992],[7.2308,35.9069,862.0919],[7.2126,35.9103,885.7689],[7.2055,35.9093,896.1345],[7.1941,35.9124,891.595],[7.19,35.911,894.3393],[7.1872,35.9066,908.1649],[7.1802,35.9056,932.4803],[7.1657,35.9075,970.8304],[7.1709,35.9148,947.7117],[7.1663,35.9157,964.8441],[7.1746,35.9227,921.6945],[7.1713,35.9265,945.0613],[7.1739,35.9306,911.9978],[7.1743,35.9355,895.6188],[7.1691,35.9377,897.0253],[7.1349,35.9302,992.7242],[7.1127,35.9207,1011.4753],[7.1085,35.922,986.9675],[7.1064,35.9279,949.3497],[7.1015,35.9524,893.1672],[7.0956,35.9536,895.8331],[7.069,35.9463,939.5305],[7.0635,35.9487,931.0484],[7.0593,35.9537,918.6781],[7.047,35.9611,957.7799]]]]}}