{"type":"Feature","properties":{"GID_2":"DZA.19.22_1","GID_0":"DZA","country":"Algeria","GID_1":"DZA.19_1","province":"ElTarf","NL_NAME_1":"ولايةالطارف","county":"Souarekh","VARNAME_2":"NA","NL_NAME_2":"NA","TYPE_2":"Commune-Cotiere","ENGTYPE_2":"Commune-Cotiere","CC_2":"3609","HASC_2":"DZ.ET.SO","name":"Souarekh.county"},
"geometry":{"type": "MultiPolygon","coordinates": [[[[8.6288,36.8564,453.4974],[8.6327,36.8642,424.3023],[8.6316,36.8697,452.7349],[8.634,36.8761,442.6418],[8.6326,36.8884,481.0048],[8.6339,36.8987,489.2592],[8.6371,36.9058,486.3159],[8.6397,36.9103,477.2396],[8.6575,36.9166,445.7624],[8.6512,36.9234,327.2578],[8.6527,36.9231,318.4134],[8.6475,36.9305,179.3697],[8.6456,36.9369,114.9464],[8.6414,36.9414,6.024],[8.6365,36.9372,0.0],[8.6176,36.9352,5.4044],[8.6121,36.9401,23.417],[8.6067,36.9391,2.0561],[8.6029,36.9356,6.869],[8.5885,36.9302,32.408],[8.5795,36.9305,0.0],[8.5589,36.9271,0.0],[8.5488,36.921,0.0],[8.5241,36.9137,5.4779],[8.5207,36.9096,13.4548],[8.5222,36.9053,61.5334],[8.5204,36.8993,36.1578],[8.5295,36.8914,2.8903],[8.5337,36.8841,4.0481],[8.544,36.8774,4.1731],[8.543,36.8659,19.2599],[8.5394,36.8623,21.9388],[8.5369,36.8555,6.5796],[8.5523,36.8385,272.8746],[8.5565,36.8371,307.1599],[8.5897,36.8424,454.688],[8.5981,36.8464,346.1473],[8.6032,36.8518,327.0363],[8.6089,36.8545,277.2953],[8.6288,36.8564,453.4974]]]]}}