{"type": "Feature","bbox": [6.6838,34.1545,7.4021,35.3736],"geometry": {"type": "MultiPolygon","coordinates": [[[[6.6975,34.3805,-17.7122],[6.6989,34.3754,-18.2186],[6.6918,34.3245,-16.8694],[6.6979,34.3053,-20.5982],[6.7059,34.2978,-19.6116],[6.7629,34.2657,-23.2783],[6.8238,34.2274,-18.6057],[6.9122,34.1894,-10.2066],[6.9377,34.1708,-10.4316],[7.01,34.1545,-9.629],[7.0118,34.2047,0.9866],[7.0218,34.2889,13.0094],[7.0228,34.3323,22.8664],[7.2315,34.3401,65.0138],[7.2458,34.4432,100.6369],[7.2782,34.536,140.5081],[7.2999,34.5579,161.7254],[7.3091,34.5764,195.6025],[7.3182,34.5896,231.2976],[7.3267,34.5988,284.1982],[7.353,34.6356,276.682],[7.3775,34.6657,340.5296],[7.3869,34.6894,359.6577],[7.3916,34.7061,394.6159],[7.3945,34.7266,406.5239],[7.3902,34.7364,475.4448],[7.3906,34.7514,673.2379],[7.3683,34.7734,658.5307],[7.3637,34.7889,623.5414],[7.3655,34.7935,641.7519],[7.3732,34.8006,673.8047],[7.3726,34.807,688.5725],[7.3769,34.8116,720.8985],[7.3769,34.8185,736.2672],[7.3793,34.8253,752.7725],[7.39,34.8366,789.0577],[7.3943,34.8438,774.5316],[7.4021,34.8643,827.9877],[7.3981,34.8696,785.841],[7.3997,34.8843,846.723],[7.3953,34.8954,892.569],[7.3924,34.9095,919.2687],[7.3706,34.9397,1213.9211],[7.3711,34.9556,1252.7883],[7.3679,34.9594,1357.0129],[7.3459,34.9519,1363.6342],[7.3203,34.9669,1295.0645],[7.3078,34.9652,1300.8159],[7.3072,34.9584,1160.5254],[7.2998,34.9476,1075.9485],[7.2817,34.9364,1008.0042],[7.2736,34.9292,1030.7098],[7.2674,34.9102,909.7289],[7.2593,34.8984,873.9788],[7.2492,34.8734,595.8889],[7.2338,34.8907,720.6351],[7.2336,34.8968,745.6129],[7.2292,34.903,847.785],[7.236,34.9182,778.9406],[7.2367,34.9244,814.9585],[7.2439,34.9359,824.5767],[7.242,34.9463,929.1166],[7.2462,34.9629,909.0346],[7.2529,34.9714,907.9984],[7.2639,34.9788,998.5523],[7.2672,34.9834,984.184],[7.2657,34.989,1190.2178],[7.2703,34.9925,1189.9922],[7.2856,34.9969,1084.8129],[7.288,35.0029,1041.6378],[7.2886,35.0199,1180.5055],[7.3002,35.0414,1025.6293],[7.2577,35.0853,1296.2263],[7.2533,35.0926,1370.2385],[7.2373,35.1037,1357.9993],[7.2207,35.1249,1320.6813],[7.2173,35.1324,1333.3186],[7.2186,35.1392,1369.3956],[7.2162,35.1543,1303.2185],[7.2155,35.1739,1272.525],[7.2098,35.1853,1254.4656],[7.2177,35.1914,1275.9767],[7.2312,35.1957,1334.8982],[7.234,35.2003,1310.1538],[7.2281,35.2198,1349.2333],[7.2248,35.2244,1385.5365],[7.2193,35.2276,1403.8403],[7.2158,35.2245,1383.4844],[7.2109,35.2241,1354.8765],[7.2131,35.2472,1319.3911],[7.1972,35.2677,1099.6014],[7.1913,35.2801,1062.3245],[7.1924,35.2977,1073.1033],[7.2091,35.3613,1108.4016],[7.2066,35.3666,1120.855],[7.1916,35.3736,1191.1705],[7.1826,35.3604,1106.2161],[7.1691,35.3508,1105.9031],[7.1554,35.3448,1149.4272],[7.1265,35.3409,1361.0099],[7.1166,35.3332,1492.8032],[7.0937,35.3204,1483.0367],[7.0979,35.3188,1453.0653],[7.0903,35.3113,1507.3899],[7.0847,35.3101,1573.5258],[7.0914,35.2994,1305.4175],[7.0986,35.2927,1208.183],[7.1019,35.2875,1174.6772],[7.0951,35.254,1046.2523],[7.0888,35.2423,1028.1572],[7.0851,35.2317,1011.9748],[7.0846,35.225,1007.2369],[7.0748,35.2033,964.562],[7.0642,35.1927,947.4385],[7.0463,35.1794,939.0],[7.0533,35.1772,954.0847],[7.0629,35.1701,999.2819],[7.0693,35.1674,1020.6702],[7.0828,35.1645,1049.0613],[7.112,35.1615,1163.7559],[7.1238,35.1568,1211.2974],[7.1469,35.1319,1226.1804],[7.1653,35.1201,1216.6626],[7.1801,35.1135,1243.9707],[7.19,35.1036,1287.3215],[7.2002,35.0987,1289.7139],[7.2044,35.0905,1331.2064],[7.2055,35.0746,1327.6084],[7.1993,35.0664,1371.7812],[7.1975,35.0602,1439.0302],[7.2017,35.0529,1471.377],[7.2077,35.0466,1397.978],[7.2106,35.0403,1256.1962],[7.2093,35.0345,1216.403],[7.2187,35.0166,1096.5574],[7.2194,35.0037,1049.6089],[7.2144,34.9971,1037.3342],[7.2082,34.9936,1029.5493],[7.2036,34.9886,1017.5211],[7.1922,34.9707,991.1345],[7.1924,34.9575,986.151],[7.1957,34.9492,981.2813],[7.1992,34.9448,1007.3422],[7.1989,34.937,934.1959],[7.1947,34.9333,923.0653],[7.197,34.929,1005.0436],[7.1961,34.9244,929.5521],[7.1975,34.9199,915.3018],[7.1853,34.9132,889.361],[7.181,34.9077,861.878],[7.1813,34.8976,837.2367],[7.1773,34.8897,804.1349],[7.1674,34.8855,732.7764],[7.1618,34.8795,704.0468],[7.1604,34.8725,711.1469],[7.161,34.8614,623.5295],[7.1549,34.8553,610.8198],[7.1536,34.8434,533.9373],[7.1452,34.8382,509.9481],[7.1421,34.8341,511.0183],[7.1402,34.8278,511.4429],[7.141,34.8129,456.6399],[7.1489,34.8061,437.5786],[7.1625,34.8007,429.5048],[7.1699,34.7934,396.4661],[7.1741,34.7929,392.7968],[7.1792,34.7839,381.9101],[7.1791,34.7786,365.8643],[7.1914,34.773,364.0377],[7.1922,34.7584,339.7908],[7.2012,34.7389,310.0017],[7.1988,34.7334,289.89],[7.2011,34.728,314.6542],[7.2001,34.7224,281.6277],[7.2023,34.7109,276.6774],[7.2013,34.7056,259.8949],[7.2065,34.7026,253.0108],[7.2016,34.6966,244.2545],[7.1936,34.6988,277.1523],[7.181,34.7049,299.9209],[7.1683,34.7083,318.1893],[7.1518,34.7068,305.6387],[7.1394,34.7009,283.8569],[7.1211,34.7097,302.1911],[7.1009,34.7153,291.7225],[7.0343,34.7272,218.8049],[7.0065,34.7337,205.1244],[6.9666,34.7566,226.8684],[6.8817,34.7662,192.8686],[6.8768,34.7687,206.453],[6.8719,34.7678,190.4679],[6.8444,34.7762,194.9361],[6.8386,34.7754,182.3842],[6.8351,34.7701,179.1958],[6.8308,34.7668,172.9315],[6.827,34.7538,156.0962],[6.8206,34.7431,143.8441],[6.81,34.7373,130.7769],[6.8048,34.7365,127.5939],[6.7936,34.7313,116.529],[6.7795,34.731,109.1057],[6.7621,34.7221,99.9915],[6.7565,34.7126,91.6648],[6.7515,34.6934,81.8154],[6.7412,34.6849,75.7406],[6.7347,34.6746,70.1531],[6.744,34.6507,60.3728],[6.7383,34.6427,56.4576],[6.7338,34.6393,54.396],[6.733,34.6253,47.0118],[6.7362,34.6188,44.8965],[6.7372,34.6118,41.4118],[6.7356,34.6059,39.1482],[6.7415,34.5883,32.0814],[6.7406,34.5608,25.1675],[6.7365,34.5561,23.3539],[6.7339,34.5387,17.0569],[6.7284,34.5359,15.1985],[6.7266,34.5302,13.8636],[6.7267,34.5229,13.4394],[6.7186,34.5113,10.3026],[6.7176,34.5065,7.692],[6.7094,34.4993,4.7016],[6.7005,34.4884,0.3482],[6.6977,34.4826,-1.0718],[6.688,34.4742,-3.9117],[6.6843,34.4636,-6.19],[6.6838,34.4588,-6.787],[6.6925,34.4451,-9.2233],[6.6943,34.4294,-11.2287],[6.6967,34.4238,-12.0722],[6.7083,34.413,-14.1673],[6.71,34.407,-14.8602],[6.7108,34.3965,-15.9032],[6.7093,34.3924,-16.0501],[6.6975,34.3805,-17.7122]],
[[7.2492,34.8734,595.8889],[7.2577,34.8671,595.2668],[7.264,34.8698,806.3507],[7.2705,34.8564,609.1788],[7.269,34.8506,740.2993],[7.2704,34.8448,632.0553],[7.2666,34.8398,581.0589],[7.2661,34.8327,559.0941],[7.2634,34.8289,490.6987],[7.2608,34.8326,508.883],[7.2625,34.8464,490.9372],[7.2551,34.8614,555.9017],[7.2488,34.8687,566.7936],[7.2492,34.8734,595.8889]]]]}
,"properties": {"GID_2": "DZA.24.2_1","GID_0": "DZA","country": "Algeria","GID_1": "DZA.24_1","province": "Khenchela","NL_NAME_1": "ولايةخنشلة","county": "Babar","VARNAME_2": "NA","NL_NAME_2": "NA","TYPE_2": "Commune","ENGTYPE_2": "Commune","CC_2": "4013","HASC_2": "DZ.KH.BB","name": "Babar.county","area_km2": 3552.03,"hist_schema_id": "Elevation0-9000","hist_area_km2": {"-25": 259.04,"0": 467.945,"25": 312.27,"50": 339.43,"75": 331.452,"100": 253.951,"125": 187.428,"150": 140.767,"175": 107.85,"200": 70.427,"225": 52.441,"250": 52.37,"275": 55.866,"300": 46.441,"325": 35.257,"350": 30.789,"375": 31.933,"400": 29.646,"425": 24.745,"450": 21.885,"475": 14.868,"500": 10.48,"525": 8.81,"550": 9.454,"575": 11.752,"600": 13.196,"625": 13.264,"650": 13.002,"675": 12.582,"700": 12.703,"725": 12.946,"750": 13.989,"775": 14.736,"800": 13.969,"825": 13.167,"850": 13.027,"875": 13.183,"900": 13.826,"925": 12.434,"950": 12.809,"975": 18.702,"1000": 26.378,"1025": 35.026,"1050": 46.107,"1075": 48.541,"1100": 40.324,"1125": 30.199,"1150": 22.632,"1175": 18.02,"1200": 13.044,"1225": 24.674,"1250": 28.552,"1275": 20.906,"1300": 17.317,"1325": 16.609,"1350": 13.228,"1375": 9.415,"1400": 6.987,"1425": 4.664,"1450": 2.462,"1475": 1.561,"1500": 0.433,"1550": 0.069,"1600": 0.035}}}