{"type":"Feature","properties":{"GID_1":"DZA.20_1","GID_0":"DZA","country":"Algeria","province":"Ghardaïa","VARNAME_1":"GhardaSa|Gharday","NL_NAME_1":"ولايةغرداية","TYPE_1":"Wilaya","ENGTYPE_1":"Province","CC_1":"47","HASC_1":"DZ.GR","ISO_1":"NA","name":"Ghardaïa.province"},
"geometry":{"type": "MultiPolygon","coordinates": [[[[2.0924,29.0892,439.5435],[2.0584,28.9718,469.2526],[2.0408,28.8977,461.3924],[2.3201,28.9889,492.9891],[2.5,29.0451,581.6255],[2.7145,29.061,549.7855],[2.9988,29.0784,482.6474],[3.3291,29.2033,425.933],[3.3672,29.219,387.1691],[3.6672,29.7159,312.506],[3.6698,29.7281,321.3792],[3.6812,29.754,325.1379],[3.6789,29.7652,294.2822],[3.6914,29.7749,292.256],[3.7123,29.7859,296.0594],[3.7155,29.7915,303.0362],[3.7305,29.8016,297.7169],[3.7507,29.807,285.3661],[3.8168,29.9982,336.7361],[3.823,30.0003,337.0925],[3.8271,30.0098,335.439],[3.9997,30.5041,285.1161],[4.0345,30.5996,281.059],[4.0593,30.6759,278.1827],[4.151,30.9379,270.3705],[4.2519,31.2206,236.4191],[4.4094,31.5503,260.1179],[4.424,31.9119,284.0482],[4.4334,32.0294,284.0281],[4.4622,32.2113,311.6163],[4.4645,32.2152,315.6096],[4.5068,32.2548,307.0698],[4.7819,32.4946,275.4123],[4.8664,32.6213,277.9254],[5.0254,32.8514,177.1837],[4.9458,32.8696,190.5677],[4.7881,32.911,317.4942],[4.5068,32.9808,424.4782],[4.4829,32.9871,433.6023],[4.4795,32.9906,432.4038],[4.3488,33.0011,454.0787],[4.0241,33.0196,569.3705],[3.9799,33.024,586.3869],[3.8848,33.0296,534.5878],[3.8759,33.0358,536.4838],[3.8713,33.0343,540.1488],[3.8663,33.0294,550.3544],[3.8501,33.02,555.7014],[3.844,33.0197,548.898],[3.8388,33.0211,549.0673],[3.8272,33.0368,555.9366],[3.8195,33.0369,562.741],[3.8004,33.0471,572.2283],[3.7728,33.0536,577.3429],[3.7605,33.0527,580.9791],[3.7552,33.0549,583.2672],[3.7484,33.0524,586.6248],[3.7421,33.054,593.0762],[3.7343,33.0481,601.5167],[3.7257,33.0503,596.681],[3.7166,33.0644,607.3325],[3.7053,33.0587,620.9649],[3.6927,33.0618,614.1187],[3.6845,33.0603,632.5469],[3.6744,33.0504,650.6515],[3.6703,33.0539,626.7474],[3.6677,33.0691,634.1365],[3.6596,33.0691,643.2538],[3.6573,33.0633,657.2511],[3.6492,33.0582,646.4984],[3.6458,33.0521,659.3231],[3.6442,33.0447,650.8362],[3.6368,33.0406,651.936],[3.6308,33.0425,654.6356],[3.6294,33.0492,677.4866],[3.6258,33.0532,657.6661],[3.6194,33.0534,661.7489],[3.619,33.0388,666.2908],[3.6155,33.0341,667.7458],[3.6036,33.0349,674.381],[3.5957,33.041,675.4017],[3.5901,33.0424,679.5637],[3.5868,33.038,682.5695],[3.5847,33.0303,683.2386],[3.5764,33.0261,686.2767],[3.2126,33.0163,772.3129],[3.2417,32.9954,763.5978],[3.3806,32.9274,786.8433],[3.3943,32.8118,727.5151],[3.3322,32.8266,761.6237],[2.9993,32.8973,718.6591],[2.9823,32.8929,718.7989],[2.8777,32.8799,719.0883],[2.8656,32.8747,719.3826],[2.8423,32.8698,722.8755],[2.8264,32.8635,725.1671],[2.8115,32.8607,728.0934],[2.7938,32.8549,730.9186],[2.7508,32.8371,731.3783],[2.7236,32.8394,706.9542],[2.521,32.8228,748.739],[2.2502,32.8031,739.4932],[2.2421,32.8043,717.7264],[2.2748,32.5617,644.2689],[2.2978,32.4776,624.7111],[2.3612,32.2611,555.5214],[2.2968,32.2286,585.1886],[2.2432,32.1968,618.4855],[2.247,32.1475,594.829],[2.2652,31.9999,570.632],[2.2677,31.9316,566.4481],[2.2736,31.8597,546.5479],[2.0587,31.658,500.176],[2.0419,31.0988,507.6422],[2.0365,30.9999,493.6975],[2.0342,30.9909,537.9921],[2.0245,30.5397,489.4477],[2.0039,30.383,428.4958],[1.9998,30.3808,428.3428],[1.9778,30.301,455.5218],[1.9039,30.0198,399.3863],[1.9094,29.999,395.6465],[1.9588,29.7458,408.3882],[2.0029,29.5406,544.7825],[2.0924,29.0892,439.5435]]]]}}