{"type":"Feature","properties":{"GID_2":"DZA.34.22_1","GID_0":"DZA","country":"Algeria","GID_1":"DZA.34_1","province":"OumelBouaghi","NL_NAME_1":"ولايةأمالبواقي","county":"OuedNini","VARNAME_2":"NA","NL_NAME_2":"NA","TYPE_2":"Commune","ENGTYPE_2":"Commune","CC_2":"423","HASC_2":"DZ.OB.ON","name":"Oued_Nini.county"},
"geometry":{"type": "MultiPolygon","coordinates": [[[[7.4721,35.5203,1085.7112],[7.4873,35.5199,1031.9337],[7.4908,35.5247,1038.6246],[7.4911,35.5324,1051.4053],[7.4956,35.5362,1044.6746],[7.5055,35.5409,1019.437],[7.5056,35.5484,1019.3998],[7.5037,35.5534,1025.4479],[7.4956,35.5626,1029.4839],[7.4854,35.5812,961.0335],[7.4628,35.6071,915.6099],[7.4573,35.6193,910.3082],[7.4407,35.6292,903.1427],[7.4314,35.6323,898.6195],[7.4221,35.6289,894.7427],[7.3959,35.6326,883.9403],[7.3578,35.6312,871.1812],[7.3454,35.6402,866.2971],[7.3356,35.6438,863.3016],[7.319,35.6463,859.2772],[7.2988,35.6569,853.4824],[7.2903,35.6552,852.9884],[7.2795,35.6466,849.5541],[7.2675,35.6145,854.0331],[7.2928,35.6029,859.556],[7.3082,35.5927,867.4185],[7.3147,35.5803,882.9174],[7.3138,35.5756,884.757],[7.3164,35.5694,894.4851],[7.3137,35.5651,897.6936],[7.3088,35.5618,902.2853],[7.3064,35.5437,939.4453],[7.2967,35.5413,941.8046],[7.2973,35.5299,959.6292],[7.3048,35.5158,996.6899],[7.3026,35.5104,1041.5042],[7.3083,35.5102,1049.72],[7.3138,35.5133,1094.7742],[7.3375,35.5189,1196.5325],[7.3494,35.5181,1191.1385],[7.354,35.5205,1174.4663],[7.3496,35.5302,1115.8772],[7.3555,35.5415,994.1417],[7.3631,35.5642,923.2413],[7.3703,35.5684,925.2356],[7.3769,35.5698,931.6724],[7.3958,35.5552,966.1329],[7.419,35.5475,1021.5931],[7.4267,35.5378,1084.2303],[7.4345,35.5314,1094.2612],[7.424,35.5258,1064.7152],[7.4197,35.5209,1077.1719],[7.4248,35.5113,1189.3738],[7.4321,35.5117,1148.9397],[7.4418,35.5075,1164.3728],[7.4508,35.5102,1139.3684],[7.4543,35.5141,1102.5259],[7.4554,35.5204,1125.2109],[7.461,35.523,1153.6143],[7.4721,35.5203,1085.7112]]]]}}