{"type": "Feature","bbox": [0.2849,36.0651,0.3972,36.1796],"geometry": {"type": "MultiPolygon","coordinates": [[[[0.3109,36.0767,143.2314],[0.3227,36.0715,236.9301],[0.327,36.0651,154.7929],[0.3374,36.0728,231.9046],[0.3443,36.0744,302.8858],[0.3503,36.0725,228.6026],[0.3569,36.0664,175.4002],[0.3689,36.0768,209.2383],[0.3692,36.0811,256.0304],[0.379,36.0889,292.0993],[0.3846,36.0909,283.594],[0.3865,36.0962,315.3159],[0.3841,36.1085,355.7187],[0.3746,36.1145,257.9936],[0.3701,36.1199,220.4291],[0.368,36.1257,172.2661],[0.3685,36.1377,110.4326],[0.37,36.1422,115.2939],[0.375,36.144,114.518],[0.3871,36.1435,122.284],[0.3972,36.1462,142.0591],[0.3797,36.1724,39.8829],[0.3702,36.1761,46.7691],[0.3508,36.1754,10.655],[0.3386,36.1796,2.7021],[0.3298,36.1624,5.5385],[0.3251,36.158,8.5828],[0.3075,36.1486,8.1909],[0.3025,36.1488,2.5635],[0.2999,36.1434,10.6172],[0.2955,36.1393,12.4218],[0.2849,36.1329,5.6139],[0.2965,36.118,199.8315],[0.2935,36.1143,239.4714],[0.2967,36.1089,241.3829],[0.304,36.1062,252.3921],[0.3109,36.0767,143.2314]]]]}
,"properties": {"GID_2": "DZA.30.9_1","GID_0": "DZA","country": "Algeria","GID_1": "DZA.30_1","province": "Mostaganem","NL_NAME_1": "ولايةمستغانم","county": "Hadjadj","VARNAME_2": "NA","NL_NAME_2": "NA","TYPE_2": "Commune-Cotiere","ENGTYPE_2": "Commune-Cotiere","CC_2": "2714","HASC_2": "DZ.MG.HA","name": "Hadjadj.county","area_km2": 74.84163,"hist_schema_id": "Elevation0-9000","hist_area_km2": {"0": 1.07845,"25": 3.37241,"50": 2.6705,"75": 2.68767,"100": 7.87471,"125": 8.35514,"150": 5.70224,"175": 7.03853,"200": 3.6486,"225": 6.61211,"250": 5.27639,"275": 5.43083,"300": 5.13985,"325": 4.30047,"350": 3.34098,"375": 1.13071,"400": 0.80516,"425": 0.37689}}}