{"type":"Feature","properties":{"GID_2":"DZA.29.2_1","GID_0":"DZA","country":"Algeria","GID_1":"DZA.29_1","province":"Mila","NL_NAME_1":"ولايةميلة","county":"AinBeidaHarriche","VARNAME_2":"NA","NL_NAME_2":"NA","TYPE_2":"Commune","ENGTYPE_2":"Commune","CC_2":"4330","HASC_2":"DZ.ML.AB","name":"Ain_Beida_Harriche.county"},
"geometry":{"type": "MultiPolygon","coordinates": [[[[5.8982,36.4359,456.3555],[5.8912,36.4347,503.9233],[5.8863,36.438,579.0021],[5.8809,36.4383,696.0099],[5.8713,36.4346,782.9229],[5.8563,36.4219,645.2094],[5.8605,36.4174,671.7309],[5.8538,36.407,618.0717],[5.8525,36.4003,577.7893],[5.8488,36.3946,574.7338],[5.8332,36.3863,664.9227],[5.8224,36.386,635.9183],[5.8158,36.3878,705.5037],[5.8124,36.3841,676.2875],[5.8107,36.3785,790.5225],[5.8156,36.3748,921.9067],[5.8048,36.3592,1036.1864],[5.8402,36.3397,1039.229],[5.8663,36.3418,987.5263],[5.8712,36.3407,983.5129],[5.9042,36.3568,997.7908],[5.9129,36.3646,1004.5332],[5.9153,36.3687,873.2585],[5.9125,36.3741,756.2328],[5.9005,36.3858,563.6202],[5.9026,36.408,487.9743],[5.8971,36.4289,470.263],[5.8982,36.4359,456.3555]]]]}}