{"type": "Feature","bbox": [7.8759,36.6904,7.9741,36.7528],"geometry": {"type": "MultiPolygon","coordinates": [[[[7.9716,36.7092,18.6262],[7.95,36.7137,12.7827],[7.9463,36.7174,11.4439],[7.9418,36.7177,11.3119],[7.9417,36.7236,10.3197],[7.9466,36.7269,27.202],[7.9421,36.7313,10.0056],[7.9395,36.7366,8.9996],[7.9315,36.741,8.1273],[7.9291,36.7445,7.6465],[7.9146,36.7405,7.0044],[7.9027,36.7528,4.6194],[7.897,36.7524,4.1699],[7.8858,36.7386,4.9508],[7.8759,36.7216,5.544],[7.8842,36.7045,114.8968],[7.8923,36.6992,224.5064],[7.8937,36.6904,254.806],[7.9175,36.7024,400.2438],[7.9245,36.7038,355.3074],[7.9741,36.7,15.3921],[7.9716,36.7092,18.6262]]]]}
,"properties": {"GID_2": "DZA.19.23_1","GID_0": "DZA","country": "Algeria","GID_1": "DZA.19_1","province": "ElTarf","NL_NAME_1": "ولايةالطارف","county": "Zerizer","VARNAME_2": "NA","NL_NAME_2": "NA","TYPE_2": "Commune","ENGTYPE_2": "Commune","CC_2": "3619","HASC_2": "DZ.ET.ZE","name": "Zerizer.county","area_km2": 30.149,"hist_schema_id": "Elevation0-9000","hist_area_km2": {"0": 13.69598,"25": 4.96282,"50": 2.17557,"75": 1.7167,"100": 1.42779,"125": 1.3598,"150": 1.07085,"175": 0.76488,"200": 0.79888,"225": 0.56093,"250": 0.50993,"275": 0.35695,"300": 0.23797,"325": 0.22098,"350": 0.11899,"375": 0.11899,"400": 0.034,"450": 0.017}}}