{"type": "Feature","bbox": [5.5493,36.6761,5.7143,36.7996],"geometry": {"type": "MultiPolygon","coordinates": [[[[5.6984,36.7652,53.336],[5.6931,36.7689,43.0],[5.6869,36.7696,65.9527],[5.6835,36.7744,43.0],[5.6834,36.7801,43.0],[5.6788,36.7996,6.9009],[5.675,36.7973,1.305],[5.6634,36.7962,3.3696],[5.6592,36.7995,3.5025],[5.6537,36.7907,10.704],[5.644,36.784,0.0],[5.6239,36.7775,0.0],[5.6022,36.7768,24.31],[5.5963,36.7802,2.2978],[5.5898,36.7716,0.0],[5.5816,36.7662,0.0],[5.572,36.7647,2.2245],[5.5665,36.752,0.0],[5.5578,36.7464,7.3799],[5.5533,36.7397,0.0],[5.5515,36.7322,12.4576],[5.556,36.724,4.0756],[5.5553,36.7187,9.2029],[5.5493,36.7106,21.0851],[5.561,36.7056,141.9523],[5.5697,36.6998,62.1572],[5.5769,36.6989,107.9269],[5.5853,36.699,90.2095],[5.6052,36.7077,201.861],[5.6207,36.7087,300.3823],[5.6319,36.7052,417.8854],[5.6365,36.7011,569.29],[5.6401,36.6951,728.4427],[5.6443,36.6982,824.641],[5.6495,36.698,932.2096],[5.6542,36.6947,973.2284],[5.6583,36.6971,1080.3707],[5.6644,36.6963,973.7142],[5.6708,36.6794,577.9174],[5.6776,36.6761,435.416],[5.6868,36.6858,318.2669],[5.6996,36.6939,317.4765],[5.7072,36.7117,310.1607],[5.709,36.721,197.5739],[5.7136,36.7302,169.3315],[5.7143,36.7362,162.6029],[5.6984,36.7652,53.336]]]]}
,"properties": {"GID_2": "DZA.23.10_1","GID_0": "DZA","country": "Algeria","GID_1": "DZA.23_1","province": "Jijel","NL_NAME_1": "ولايةجيجل","county": "ElAouana","VARNAME_2": "NA","NL_NAME_2": "NA","TYPE_2": "Commune-Cotiere","ENGTYPE_2": "Commune-Cotiere","CC_2": "1803","HASC_2": "DZ.JJ.EA","name": "El_Aouana.county","area_km2": 118.81855,"hist_schema_id": "Elevation0-9000","hist_area_km2": {"0": 3.51534,"25": 4.80632,"50": 4.7557,"75": 4.3824,"100": 4.34854,"125": 4.29772,"150": 4.99449,"175": 3.94135,"200": 4.26443,"225": 4.40046,"250": 4.67256,"275": 4.2647,"300": 4.89369,"325": 4.62192,"350": 4.85989,"375": 4.75802,"400": 4.84298,"425": 4.09535,"450": 4.1633,"475": 3.8236,"500": 4.01045,"525": 3.33087,"550": 3.39884,"575": 3.29693,"600": 2.56619,"625": 2.0394,"650": 1.95452,"675": 1.6996,"700": 1.29174,"725": 1.13877,"750": 0.88383,"775": 0.78192,"800": 0.57794,"825": 0.35697,"850": 0.44197,"875": 0.45897,"900": 0.32298,"925": 0.23798,"950": 0.28898,"975": 0.23799,"1000": 0.27199,"1025": 0.18699,"1050": 0.15299,"1075": 0.085,"1100": 0.102}}}