{"type":"Feature","properties":{"GID_2":"DZA.47.11_1","GID_0":"DZA","country":"Algeria","GID_1":"DZA.47_1","province":"TiziOuzou","NL_NAME_1":"ولايةغليزان","county":"AitBouadou","VARNAME_2":"`AytBuwadu","NL_NAME_2":"NA","TYPE_2":"Commune","ENGTYPE_2":"Commune","CC_2":"1565","HASC_2":"DZ.TO.AD","name":"Ait_Bouadou.county"},
"geometry":{"type": "MultiPolygon","coordinates": [[[[4.0996,36.4655,1782.1571],[4.0906,36.4762,1799.1405],[4.0914,36.4804,1703.5922],[4.0947,36.4832,1634.5931],[4.0961,36.4901,1285.3467],[4.0948,36.4972,1095.4385],[4.0846,36.5091,686.4612],[4.0872,36.5149,505.6472],[4.0864,36.5254,503.8122],[4.0894,36.5315,523.9434],[4.0895,36.5384,503.7365],[4.0869,36.5434,436.0548],[4.0803,36.5455,464.5741],[4.0669,36.5389,543.5588],[4.0566,36.5314,549.4954],[4.0463,36.5361,518.3502],[4.036,36.5338,427.0522],[4.0307,36.5352,441.3724],[4.0283,36.5243,500.0612],[4.0298,36.5177,531.8912],[4.0284,36.5128,579.7089],[4.031,36.5076,614.2407],[4.0326,36.4979,850.7031],[4.0292,36.4939,948.971],[4.0306,36.4892,1248.0903],[4.0358,36.4888,1362.7749],[4.0514,36.4794,1737.4476],[4.0609,36.4688,1950.6519],[4.0596,36.463,1908.1587],[4.0677,36.4617,1774.447],[4.0832,36.4644,1915.203],[4.0896,36.4681,2078.4055],[4.0996,36.4655,1782.1571]]]]}}