{"type": "Feature","bbox": [2.8036,36.582,3.385,36.8188],"geometry": {"type": "MultiPolygon","coordinates": [[[[3.0395,36.6181,36.4702],[3.0528,36.6219,36.9524],[3.0638,36.6221,30.0749],[3.0642,36.6164,37.7961],[3.0597,36.6005,48.8982],[3.059,36.588,56.8872],[3.0617,36.582,62.8356],[3.0693,36.5834,61.1285],[3.0909,36.5914,57.7811],[3.0928,36.5961,55.7911],[3.097,36.5938,56.6575],[3.101,36.5888,60.7794],[3.1125,36.5838,69.4578],[3.1177,36.5873,67.1737],[3.1236,36.5866,69.1087],[3.1225,36.5918,65.1537],[3.1258,36.5957,62.4263],[3.1253,36.6005,58.9347],[3.1331,36.6067,56.5872],[3.1278,36.6207,44.5496],[3.1373,36.626,42.1853],[3.1452,36.6346,37.6607],[3.1507,36.6377,38.5904],[3.1489,36.6515,30.3943],[3.1782,36.642,36.9614],[3.1833,36.6512,33.0082],[3.2014,36.6543,30.0529],[3.2066,36.6602,27.8294],[3.2061,36.6688,24.9647],[3.2104,36.671,26.75],[3.2159,36.6657,26.501],[3.2283,36.6711,27.6583],[3.2585,36.6902,31.7324],[3.26,36.6945,28.7573],[3.2558,36.6986,26.4465],[3.2541,36.7043,26.6352],[3.2568,36.7161,21.4537],[3.2606,36.7141,22.1812],[3.2737,36.6996,31.3298],[3.2847,36.7023,29.6778],[3.2913,36.7022,30.3028],[3.2964,36.706,35.6749],[3.3154,36.7128,32.6164],[3.3169,36.72,30.9581],[3.3218,36.7193,31.1185],[3.3361,36.7206,22.3656],[3.3488,36.7236,25.7679],[3.3723,36.7247,44.3184],[3.3831,36.7279,54.5699],[3.385,36.733,51.5439],[3.3818,36.7358,46.0831],[3.3801,36.7416,44.0023],[3.3819,36.765,32.9631],[3.3778,36.7662,42.5641],[3.3538,36.7595,23.2845],[3.3534,36.7641,27.8819],[3.3615,36.7807,12.1252],[3.3559,36.783,4.693],[3.3407,36.7831,2.0936],[3.3202,36.787,18.123],[3.3109,36.79,6.9541],[3.3072,36.7932,0.0],[3.2912,36.7951,15.2712],[3.2804,36.8003,11.2094],[3.2612,36.8048,26.5773],[3.2598,36.8101,16.5367],[3.2554,36.813,8.8438],[3.229,36.8149,0.7432],[3.2248,36.8128,0.0],[3.2285,36.8069,0.9011],[3.235,36.8046,5.4237],[3.2346,36.7894,2.6905],[3.23,36.7746,2.7123],[3.2208,36.7652,3.2082],[3.1923,36.7506,0.0],[3.1726,36.7447,3.128],[3.157,36.742,2.2666],[3.1318,36.741,1.4159],[3.1205,36.7425,1.7561],[3.0884,36.7486,5.1179],[3.0762,36.7535,5.4259],[3.0751,36.7614,0.8505],[3.0657,36.7641,2.7497],[3.0631,36.7687,0.838],[3.0675,36.7862,3.6644],[3.0604,36.7926,7.1629],[3.0546,36.7949,1.8293],[3.048,36.8028,13.014],[3.0399,36.809,12.1176],[3.023,36.8133,11.5117],[3.0138,36.8188,0.0],[2.9876,36.814,0.0],[2.97,36.8153,16.1861],[2.9512,36.8118,0.0],[2.9458,36.8091,10.0346],[2.9305,36.8057,0.0],[2.9006,36.8056,0.0],[2.897,36.803,8.5285],[2.8989,36.7946,3.8864],[2.896,36.7852,2.3451],[2.8975,36.781,11.0717],[2.8904,36.7787,9.7647],[2.8789,36.7678,4.6531],[2.868,36.7624,2.2314],[2.8594,36.7606,0.8952],[2.8513,36.7602,2.8026],[2.847,36.7629,0.0],[2.84,36.7635,9.1528],[2.846,36.7525,0.176],[2.8418,36.732,7.438],[2.835,36.7278,2.9332],[2.8245,36.7127,5.2177],[2.8199,36.7109,0.2357],[2.8077,36.6986,2.3459],[2.81,36.6856,62.8787],[2.8063,36.6765,6.2062],[2.8261,36.6657,25.6327],[2.8267,36.6612,44.4421],[2.8134,36.6592,9.7201],[2.8071,36.6598,10.5212],[2.8036,36.6512,12.2262],[2.8109,36.6487,13.2459],[2.8162,36.6433,13.4021],[2.8211,36.6416,13.4485],[2.8356,36.6412,23.932],[2.8866,36.6327,28.5643],[2.8829,36.6218,19.452],[2.9039,36.6102,26.4275],[2.9079,36.6054,27.3665],[2.9155,36.6036,32.3688],[2.9255,36.5989,33.8969],[2.9311,36.6027,35.7703],[2.9443,36.5985,38.5072],[2.9475,36.61,33.7423],[2.9543,36.6113,34.2415],[2.9586,36.6013,38.7506],[2.9588,36.5945,42.0776],[2.9632,36.5897,43.8048],[2.9672,36.5937,42.803],[2.973,36.5956,41.2989],[2.9784,36.5947,42.3634],[2.9817,36.5909,43.2823],[2.9877,36.5898,45.6275],[2.9925,36.5848,48.3979],[3.0017,36.5892,49.3235],[3.0085,36.5903,50.2259],[3.0117,36.5961,49.5042],[3.0231,36.5996,47.0899],[3.0318,36.6042,43.9778],[3.0313,36.6096,40.772],[3.0395,36.6181,36.4702]],
[[3.2552,36.7201,21.3747],[3.2568,36.7161,21.4537],[3.2514,36.7183,20.3839],[3.2552,36.7201,21.3747]]]]}
,"properties": {"GID_1": "DZA.4_1","GID_0": "DZA","country": "Algeria","province": "Alger","VARNAME_1": "Algeri|Algiers|Algier|al-Jazair|","NL_NAME_1": "ولايةالجزائر","TYPE_1": "Wilaya","ENGTYPE_1": "Province","CC_1": "16","HASC_1": "DZ.AL","ISO_1": "DZ-16","name": "Alger.province","area_km2": 767.4843,"hist_schema_id": "Elevation0-9000","hist_area_km2": {"0": 46.2104,"25": 297.2419,"50": 109.4813,"75": 37.2647,"100": 46.71,"125": 52.537,"150": 49.1705,"175": 45.9288,"200": 33.9556,"225": 17.9735,"250": 15.6602,"275": 7.9646,"300": 3.5487,"325": 1.9017,"350": 1.1546,"375": 0.6961,"400": 0.0849}}}