{"type":"Feature","properties":{"ISO3166-1-Alpha-3":"DZA","country":"Algeria","fill":"#F0F","id":"2149","name":"Naâma"},
"geometry":{"type": "Polygon","coordinates": [[[-0.48573,34.22933,1090.1763],[-0.50154,34.26563,1104.5608],[-0.50919,34.27553,1106.2467],[-0.52314,34.29036,1111.9331],[-0.53849,34.30028,1117.8928],[-0.55735,34.30845,1130.79],[-0.57818,34.31294,1137.0295],[-0.59781,34.31372,1139.6213],[-0.6173,34.31106,1151.8564],[-0.63714,34.30468,1169.9419],[-0.67869,34.28261,1152.4672],[-0.74153,34.24142,1169.3673],[-0.76457,34.22998,1161.0981],[-0.79031,34.22158,1159.6407],[-0.8362,34.21512,1203.6475],[-0.91211,34.22019,1210.9006],[-0.935,34.22546,1212.6029],[-0.95464,34.23388,1225.1646],[-0.9703,34.24416,1236.8711],[-0.98942,34.25429,1251.8569],[-1.00027,34.25768,1254.8156],[-1.01262,34.25768,1250.6073],[-1.04177,34.25124,1286.6804],[-1.06331,34.24949,1287.9189],[-1.08073,34.2529,1294.6276],[-1.09427,34.25817,1274.4828],[-1.12042,34.27129,1263.6129],[-1.1385,34.25941,1277.2241],[-1.14998,34.25331,1293.4138],[-1.21075,34.23114,1304.5765],[-1.21561,34.22814,1291.0371],[-1.22827,34.21773,1285.085],[-1.24227,34.20892,1260.2852],[-1.24992,34.20623,1254.9277],[-1.26046,34.20422,1252.3975],[-1.32795,34.19822,1235.6714],[-1.35058,34.20057,1214.4614],[-1.39957,34.19838,1270.1035],[-1.42986,34.19982,1239.6038],[-1.4435,34.19871,1263.4341],[-1.47988,34.19052,1333.735],[-1.65827,34.10014,1278.5449],[-1.67209,34.09202,1256.7455],[-1.66963,34.07921,1218.6238],[-1.67212,34.05919,1180.2102],[-1.71873,33.89809,1108.4011],[-1.72209,33.85116,1084.9331],[-1.71304,33.80199,983.8635],[-1.7025,33.77282,1027.553],[-1.70322,33.76182,1060.3656],[-1.71082,33.74706,1059.468],[-1.72095,33.73637,1014.9407],[-1.73258,33.72786,998.6688],[-1.74224,33.71776,999.4864],[-1.74679,33.70239,1005.9005],[-1.74074,33.6866,1013.6281],[-1.72539,33.67771,1018.7662],[-1.69072,33.66733,1021.8873],[-1.67325,33.6565,1048.9788],[-1.6624,33.64469,1079.2695],[-1.61734,33.55444,1102.5149],[-1.61274,33.52147,1112.7518],[-1.6254,33.49424,1120.014],[-1.64039,33.47553,1124.335],[-1.65914,33.41977,1141.2396],[-1.67284,33.3946,1148.4727],[-1.68323,33.36923,1155.9082],[-1.68338,33.27084,1187.7538],[-1.67423,33.23797,1202.0073],[-1.62359,33.19661,1203.3757],[-1.60561,33.16803,1224.781],[-1.59207,33.13661,1235.9014],[-1.5714,33.11199,1245.6084],[-1.54551,33.09183,1247.7891],[-1.51636,33.07398,1261.9811],[-1.49952,33.06021,1269.2495],[-1.49306,33.03948,1278.4027],[-1.49337,33.01615,1301.8923],[-1.49652,32.99429,1316.4402],[-1.49884,32.98401,1312.1859],[-1.50298,32.97463,1323.6761],[-1.50887,32.96631,1327.0835],[-1.51636,32.95949,1335.8199],[-1.55879,32.93365,1329.8083],[-1.42335,32.7424,1467.0049],[-1.39053,32.71878,1881.7886],[-1.32702,32.69891,1391.8563],[-1.0475,32.51701,1226.6777],[-1.032,32.4944,1405.3533],[-1.08998,32.43944,1730.3851],[-1.12316,32.41794,2067.7915],[-1.16026,32.40495,1354.3561],[-1.2017,32.39986,1171.5997],[-1.21798,32.39262,1136.8784],[-1.23416,32.37461,1145.3674],[-1.24413,32.35691,1061.5688],[-1.25752,32.32084,964.8733],[-1.27342,32.22944,937.7962],[-1.25772,32.22904,918.7899],[-1.11592,32.24336,1286.8694],[-1.04983,32.24219,1070.1659],[-1.02817,32.23754,939.3478],[-1.01009,32.23191,930.6331],[-1.00089,32.22775,901.8923],[-0.99402,32.22349,895.0638],[-0.98291,32.21473,881.5675],[-0.97304,32.20493,893.9766],[-0.96115,32.1909,923.5895],[-0.94926,32.17243,887.2379],[-0.91821,32.10773,841.5475],[-0.89562,32.10463,859.688],[-0.84509,32.11003,855.1105],[-0.03945,32.3273,828.4283],[-0.01196,32.4012,809.5754],[-0.00359,32.44396,798.5817],[-0.00286,32.46122,796.0741],[-0.0041,32.47502,799.9828],[-0.00658,32.48701,803.3823],[-0.00999,32.49515,807.6816],[-0.01289,32.50001,810.4666],[-0.01382,32.50083,812.1022],[-0.02482,32.50641,816.1334],[-0.03769,32.50951,818.0278],[-0.05273,32.5115,822.6618],[-0.06849,32.51569,862.7856],[-0.08394,32.5244,1041.7883],[-0.09846,32.54558,862.4039],[-0.10156,32.56711,870.6177],[-0.09893,32.59067,898.5209],[-0.01346,32.7834,928.4599],[-0.00669,32.80477,940.0001],[-0.00493,32.81823,950.9279],[-0.02932,32.99998,1107.027],[-0.02705,33.02062,1089.6974],[-0.01862,33.0602,1114.5872],[3E-05,33.11565,1212.5907],[0.05496,33.27084,1204.3354],[0.06349,33.3081,1222.473],[0.06809,33.37608,1218.6233],[0.04571,33.62314,1136.0623],[0.05062,33.8031,1077.0884],[0.08416,34.00625,1035.783],[0.08602,34.04831,993.7528],[0.06923,34.04573,991.215],[0.04768,34.0356,996.3322],[3E-05,34.00681,994.4962],[-0.0441,33.98725,989.524],[-0.04973,33.9857,987.6716],[-0.05537,33.98625,986.7637],[-0.05996,33.98896,986.6805],[-0.06167,33.99467,985.7545],[-0.06183,33.99767,985.1729],[-0.06136,33.99963,984.9371],[-0.06053,34.00128,984.9532],[-0.05836,34.00785,985.1663],[-0.05847,34.01296,983.3344],[-0.06043,34.02345,986.2792],[-0.06208,34.05234,1020.5796],[-0.0688,34.07224,1008.6887],[-0.07366,34.07715,1004.4942],[-0.08177,34.08154,993.2705],[-0.11231,34.08683,1004.7558],[-0.13712,34.08795,1002.9683],[-0.14342,34.08681,1011.5516],[-0.1488,34.08479,1013.4859],[-0.15769,34.07911,1012.0662],[-0.19179,34.06764,993.5208],[-0.2105,34.06322,992.916],[-0.22021,34.05945,983.6329],[-0.22466,34.05697,982.3676],[-0.22895,34.05394,982.2938],[-0.26083,34.02428,992.7883],[-0.29607,33.98183,981.5],[-0.30445,33.96671,981.5],[-0.3076,33.96242,981.5],[-0.31199,33.96018,981.8501],[-0.3184,33.96033,982.6995],[-0.32677,33.96211,981.7748],[-0.33349,33.9618,983.2564],[-0.33928,33.9602,981.5],[-0.34661,33.95521,986.4276],[-0.34822,33.95289,985.1702],[-0.34982,33.94912,986.0519],[-0.35033,33.9446,985.874],[-0.35033,33.94072,986.705],[-0.34909,33.93235,988.3419],[-0.34878,33.92703,983.127],[-0.34977,33.9217,983.7643],[-0.35251,33.91757,982.5626],[-0.35612,33.91504,982.5975],[-0.36108,33.91646,982.4084],[-0.36656,33.92033,982.5011],[-0.38403,33.9386,981.9387],[-0.38765,33.94609,981.6495],[-0.38651,33.95581,981.5],[-0.38444,33.96235,982.5211],[-0.38599,33.97493,981.5],[-0.41286,34.03376,996.0174],[-0.48888,34.15812,1076.5901],[-0.49482,34.17381,1082.2279],[-0.49968,34.19316,1088.4349],[-0.49813,34.20559,1091.6694],[-0.48573,34.22933,1090.1763]]]}}