{"type":"Feature","properties":{"GID_1":"DZA.31_1","GID_0":"DZA","country":"Algeria","province":"Naâma","VARNAME_1":"Naama","NL_NAME_1":"ولايةالنعامة","TYPE_1":"Wilaya","ENGTYPE_1":"Province","CC_1":"45","HASC_1":"DZ.NA","ISO_1":"NA","name":"Naâma.province"},
"geometry":{"type": "MultiPolygon","coordinates": [[[[-0.7899,32.2389,1003.915],[-0.7309,32.2695,1098.37],[-0.4173,32.2015,883.4667],[-0.3355,32.2546,863.3985],[-0.224,32.2359,911.7718],[-0.1387,32.347,885.1924],[-0.0778,32.4353,845.8625],[-0.0672,32.453,827.7522],[-0.017,32.5571,826.7967],[-0.0383,32.6502,890.9625],[-0.0265,32.6756,872.1403],[-0.0199,32.7083,870.102],[-0.0233,32.7135,876.2297],[-0.0669,32.7526,976.3058],[-0.0552,32.7969,1097.4999],[-0.0937,32.8148,1850.1536],[-0.0849,32.8716,1173.0948],[-0.0821,32.8868,1433.2538],[-0.0361,32.9075,1068.7642],[-0.0087,32.9229,1096.7018],[0.0,32.9484,1105.7513],[0.0144,32.9781,1473.6008],[0.0153,32.9844,1482.5056],[0.0115,32.9882,1382.0891],[0.0006,32.9943,1139.8884],[-0.0054,32.9935,1084.236],[-0.0146,32.9995,1068.7395],[-0.0043,33.0056,1096.7722],[-0.0013,33.0111,1101.4902],[0.025,33.039,1120.697],[0.0234,33.0743,1152.4974],[0.0127,33.0822,1142.1748],[0.002,33.087,1161.4277],[0.0006,33.0915,1172.4783],[-0.0043,33.0918,1162.0034],[-0.0077,33.096,1161.4038],[-0.015,33.11,1174.5474],[-0.0163,33.1163,1210.5645],[-0.015,33.1358,1206.672],[-0.0112,33.1473,1198.1873],[0.0,33.1701,1201.3042],[0.007,33.201,1204.3546],[0.0079,33.211,1196.3778],[0.0059,33.2239,1204.7416],[0.0089,33.253,1196.1169],[0.0246,33.3175,1222.5364],[0.0252,33.3259,1214.3601],[0.0203,33.3319,1221.9041],[0.0163,33.3341,1214.0973],[0.1039,33.6193,1153.7161],[0.1111,33.6472,1146.5461],[0.1026,33.6696,1114.5653],[0.1003,33.6819,1112.1873],[0.0927,33.7014,1107.7363],[0.0889,33.7178,1103.9341],[0.0741,33.7613,1101.925],[0.083,33.7676,1097.1868],[0.1644,33.8053,1114.8101],[0.1469,33.8103,1105.5815],[0.1351,33.8112,1100.4094],[0.1258,33.8236,1092.5507],[0.1125,33.855,1079.2968],[0.0985,33.8806,1067.8076],[0.0878,33.8809,1065.2181],[0.071,33.8899,1059.7588],[0.0648,33.8911,1057.1748],[0.0634,33.9349,1047.8353],[0.0683,33.9617,1044.707],[0.0691,33.9789,1042.1448],[0.0728,33.9942,1039.9252],[0.0361,34.015,1034.1912],[0.024,34.0237,992.7675],[0.0139,34.017,991.9608],[-0.0365,33.9974,985.8807],[-0.0549,33.9884,986.2183],[-0.0585,33.9912,986.0666],[-0.0472,34.0001,982.0377],[-0.0464,34.0056,984.1527],[-0.0493,34.012,982.7158],[-0.0538,34.0105,981.5],[-0.0581,34.0127,983.3344],[-0.0599,34.0185,984.4565],[-0.0596,34.028,989.7802],[-0.0508,34.052,983.3985],[-0.0504,34.059,981.8621],[-0.0557,34.0688,984.511],[-0.0706,34.0863,989.6036],[-0.0803,34.0827,991.9637],[-0.0876,34.0819,998.51],[-0.1093,34.0894,987.3756],[-0.1282,34.09,991.3818],[-0.1334,34.0929,983.3987],[-0.1548,34.0859,992.8987],[-0.1724,34.076,992.2655],[-0.1784,34.0709,994.2894],[-0.1863,34.0684,995.4982],[-0.1991,34.068,991.0955],[-0.2105,34.0649,988.1044],[-0.2567,34.0322,983.6477],[-0.2686,34.0178,984.9617],[-0.2827,34.0053,991.8791],[-0.2938,33.9638,989.0869],[-0.3062,33.9512,984.874],[-0.3253,33.9624,983.0232],[-0.334,33.9599,983.5906],[-0.3462,33.9523,987.2516],[-0.3537,33.9371,985.0878],[-0.346,33.925,983.2393],[-0.3476,33.9138,986.9042],[-0.36,33.9081,984.6211],[-0.3659,33.9152,982.9736],[-0.3618,33.9233,982.4208],[-0.3677,33.9351,981.6517],[-0.3845,33.9373,981.9387],[-0.3913,33.9468,982.2455],[-0.3807,33.9593,981.5],[-0.379,33.9739,981.5],[-0.3874,33.9759,981.5],[-0.3954,33.9907,982.0731],[-0.3926,34.007,982.9489],[-0.3962,34.0227,985.2105],[-0.4064,34.0524,996.6738],[-0.4218,34.0624,1005.9367],[-0.4334,34.0774,1015.4581],[-0.4397,34.0938,1030.9984],[-0.4484,34.1101,1038.9294],[-0.46,34.1239,1050.0442],[-0.4702,34.139,1062.1842],[-0.4706,34.1729,1071.0498],[-0.4724,34.1871,1074.7761],[-0.4829,34.2107,1085.2291],[-0.4816,34.2213,1086.7677],[-0.4878,34.2435,1095.0266],[-0.4986,34.257,1098.8605],[-0.5014,34.2744,1104.4375],[-0.5144,34.2864,1109.8845],[-0.5329,34.2943,1114.9175],[-0.5534,34.296,1120.4766],[-0.5735,34.3015,1126.05],[-0.591,34.3109,1132.3478],[-0.6031,34.3268,1139.8052],[-0.6065,34.323,1148.6917],[-0.6438,34.302,1180.886],[-0.7834,34.2267,1151.6611],[-0.7904,34.2258,1153.4067],[-0.8013,34.2297,1158.2881],[-0.8117,34.2368,1163.5448],[-0.8361,34.2415,1172.7627],[-0.8407,34.2376,1175.9454],[-0.8494,34.2345,1179.7972],[-0.8693,34.2322,1190.2185],[-0.8785,34.2341,1195.1335],[-0.893,34.2456,1209.3965],[-0.9234,34.253,1229.2295],[-0.9293,34.2573,1235.9513],[-0.9355,34.2475,1229.9644],[-0.9399,34.2503,1231.5873],[-0.9449,34.2408,1219.4264],[-0.9673,34.2586,1235.9082],[-0.9664,34.2633,1240.9709],[-0.9676,34.2715,1250.6821],[-0.9698,34.2763,1256.0354],[-0.9735,34.2799,1262.5963],[-1.0052,34.2612,1251.6855],[-1.0544,34.2262,1269.1921],[-1.0719,34.217,1263.0015],[-1.0961,34.2603,1272.7571],[-1.125,34.2785,1253.0989],[-1.1299,34.2751,1258.2133],[-1.1671,34.2628,1301.413],[-1.182,34.2594,1321.5908],[-1.1947,34.2587,1349.2025],[-1.2168,34.2218,1304.7882],[-1.2347,34.2096,1265.0607],[-1.2535,34.2031,1265.5518],[-1.2684,34.2008,1240.0511],[-1.2857,34.2039,1232.9862],[-1.3111,34.2156,1224.5642],[-1.3229,34.215,1207.8662],[-1.3322,34.208,1221.8293],[-1.3654,34.2094,1243.1001],[-1.3901,34.2073,1271.1931],[-1.4139,34.2086,1227.6235],[-1.4196,34.2058,1222.9033],[-1.454,34.2034,1284.7595],[-1.4651,34.1953,1351.4749],[-1.4835,34.1993,1341.4282],[-1.4952,34.1929,1346.5101],[-1.5147,34.1798,1357.5953],[-1.5244,34.1673,1362.0881],[-1.5379,34.1674,1359.7551],[-1.5835,34.1361,1377.6997],[-1.5966,34.1294,1408.7212],[-1.6233,34.1102,1280.189],[-1.6476,34.0978,1253.0326],[-1.651,34.0936,1246.576],[-1.6691,34.0002,1116.1556],[-1.699,33.8703,1095.212],[-1.6703,33.7728,1054.5012],[-1.7285,33.7353,1004.7302],[-1.737,33.7003,1002.9017],[-1.7104,33.688,1009.9102],[-1.7063,33.6783,1011.7455],[-1.6869,33.6764,1015.048],[-1.6653,33.6828,1021.6442],[-1.6528,33.6824,1024.9639],[-1.6481,33.6785,1025.1052],[-1.6449,33.6716,1025.8467],[-1.6429,33.6602,1030.712],[-1.6303,33.6311,1040.5597],[-1.6239,33.6247,1040.5522],[-1.5985,33.6151,1047.551],[-1.5951,33.6052,1051.0417],[-1.5977,33.601,1054.1943],[-1.5987,33.594,1056.2988],[-1.5971,33.5881,1060.3235],[-1.6019,33.5781,1064.1],[-1.5944,33.5723,1070.4502],[-1.5949,33.5655,1071.6326],[-1.5974,33.5599,1079.1119],[-1.6026,33.5582,1085.505],[-1.6011,33.5473,1089.2073],[-1.5979,33.5413,1104.7705],[-1.5882,33.5303,1109.1595],[-1.5963,33.5208,1111.6887],[-1.601,33.5094,1114.9586],[-1.6053,33.5042,1116.4132],[-1.6207,33.4918,1120.8259],[-1.6229,33.4849,1122.4421],[-1.6206,33.4722,1125.2981],[-1.6242,33.4646,1127.3413],[-1.6233,33.4537,1129.9661],[-1.6248,33.4476,1131.3536],[-1.6287,33.4422,1132.9336],[-1.6322,33.432,1135.3231],[-1.6453,33.4241,1138.9183],[-1.6492,33.4087,1141.073],[-1.6633,33.3799,1145.4962],[-1.6643,33.3546,1151.938],[-1.6598,33.3372,1160.9443],[-1.6621,33.3315,1165.1381],[-1.6631,33.3179,1162.0413],[-1.6617,33.3133,1165.1395],[-1.6623,33.3021,1169.7507],[-1.6703,33.286,1175.8047],[-1.6678,33.2754,1173.0652],[-1.658,33.2579,1176.5096],[-1.646,33.2499,1180.2234],[-1.6314,33.2258,1185.2815],[-1.6266,33.221,1186.4617],[-1.6155,33.2172,1190.1877],[-1.6079,33.2124,1190.8672],[-1.6029,33.2061,1192.8048],[-1.5992,33.1949,1196.0297],[-1.59,33.1843,1202.6912],[-1.5798,33.1669,1207.6838],[-1.5756,33.157,1211.0024],[-1.5754,33.1501,1212.4551],[-1.5381,33.1173,1226.7485],[-1.5336,33.1072,1231.9341],[-1.5225,33.1002,1240.7303],[-1.5168,33.0986,1239.7996],[-1.5122,33.093,1246.1177],[-1.4966,33.0897,1248.0653],[-1.4911,33.0857,1252.9695],[-1.4868,33.0857,1249.376],[-1.4832,33.0805,1252.3619],[-1.4785,33.0797,1254.3866],[-1.4744,33.0762,1255.2864],[-1.4673,33.0621,1262.671],[-1.4666,33.0567,1260.8335],[-1.4638,33.0531,1269.9202],[-1.4607,33.0418,1266.96],[-1.4629,33.0365,1269.9753],[-1.4679,33.0326,1270.4204],[-1.4757,33.0213,1274.7703],[-1.4761,33.0137,1277.9028],[-1.471,33.0013,1282.7161],[-1.4849,32.975,1302.0677],[-1.4954,32.9667,1311.2526],[-1.501,32.9688,1321.5521],[-1.5096,32.9691,1329.8247],[-1.5413,32.9573,1363.5317],[-1.3812,32.7393,1586.3815],[-1.2701,32.6955,1334.0457],[-1.0139,32.5264,1208.8783],[-0.9963,32.517,1232.1257],[-1.0008,32.5056,1184.8411],[-1.0204,32.4966,1610.9385],[-1.0365,32.4844,1673.9514],[-1.0466,32.475,1607.7345],[-1.0499,32.468,1674.281],[-1.0585,32.463,1552.4817],[-1.0671,32.4498,1749.4363],[-1.0785,32.4425,1564.6394],[-1.0879,32.4396,1667.993],[-1.1028,32.4317,1771.9722],[-1.1101,32.422,1888.2726],[-1.116,32.4224,1950.1488],[-1.1195,32.4194,2005.7329],[-1.1214,32.4143,1947.9316],[-1.1296,32.4154,1808.9554],[-1.123,32.405,2121.0864],[-1.1227,32.3989,2075.7463],[-1.1303,32.3756,1990.024],[-1.1323,32.349,1999.478],[-1.1307,32.3432,1953.1387],[-1.1267,32.3383,1947.0038],[-1.1186,32.3222,1817.118],[-1.1018,32.3143,1878.8402],[-1.0818,32.3177,1911.7876],[-1.0653,32.3238,1797.6323],[-1.059,32.3233,1714.7799],[-1.0529,32.3187,1653.6069],[-1.0515,32.3091,1664.2585],[-1.0575,32.2992,1693.0754],[-1.0637,32.2952,1750.9448],[-1.0748,32.2064,927.3006],[-1.0113,32.2059,945.4454],[-0.996,32.1451,859.7087],[-0.8918,32.1861,1108.0168],[-0.7899,32.2389,1003.915]]]]}}