{"type":"Feature","properties":{"GID_2":"DZA.2.3_1","GID_0":"DZA","country":"Algeria","GID_1":"DZA.2_1","province":"AïnDefla","NL_NAME_1":"ولايةعينالدفلى","county":"AinDefla","VARNAME_2":"Ain-Defla|`AynDaflah","NL_NAME_2":"NA","TYPE_2":"Chef-Lieu-Wilaya","ENGTYPE_2":"Chef-Lieu-Wilaya","CC_2":"4401","HASC_2":"DZ.AD.AD","name":"Ain_Defla.county"},
"geometry":{"type": "MultiPolygon","coordinates": [[[[1.9833,36.2873,232.0321],[1.9766,36.2891,230.6022],[1.9707,36.2866,227.4073],[1.9595,36.2877,226.4659],[1.9478,36.2866,223.2591],[1.9409,36.2957,229.3953],[1.9367,36.2928,222.6689],[1.9309,36.2916,219.2411],[1.9287,36.2876,220.2514],[1.9286,36.2809,218.5234],[1.9232,36.2798,218.863],[1.9149,36.2896,217.3731],[1.9091,36.2906,219.0349],[1.8958,36.2973,212.4077],[1.8908,36.296,211.1334],[1.8921,36.2833,205.8057],[1.9005,36.2858,226.3208],[1.9018,36.2768,214.1978],[1.8895,36.2702,202.0136],[1.8912,36.2648,231.9839],[1.8873,36.261,249.2328],[1.8791,36.2604,225.5194],[1.8742,36.2411,277.2291],[1.8757,36.236,278.6975],[1.8911,36.2319,266.2949],[1.9012,36.2261,311.6786],[1.9102,36.2314,366.2601],[1.9181,36.2399,379.0999],[1.9247,36.2414,302.9488],[1.9526,36.2331,634.691],[1.9702,36.2363,824.8569],[1.969,36.2307,882.4985],[1.9751,36.2215,815.0339],[1.9885,36.2136,776.1467],[1.994,36.2165,765.9164],[1.9993,36.2169,620.0942],[2.0106,36.2161,486.8752],[2.0207,36.2115,378.3741],[2.025,36.2116,348.3356],[2.048,36.2221,276.2343],[2.0556,36.2296,261.403],[2.0634,36.2313,255.0608],[2.0711,36.2295,256.4608],[2.09,36.2306,258.9315],[2.097,36.2439,253.3127],[2.0951,36.2493,253.2345],[2.0721,36.2544,250.6419],[2.0602,36.2517,249.7688],[2.0482,36.2551,248.2345],[2.0359,36.2543,248.1282],[2.0315,36.2576,247.52],[2.0304,36.2629,246.9443],[2.025,36.2658,246.5465],[2.0193,36.2745,245.1274],[2.0328,36.2818,242.1258],[2.0283,36.2846,243.6678],[2.0301,36.2885,239.18],[2.0233,36.2909,239.8048],[2.0174,36.2892,237.4328],[2.0148,36.2858,238.6226],[2.0025,36.2839,237.0087],[1.9981,36.2854,237.1595],[1.9876,36.2822,235.1635],[1.9833,36.2873,232.0321]]]]}}