{"type": "Feature","bbox": [2.856,32.8118,3.8006,33.4657],"geometry": {"type": "MultiPolygon","coordinates": [[[[3.8004,33.0471,572.2283],[3.7958,33.0588,575.0676],[3.7968,33.063,575.4167],[3.8006,33.0676,576.9395],[3.7915,33.0769,587.6272],[3.7871,33.0792,586.7391],[3.7846,33.085,590.074],[3.7734,33.0947,601.682],[3.7639,33.0966,605.1188],[3.7594,33.1065,608.7755],[3.7543,33.1039,612.3881],[3.7489,33.1034,614.2445],[3.7472,33.1095,617.9669],[3.742,33.1104,620.1804],[3.7366,33.1084,622.5386],[3.7307,33.1117,625.3192],[3.723,33.1123,629.8312],[3.7102,33.1177,636.775],[3.6938,33.1179,645.477],[3.6776,33.1287,657.8301],[3.6619,33.1532,694.1853],[3.4934,33.1905,729.8435],[3.3916,33.2489,761.6659],[3.3015,33.2981,774.8654],[3.2742,33.3184,779.1923],[3.2212,33.324,784.7311],[3.2011,33.3223,792.202],[3.1892,33.3347,793.582],[3.1849,33.3336,797.5961],[3.18,33.3359,801.3082],[3.1747,33.3445,800.937],[3.1653,33.3528,803.6527],[3.1634,33.3571,803.8645],[3.1493,33.3711,809.3559],[3.0495,33.4041,840.2287],[3.0459,33.4257,849.192],[3.0308,33.4657,860.5866],[2.9664,33.4518,847.4422],[2.8919,33.4277,878.4907],[2.8793,33.3848,840.0137],[2.863,33.3385,837.5214],[2.8622,33.32,838.1388],[2.8647,33.2925,828.7103],[2.8577,33.2663,820.1045],[2.856,33.2522,814.613],[2.8602,33.225,800.7861],[2.8692,33.2061,789.9111],[2.8857,33.1429,775.7438],[2.9063,33.0527,749.3799],[2.8915,32.9547,725.3195],[2.8777,32.8799,719.0883],[2.9823,32.8929,718.7989],[2.9993,32.8973,718.6591],[3.0057,32.8964,720.072],[3.3322,32.8266,761.6237],[3.3943,32.8118,727.5151],[3.3806,32.9274,786.8433],[3.2417,32.9954,763.5978],[3.2126,33.0163,772.3129],[3.5764,33.0261,686.2767],[3.5847,33.0303,683.2386],[3.5868,33.038,682.5695],[3.5901,33.0424,679.5637],[3.5957,33.041,675.4017],[3.6036,33.0349,674.381],[3.6155,33.0341,667.7458],[3.619,33.0388,666.2908],[3.6194,33.0534,661.7489],[3.6258,33.0532,657.6661],[3.6294,33.0492,677.4866],[3.6308,33.0425,654.6356],[3.6368,33.0406,651.936],[3.6442,33.0447,650.8362],[3.6458,33.0521,659.3231],[3.6492,33.0582,646.4984],[3.6573,33.0633,657.2511],[3.6596,33.0691,643.2538],[3.6677,33.0691,634.1365],[3.6703,33.0539,626.7474],[3.6744,33.0504,650.6515],[3.6845,33.0603,632.5469],[3.6927,33.0618,614.1187],[3.7053,33.0587,620.9649],[3.7166,33.0644,607.3325],[3.7257,33.0503,596.681],[3.7343,33.0481,601.5167],[3.7421,33.054,593.0762],[3.7484,33.0524,586.6248],[3.7552,33.0549,583.2672],[3.7605,33.0527,580.9791],[3.7728,33.0536,577.3429],[3.8004,33.0471,572.2283]]]]}
,"properties": {"GID_2": "DZA.25.12_1","GID_0": "DZA","country": "Algeria","GID_1": "DZA.25_1","province": "Laghouat","NL_NAME_1": "ولايةالأغواط","county": "HassiR'Mel","VARNAME_2": "HassiRmel|Hassīal-Raml","NL_NAME_2": "NA","TYPE_2": "Commune","ENGTYPE_2": "Commune","CC_2": "306","HASC_2": "DZ.LG.HR","name": "Hassi_R'Mel.county","area_km2": 3093.101,"hist_schema_id": "Elevation0-9000","hist_area_km2": {"575": 5.882,"600": 14.036,"625": 18.618,"650": 25.314,"675": 40.146,"700": 58.168,"725": 553.598,"750": 1026.357,"775": 762.251,"800": 262.647,"825": 224.056,"850": 97.054,"875": 4.973}}}