{"type": "Feature","bbox": [3.575,35.7048,4.0266,35.9439],"geometry": {"type": "MultiPolygon","coordinates": [[[[3.6596,35.9428,754.1346],[3.6456,35.9439,787.9529],[3.6398,35.9406,755.8077],[3.6331,35.933,715.2397],[3.6365,35.9287,704.0424],[3.6363,35.9244,699.2767],[3.6315,35.9144,689.6482],[3.6238,35.9126,684.2751],[3.6196,35.915,687.2883],[3.6087,35.9123,714.5577],[3.6211,35.8996,682.7609],[3.63,35.8821,666.0293],[3.5978,35.8806,737.9057],[3.5804,35.868899999999996,738.6601],[3.575,35.8562,704.1761],[3.6001,35.85,672.0291],[3.6002,35.8412,669.7687],[3.5785,35.8395,691.5987],[3.5821,35.8352,683.8645],[3.6067,35.8295,666.7207],[3.6189,35.829,650.9196],[3.6286,35.8253,647.2614],[3.6278,35.806,676.0287],[3.6365,35.79,678.9457],[3.6175,35.7746,623.1254],[3.6193,35.7675,619.7037],[3.6187,35.7624,617.5098],[3.6223,35.7589,619.5253],[3.6242,35.754,611.7833],[3.6348,35.7535,616.998],[3.6317,35.7408,607.3877],[3.6265,35.7302,639.8585],[3.6334,35.7287,616.5109],[3.6608,35.7349,620.7592],[3.6709,35.732,603.6294],[3.7107,35.7331,618.1301],[3.7093,35.7182,587.4164],[3.7258,35.7247,589.6313],[3.7521,35.739,584.4265],[3.7652,35.743,579.7719],[3.7699,35.7403,578.9046],[3.7765,35.7311,572.4937],[3.7927,35.7252,566.9448],[3.8055,35.7174,560.6111],[3.8135,35.7197,558.0818],[3.8331,35.7048,551.7737],[3.8686,35.7307,580.017],[3.8765,35.729,559.4876],[3.8848,35.7233,568.5529],[3.8939,35.7231,561.8531],[3.9013,35.7276,550.7869],[3.9167,35.7331,534.3159],[3.9233,35.732,531.4547],[3.9381,35.7233,525.4425],[3.9397,35.719,523.5335],[3.9485,35.7119,517.8008],[3.9566,35.7235,523.0425],[3.9616,35.7256,521.6565],[3.9634,35.7431,523.8975],[3.9524,35.7505,530.4451],[3.9512,35.7557,533.2219],[3.9709,35.7625,549.1694],[3.9756,35.7679,550.5801],[3.9862,35.7959,566.475],[4.0004,35.8055,573.5608],[3.9915,35.8111,582.1644],[3.9919,35.8241,584.7667],[4.0006,35.8381,585.7664],[4.0099,35.8412,588.3794],[4.0107,35.847,593.8448],[4.0266,35.8605,606.4353],[3.979,35.871,646.9626],[3.9386,35.8929,670.5748],[3.928,35.8885,717.2631],[3.9187,35.8941,684.7152],[3.9126,35.8952,755.1619],[3.9025,35.8898,772.8123],[3.8938,35.8788,859.2192],[3.8917,35.8728,809.2262],[3.8584,35.861,646.5613],[3.8536,35.8572,638.3674],[3.8504,35.852,628.4539],[3.8431,35.8552,634.8433],[3.8391,35.8628,653.951],[3.8325,35.8653,662.9572],[3.822,35.8634,641.9259],[3.8155,35.8546,631.0118],[3.7936,35.868899999999996,646.8226],[3.792,35.873,653.4019],[3.7992,35.8829,678.587],[3.7974,35.8903,682.8185],[3.7751,35.898,671.6666],[3.7735,35.902,673.9559],[3.7664,35.9022,690.8241],[3.7614,35.8983,688.1544],[3.7565,35.8973,684.1238],[3.7477,35.9012,684.8055],[3.7373,35.9118,697.1874],[3.731,35.9153,703.7039],[3.7173,35.9357,730.1273],[3.6596,35.9428,754.1346]]]]}
,"properties": {"GID_2": "DZA.26.39_1","GID_0": "DZA","country": "Algeria","GID_1": "DZA.26_1","province": "M'Sila","NL_NAME_1": "ولايةالمسيلة","county": "SidiAissa","VARNAME_2": "Sīdī`Aysā","NL_NAME_2": "NA","TYPE_2": "Commune","ENGTYPE_2": "Commune","CC_2": "2816","HASC_2": "DZ.MS.SD","name": "Sidi_Aissa.county","area_km2": 633.4259,"hist_schema_id": "Elevation0-9000","hist_area_km2": {"525": 10.9801,"550": 56.3783,"575": 101.8154,"600": 125.6398,"625": 108.5957,"650": 75.3214,"675": 52.8029,"700": 33.9608,"725": 30.7945,"750": 19.1847,"775": 9.9286,"800": 4.0372,"825": 1.8042,"850": 0.8935,"875": 0.6529,"900": 0.3436,"925": 0.2234,"950": 0.0687}}}