{"type":"Feature","properties":{"GID_2":"DZA.10.21_1","GID_0":"DZA","country":"Algeria","GID_1":"DZA.10_1","province":"Blida","NL_NAME_1":"البليدة","county":"OuedElAlleug","VARNAME_2":"Wadial-Allagh","NL_NAME_2":"NA","TYPE_2":"Commune","ENGTYPE_2":"Commune","CC_2":"904","HASC_2":"DZ.BL.OA","name":"Oued_El_Alleug.county"},
"geometry":{"type": "MultiPolygon","coordinates": [[[[2.8206,36.567,48.83],[2.8208,36.5738,36.9143],[2.8175,36.5903,16.3702],[2.8196,36.6002,12.8764],[2.7855,36.5989,15.1599],[2.7821,36.5951,15.6671],[2.7821,36.5888,16.3578],[2.7641,36.5791,22.7972],[2.7488,36.5758,27.2823],[2.7346,36.5757,31.2522],[2.7302,36.5695,32.01],[2.7278,36.5615,36.0381],[2.7296,36.5506,40.7989],[2.7321,36.5468,40.9738],[2.7365,36.545,44.0556],[2.7307,36.5228,55.4456],[2.731,36.5148,58.1038],[2.7344,36.5094,65.1925],[2.7357,36.5033,66.7094],[2.7541,36.5034,87.5574],[2.7936,36.5156,116.0393],[2.7755,36.542,55.3995],[2.7819,36.544,57.3188],[2.7885,36.5404,71.2249],[2.8023,36.548,68.2691],[2.8081,36.5495,70.7993],[2.8117,36.5539,63.3195],[2.8104,36.5612,52.8144],[2.8206,36.567,48.83]]]]}}