{"type":"Feature","properties":{"GID_2":"DZA.2.18_1","GID_0":"DZA","country":"Algeria","GID_1":"DZA.2_1","province":"AïnDefla","NL_NAME_1":"ولايةعينالدفلى","county":"Djendel","VARNAME_2":"Jandal","NL_NAME_2":"NA","TYPE_2":"Commune","ENGTYPE_2":"Commune","CC_2":"4412","HASC_2":"DZ.AD.DN","name":"Djendel.county"},
"geometry":{"type": "MultiPolygon","coordinates": [[[[2.4601,36.1811,409.5633],[2.4575,36.1862,388.9618],[2.4708,36.1846,416.7173],[2.485,36.1885,487.4344],[2.4948,36.189,531.9642],[2.4971,36.1944,481.5635],[2.4908,36.2043,458.3743],[2.5029,36.2182,348.302],[2.5047,36.2312,371.7003],[2.504,36.2362,343.647],[2.4971,36.2344,335.8992],[2.4914,36.2359,343.324],[2.4924,36.2406,333.3863],[2.4958,36.2448,344.2122],[2.5052,36.2464,347.5842],[2.5171,36.2623,399.2302],[2.5231,36.2781,432.5103],[2.5212,36.2838,537.8217],[2.5265,36.2882,608.0703],[2.5273,36.2963,581.6012],[2.5212,36.3024,701.2352],[2.5206,36.3096,717.0499],[2.5114,36.3073,748.8994],[2.5036,36.3074,778.3195],[2.4966,36.305,835.8131],[2.4861,36.2999,820.3428],[2.4747,36.2904,768.8146],[2.4521,36.2856,755.5513],[2.4314,36.2771,761.1932],[2.3916,36.2661,726.0348],[2.3815,36.2659,695.5615],[2.3633,36.2726,742.8329],[2.34,36.2744,758.5184],[2.3307,36.2767,739.5799],[2.3267,36.2685,684.2231],[2.3293,36.2647,651.6844],[2.3307,36.2556,523.0919],[2.3193,36.2479,413.7693],[2.3236,36.2469,416.5162],[2.3329,36.2489,436.5475],[2.3343,36.2438,420.6739],[2.3333,36.2374,376.8928],[2.3368,36.2341,386.3225],[2.3488,36.231,321.192],[2.3396,36.2114,296.2779],[2.3429,36.1953,310.239],[2.35,36.1819,338.9685],[2.355,36.1776,351.4265],[2.3683,36.183,340.1115],[2.3769,36.1883,328.7436],[2.3984,36.1889,351.0275],[2.4181,36.187,355.3235],[2.4271,36.1821,388.5801],[2.4315,36.1844,410.0979],[2.4356,36.1899,396.3448],[2.4423,36.1916,401.078],[2.4511,36.1761,441.6466],[2.4565,36.1778,397.924],[2.4601,36.1811,409.5633]]]]}}