{"type":"Feature","properties":{"GID_2":"DZA.2.9_1","GID_0":"DZA","country":"Algeria","GID_1":"DZA.2_1","province":"AïnDefla","NL_NAME_1":"ولايةعينالدفلى","county":"Bathia","VARNAME_2":"NA","NL_NAME_2":"NA","TYPE_2":"Commune","ENGTYPE_2":"Commune","CC_2":"4431","HASC_2":"DZ.AD.BT","name":"Bathia.county"},
"geometry":{"type": "MultiPolygon","coordinates": [[[[1.853,35.9427,760.0194],[1.8485,35.9481,920.4355],[1.8424,35.9513,1059.9185],[1.8385,35.9608,1087.1111],[1.8331,35.9592,1055.7388],[1.8274,35.963,1081.6233],[1.8139,35.9644,926.5135],[1.8097,35.9693,868.967],[1.8101,35.9794,815.0588],[1.8054,35.9813,790.5082],[1.7954,35.9801,675.0543],[1.7926,35.9746,644.4047],[1.7818,35.9821,747.163],[1.7768,35.9775,890.6292],[1.7654,35.9724,796.5387],[1.7623,35.9674,948.0876],[1.751,35.9696,891.2781],[1.7435,35.9693,855.8726],[1.7345,35.9775,832.346],[1.7322,35.9827,983.1927],[1.7214,35.9794,988.1947],[1.7172,35.9765,960.0515],[1.7065,35.9639,936.4793],[1.7153,35.9483,987.2227],[1.7054,35.9397,912.1718],[1.7032,35.9354,811.0051],[1.7074,35.9299,722.8309],[1.7074,35.9174,523.6182],[1.717,35.925,552.4208],[1.7216,35.9262,718.2075],[1.7318,35.923,655.795],[1.7347,35.9194,658.6778],[1.7389,35.9177,600.9028],[1.765,35.9134,1066.1326],[1.7739,35.9144,983.9302],[1.7906,35.9131,944.2211],[1.7978,35.9057,910.8361],[1.8091,35.9073,891.4479],[1.823,35.8959,1003.8231],[1.8192,35.8813,946.7969],[1.8231,35.8745,870.1005],[1.8282,35.8705,756.8277],[1.8293,35.8646,722.0432],[1.8344,35.8643,746.2552],[1.8389,35.8606,911.9215],[1.8444,35.8606,881.5438],[1.8563,35.8638,923.7344],[1.8598,35.8691,815.3284],[1.8672,35.8639,875.7446],[1.8727,35.8653,869.3094],[1.8757,35.8864,1064.7834],[1.8797,35.8905,1082.4226],[1.8802,35.8961,1014.9855],[1.8698,35.8975,1102.4736],[1.8521,35.9154,925.0796],[1.8509,35.9201,1058.2566],[1.8579,35.9291,907.6375],[1.853,35.9427,760.0194]]]]}}