{"type":"Feature","properties":{"GID_2":"DZA.23.2_1","GID_0":"DZA","country":"Algeria","GID_1":"DZA.23_1","province":"Jijel","NL_NAME_1":"ولايةجيجل","county":"BoudriaBeniyadjis","VARNAME_2":"BoudriaBeniYadjis","NL_NAME_2":"NA","TYPE_2":"Commune","ENGTYPE_2":"Commune","CC_2":"1822","HASC_2":"DZ.JJ.BY","name":"Boudria_Beniyadjis.county"},
"geometry":{"type": "MultiPolygon","coordinates": [[[[5.8504,36.6148,293.1198],[5.8452,36.6142,328.9481],[5.8341,36.6199,326.2702],[5.8263,36.6207,317.1595],[5.8179,36.6264,389.5964],[5.8039,36.6306,279.5535],[5.7913,36.6257,312.2998],[5.7876,36.6221,396.5435],[5.7833,36.6227,312.1307],[5.7622,36.6156,361.2661],[5.7545,36.6142,365.8686],[5.7324,36.6155,452.8192],[5.7273,36.6141,422.0074],[5.7226,36.6105,526.2552],[5.7253,36.6043,879.8015],[5.7067,36.5958,730.3675],[5.6938,36.5942,805.7261],[5.682,36.5958,584.5028],[5.6833,36.589,638.3367],[5.6862,36.5843,598.8019],[5.695,36.5763,702.1067],[5.6991,36.5737,807.056],[5.7133,36.571,815.475],[5.7238,36.5665,1165.5093],[5.7277,36.5639,1241.9142],[5.7296,36.5577,1339.7899],[5.7368,36.5569,1509.7826],[5.7406,36.56,1540.6383],[5.7485,36.5596,1525.8101],[5.7547,36.562,1524.6447],[5.7584,36.5678,1565.7738],[5.7629,36.5701,1458.1487],[5.7769,36.5704,1264.365],[5.7832,36.5685,1181.6584],[5.7959,36.568,1027.4076],[5.8078,36.5636,1023.7288],[5.8212,36.555,972.1674],[5.8326,36.5513,919.0769],[5.8346,36.5551,881.59],[5.8399,36.5582,759.3527],[5.8448,36.5636,672.4656],[5.8391,36.5762,498.7628],[5.8393,36.584,421.5529],[5.8439,36.5948,287.3566],[5.8491,36.6007,283.4051],[5.8504,36.6148,293.1198]]]]}}