{"type":"Feature","properties":{"GID_2":"DZA.8.19_1","GID_0":"DZA","country":"Algeria","GID_1":"DZA.8_1","province":"Béjaïa","NL_NAME_1":"بجاية","county":"Chemini","VARNAME_2":"Shamini","NL_NAME_2":"NA","TYPE_2":"Commune","ENGTYPE_2":"Commune","CC_2":"629","HASC_2":"DZ.BJ.CM","name":"Chemini.county"},
"geometry":{"type": "MultiPolygon","coordinates": [[[[4.5698,36.6318,1581.6398],[4.5605,36.6241,1530.7511],[4.5438,36.6174,1357.099],[4.5407,36.614,1391.1129],[4.5433,36.609,1445.222],[4.55,36.6031,1483.7773],[4.5549,36.593,1399.599],[4.5666,36.5848,1160.8954],[4.5856,36.5802,609.2841],[4.5926,36.5771,576.6779],[4.6018,36.5698,475.8175],[4.6137,36.5653,336.8428],[4.6295,36.5651,198.9972],[4.6406,36.5679,142.3325],[4.6466,36.5555,111.8448],[4.6503,36.5775,110.0857],[4.6462,36.5799,182.614],[4.6445,36.5913,316.8237],[4.6302,36.5945,596.4518],[4.625,36.5979,706.0012],[4.622,36.6039,900.322],[4.5941,36.6214,1297.6483],[4.5794,36.6219,1502.239],[4.5698,36.6318,1581.6398]]]]}}