{"type":"Feature","properties":{"GID_2":"DZA.26.42_1","GID_0":"DZA","country":"Algeria","GID_1":"DZA.26_1","province":"M'Sila","NL_NAME_1":"ولايةالمسيلة","county":"SidiM'Hamed","VARNAME_2":"SidiMhamed","NL_NAME_2":"NA","TYPE_2":"Commune","ENGTYPE_2":"Commune","CC_2":"2838","HASC_2":"DZ.MS.SM","name":"Sidi_M'Hamed.county"},
"geometry":{"type": "MultiPolygon","coordinates": [[[[4.2855,34.6681,939.2445],[4.2902,34.6709,913.5771],[4.2978,34.6802,872.2878],[4.3118,34.6911,950.5974],[4.3285,34.6998,954.0119],[4.3317,34.7065,1008.2773],[4.3428,34.7116,1105.0326],[4.353,34.7192,1200.2809],[4.3353,34.7343,892.2858],[4.3822,34.764,830.7687],[4.387,34.7704,827.0661],[4.3929,34.7877,817.7649],[4.3979,34.7915,806.2906],[4.369,34.7942,973.0551],[4.3106,34.8631,833.1193],[4.3071,34.9045,897.0177],[4.2844,34.9265,990.8539],[4.2656,34.9142,951.636],[4.2326,34.9008,921.7549],[4.2406,34.8889,892.9547],[4.2516,34.8584,854.4785],[4.2573,34.8539,851.1831],[4.2577,34.8452,854.1403],[4.2613,34.8374,871.1398],[4.2481,34.8358,883.5309],[4.2401,34.838,879.2451],[4.2317,34.8317,886.5666],[4.2417,34.8259,881.7487],[4.2482,34.8247,877.6804],[4.2454,34.8198,875.9771],[4.2579,34.795,864.7344],[4.2621,34.7783,855.0443],[4.2595,34.7717,855.2661],[4.2608,34.7647,855.958],[4.2539,34.7575,869.4057],[4.2409,34.7569,877.4471],[4.2177,34.752,891.1104],[4.1965,34.7336,922.5845],[4.191,34.7239,912.1896],[4.1885,34.7104,899.2439],[4.1906,34.6916,907.7272],[4.1957,34.6835,897.7105],[4.1908,34.6816,898.7275],[4.1788,34.6811,901.9835],[4.1706,34.6758,905.1508],[4.1856,34.6629,909.6021],[4.1983,34.6452,964.1825],[4.2429,34.619,960.4361],[4.2602,34.6358,1048.5865],[4.2671,34.6457,1137.1389],[4.2849,34.6561,1050.0609],[4.2839,34.6616,1014.6916],[4.2855,34.6681,939.2445]]]]}}