{"type": "Feature","bbox": [5.3225,34.6804,5.3808,34.7663],"geometry": {"type": "MultiPolygon","coordinates": [[[[5.3808,34.6804,120.691],[5.3717,34.7119,145.5214],[5.3685,34.7185,158.5058],[5.3629,34.7225,158.2888],[5.363,34.7268,157.3263],[5.3576,34.7393,161.4239],[5.3516,34.7663,178.1362],[5.3498,34.7599,166.3973],[5.3495,34.7427,155.1404],[5.3436,34.7401,155.9035],[5.3398,34.726,151.7876],[5.3348,34.7229,145.3315],[5.3324,34.7174,140.0637],[5.3348,34.7124,137.1713],[5.3225,34.7042,144.408],[5.3376,34.6834,122.4112],[5.3456,34.6813,122.9709],[5.3808,34.6804,120.691]]]]}
,"properties": {"GID_2": "DZA.9.5_1","GID_0": "DZA","country": "Algeria","GID_1": "DZA.9_1","province": "Biskra","NL_NAME_1": "ولايةبسكرة","county": "BordjBenAzzouz","VARNAME_2": "NA","NL_NAME_2": "NA","TYPE_2": "Commune","ENGTYPE_2": "Commune","CC_2": "727","HASC_2": "DZ.BS.BB","name": "Bordj_Ben_Azzouz.county","area_km2": 23.14637,"hist_schema_id": "Elevation0-9000","hist_area_km2": {"125": 12.34211,"150": 10.63007,"175": 0.17418}}}