{"type": "Feature","bbox": [6.5508,36.856,6.6878,36.9732],"geometry": {"type": "MultiPolygon","coordinates": [[[[6.577,36.8601,432.7023],[6.5847,36.856,186.4377],[6.5995,36.8589,99.4859],[6.611,36.871,44.2752],[6.614,36.8763,40.2781],[6.621,36.8803,78.337],[6.6256,36.8855,88.9461],[6.6283,36.8908,145.739],[6.6287,36.8963,182.5607],[6.6316,36.9002,227.9964],[6.6358,36.903,198.7309],[6.6466,36.9057,336.8585],[6.652,36.9105,463.6699],[6.6579,36.9087,526.8325],[6.6586,36.9133,406.2588],[6.6626,36.9174,308.7943],[6.6754,36.9227,254.014],[6.6878,36.9425,45.1018],[6.6865,36.9567,91.8614],[6.6802,36.9573,4.5911],[6.6732,36.949,0.0],[6.6662,36.9504,2.1576],[6.6635,36.9568,0.0],[6.6577,36.9597,4.3657],[6.6524,36.958,4.6041],[6.646,36.9598,45.8081],[6.6416,36.9568,40.8069],[6.6363,36.9566,43.4321],[6.6264,36.9659,0.0],[6.629,36.9716,9.1978],[6.6225,36.9732,2.7118],[6.6058,36.9699,1.9321],[6.5872,36.9717,3.776],[6.577,36.9658,3.7573],[6.5718,36.9682,4.2741],[6.5707,36.9569,11.8113],[6.5682,36.9533,103.3934],[6.5624,36.9517,24.3783],[6.5582,36.9464,35.7098],[6.5568,36.9418,10.3934],[6.5586,36.9362,39.8759],[6.5567,36.9297,14.0833],[6.5528,36.9255,53.6886],[6.5508,36.9201,122.1749],[6.5539,36.9146,15.7879],[6.5579,36.9171,15.6411],[6.5602,36.9211,13.1291],[6.565,36.9216,63.4553],[6.5759,36.9186,295.8756],[6.5794,36.9155,288.5447],[6.5754,36.9086,318.0425],[6.5746,36.9018,311.1967],[6.5762,36.8958,228.4025],[6.5727,36.8934,335.0309],[6.5708,36.8847,332.4736],[6.5824,36.8695,469.4805],[6.577,36.8601,432.7023]]]]}
,"properties": {"GID_2": "DZA.39.25_1","GID_0": "DZA","country": "Algeria","GID_1": "DZA.39_1","province": "Skikda","NL_NAME_1": "سكيكدة","county": "Kerkera","VARNAME_2": "Karkira","NL_NAME_2": "NA","TYPE_2": "Commune-Cotiere","ENGTYPE_2": "Commune-Cotiere","CC_2": "2112","HASC_2": "DZ.SK.KE","name": "Kerkera.county","area_km2": 85.13801,"hist_schema_id": "Elevation0-9000","hist_area_km2": {"0": 9.67467,"25": 7.47468,"50": 5.08475,"75": 5.15272,"100": 5.25443,"125": 5.35606,"150": 5.33922,"175": 5.15274,"200": 4.91556,"225": 4.5766,"250": 4.00039,"275": 3.54294,"300": 3.74619,"325": 3.153,"350": 2.62755,"375": 2.16983,"400": 1.72915,"425": 1.57653,"450": 1.52572,"475": 1.3223,"500": 0.91543,"525": 0.44074,"550": 0.30511,"575": 0.10171}}}