{"type":"Feature","properties":{"GID_2":"DZA.48.43_1","GID_0":"DZA","country":"Algeria","GID_1":"DZA.48_1","province":"Tlemcen","NL_NAME_1":"تلمسان","county":"Sebdou","VARNAME_2":"Sībdū","NL_NAME_2":"NA","TYPE_2":"Commune","ENGTYPE_2":"Commune","CC_2":"1335","HASC_2":"DZ.TL.SE","name":"Sebdou.county"},
"geometry":{"type": "MultiPolygon","coordinates": [[[[-1.363,34.6771,1009.3967],[-1.3686,34.675,1063.1768],[-1.3692,34.6603,1046.3569],[-1.3615,34.6524,1143.8884],[-1.3624,34.6457,1119.5631],[-1.355,34.6389,985.6943],[-1.3559,34.6336,952.1986],[-1.3622,34.6337,964.7085],[-1.3696,34.6268,974.1658],[-1.3708,34.6226,963.4944],[-1.376,34.6203,970.3707],[-1.3928,34.6185,1001.2463],[-1.4001,34.6197,1028.2601],[-1.4074,34.6164,1055.1555],[-1.4001,34.6065,1015.6336],[-1.3887,34.5956,995.5961],[-1.3743,34.5925,1022.2051],[-1.37,34.5931,1000.8877],[-1.3629,34.5776,1041.1245],[-1.3416,34.5603,1104.1774],[-1.3342,34.5512,1099.5725],[-1.3241,34.5469,1114.705],[-1.3037,34.5483,1123.0137],[-1.2933,34.5545,1133.8009],[-1.275,34.5567,1130.8286],[-1.2733,34.5622,1130.8112],[-1.261,34.5628,1124.2261],[-1.2268,34.5827,1145.6456],[-1.2077,34.5871,1158.6697],[-1.1999,34.6029,1176.4283],[-1.2147,34.6145,1167.2119],[-1.2142,34.618899999999996,1168.7008],[-1.2073,34.627,1216.3501],[-1.2054,34.6419,1284.8955],[-1.1854,34.6583,1285.14],[-1.1818,34.6631,1289.7473],[-1.1797,34.6732,1229.3806],[-1.1743,34.6778,1188.0919],[-1.1793,34.7018,1161.1931],[-1.2123,34.7364,1435.8604],[-1.2148,34.7315,1349.3669],[-1.2199,34.7268,1374.8771],[-1.2154,34.7196,1193.4353],[-1.2288,34.7129,1132.8875],[-1.2331,34.7188,1399.4817],[-1.2451,34.7084,1224.5558],[-1.2541,34.7099,1343.131],[-1.2664,34.7071,1327.0116],[-1.2703,34.7156,1288.7477],[-1.2762,34.718,1270.959],[-1.2872,34.7167,1314.7749],[-1.2956,34.7138,1309.7762],[-1.2995,34.7079,1263.5281],[-1.3039,34.7048,1244.5411],[-1.3015,34.7008,1200.9763],[-1.3095,34.6933,1177.5775],[-1.3227,34.6967,1247.2642],[-1.3212,34.6927,1211.6667],[-1.3257,34.6891,1076.2021],[-1.333,34.6756,893.8704],[-1.3399,34.6729,850.7239],[-1.3534,34.6718,1031.692],[-1.3598,34.6734,1019.5877],[-1.363,34.6771,1009.3967]]]]}}