{"type":"Feature","properties":{"GID_2":"DZA.29.21_1","GID_0":"DZA","country":"Algeria","GID_1":"DZA.29_1","province":"Mila","NL_NAME_1":"ولايةميلة","county":"OuledKhelouf","VARNAME_2":"OuledKhellouf","NL_NAME_2":"NA","TYPE_2":"Commune","ENGTYPE_2":"Commune","CC_2":"4312","HASC_2":"DZ.ML.OK","name":"Ouled_Khelouf.county"},
"geometry":{"type": "MultiPolygon","coordinates": [[[[6.0821,35.887,847.4261],[6.1298,35.8837,935.3915],[6.1498,35.8773,890.5076],[6.1563,35.878,888.4083],[6.1608,35.8834,894.2385],[6.1574,35.8881,880.3439],[6.1586,35.8925,895.846],[6.1659,35.8998,874.0198],[6.1657,35.9251,878.7977],[6.1664,35.93,892.4043],[6.1693,35.9343,915.9557],[6.1669,35.9427,937.8891],[6.1571,35.9585,955.6929],[6.1463,35.9808,1165.1311],[6.1416,36.0003,1024.5283],[6.1632,36.0195,880.7566],[6.1682,36.0259,882.0396],[6.1601,36.04,1016.9651],[6.1771,36.0573,924.4117],[6.1821,36.0655,909.6509],[6.1821,36.0779,901.7897],[6.1779,36.0814,870.3231],[6.1728,36.0831,863.7063],[6.1728,36.088,865.1182],[6.1389,36.0898,830.2104],[6.1129,36.0847,831.7048],[6.1064,36.0933,848.608],[6.0739,36.0917,849.7353],[6.0549,36.0833,847.1627],[6.0529,36.0761,845.5604],[6.0601,36.0492,877.327],[6.058,36.0364,903.9465],[6.032,36.0114,998.9078],[6.0177,35.9995,1038.2832],[6.0115,35.9964,1038.5565],[6.0033,35.9841,1097.6383],[6.0062,35.9796,1015.4645],[6.0166,35.9793,1041.5283],[6.0209,35.9768,1035.8335],[6.0171,35.9723,1041.0776],[6.0202,35.9675,1006.153],[6.0297,35.9616,1025.4816],[6.0386,35.9533,1026.9971],[6.0443,35.9511,1007.4285],[6.0656,35.9582,985.9822],[6.0637,35.953,974.2601],[6.0405,35.919,928.3849],[6.0258,35.9165,933.9083],[6.0214,35.9136,934.8779],[6.014,35.8962,925.1561],[6.0192,35.897,923.1528],[6.0238,35.8918,904.8771],[6.0297,35.8896,886.5378],[6.043,35.8908,889.433],[6.0821,35.887,847.4261]]]]}}