{"type": "Feature","bbox": [7.5914,36.7799,7.7417,36.8344],"geometry": {"type": "MultiPolygon","coordinates": [[[[7.5914,36.7887,14.1085],[7.5988,36.7864,14.2076],[7.6228,36.7851,11.5772],[7.6376,36.7799,11.3566],[7.6609,36.7821,9.9778],[7.6757,36.7807,11.9807],[7.6827,36.7823,9.2371],[7.6913,36.7867,11.447],[7.6994,36.787,12.0247],[7.7111,36.7926,13.419],[7.7163,36.7912,8.6655],[7.7209,36.7935,7.8865],[7.7287,36.8012,8.4475],[7.7369,36.8057,12.0874],[7.7348,36.8201,4.8462],[7.7417,36.8247,5.0837],[7.7324,36.8314,4.4905],[7.721,36.8344,71.9121],[7.7051,36.8303,69.5911],[7.6956,36.8244,172.2662],[7.6844,36.8208,213.2758],[7.6496,36.8136,243.2992],[7.6382,36.8071,165.8083],[7.6258,36.8046,188.3423],[7.6133,36.7974,94.9573],[7.6082,36.7962,21.2098],[7.6019,36.798,20.7116],[7.597,36.8016,41.3442],[7.5923,36.8021,15.7037],[7.5914,36.7887,14.1085]]]]}
,"properties": {"GID_2": "DZA.5.11_1","GID_0": "DZA","country": "Algeria","GID_1": "DZA.5_1","province": "Annaba","NL_NAME_1": "ولايةعنابة","county": "SidiAmar","VARNAME_2": "SidiAmer","NL_NAME_2": "NA","TYPE_2": "Commune","ENGTYPE_2": "Commune","CC_2": "2311","HASC_2": "DZ.AN.SA","name": "Sidi_Amar.county","area_km2": 42.32261,"hist_schema_id": "Elevation0-9000","hist_area_km2": {"0": 6.85879,"25": 13.51446,"50": 5.44932,"75": 3.95533,"100": 3.42911,"125": 2.68216,"150": 2.20681,"175": 1.90119,"200": 1.17121,"225": 0.61107,"250": 0.40738,"275": 0.13579}}}