{"type": "Feature","bbox": [6.3457,36.3936,6.5126,36.5004],"geometry": {"type": "MultiPolygon","coordinates": [[[[6.4621,36.4952,232.2944],[6.458,36.4971,215.6469],[6.4277,36.4963,327.1528],[6.4166,36.5004,303.1307],[6.4038,36.4968,237.4977],[6.397,36.4986,267.5724],[6.3877,36.4937,197.0],[6.3848,36.4873,197.0],[6.3785,36.4874,197.0],[6.3785,36.4925,197.0],[6.3743,36.4938,197.0],[6.3652,36.4909,197.0],[6.361,36.4921,197.0],[6.352,36.4897,197.0],[6.3545,36.4657,212.8104],[6.3459,36.4522,245.9231],[6.3457,36.4463,257.6366],[6.357,36.4206,373.3679],[6.3577,36.4162,405.3374],[6.3558,36.4111,426.922],[6.3627,36.4115,515.0667],[6.3759,36.408,673.2539],[6.3919,36.4066,582.423],[6.3998,36.3991,620.7171],[6.3958,36.3957,613.2192],[6.4004,36.3936,632.2913],[6.4263,36.4119,588.0723],[6.4313,36.4133,586.4574],[6.4379,36.42,586.1462],[6.4498,36.4226,601.9703],[6.4645,36.4232,626.6654],[6.4889,36.4146,338.004],[6.5054,36.4234,315.5432],[6.5117,36.4252,307.9248],[6.5126,36.4295,332.7849],[6.508,36.4343,322.2759],[6.5073,36.4399,302.6833],[6.4981,36.4409,301.5501],[6.4964,36.4454,346.856],[6.491,36.4462,309.6853],[6.4817,36.4558,328.1005],[6.4769,36.4631,506.298],[6.4792,36.4681,373.0064],[6.4774,36.4743,525.7244],[6.4737,36.4786,475.5835],[6.4555,36.475,323.7688],[6.4502,36.4754,236.5279],[6.4577,36.4858,274.7925],[6.4576,36.4908,216.0583],[6.4621,36.4952,232.2944]]]]}
,"properties": {"GID_2": "DZA.15.5_1","GID_0": "DZA","country": "Algeria","GID_1": "DZA.15_1","province": "Constantine","NL_NAME_1": "قسنطينة","county": "BoudjeriouMessaoud","VARNAME_2": "MesaoudBoudjeriou","NL_NAME_2": "NA","TYPE_2": "Commune","ENGTYPE_2": "Commune","CC_2": "2511","HASC_2": "DZ.CO.BM","name": "Boudjeriou_Messaoud.county","area_km2": 109.33595,"hist_schema_id": "Elevation0-9000","hist_area_km2": {"200": 6.32414,"225": 4.63693,"250": 4.97814,"275": 5.38735,"300": 7.74162,"325": 7.02624,"350": 6.90733,"375": 7.43633,"400": 6.6007,"425": 7.0271,"450": 6.56676,"475": 6.78839,"500": 6.56677,"525": 5.52645,"550": 4.92964,"575": 4.0087,"600": 3.61642,"625": 2.59296,"650": 2.04712,"675": 1.38174,"700": 0.80168,"725": 0.28995,"750": 0.15349}}}