{"type":"Feature","properties":{"GID_2":"DZA.38.10_1","GID_0":"DZA","country":"Algeria","GID_1":"DZA.38_1","province":"SidiBelAbbès","NL_NAME_1":"ولايةسيديبلعباس","county":"BenaichaChelia","VARNAME_2":"BenachibaChelia","NL_NAME_2":"NA","TYPE_2":"Commune","ENGTYPE_2":"Commune","CC_2":"2251","HASC_2":"DZ.SB.BC","name":"Benaicha_Chelia.county"},
"geometry":{"type": "MultiPolygon","coordinates": [[[[-0.6224,35.0232,736.4244],[-0.6327,35.0227,725.7576],[-0.637,35.0241,714.9697],[-0.6374,35.0189,714.3986],[-0.6349,35.0147,732.7568],[-0.6242,35.0032,813.1263],[-0.6345,34.9941,808.3975],[-0.6467,34.9768,799.7675],[-0.6557,34.9701,812.705],[-0.6584,34.9647,833.5021],[-0.6657,34.9566,836.6464],[-0.6631,34.9503,914.9187],[-0.6688,34.9454,945.8395],[-0.6445,34.9382,1077.7363],[-0.6434,34.9323,1074.53],[-0.6493,34.9234,1095.0442],[-0.6199,34.9075,863.2773],[-0.6084,34.9031,826.9922],[-0.5884,34.8914,812.2181],[-0.5829,34.9055,756.6324],[-0.5834,34.918,757.3098],[-0.5792,34.9212,735.7747],[-0.5442,34.9232,681.3881],[-0.5405,34.9298,675.2918],[-0.5472,34.9485,658.4935],[-0.5565,34.9543,651.2686],[-0.5589,34.9705,645.645],[-0.5897,35.0085,650.6337],[-0.6018,35.0166,698.2852],[-0.6186,35.0208,737.049],[-0.6224,35.0232,736.4244]]]]}}