{"type": "Feature","bbox": [6.0857,36.2024,6.2365,36.3457],"geometry": {"type": "MultiPolygon","coordinates": [[[[6.1165,36.2968,1017.799],[6.1032,36.2963,979.6877],[6.0916,36.2919,956.7803],[6.0857,36.2653,903.204],[6.0915,36.2478,834.6628],[6.096,36.2445,837.4214],[6.1139,36.2424,811.8582],[6.1289,36.234,808.9106],[6.1403,36.2195,789.6133],[6.1587,36.2024,767.6395],[6.2112,36.2218,1007.9191],[6.2056,36.2252,1079.4856],[6.2045,36.2301,1064.6001],[6.2121,36.2373,908.5424],[6.2223,36.2387,871.9078],[6.2258,36.2416,843.7331],[6.2271,36.2598,795.8928],[6.2067,36.2701,861.3621],[6.2027,36.2831,910.4708],[6.2345,36.286,819.7059],[6.2254,36.2929,872.4076],[6.2243,36.297,864.9507],[6.2264,36.3021,865.6827],[6.2255,36.3224,948.4271],[6.2286,36.3279,904.0533],[6.2345,36.3303,883.4167],[6.2365,36.3345,823.998],[6.2298,36.3449,882.4715],[6.2235,36.3457,906.5835],[6.2103,36.3411,929.7596],[6.193,36.3421,949.063],[6.1799,36.3376,945.3197],[6.1683,36.3393,967.0081],[6.1624,36.3365,1032.7947],[6.1666,36.317,1040.3965],[6.1692,36.3117,1012.9706],[6.1691,36.3006,967.6969],[6.1466,36.2996,970.0939],[6.1407,36.2967,945.0997],[6.1357,36.2994,967.8521],[6.1268,36.3009,983.0756],[6.1219,36.297,999.9672],[6.1165,36.2968,1017.799]]]]}
,"properties": {"GID_2": "DZA.29.3_1","GID_0": "DZA","country": "Algeria","GID_1": "DZA.29_1","province": "Mila","NL_NAME_1": "ولايةميلة","county": "AinMellouk","VARNAME_2": "NA","NL_NAME_2": "NA","TYPE_2": "Commune","ENGTYPE_2": "Commune","CC_2": "4305","HASC_2": "DZ.ML.AM","name": "Ain_Mellouk.county","area_km2": 122.61088,"hist_schema_id": "Elevation0-9000","hist_area_km2": {"775": 1.77895,"800": 7.67911,"825": 13.62863,"850": 17.16601,"875": 18.05207,"900": 15.12683,"925": 15.34753,"950": 11.55167,"975": 8.56033,"1000": 5.9285,"1025": 3.84369,"1050": 2.56269,"1075": 0.70073,"1100": 0.29077,"1125": 0.17103,"1150": 0.17103,"1175": 0.05131}}}