{"type":"Feature","properties":{"GID_2":"DZA.17.19_1","GID_0":"DZA","country":"Algeria","GID_1":"DZA.17_1","province":"ElBayadh","NL_NAME_1":"ولايةالبيض","county":"SidiSlimane","VARNAME_2":"NA","NL_NAME_2":"NA","TYPE_2":"Commune","ENGTYPE_2":"Commune","CC_2":"3221","HASC_2":"DZ.EB.SS","name":"Sidi_Slimane.county"},
"geometry":{"type": "MultiPolygon","coordinates": [[[[1.7666,33.8508,1495.1012],[1.7624,33.8559,1419.899],[1.76,33.862,1386.6722],[1.7523,33.8697,1403.1992],[1.7456,33.8797,1401.6245],[1.741,33.8832,1413.9857],[1.7338,33.8849,1424.5092],[1.6487,33.8678,1545.9595],[1.7142,33.829,1376.4021],[1.6968,33.8177,1445.7231],[1.6959,33.8127,1396.7471],[1.7072,33.788,1248.13],[1.7103,33.777,1234.198],[1.7141,33.7719,1217.0477],[1.7205,33.7677,1206.6627],[1.7337,33.7694,1192.3424],[1.7581,33.7617,1179.1838],[1.7615,33.7557,1164.2745],[1.7599,33.7446,1158.7328],[1.7624,33.7391,1148.1083],[1.7671,33.7374,1145.9663],[1.7683,33.7244,1135.5521],[1.7732,33.7157,1128.7072],[1.7716,33.7011,1115.4946],[1.7846,33.6905,1108.5399],[1.8025,33.6905,1101.7891],[1.8058,33.6867,1101.672],[1.8182,33.6834,1094.5239],[1.8093,33.7006,1116.6523],[1.8124,33.706,1120.4125],[1.8129,33.7112,1123.5447],[1.8201,33.7187,1134.5294],[1.82,33.7231,1133.4767],[1.8225,33.7268,1140.9021],[1.8202,33.7316,1143.772],[1.8095,33.7439,1162.4501],[1.8081,33.7558,1183.3594],[1.8162,33.7598,1198.6436],[1.8204,33.7741,1246.0215],[1.8241,33.7798,1410.7461],[1.8172,33.7889,1295.6968],[1.7964,33.8403,1462.7653],[1.7889,33.8456,1508.5763],[1.7731,33.848,1511.1064],[1.7666,33.8508,1495.1012]]]]}}