{"type":"Feature","properties":{"GID_2":"DZA.12.36_1","GID_0":"DZA","country":"Algeria","GID_1":"DZA.12_1","province":"Bouira","NL_NAME_1":"ولايةالبويرة","county":"OuedElBerdi","VARNAME_2":"NA","NL_NAME_2":"NA","TYPE_2":"Commune","ENGTYPE_2":"Commune","CC_2":"1045","HASC_2":"DZ.BU.OB","name":"Oued_El_Berdi.county"},
"geometry":{"type": "MultiPolygon","coordinates": [[[[3.9788,36.2724,576.7005],[3.9609,36.2772,540.0973],[3.9644,36.2831,507.2724],[3.9567,36.2859,544.632],[3.9594,36.29,546.3937],[3.9499,36.3074,531.9003],[3.9405,36.3074,540.8108],[3.9351,36.3092,554.192],[3.9323,36.322,550.1345],[3.9154,36.3286,548.0478],[3.9009,36.3276,565.6508],[3.891,36.3217,610.0469],[3.8777,36.3216,642.3239],[3.8742,36.3163,651.154],[3.8736,36.3111,661.6588],[3.8638,36.3141,672.8644],[3.8608,36.3059,682.2063],[3.8616,36.2933,698.6796],[3.8648,36.2848,702.1552],[3.8625,36.2742,720.8159],[3.863,36.2621,687.2255],[3.86,36.2565,737.7812],[3.8598,36.249,713.6724],[3.8617,36.2446,729.9268],[3.8657,36.2425,757.3757],[3.886,36.2407,791.0298],[3.8951,36.2359,769.2089],[3.8997,36.233,711.2759],[3.9022,36.2275,659.6045],[3.8964,36.2215,722.0687],[3.9028,36.2132,742.4448],[3.9028,36.2077,784.5594],[3.9149,36.2046,779.9567],[3.9197,36.2009,778.1415],[3.9287,36.2002,743.3335],[3.95,36.19,599.5389],[3.9544,36.1911,596.2131],[3.961,36.199,602.0394],[3.9676,36.1961,626.2257],[3.9704,36.1907,630.1758],[3.9761,36.1888,655.1407],[3.986,36.1871,720.0184],[3.993,36.1894,747.7818],[3.9942,36.1961,754.0396],[3.9921,36.212,764.196],[3.9724,36.2203,722.8115],[3.972,36.2248,695.577],[3.9552,36.2352,647.3259],[3.9667,36.2483,578.5148],[3.9665,36.2589,520.2621],[3.9637,36.2637,507.6131],[3.9678,36.267,504.7363],[3.9737,36.2646,590.1266],[3.9781,36.2681,562.3655],[3.9788,36.2724,576.7005]]]]}}