{"type": "Feature","bbox": [1.7364,35.3939,1.984,35.5554],"geometry": {"type": "MultiPolygon","coordinates": [[[[1.883,35.398,867.8508],[1.879,35.4028,868.8395],[1.859,35.4164,874.3029],[1.8556,35.4208,877.5175],[1.8966,35.452,860.3478],[1.9293,35.4695,850.2485],[1.984,35.485,842.2885],[1.9731,35.4963,844.0189],[1.9597,35.4909,845.9565],[1.9542,35.4905,846.461],[1.9461,35.4981,848.2875],[1.9367,35.4943,851.4399],[1.9312,35.4971,852.0676],[1.8934,35.5423,861.8437],[1.899,35.543,852.9388],[1.903,35.5541,809.1001],[1.8892,35.5517,814.0176],[1.8793,35.5535,808.671],[1.8584,35.554,810.8195],[1.8477,35.5495,811.6483],[1.8286,35.5506,817.3312],[1.8184,35.5473,816.635],[1.8101,35.5519,818.8856],[1.7905,35.555,823.1019],[1.7836,35.5533,827.6483],[1.7686,35.5536,828.9644],[1.7623,35.5554,830.413],[1.7437,35.5515,835.8983],[1.7429,35.5449,843.0687],[1.7411,35.5404,840.4072],[1.7372,35.5377,840.2281],[1.7364,35.5332,854.7655],[1.7409,35.5281,911.3139],[1.7496,35.5226,904.7001],[1.749,35.5175,909.52],[1.7558,35.5172,909.9086],[1.7709,35.4973,922.0704],[1.7979,35.4855,910.3099],[1.7951,35.471,896.4291],[1.7957,35.466,896.924],[1.7991,35.4604,899.0],[1.803,35.447,894.6738],[1.8069,35.442,893.3808],[1.8144,35.4337,890.9815],[1.8199,35.4348,889.7258],[1.8276,35.4259,887.5629],[1.8206,35.4168,888.8222],[1.8254,35.4104,886.426],[1.8444,35.3939,880.1777],[1.8697,35.394,871.7307],[1.883,35.398,867.8508]]]]}
,"properties": {"GID_2": "DZA.43.14_1","GID_0": "DZA","country": "Algeria","GID_1": "DZA.43_1","province": "Tiaret","NL_NAME_1": "ولايةتيارت","county": "Hamadia","VARNAME_2": "NA","NL_NAME_2": "NA","TYPE_2": "Commune","ENGTYPE_2": "Commune","CC_2": "1435","HASC_2": "DZ.TR.HA","name": "Hamadia.county","area_km2": 186.8179,"hist_schema_id": "Elevation0-9000","hist_area_km2": {"800": 1.0522,"825": 9.5052,"850": 39.1633,"875": 81.344,"900": 49.8847,"925": 5.8686}}}