{"type":"Feature","properties":{"GID_2":"DZA.27.43_1","GID_0":"DZA","country":"Algeria","GID_1":"DZA.27_1","province":"Mascara","NL_NAME_1":"ولايةمعسكر","county":"Sig","VARNAME_2":"Siq","NL_NAME_2":"NA","TYPE_2":"Commune","ENGTYPE_2":"Commune","CC_2":"2926","HASC_2":"DZ.MC.SI","name":"Sig.county"},
"geometry":{"type": "MultiPolygon","coordinates": [[[[-0.1258,35.5719,21.5463],[-0.186,35.5736,30.1542],[-0.2166,35.5798,32.6294],[-0.2257,35.5768,38.2944],[-0.2307,35.5399,68.8747],[-0.2258,35.5362,67.2538],[-0.2332,35.5236,113.048],[-0.2401,35.5169,151.235],[-0.2591,35.5058,349.0936],[-0.2708,35.5014,489.196],[-0.2624,35.4878,265.0024],[-0.2623,35.4823,344.6394],[-0.2519,35.4733,258.2434],[-0.2471,35.4737,254.762],[-0.2297,35.4859,181.6657],[-0.2051,35.4935,107.3717],[-0.1988,35.5026,113.042],[-0.1929,35.5028,118.0391],[-0.1828,35.498,160.7355],[-0.1602,35.4976,232.0023],[-0.1509,35.4926,254.0466],[-0.1465,35.492,232.8003],[-0.1217,35.5033,134.3405],[-0.1103,35.5028,178.2729],[-0.0856,35.5067,270.7654],[-0.0814,35.5147,260.2457],[-0.0921,35.5229,168.0451],[-0.0948,35.5369,125.0541],[-0.11,35.5653,26.3931],[-0.1136,35.5703,20.24],[-0.1258,35.5719,21.5463]]]]}}