{"type": "Feature","bbox": [0.3386,36.1198,0.576,36.2419],"geometry": {"type": "MultiPolygon","coordinates": [[[[0.3972,36.1462,142.0591],[0.4038,36.1485,128.2397],[0.4077,36.1523,84.5558],[0.4113,36.15,131.5272],[0.4226,36.1407,165.0111],[0.4251,36.1272,176.0172],[0.4299,36.1229,189.8171],[0.4413,36.1234,198.3063],[0.4648,36.1198,259.7462],[0.4995,36.1455,361.062],[0.5042,36.1507,366.8937],[0.5209,36.1565,379.3147],[0.5342,36.1657,320.8485],[0.5434,36.1735,307.1503],[0.5513,36.1832,272.3326],[0.5601,36.1901,218.7303],[0.5641,36.1924,163.6409],[0.576,36.1934,98.1243],[0.5731,36.1967,107.584],[0.5643,36.2007,81.4562],[0.5609,36.2039,102.1078],[0.5357,36.2094,50.1523],[0.532,36.2157,92.3028],[0.5234,36.2189,31.4838],[0.5195,36.2223,48.6934],[0.5037,36.2263,19.0141],[0.4961,36.2344,21.9678],[0.4915,36.2362,22.914],[0.4889,36.2419,55.9145],[0.4778,36.2329,0.0],[0.4715,36.2302,6.0014],[0.4649,36.2296,4.2902],[0.4521,36.2217,6.2282],[0.4463,36.2208,0.0],[0.4317,36.2147,4.8994],[0.4075,36.2088,0.0],[0.3842,36.2105,1.0051],[0.362,36.2025,1.4386],[0.3402,36.1917,0.0],[0.3386,36.1796,2.7021],[0.3508,36.1754,10.655],[0.3702,36.1761,46.7691],[0.3797,36.1724,39.8829],[0.3972,36.1462,142.0591]]]]}
,"properties": {"GID_2": "DZA.30.26_1","GID_0": "DZA","country": "Algeria","GID_1": "DZA.30_1","province": "Mostaganem","NL_NAME_1": "ولايةمستغانم","county": "SidiLakhdar","VARNAME_2": "NA","NL_NAME_2": "NA","TYPE_2": "Commune","ENGTYPE_2": "Commune","CC_2": "2716","HASC_2": "DZ.MG.SL","name": "Sidi_Lakhdar.county","area_km2": 142.0928,"hist_schema_id": "Elevation0-9000","hist_area_km2": {"0": 3.5581,"25": 6.3125,"50": 8.1096,"75": 17.2813,"100": 19.814,"125": 17.5405,"150": 15.1792,"175": 7.1027,"200": 6.0075,"225": 5.5458,"250": 9.2257,"275": 6.8643,"300": 6.4543,"325": 8.4578,"350": 3.5781,"375": 1.0614}}}