{"type":"Feature","properties":{"GID_2":"DZA.14.35_1","GID_0":"DZA","country":"Algeria","GID_1":"DZA.14_1","province":"Chlef","NL_NAME_1":"ولايةالشلف","county":"Zeboudja","VARNAME_2":"NA","NL_NAME_2":"NA","TYPE_2":"Commune","ENGTYPE_2":"Commune","CC_2":"220","HASC_2":"DZ.CH.ZE","name":"Zeboudja.county"},
"geometry":{"type": "MultiPolygon","coordinates": [[[[1.5476,36.3998,210.103],[1.543,36.4045,340.0618],[1.528,36.4143,418.9148],[1.5256,36.4207,494.809],[1.5198,36.4247,489.1303],[1.521,36.4487,550.6161],[1.5145,36.448,600.0538],[1.4904,36.4588,835.169],[1.4887,36.4772,326.9701],[1.4802,36.4709,495.4222],[1.4768,36.4507,1017.4605],[1.4548,36.4453,1047.2634],[1.4377,36.4468,945.6403],[1.4354,36.4426,892.7719],[1.4403,36.4386,791.8029],[1.4415,36.4315,713.5646],[1.44,36.4255,673.4662],[1.441,36.4189,642.4145],[1.4391,36.4128,654.8568],[1.4293,36.402,548.9296],[1.4262,36.3929,635.3529],[1.4167,36.3844,746.9297],[1.4138,36.3791,786.4929],[1.4031,36.3719,846.6688],[1.4006,36.3674,838.9203],[1.4043,36.3633,744.8681],[1.4042,36.3524,564.7851],[1.3997,36.343,364.6773],[1.3817,36.3419,326.6314],[1.3791,36.3305,415.7237],[1.3857,36.3214,450.7229],[1.39,36.3185,446.2402],[1.397,36.3179,442.8755],[1.4091,36.3205,416.4864],[1.4136,36.319,445.2907],[1.4227,36.3211,436.6041],[1.4459,36.3137,464.6923],[1.4579,36.3122,459.8714],[1.4639,36.3077,439.5748],[1.4651,36.3144,466.5728],[1.4708,36.3191,507.5632],[1.4738,36.331,669.6681],[1.4831,36.3361,729.7595],[1.485,36.3466,962.562],[1.4991,36.3533,754.7725],[1.5321,36.3572,315.3973],[1.5322,36.3634,267.5009],[1.5292,36.3692,226.9408],[1.5294,36.3812,198.2308],[1.5345,36.3851,203.9988],[1.5377,36.3913,185.2604],[1.5437,36.395,197.6926],[1.5476,36.3998,210.103]]]]}}