{"type":"Feature","properties":{"GID_2":"DZA.15.11_1","GID_0":"DZA","country":"Algeria","GID_1":"DZA.15_1","province":"Constantine","NL_NAME_1":"قسنطينة","county":"OuledRahmoune","VARNAME_2":"OuledRahmoun","NL_NAME_2":"NA","TYPE_2":"Commune","ENGTYPE_2":"Commune","CC_2":"2509","HASC_2":"DZ.CO.OR","name":"Ouled_Rahmoune.county"},
"geometry":{"type": "MultiPolygon","coordinates": [[[[6.8406,36.2689,1171.2972],[6.8361,36.2651,1045.3591],[6.8156,36.2552,1003.6493],[6.8104,36.2553,1050.6301],[6.784,36.2641,1098.5194],[6.7767,36.2591,1027.9758],[6.7651,36.2453,739.3371],[6.7595,36.2449,702.1771],[6.7532,36.2501,658.2595],[6.7477,36.246,632.2335],[6.7373,36.2455,631.238],[6.7347,36.2416,633.6437],[6.7227,36.2379,655.0297],[6.7058,36.221,641.7205],[6.7006,36.2178,646.4281],[6.6994,36.2111,687.2521],[6.693,36.1963,673.0459],[6.6855,36.1923,648.524],[6.6772,36.1938,732.6898],[6.6669,36.187,776.935],[6.6571,36.1861,809.6152],[6.6441,36.1816,912.9886],[6.6315,36.1757,949.1573],[6.6131,36.164,897.4473],[6.6109,36.1731,956.6717],[6.6056,36.1723,884.9546],[6.6033,36.1583,915.1625],[6.5963,36.147,866.2558],[6.5896,36.1491,836.88],[6.5844,36.1532,843.5769],[6.5743,36.1552,904.2136],[6.5712,36.1586,918.4346],[6.5658,36.1572,958.3065],[6.5549,36.1587,964.0449],[6.5378,36.1708,940.6033],[6.5317,36.17,955.5853],[6.5218,36.166,931.7681],[6.5142,36.1553,903.9034],[6.5179,36.1509,955.2278],[6.5322,36.1475,1040.5928],[6.5306,36.1406,1030.3712],[6.5337,36.1349,1037.5374],[6.5397,36.1297,908.8926],[6.5434,36.122,832.7061],[6.5412,36.1175,840.4461],[6.5415,36.1111,967.6143],[6.5489,36.1111,853.6304],[6.5578,36.1036,811.8826],[6.565,36.1031,808.5182],[6.5685,36.1068,803.3565],[6.5753,36.0988,792.6558],[6.5854,36.0942,783.2898],[6.5863,36.1009,773.8166],[6.5821,36.1063,778.0104],[6.5766,36.1107,789.4276],[6.5699,36.1121,789.3691],[6.566,36.1153,795.6201],[6.5682,36.1227,805.7383],[6.589,36.1171,776.291],[6.5969,36.1066,756.6114],[6.6018,36.1046,756.0811],[6.6066,36.103,769.2163],[6.6183,36.1049,949.5015],[6.6216,36.1009,997.3812],[6.6298,36.1037,964.5509],[6.6346,36.1072,932.7073],[6.6397,36.1157,986.6382],[6.6387,36.1215,942.2845],[6.6329,36.1345,811.8615],[6.64,36.14,763.7101],[6.6563,36.1436,751.0385],[6.6605,36.1427,762.8342],[6.6738,36.1445,754.5664],[6.6939,36.1435,785.387],[6.712,36.139,804.6906],[6.7178,36.142,790.4634],[6.7361,36.1445,779.7159],[6.7406,36.1423,759.5903],[6.7462,36.143,744.3512],[6.7497,36.1495,791.1143],[6.7509,36.1632,843.2964],[6.7541,36.1692,817.1125],[6.7538,36.1771,847.8815],[6.7485,36.1871,823.2366],[6.7524,36.1916,805.5949],[6.7626,36.197,756.9575],[6.7669,36.1891,830.2162],[6.7719,36.1883,812.8577],[6.7821,36.1908,825.3185],[6.7875,36.1961,824.2828],[6.7928,36.1938,819.1133],[6.7877,36.1833,836.9866],[6.7901,36.1769,860.9255],[6.7962,36.1738,892.1687],[6.8073,36.1722,881.9518],[6.8117,36.1741,893.5907],[6.8183,36.1636,930.6186],[6.8194,36.1571,922.8727],[6.829,36.1513,964.7426],[6.8325,36.1553,928.1286],[6.8388,36.1582,924.2805],[6.8471,36.1679,878.606],[6.8531,36.1712,837.225],[6.8417,36.1882,792.6201],[6.8496,36.191,817.5797],[6.8543,36.1892,816.374],[6.86,36.1899,835.6111],[6.8654,36.1981,798.1329],[6.8629,36.2094,762.6347],[6.8641,36.2164,775.4903],[6.8615,36.2241,827.7936],[6.8456,36.224,901.6833],[6.8406,36.2689,1171.2972]]]]}}