{"type": "Feature","id": "2211","bbox": [4.18443,33.57268,6.74954,35.28844],"geometry": {"type": "Polygon","coordinates": [[[5.96266,35.23129,1399.6401],[5.87735,35.25857,1040.3624],[5.84226,35.28482,712.8571],[5.83063,35.28844,757.5701],[5.82086,35.28792,811.9922],[5.75896,35.26948,670.7395],[5.71286,35.25129,612.147],[5.62656,35.20622,522.7178],[5.55489,35.19139,487.6809],[5.5507,35.18504,508.2593],[5.5583,35.1739,451.0757],[5.59881,35.14261,390.3717],[5.60455,35.13654,388.4576],[5.61075,35.12638,387.2342],[5.61307,35.1192,389.6474],[5.61354,35.10644,394.8654],[5.60873,35.0984,370.7708],[5.59664,35.09176,353.3908],[5.57633,35.08515,322.0147],[5.56651,35.08075,326.8857],[5.55132,35.07194,322.5353],[5.53675,35.06636,309.0232],[5.51468,35.06339,282.4567],[5.39831,35.0584,585.213],[5.37784,35.05331,538.9763],[5.3566,35.0444,446.4561],[5.33144,35.03058,333.2372],[5.30601,35.02143,380.7077],[5.27247,35.01843,346.6552],[5.23491,35.02138,416.6411],[5.18483,35.03104,332.4533],[5.14292,35.05313,429.4446],[5.07419,35.08106,555.5741],[5.03864,35.08331,612.8753],[5.04391,34.93725,474.9743],[5.04112,34.91864,510.7896],[5.02841,34.9002,523.4875],[5.00122,34.87436,596.299],[4.95952,34.84994,521.8187],[4.93281,34.83891,438.0546],[4.83209,34.81924,480.3967],[4.81565,34.81955,535.1384],[4.79922,34.8216,675.3063],[4.78692,34.82069,708.3744],[4.75948,34.81307,756.9073],[4.74336,34.81167,865.4044],[4.71664,34.8155,868.4125],[4.70114,34.81338,858.5765],[4.61531,34.78863,769.9292],[4.56973,34.78271,891.2335],[4.52875,34.77227,879.8152],[4.51309,34.76995,946.2251],[4.50017,34.77013,967.6861],[4.47071,34.77442,1027.9814],[4.45273,34.77522,963.3578],[4.4347,34.77266,899.2913],[4.41408,34.76232,842.7488],[4.39465,34.74659,859.949],[4.36504,34.70858,920.8056],[4.34705,34.68964,852.4385],[4.27331,34.62585,951.8239],[4.25858,34.60621,847.5424],[4.2468,34.58047,745.8175],[4.23316,34.5628,738.036],[4.19574,34.52575,706.2066],[4.18443,34.5082,728.0345],[4.1866,34.49283,690.7327],[4.19295,34.4842,670.0759],[4.20102,34.4765,669.3383],[4.20706,34.46549,642.741],[4.23037,34.37671,544.6985],[4.24215,34.35824,519.0414],[4.2668,34.32876,473.1296],[4.28215,34.2978,420.1846],[4.29352,34.28587,423.1014],[4.30731,34.27414,415.4049],[4.31476,34.26308,423.7334],[4.31646,34.25179,430.7904],[4.31274,34.24414,443.3672],[4.2977,34.239,446.9249],[4.28561,34.23646,457.3845],[4.21373,34.2322,435.3265],[4.21621,34.20652,464.1823],[4.21497,34.1975,478.7087],[4.20939,34.18163,487.8221],[4.21063,34.17461,499.6884],[4.21807,34.16624,502.8177],[4.23362,34.15562,526.1469],[4.25393,34.14879,494.0284],[4.28716,34.14174,476.4268],[4.29848,34.1358,487.2312],[4.3053,34.12559,487.663],[4.30902,34.11409,492.1248],[4.32747,34.0127,490.0443],[4.33506,33.98604,500.7539],[4.34132,33.97612,504.1251],[4.3624,33.95738,555.6064],[4.40664,33.92765,525.5844],[5.12179,33.57268,306.7635],[5.21816,33.70921,252.9835],[5.27092,33.76636,263.6663],[5.31392,33.80349,255.7546],[5.32648,33.82321,240.9168],[5.33485,33.846,242.4743],[5.37381,34.05839,190.771],[5.37288,34.10771,177.8093],[5.36978,34.12931,169.8922],[5.35986,34.16621,176.7911],[5.34368,34.20081,180.2521],[5.33314,34.2177,180.3004],[5.30198,34.25566,189.8431],[5.26534,34.29274,195.758],[5.19444,34.34392,213.2088],[5.18917,34.34917,211.4653],[5.18545,34.35666,216.8015],[5.18778,34.36891,220.3471],[5.19196,34.38142,215.87],[5.19925,34.39369,213.9848],[5.20638,34.40312,202.6711],[5.21723,34.41196,202.142],[5.22886,34.41769,200.1143],[5.26984,34.43108,182.2798],[5.28782,34.43904,166.2515],[5.29904,34.44906,161.2028],[5.30121,34.46291,168.5832],[5.29981,34.47919,160.8414],[5.30632,34.4928,149.7416],[5.31175,34.49826,147.2158],[5.31578,34.49981,146.3069],[5.31934,34.49893,145.3069],[5.38156,34.47495,137.3339],[5.47716,34.44984,120.2979],[5.99853,34.39496,-15.4799],[6.1933,34.42896,-27.7524],[6.21144,34.42842,-27.5451],[6.3705,34.39247,-26.6406],[6.42853,34.37,-26.1912],[6.4386,34.36075,-26.7645],[6.44589,34.34994,-27.4331],[6.45659,34.34015,-27.6883],[6.47183,34.33101,-27.8832],[6.49075,34.32359,-27.8761],[6.50547,34.31971,-27.8465],[6.52692,34.31654,-27.6696],[6.55855,34.31703,-27.0357],[6.59022,34.32196,-26.5904],[6.62619,34.33315,-25.1451],[6.66112,34.35124,-23.0172],[6.6959,34.37609,-18.2204],[6.70551,34.41196,-14.4863],[6.69652,34.46433,-5.2701],[6.69652,34.47583,-2.7117],[6.70009,34.48901,0.774],[6.7052,34.49686,3.045],[6.71978,34.53872,16.9075],[6.73497,34.60202,37.1442],[6.73978,34.63768,54.3424],[6.74117,34.67096,69.6171],[6.74954,34.71222,92.1013],[6.74846,34.7261,101.4449],[6.74272,34.7431,113.7523],[6.72799,34.77537,141.0427],[6.72009,34.78457,144.2273],[6.71435,34.78852,144.1384],[6.7066,34.791,147.9478],[6.69776,34.79219,149.2269],[6.68469,34.7924,136.9762],[6.66825,34.79064,134.5852],[6.61828,34.7787,105.1757],[6.60604,34.77746,97.3788],[6.5879,34.77855,95.7599],[6.58103,34.76966,89.2918],[6.57436,34.76762,91.3352],[6.55855,34.76449,88.6636],[6.54041,34.76568,85.4145],[6.52346,34.7692,85.3391],[6.50873,34.7755,85.5115],[6.49881,34.78224,95.3574],[6.46899,34.81211,186.4047],[6.45271,34.82485,185.9503],[6.43985,34.83826,283.3911],[6.43209,34.85539,289.1339],[6.43132,34.87167,307.6124],[6.44357,34.92508,591.5239],[6.44403,34.96665,1016.8293],[6.44574,34.98184,1103.0802],[6.44884,34.99231,1029.9467],[6.45736,35.00928,1005.7344],[6.45953,35.01698,979.7085],[6.45783,35.03228,1115.5652],[6.44775,35.04585,1203.468],[6.4293,35.06479,1296.7174],[6.41266,35.06876,1386.667],[6.39375,35.06621,1478.4398],[6.37127,35.05931,1505.4434],[6.32052,35.05143,1649.4385],[6.29551,35.0514,1702.1683],[6.27908,35.04926,1660.563],[6.26389,35.04484,1568.2753],[6.23391,35.03045,1567.0583],[6.22508,35.02127,1785.1345],[6.21717,35.00319,1727.6593],[6.21485,35.00022,1713.9585],[6.2119,34.99913,1720.2007],[6.1933,35.00127,1798.1016],[6.18968,35.00068,1761.446],[6.16658,34.99208,1619.6672],[6.14736,34.99223,1187.2322],[6.13258,34.99696,957.1479],[6.1256,35.00091,838.3987],[6.12188,35.00662,763.3059],[6.11614,35.01848,685.2687],[6.11211,35.03114,688.4631],[6.10638,35.04225,658.2333],[6.09723,35.05176,671.9092],[6.08467,35.05652,724.2377],[6.07222,35.05858,778.4897],[6.06152,35.05662,749.0904],[6.053,35.0491,610.7335],[6.04524,35.03587,536.3516],[6.03052,34.9996,511.1989],[6.02431,34.99528,509.9347],[6.01155,34.98859,474.6062],[5.9931,34.98936,425.7957],[5.97465,35.00259,453.4628],[5.96375,35.01254,516.2058],[5.93988,35.02954,688.2838],[5.92716,35.04523,1196.6233],[5.92701,35.06168,1073.0759],[5.9436,35.09145,1073.1807],[5.94484,35.10773,946.8973],[5.93228,35.14357,885.3428],[5.93677,35.15238,997.766],[5.94902,35.16393,1062.0823],[5.98907,35.19263,1249.6517],[5.99977,35.20364,1254.7462],[6.00628,35.2148,1129.7788],[6.00535,35.22627,1616.5117],[5.99806,35.22968,1521.6475],[5.98365,35.23139,1425.906],[5.96266,35.23129,1399.6401]]]}
,"properties": {"ISO3166-1-Alpha-3": "DZA","country": "Algeria","fill": "#FF0","name": "Biskra","area_km2": 20814.83,"hist_schema_id": "Elevation0-9000","hist_area_km2": {"-25": 1050.46,"0": 962.19,"25": 881.16,"50": 984.78,"75": 789.03,"100": 570.46,"125": 484.24,"150": 409.09,"175": 613.79,"200": 990.66,"225": 1082.42,"250": 1004.48,"275": 1088.54,"300": 1104.07,"325": 1093.97,"350": 1023.67,"375": 883.88,"400": 796.23,"425": 719.95,"450": 642.84,"475": 581.5,"500": 440.66,"525": 305.79,"550": 220.85,"575": 171.28,"600": 161.55,"625": 157.71,"650": 160.63,"675": 165.29,"700": 174.27,"725": 139.18,"750": 90.44,"775": 60.45,"800": 53.16,"825": 50.28,"850": 47.84,"875": 44.69,"900": 38.82,"925": 34.59,"950": 31.29,"975": 28.64,"1000": 26.87,"1025": 25.55,"1050": 24.4,"1075": 23.46,"1100": 23.2,"1125": 21.29,"1150": 22.45,"1175": 22.01,"1200": 22.74,"1225": 20.17,"1250": 19.5,"1275": 19.22,"1300": 18.32,"1325": 18.02,"1350": 17.64,"1375": 16.5,"1400": 16.53,"1425": 16.96,"1450": 16.44,"1475": 12.51,"1500": 9.61,"1525": 7.43,"1550": 6.96,"1575": 6.35,"1600": 6.3,"1625": 6.2,"1650": 6.51,"1675": 6.14,"1700": 5.87,"1725": 4.36,"1750": 3.3,"1775": 2.43,"1800": 1.93,"1825": 1.22,"1850": 0.71,"1875": 0.57,"1900": 0.3}}}