{"type":"Feature","properties":{"GID_1":"DZA.2_1","GID_0":"DZA","country":"Algeria","province":"AïnDefla","VARNAME_1":"AinDafla","NL_NAME_1":"ولايةعينالدفلى","TYPE_1":"Wilaya","ENGTYPE_1":"Province","CC_1":"44","HASC_1":"DZ.AD","ISO_1":"NA","name":"Aïn_Defla.province"},
"geometry":{"type": "MultiPolygon","coordinates": [[[[2.5209,36.228,341.6654],[2.5137,36.2297,339.0417],[2.504,36.2362,343.647],[2.4971,36.2344,335.8992],[2.4914,36.2359,343.324],[2.4924,36.2406,333.3863],[2.4958,36.2448,344.2122],[2.5052,36.2464,347.5842],[2.5171,36.2623,399.2302],[2.5231,36.2781,432.5103],[2.5212,36.2838,537.8217],[2.5265,36.2882,608.0703],[2.5273,36.2963,581.6012],[2.5212,36.3024,701.2352],[2.5206,36.3096,717.0499],[2.5503999999999998,36.3149,696.7652],[2.57,36.3125,675.9587],[2.5807,36.3082,739.66],[2.5862,36.3085,794.3925],[2.5999,36.317,713.9468],[2.6056,36.3239,804.7563],[2.6271,36.3361,384.4842],[2.6167,36.3414,387.5811],[2.6123,36.3455,365.4358],[2.5852,36.3424,307.0876],[2.5681,36.3497,323.9239],[2.5624,36.3537,299.0],[2.5647,36.3573,318.5667],[2.5567,36.3601,299.0],[2.5601,36.3647,305.2164],[2.5754,36.3762,252.7841],[2.5404,36.3843,492.6286],[2.535,36.3846,513.3374],[2.5255,36.3821,498.7837],[2.52,36.3848,390.361],[2.5106,36.3917,206.3401],[2.5067,36.4118,570.6879],[2.4979,36.4103,609.2172],[2.4856,36.4107,564.5918],[2.4694,36.4173,486.3588],[2.455,36.4188,392.6108],[2.4505,36.4212,274.3979],[2.4318,36.421,380.3008],[2.4261,36.4242,374.6512],[2.4149,36.4269,397.2274],[2.3984,36.4265,474.867],[2.3818,36.4219,615.7664],[2.3707,36.4263,822.2589],[2.3547,36.4235,827.3112],[2.3425,36.4184,823.4429],[2.3379,36.4214,774.6906],[2.3101,36.4229,929.0303],[2.2984,36.4214,964.9653],[2.288,36.4155,933.3929],[2.2771,36.4151,974.5975],[2.2669,36.4193,842.9529],[2.2551,36.4152,1033.033],[2.2534,36.4194,897.7283],[2.2555,36.4237,999.229],[2.2508,36.4274,1084.4833],[2.237,36.4333,1146.5232],[2.2292,36.4324,1115.566],[2.2263,36.4287,998.3549],[2.2213,36.4274,1124.16],[2.2159,36.4284,1058.4285],[2.2146,36.4335,1147.6594],[2.2032,36.4333,1178.9468],[2.1853,36.4357,1166.5522],[2.1753,36.441,1252.205],[2.1622,36.4397,1328.5135],[2.1551,36.4416,1379.0671],[2.1445,36.4386,1213.5356],[2.1387,36.4403,1173.5631],[2.1347,36.4451,1304.2428],[2.1291,36.447,1293.9913],[2.1243,36.4467,1276.1263],[2.1148,36.4422,1180.4282],[2.1083,36.4428,1119.4087],[2.0971,36.4333,1223.9619],[2.0886,36.4293,1275.5327],[2.0848,36.4241,1108.6599],[2.0786,36.423,1038.6],[2.0734,36.4242,983.0132],[2.0686,36.4196,1012.784],[2.0571,36.4173,961.9839],[2.0476,36.4202,1063.5258],[2.038,36.4255,985.8589],[2.0326,36.4251,1026.5065],[2.028,36.4188,935.8489],[2.0209,36.4158,910.1207],[2.0096,36.4171,936.3984],[1.9998,36.4134,978.7772],[1.9785,36.4109,942.8212],[1.9747,36.4138,989.8048],[1.9566,36.4189,943.3692],[1.9512,36.4286,1018.058],[1.9199,36.4297,968.0385],[1.9075,36.4323,995.1478],[1.8934,36.4302,964.9203],[1.8592,36.4333,915.8257],[1.8484,36.4317,990.6067],[1.8222,36.4313,821.6255],[1.8189,36.4284,775.2983],[1.814,36.4276,740.0532],[1.8116,36.4338,757.558],[1.801,36.4366,670.1715],[1.7972,36.4399,609.6949],[1.7913,36.4389,604.0824],[1.7869,36.4355,552.4761],[1.7815,36.4341,497.7942],[1.7798,36.4288,575.8829],[1.7837,36.4184,843.1109],[1.7811,36.3987,674.5977],[1.7757,36.3961,680.2308],[1.7646,36.3953,553.6624],[1.7582,36.3924,442.513],[1.7552,36.3886,451.0092],[1.7419,36.3838,420.2458],[1.7384,36.381,446.2844],[1.7359,36.3757,518.8987],[1.7151,36.363,731.4287],[1.7125,36.3584,695.7002],[1.7084,36.3571,726.9158],[1.7043,36.3588,615.4935],[1.7048,36.365,508.7808],[1.7029,36.37,408.8735],[1.6953,36.3819,285.4355],[1.698,36.3991,290.7578],[1.6916,36.4016,346.7955],[1.6869,36.4074,405.1311],[1.686,36.4187,522.6735],[1.6823,36.4232,653.5926],[1.6751,36.4237,762.8202],[1.6699,36.4288,707.3497],[1.6695,36.4408,363.5346],[1.6579,36.4422,365.4564],[1.6548,36.448,118.6933],[1.6494,36.451,133.0822],[1.6451,36.4558,89.0985],[1.6405,36.4557,73.9077],[1.6392,36.4503,99.5935],[1.6346,36.4475,81.1756],[1.6282,36.4485,86.5506],[1.6234,36.4345,110.1936],[1.614,36.4226,108.2367],[1.6101,36.4246,112.6576],[1.6033,36.4245,111.7669],[1.5914,36.4167,121.8104],[1.5835,36.4179,127.1803],[1.5762,36.4098,174.2423],[1.5546,36.4025,167.9494],[1.5522,36.3981,198.6348],[1.5476,36.3998,210.103],[1.5437,36.395,197.6926],[1.5377,36.3913,185.2604],[1.5345,36.3851,203.9988],[1.5294,36.3812,198.2308],[1.5292,36.3692,226.9408],[1.5322,36.3634,267.5009],[1.5321,36.3572,315.3973],[1.535,36.352,290.4197],[1.5324,36.3473,333.6329],[1.5376,36.3465,313.0673],[1.5403,36.3335,346.7919],[1.5498,36.3225,360.5822],[1.5579,36.3165,399.026],[1.5671,36.2997,362.461],[1.5767,36.2977,306.2723],[1.581,36.2948,288.6913],[1.5912,36.2957,268.5686],[1.5904,36.291,322.0381],[1.6006,36.2874,313.3631],[1.597,36.2847,255.9073],[1.5931,36.2744,330.0626],[1.5827,36.2675,413.0971],[1.5813,36.2576,293.3023],[1.5788,36.2537,203.9905],[1.5553,36.2492,348.6279],[1.5462,36.2412,203.6878],[1.5488,36.2378,153.4162],[1.5566,36.2361,178.6007],[1.5629,36.2323,144.2426],[1.5677,36.2352,144.6578],[1.5704,36.2397,144.3429],[1.5767,36.2419,144.7844],[1.5849,36.2353,144.9217],[1.5897,36.2384,145.1983],[1.5944,36.2361,145.7203],[1.6007,36.2359,145.6104],[1.6032,36.231,145.8145],[1.6079,36.2295,145.7395],[1.6062,36.2354,145.9772],[1.6068,36.2401,146.2366],[1.6166,36.2376,147.0517],[1.6225,36.2357,147.2795],[1.6203,36.2206,147.0102],[1.6253,36.2186,154.2973],[1.6313,36.2189,150.2171],[1.6339,36.2149,249.3857],[1.633,36.2102,423.8353],[1.6264,36.2029,506.5243],[1.6137,36.1991,439.2675],[1.5994,36.1868,252.7453],[1.5833,36.1891,182.6841],[1.5696,36.1842,192.9859],[1.569,36.1786,219.3112],[1.5734,36.1749,274.9211],[1.5783,36.174,343.3088],[1.58,36.17,296.1625],[1.585,36.1667,287.2962],[1.5827,36.1596,273.567],[1.5744,36.1608,244.7834],[1.5673,36.1589,237.0991],[1.5703,36.1532,241.4544],[1.5768,36.1517,255.4741],[1.5719,36.1467,247.7001],[1.5857,36.1348,257.5266],[1.5874,36.1306,292.5282],[1.5847,36.1252,261.2564],[1.5943,36.1248,308.1095],[1.6025,36.1189,313.5305],[1.6153,36.1244,361.317],[1.6242,36.1208,456.9312],[1.6329,36.1247,473.5799],[1.6393,36.1248,481.2346],[1.6356,36.1133,390.0069],[1.6303,36.1043,367.7937],[1.6302,36.0992,322.7422],[1.627,36.0954,297.4578],[1.6288,36.0833,420.3921],[1.6512,36.0576,654.0045],[1.6552,36.0431,663.8203],[1.663,36.0366,592.8218],[1.6682,36.0359,659.7925],[1.6711,36.0324,666.9892],[1.6613,36.0214,552.7888],[1.6763,36.023,541.2202],[1.6823,36.0197,692.4308],[1.687,36.0141,749.8973],[1.7021,36.0055,804.5881],[1.7099,35.9885,700.4816],[1.716,35.9894,717.2169],[1.7213,35.9839,847.2476],[1.7214,35.9794,988.1947],[1.7065,35.9639,936.4793],[1.7153,35.9483,987.2227],[1.7054,35.9397,912.1718],[1.7032,35.9354,811.0051],[1.7074,35.9299,722.8309],[1.7074,35.9174,523.6182],[1.717,35.925,552.4208],[1.7216,35.9262,718.2075],[1.7318,35.923,655.795],[1.7347,35.9194,658.6778],[1.7389,35.9177,600.9028],[1.765,35.9134,1066.1326],[1.7739,35.9144,983.9302],[1.7906,35.9131,944.2211],[1.7978,35.9057,910.8361],[1.8091,35.9073,891.4479],[1.823,35.8959,1003.8231],[1.8192,35.8813,946.7969],[1.8231,35.8745,870.1005],[1.8282,35.8705,756.8277],[1.8293,35.8646,722.0432],[1.8344,35.8643,746.2552],[1.8389,35.8606,911.9215],[1.8563,35.8638,923.7344],[1.8598,35.8691,815.3284],[1.8672,35.8639,875.7446],[1.8727,35.8653,869.3094],[1.8757,35.8864,1064.7834],[1.8797,35.8905,1082.4226],[1.8802,35.8961,1014.9855],[1.8979,35.9003,811.787],[1.9025,35.9037,830.4525],[1.9104,35.9174,715.3276],[1.9149,35.9208,696.4277],[1.9254,35.9246,677.348],[1.9399,35.9401,656.8561],[1.9488,35.9468,624.0301],[1.9709,35.952,813.9353],[1.978,35.9551,843.5214],[1.9863,35.9634,911.6575],[1.9859,35.9699,823.1531],[1.9919,35.9747,757.3132],[1.995,35.9691,915.5519],[1.9891,35.9564,1105.0696],[1.994,35.9409,1291.5071],[2.0023,35.9408,1341.7783],[2.0146,35.934,1346.2244],[2.0256,35.9341,1156.422],[2.0354,35.9383,1074.2883],[2.0376,35.9421,1008.9327],[2.0437,35.9458,976.9396],[2.0503,35.9475,969.8365],[2.0612,35.9458,925.2222],[2.0662,35.948,928.5432],[2.0751,35.9579,878.6299],[2.0927,35.9581,836.1705],[2.1101,35.954,838.0184],[2.115,35.9559,856.9207],[2.1154,35.961,924.5546],[2.1204,35.9643,912.8317],[2.1297,35.9605,917.368],[2.1267,35.9559,882.2164],[2.1286,35.9508,807.655],[2.1337,35.9485,801.4637],[2.1358,35.94,939.9839],[2.1405,35.9306,1074.1987],[2.1632,35.9295,867.1302],[2.1687,35.931,844.9988],[2.1946,35.9266,758.5325],[2.2002,35.9237,825.4741],[2.2048,35.9184,801.8173],[2.214,35.9143,881.1413],[2.2149,35.907,800.6641],[2.2185,35.9033,861.7102],[2.2266,35.8996,924.1432],[2.2375,35.8849,898.4346],[2.242,35.8831,1050.7512],[2.2472,35.8849,1151.9393],[2.2552,35.8848,1145.9573],[2.2605,35.8816,1203.8512],[2.2711,35.8855,1377.6249],[2.2919,35.8722,1373.5125],[2.3015,35.8783,1588.3855],[2.3078,35.8795,1694.9517],[2.3134,35.8775,1772.4419],[2.3177,35.8809,1766.0472],[2.3193,35.8933,1674.7079],[2.3489,35.9015,1365.2734],[2.3535,35.9051,1330.6947],[2.351,35.9096,1440.8011],[2.3527,35.9143,1315.0609],[2.3635,35.9205,1212.3857],[2.3617,35.9256,1168.2031],[2.3664,35.9371,1119.1532],[2.3538,35.9421,1133.968],[2.3477,35.9473,1133.7572],[2.3491,35.953,1223.3167],[2.3558,35.9544,1264.5298],[2.3727,35.9492,1363.8212],[2.3777,35.9528,1481.0587],[2.385,35.9534,1479.2971],[2.3905,35.9515,1440.7653],[2.3951,35.943,1240.7239],[2.4043,35.9456,1301.7223],[2.4294,35.9453,1112.121],[2.4394,35.9487,1005.3645],[2.4431,35.9519,976.0331],[2.4447,35.9621,944.0955],[2.4474,35.9657,880.2366],[2.456,35.9711,834.8556],[2.4592,35.9763,837.9464],[2.4526,35.9857,781.4808],[2.4527,35.9916,821.2798],[2.4607,36.0097,988.9943],[2.4617,36.0161,1095.1794],[2.4542,36.0235,1267.2161],[2.461,36.0365,938.8038],[2.4611,36.0427,884.1335],[2.4599,36.0538,823.5574],[2.4545,36.0557,763.991],[2.4597,36.0582,836.9867],[2.4695,36.0571,812.9056],[2.4804,36.052,723.4907],[2.4977,36.049,666.7873],[2.5019,36.0502,662.9994],[2.516,36.0668,636.3063],[2.5222,36.0644,616.7342],[2.5282,36.0665,581.2905],[2.5288,36.0717,569.5017],[2.5345,36.0804,550.9053],[2.5677,36.096,473.6582],[2.5731,36.0936,486.9078],[2.5874,36.0929,567.8208],[2.587,36.0992,524.8424],[2.5919,36.1099,425.3943],[2.5901,36.1152,427.5894],[2.5902,36.1203,425.1954],[2.593,36.125,423.8591],[2.5969,36.1271,423.0],[2.6024,36.1277,429.5533],[2.6017,36.1333,463.3624],[2.5962,36.1386,448.3971],[2.5894,36.1382,465.2108],[2.5911,36.145,435.1401],[2.5802,36.15,466.8639],[2.5812,36.1562,445.7609],[2.5849,36.1585,423.0],[2.5648,36.1664,445.7812],[2.5518,36.1744,411.782],[2.5489,36.1792,372.9188],[2.5464,36.1752,373.3358],[2.5269,36.1762,394.7689],[2.5219,36.187,364.8794],[2.52,36.201,354.4443],[2.5142,36.2008,354.123],[2.51,36.2054,349.5225],[2.508,36.2106,348.4659],[2.508,36.2184,346.235],[2.5124,36.2205,345.9133],[2.5144,36.2252,343.6422],[2.5209,36.228,341.6654]]],
[[[2.5849,36.1585,423.0],[2.5924,36.156,484.5511],[2.5906,36.1611,451.995],[2.5849,36.1585,423.0]]]]}}