{"type": "Feature","id": "2199","bbox": [1.55317,35.8605,2.66111,36.44315],"geometry": {"type": "Polygon","coordinates": [[[1.71672,36.36667,673.8179],[1.70835,36.36768,490.9229],[1.6807,36.41357,438.1248],[1.64779,36.44315,294.6833],[1.63073,36.4247,185.1639],[1.55952,36.38098,633.0935],[1.55317,36.36768,575.5039],[1.55472,36.35132,511.4776],[1.5696,36.31985,452.5387],[1.58278,36.30114,326.602],[1.60329,36.27908,265.0575],[1.60515,36.26936,222.1279],[1.59477,36.24316,147.3963],[1.59492,36.23438,145.5376],[1.60407,36.23004,146.1541],[1.61383,36.22825,146.0938],[1.62438,36.22185,148.1117],[1.62872,36.21149,400.8003],[1.62872,36.18841,317.5968],[1.62159,36.178,256.0204],[1.61151,36.17216,262.5508],[1.59864,36.16865,324.1605],[1.58851,36.16412,303.8226],[1.58495,36.15485,277.7013],[1.58851,36.1433,258.4659],[1.60469,36.12327,340.7719],[1.61849,36.11345,389.8387],[1.64143,36.10333,328.1079],[1.64675,36.09728,397.4109],[1.6483,36.07175,641.3723],[1.65466,36.05454,599.8652],[1.68706,36.00163,846.3445],[1.71052,35.98266,857.0917],[1.71719,35.97321,925.1078],[1.7192,35.96478,756.5082],[1.7144,35.95538,873.7668],[1.70975,35.9422,943.0334],[1.71269,35.92341,574.5053],[1.80468,35.90106,882.3894],[1.83465,35.87517,880.4439],[1.8424,35.86523,812.2922],[1.85356,35.8605,950.8779],[1.86581,35.86585,878.6273],[1.884,35.88463,1078.2748],[1.89873,35.88765,941.7305],[1.94715,35.8774,1260.7415],[1.96451,35.87983,1157.4722],[1.97164,35.8875,1005.6987],[1.97614,35.90184,872.9863],[1.9872,35.91192,1180.9839],[2.00875,35.91791,1144.2368],[2.04569,35.91282,1195.4873],[2.09892,35.91125,1279.1716],[2.14559,35.91827,958.2691],[2.17168,35.9176,827.123],[2.19633,35.91156,885.3375],[2.24367,35.88773,1080.4656],[2.31178,35.86696,1489.9253],[2.35477,35.91466,1309.5167],[2.4187,35.9638,1028.8959],[2.43172,35.97811,901.9073],[2.43983,35.9915,764.6086],[2.44712,36.01537,1125.9291],[2.45223,36.02819,1120.1235],[2.45936,36.037,916.5478],[2.46758,36.04442,871.3278],[2.57155,36.09909,524.2164],[2.58101,36.11221,488.67],[2.59403,36.13836,443.2429],[2.60649,36.15686,536.3988],[2.63904,36.18156,744.3],[2.64369,36.19154,659.0442],[2.6423,36.19893,693.2064],[2.63641,36.20265,709.7594],[2.6285,36.20435,775.7501],[2.59434,36.20443,687.5236],[2.57745,36.2118,564.4152],[2.57062,36.21154,615.4178],[2.56334,36.20818,543.2299],[2.54174,36.19231,412.9995],[2.53554,36.18999,406.9925],[2.53166,36.18957,384.9351],[2.52933,36.19058,365.3533],[2.52639,36.19278,361.0902],[2.51879,36.20102,353.6482],[2.51399,36.20962,358.6002],[2.50794,36.21763,346.235],[2.49166,36.22934,361.2119],[2.48898,36.23417,334.3824],[2.48649,36.24197,404.276],[2.48758,36.25794,351.5838],[2.49135,36.26699,414.9166],[2.49771,36.27355,424.0997],[2.51058,36.28404,560.8367],[2.52034,36.29474,580.1173],[2.52685,36.30001,640.6277],[2.53554,36.30337,574.8806],[2.59667,36.3045,566.4714],[2.61408,36.30967,442.927],[2.63098,36.31856,382.0348],[2.64788,36.33251,529.6901],[2.65641,36.34354,805.7875],[2.66018,36.35073,849.0165],[2.66111,36.3631,792.0244],[2.65269,36.39209,415.9025],[2.64788,36.39612,349.4437],[2.64338,36.39726,364.7909],[2.61842,36.38631,296.1995],[2.58985,36.38197,304.6407],[2.54034,36.36631,401.6362],[2.52251,36.36398,428.7849],[2.51399,36.3707,544.2128],[2.51135,36.38341,325.7524],[2.50825,36.38708,227.238],[2.49848,36.39165,287.8771],[2.49259,36.39607,382.9604],[2.48758,36.40129,512.6946],[2.47626,36.42062,570.2223],[2.28542,36.41421,993.0675],[2.14326,36.43832,1213.5356],[2.11954,36.43798,1171.1816],[2.05205,36.41902,896.027],[2.01541,36.41338,926.7808],[2.00379,36.41018,983.4914],[1.97753,36.41152,942.8212],[1.94684,36.42015,882.7074],[1.80917,36.43238,739.0283],[1.79305,36.43199,634.2115],[1.78266,36.42512,774.0897],[1.77522,36.4015,748.0153],[1.76948,36.39228,639.5193],[1.76013,36.38476,539.4122],[1.74943,36.37892,596.8644],[1.7268,36.36915,634.0977],[1.71672,36.36667,673.8179]]]}
,"properties": {"ISO3166-1-Alpha-3": "DZA","country": "Algeria","fill": "#F0F","name": "Aïn Defla","area_km2": 4624.907,"hist_schema_id": "Elevation0-9000","hist_area_km2": {"125": 0.478,"150": 32.252,"175": 60.819,"200": 63.242,"225": 87.948,"250": 177.652,"275": 224.305,"300": 205.45,"325": 182.379,"350": 173.058,"375": 179.424,"400": 178.24,"425": 183.767,"450": 176.524,"475": 171.462,"500": 165.786,"525": 164.995,"550": 153.172,"575": 147.106,"600": 151.953,"625": 143.029,"650": 136.734,"675": 130.687,"700": 123.399,"725": 116.917,"750": 108.137,"775": 94.757,"800": 85.509,"825": 78.491,"850": 75.431,"875": 69.947,"900": 63.816,"925": 58.403,"950": 53.698,"975": 47.774,"1000": 42.813,"1025": 35.141,"1050": 29.313,"1075": 24.808,"1100": 22.649,"1125": 20.098,"1150": 20.341,"1175": 16.619,"1200": 14.698,"1225": 13.429,"1250": 13.43,"1275": 13.138,"1300": 12.399,"1325": 11.47,"1350": 9.569,"1375": 9.107,"1400": 7.339,"1425": 7.048,"1450": 5.797,"1475": 5.078,"1500": 4.186,"1525": 3.587,"1550": 3.382,"1575": 2.696,"1600": 2.885,"1625": 2.336,"1650": 1.7,"1675": 1.013,"1700": 0.653,"1725": 0.618,"1750": 0.412,"1775": 0.258,"1800": 0.12}}}