{"type":"Feature","properties":{"GID_2":"DZA.7.21_1","GID_0":"DZA","country":"Algeria","GID_1":"DZA.7_1","province":"Béchar","NL_NAME_1":"ولايةبشار","county":"Timoudi","VARNAME_2":"Timmoudi","NL_NAME_2":"NA","TYPE_2":"Commune","ENGTYPE_2":"Commune","CC_2":"805","HASC_2":"DZ.BC.TI","name":"Timoudi.county"},
"geometry":{"type": "MultiPolygon","coordinates": [[[[0.0052,30.3224,496.9636],[-0.0478,30.3323,505.4954],[-0.1153,30.3414,532.3469],[-0.2972,30.2825,511.965],[-0.4647,30.1374,537.1603],[-0.5736,30.0086,507.4497],[-0.5824,30.0003,484.7646],[-0.8189,29.7165,445.8176],[-0.9179,29.6423,445.3881],[-0.9871,29.5815,433.4456],[-1.0119,29.5631,429.0975],[-1.1024,29.483,416.3915],[-1.139,29.4685,416.6671],[-1.1759,29.4512,419.3144],[-1.2997,29.3712,392.0682],[-1.6271,29.2679,536.619],[-1.8966,29.2551,439.6759],[-2.0003,29.2108,447.0665],[-2.2319,29.1175,474.718],[-2.4905,29.0342,526.7856],[-2.4225,29.006,601.1112],[-2.402,28.9945,566.8737],[-2.2311,28.923,579.3884],[-2.0454,28.8157,452.6748],[-2.0039,28.7946,412.9942],[-1.9996,28.7979,453.2407],[-1.9952,28.7985,417.9812],[-2.0004,28.8336,426.2688],[-2.0003,28.8411,427.3775],[-1.9969,28.8516,423.9837],[-1.9839,28.8654,422.4776],[-1.9768,28.8817,417.3858],[-1.9606,28.8948,423.1143],[-1.9626,28.8992,424.4227],[-1.9583,28.9034,425.1248],[-1.9565,28.9121,419.9032],[-1.9535,28.9175,418.0063],[-1.9339,28.9325,426.3698],[-1.9203,28.9493,421.1087],[-1.9171,28.9587,420.9013],[-1.9105,28.9623,418.1745],[-1.8801,28.9725,414.9485],[-1.6897,29.0488,393.572],[-1.5659,29.0949,380.486],[-1.0818,29.289,355.4475],[-1.06,29.3631,392.3304],[-1.0221,29.3996,400.9635],[-0.9809,29.4354,404.0593],[-0.9287,29.4842,410.572],[-0.6626,29.6594,427.8798],[-0.6536,29.6797,430.7503],[-0.6266,29.7574,456.6242],[-0.2529,29.9934,476.9147],[-0.1741,30.0449,459.6208],[0.0052,30.3224,496.9636]]]]}}