{"type": "Feature","bbox": [3.6726,36.7963,3.7974,36.8956],"geometry": {"type": "MultiPolygon","coordinates": [[[[3.7859,36.8138,136.1068],[3.7894,36.8258,109.2347],[3.7974,36.8351,100.7534],[3.7883,36.8517,73.8504],[3.7829,36.8575,63.2779],[3.7801,36.8647,78.6616],[3.7832,36.8718,70.9502],[3.784,36.8848,16.223],[3.7789,36.8942,8.9532],[3.7739,36.8956,0.7369],[3.7388,36.8876,2.8416],[3.7288,36.8839,0.523],[3.7199,36.8769,7.1764],[3.7191,36.869,0.0],[3.7085,36.8585,4.4916],[3.6966,36.8534,0.0],[3.6879,36.8459,0.5815],[3.6726,36.8383,1.077],[3.6844,36.8282,2.7808],[3.6927,36.8256,18.529],[3.6893,36.8188,5.3954],[3.6904,36.813,6.4372],[3.6953,36.8173,8.1086],[3.7007,36.8186,7.7618],[3.7062,36.816,8.7727],[3.7107,36.8101,10.6928],[3.7197,36.8085,24.9455],[3.7233,36.8054,20.3566],[3.7447,36.7983,98.6793],[3.7591,36.7963,212.9501],[3.7649,36.8001,300.0215],[3.7715,36.8083,318.2255],[3.7716,36.8154,304.3424],[3.778,36.8158,220.4147],[3.7859,36.8138,136.1068]]]]}
,"properties": {"GID_2": "DZA.13.14_1","GID_0": "DZA","country": "Algeria","GID_1": "DZA.13_1","province": "Boumerdès","NL_NAME_1": "ولايةبومرداس","county": "Djinet","VARNAME_2": "NA","NL_NAME_2": "NA","TYPE_2": "Commune-Cotiere","ENGTYPE_2": "Commune-Cotiere","CC_2": "3508","HASC_2": "DZ.BM.DJ","name": "Djinet.county","area_km2": 71.55226,"hist_schema_id": "Elevation0-9000","hist_area_km2": {"0": 6.26078,"25": 6.73632,"50": 7.5336,"75": 7.51649,"100": 6.63425,"125": 4.64918,"150": 4.15676,"175": 3.80053,"200": 4.2079,"225": 3.78383,"250": 3.6651,"275": 3.78387,"300": 2.95237,"325": 2.01917,"350": 1.91744,"375": 1.27278,"400": 0.61096,"425": 0.05091}}}