{"type":"Feature","properties":{"GID_2":"DZA.11.3_1","GID_0":"DZA","country":"Algeria","GID_1":"DZA.11_1","province":"BordjBouArréridj","NL_NAME_1":"ولايةبرجبوعريريج","county":"Belimour","VARNAME_2":"NA","NL_NAME_2":"NA","TYPE_2":"Commune","ENGTYPE_2":"Commune","CC_2":"3412","HASC_2":"DZ.BB.BE","name":"Belimour.county"},
"geometry":{"type": "MultiPolygon","coordinates": [[[[4.9149,36.0138,950.7445],[4.9056,36.0178,963.8251],[4.9012,36.014,948.7207],[4.8906,36.0144,931.3879],[4.867,36.0221,955.8836],[4.8582,36.0187,918.8907],[4.8518,36.0103,895.2371],[4.846,36.0093,887.3813],[4.8422,36.0057,881.0648],[4.8399,36.0001,880.6156],[4.8252,35.9959,860.2972],[4.8343,35.9817,889.8792],[4.8494,35.9721,931.3821],[4.8497,35.9668,1002.4816],[4.8465,35.9572,938.8621],[4.8494,35.9533,966.6124],[4.8542,35.9515,955.9324],[4.8766,35.9496,1060.4558],[4.9055,35.9504,1066.7185],[4.9114,35.947,1112.7379],[4.914,35.9428,1181.9969],[4.9245,35.941,1312.626],[4.9444,35.9412,1401.8934],[4.9558,35.944,1310.6399],[4.9508,35.9487,1302.6204],[4.9429,35.9701,1045.9878],[4.937,35.9712,1033.9005],[4.9347,35.987,980.6356],[4.9351,35.9917,948.2931],[4.9388,35.9947,943.035],[4.9375,36.0004,944.503],[4.9324,36.0015,951.2338],[4.922,35.9978,942.2766],[4.9169,35.9993,938.894],[4.9177,36.0098,962.2002],[4.9149,36.0138,950.7445]]]]}}