{"type":"Feature","properties":{"GID_2":"DZA.12.27_1","GID_0":"DZA","country":"Algeria","GID_1":"DZA.12_1","province":"Bouira","NL_NAME_1":"ولايةالبويرة","county":"Guerrouma","VARNAME_2":"NA","NL_NAME_2":"NA","TYPE_2":"Commune","ENGTYPE_2":"Commune","CC_2":"1003","HASC_2":"DZ.BU.GU","name":"Guerrouma.county"},
"geometry":{"type": "MultiPolygon","coordinates": [[[[3.4453,36.5229,273.777],[3.4325,36.5115,300.915],[3.4297,36.5054,319.011],[3.4218,36.4989,549.0897],[3.4178,36.4933,786.5318],[3.4114,36.4889,785.7557],[3.4081,36.4936,665.7977],[3.4075,36.4987,501.8598],[3.3905,36.4941,641.4215],[3.3859,36.4964,811.0046],[3.3761,36.4968,904.4415],[3.3735,36.5004,761.4559],[3.3692,36.4959,723.4724],[3.3635,36.493,586.1705],[3.3638,36.4825,884.9821],[3.3605,36.4707,1068.4624],[3.3638,36.4656,1035.989],[3.3678,36.4629,912.3591],[3.3612,36.4561,900.1013],[3.3714,36.4534,685.0774],[3.3787,36.4335,1035.0696],[3.3888,36.4334,1094.8685],[3.3945,36.4306,938.1069],[3.4009,36.4205,687.7251],[3.4062,36.417,580.4298],[3.4115,36.416,454.4792],[3.4159,36.4123,385.7304],[3.4184,36.4071,325.8364],[3.4244,36.4035,319.6336],[3.4307,36.4024,315.0352],[3.4339,36.4053,315.8809],[3.4333,36.4095,310.0153],[3.4287,36.4122,310.2876],[3.4348,36.4142,305.9061],[3.4466,36.4122,299.4212],[3.4518,36.4229,298.5],[3.4655,36.4339,303.8938],[3.4712,36.4352,298.5],[3.4793,36.4333,348.4],[3.4843,36.4375,298.5],[3.4833,36.4431,312.5535],[3.477,36.4457,298.5],[3.4792,36.4499,298.5],[3.468,36.4641,369.6546],[3.4713,36.4743,470.4137],[3.4715,36.48,498.8725],[3.4645,36.4846,608.3713],[3.4628,36.4905,848.0126],[3.4676,36.4938,797.8341],[3.4779,36.4954,939.2729],[3.4837,36.5009,823.5143],[3.4858,36.5063,837.4639],[3.5033,36.5164,320.2601],[3.4951,36.5354,217.2105],[3.483,36.5334,248.7741],[3.4507,36.522,286.1115],[3.4453,36.5229,273.777]]]]}}