{"type":"Feature","properties":{"GID_2":"DZA.26.13_1","GID_0":"DZA","country":"Algeria","GID_1":"DZA.26_1","province":"M'Sila","NL_NAME_1":"ولايةالمسيلة","county":"BoutiSayeh","VARNAME_2":"NA","NL_NAME_2":"NA","TYPE_2":"Commune","ENGTYPE_2":"Commune","CC_2":"2831","HASC_2":"DZ.MS.BT","name":"Bouti_Sayeh.county"},
"geometry":{"type": "MultiPolygon","coordinates": [[[[3.6782,35.5086,820.4583],[3.7954,35.6451,601.3057],[3.8379,35.6925,544.1401],[3.8331,35.7048,551.7737],[3.8135,35.7197,558.0818],[3.8055,35.7174,560.6111],[3.7927,35.7252,566.9448],[3.7765,35.7311,572.4937],[3.7699,35.7403,578.9046],[3.7652,35.743,579.7719],[3.7521,35.739,584.4265],[3.7258,35.7247,589.6313],[3.7093,35.7182,587.4164],[3.7107,35.7331,618.1301],[3.6709,35.732,603.6294],[3.6608,35.7349,620.7592],[3.6334,35.7287,616.5109],[3.6265,35.7302,639.8585],[3.6317,35.7408,607.3877],[3.6348,35.7535,616.998],[3.6242,35.754,611.7833],[3.6223,35.7589,619.5253],[3.6187,35.7624,617.5098],[3.6193,35.7675,619.7037],[3.6175,35.7746,623.1254],[3.6365,35.79,678.9457],[3.6278,35.806,676.0287],[3.6286,35.8253,647.2614],[3.6189,35.829,650.9196],[3.6114,35.8287,658.5409],[3.5921,35.8321,677.6608],[3.5821,35.8352,683.8645],[3.5785,35.8395,691.5987],[3.5663,35.8418,708.7538],[3.5529,35.832,693.7415],[3.5426,35.8205,698.5938],[3.5357,35.8158,695.1484],[3.5279,35.8138,696.0451],[3.5122,35.8152,698.644],[3.5063,35.814,708.8887],[3.5176,35.8087,689.1783],[3.5205,35.805,681.3147],[3.5145,35.7912,666.2515],[3.5132,35.7827,664.9647],[3.5283,35.7708,649.3459],[3.5392,35.769,646.4547],[3.5425,35.7655,643.209],[3.5361,35.7623,647.7139],[3.5328,35.7495,673.5551],[3.5364,35.7317,658.0033],[3.5439,35.6513,665.0669],[3.5128,35.6775,652.536],[3.4705,35.7376,710.5389],[3.4615,35.7474,697.8293],[3.467,35.7617,675.1053],[3.4574,35.7644,676.5134],[3.4534,35.768,683.9161],[3.4538,35.7748,681.7287],[3.4478,35.7891,692.0416],[3.4442,35.7927,696.2747],[3.4406,35.7953,699.1754],[3.4239,35.7984,707.9659],[3.4238,35.8037,710.7385],[3.4177,35.8136,713.7227],[3.4022,35.8136,740.0204],[3.3981,35.817,742.3763],[3.3759,35.8076,738.7479],[3.3874,35.7841,715.0717],[3.3921,35.7797,711.4922],[3.3708,35.759,708.4286],[3.3838,35.7125,727.3029],[3.3878,35.7079,716.9429],[3.4721,35.6381,664.9312],[3.4751,35.6336,665.0455],[3.4813,35.6288,666.705],[3.6782,35.5086,820.4583]]]]}}