{"type": "Feature","bbox": [-0.2513,35.0099,-0.0525,35.1684],"geometry": {"type": "MultiPolygon","coordinates": [[[[-0.0953,35.1684,349.5969],[-0.1111,35.1645,380.063],[-0.1194,35.132,434.7222],[-0.1266,35.1213,445.1633],[-0.1388,35.1217,432.584],[-0.1699,35.1188,434.8485],[-0.1736,35.1215,433.5963],[-0.1781,35.1197,437.5615],[-0.185,35.1204,437.9366],[-0.1987,35.1131,452.3215],[-0.2028,35.1076,483.4357],[-0.2094,35.1063,473.1082],[-0.2103,35.0977,511.7798],[-0.2241,35.0965,492.4041],[-0.2307,35.1009,471.511],[-0.2361,35.0993,472.8148],[-0.2384,35.0894,490.8904],[-0.2445,35.0791,506.0504],[-0.2513,35.0801,508.0935],[-0.2507,35.0668,528.2542],[-0.2413,35.0545,571.145],[-0.2424,35.0431,621.6985],[-0.2279,35.0369,658.1912],[-0.2191,35.0295,737.0675],[-0.2066,35.024,726.5965],[-0.1981,35.017,664.6041],[-0.1848,35.0211,643.65],[-0.1809,35.0188,659.5854],[-0.179,35.0145,725.1702],[-0.1716,35.0107,633.317],[-0.1626,35.0099,616.5314],[-0.1496,35.01,580.2868],[-0.1286,35.0135,549.0654],[-0.1148,35.0261,492.8969],[-0.1101,35.0272,493.0747],[-0.1096,35.0322,484.5376],[-0.0921,35.0324,508.9695],[-0.0811,35.029,525.8777],[-0.0702,35.0284,546.6122],[-0.0593,35.0354,600.1876],[-0.0532,35.0448,607.3281],[-0.0525,35.0497,578.4139],[-0.0636,35.0545,584.4274],[-0.0671,35.0597,588.9002],[-0.0703,35.0722,627.1777],[-0.0693,35.0936,736.3252],[-0.0776,35.0924,645.3059],[-0.0823,35.0976,626.1807],[-0.0803,35.1097,506.707],[-0.0835,35.1132,481.5789],[-0.0858,35.1195,453.3914],[-0.0845,35.1268,442.0654],[-0.0879,35.1415,439.3285],[-0.0862,35.1466,438.0906],[-0.0915,35.1594,411.8861],[-0.0957,35.163,374.4066],[-0.0953,35.1684,349.5969]]]]}
,"properties": {"GID_2": "DZA.36.6_1","GID_0": "DZA","country": "Algeria","GID_1": "DZA.36_1","province": "Saïda","NL_NAME_1": "ولايةسعيدة","county": "Hounet","VARNAME_2": "NA","NL_NAME_2": "NA","TYPE_2": "Commune","ENGTYPE_2": "Commune","CC_2": "2007","HASC_2": "DZ.SD.HO","name": "Hounet.county","area_km2": 175.7441,"hist_schema_id": "Elevation0-9000","hist_area_km2": {"325": 0.052,"350": 1.2308,"375": 2.4099,"400": 4.4737,"425": 8.5147,"450": 15.6452,"475": 16.8802,"500": 19.2605,"525": 18.6724,"550": 16.47,"575": 18.1541,"600": 15.1347,"625": 11.3516,"650": 8.6443,"675": 6.2313,"700": 5.0507,"725": 3.6102,"750": 2.0135,"775": 1.1283,"800": 0.5555,"825": 0.2604}}}