{"type":"Feature","properties":{"GID_2":"DZA.1.7_1","GID_0":"DZA","country":"Algeria","GID_1":"DZA.1_1","province":"Adrar","NL_NAME_1":"ولايةأدرا","county":"Charouine","VARNAME_2":"Gharouine","NL_NAME_2":"NA","TYPE_2":"Commune","ENGTYPE_2":"Commune","CC_2":"103","HASC_2":"DZ.AR.CH","name":"Charouine.county"},
"geometry":{"type": "MultiPolygon","coordinates": [[[[-0.3198,29.6178,420.0626],[-0.3367,29.2125,314.4743],[-0.5047,29.06,326.9197],[-0.5645,28.9092,402.2945],[-0.6606,28.8365,289.4041],[-0.265,28.5601,271.2152],[-0.1627,28.9635,248.3556],[-0.1058,29.1082,258.8118],[-0.0898,29.3362,346.0261],[-0.1764,29.4687,372.2589],[-0.2482,29.526,381.6711],[-0.3198,29.6178,420.0626]]]]}}