{"type": "Feature","bbox": [0.7153,35.744,0.854,35.8805],"geometry": {"type": "MultiPolygon","coordinates": [[[[0.8415,35.8712,214.6533],[0.8367,35.8729,199.3607],[0.8299,35.8805,161.9165],[0.8253,35.8774,191.8501],[0.8201,35.8771,190.2407],[0.8148,35.8798,176.1653],[0.8011,35.8789,154.2325],[0.802,35.8741,148.8485],[0.8054,35.8693,163.024],[0.8166,35.8586,205.9724],[0.8108,35.8547,217.4147],[0.8007,35.8512,215.465],[0.7788,35.8501,167.407],[0.7546,35.8453,143.2708],[0.7469,35.8356,165.0987],[0.7473,35.8304,162.9935],[0.7428,35.8272,153.7268],[0.7328,35.8142,152.5405],[0.7153,35.8076,129.9311],[0.7171,35.8028,132.8919],[0.7217,35.7998,158.1331],[0.7279,35.799,158.3322],[0.7267,35.7919,182.9323],[0.7399,35.782,324.1913],[0.7361,35.7688,153.6133],[0.7492,35.7648,168.4376],[0.7584,35.7669,182.1679],[0.7685,35.766,206.416],[0.7769,35.758,225.7218],[0.7923,35.7489,247.8114],[0.7946,35.744,264.0169],[0.8122,35.7443,298.7782],[0.8172,35.7459,293.529],[0.8209,35.7511,285.4351],[0.8268,35.7527,307.1698],[0.8324,35.7508,340.2232],[0.833,35.7559,304.9539],[0.8279,35.7641,294.2192],[0.8318,35.7707,293.963],[0.8278,35.7747,286.2798],[0.835,35.7809,327.9111],[0.8244,35.7919,272.241],[0.8346,35.8,300.0672],[0.8397,35.8165,332.6488],[0.8378,35.823,409.9384],[0.8474,35.8251,441.1948],[0.8449,35.8347,348.3458],[0.852,35.836,351.3177],[0.854,35.8418,359.2012],[0.8448,35.8481,282.4242],[0.8449,35.853,274.9305],[0.8489,35.8639,277.6222],[0.8466,35.8703,249.6824],[0.8415,35.8712,214.6533]]]]}
,"properties": {"GID_2": "DZA.35.6_1","GID_0": "DZA","country": "Algeria","GID_1": "DZA.35_1","province": "Relizane","NL_NAME_1": "ولايةغليزان","county": "BeniDergoun","VARNAME_2": "NA","NL_NAME_2": "NA","TYPE_2": "Commune","ENGTYPE_2": "Commune","CC_2": "4813","HASC_2": "DZ.RE.BD","name": "Beni_Dergoun.county","area_km2": 104.79975,"hist_schema_id": "Elevation0-9000","hist_area_km2": {"125": 0.27509,"150": 4.79618,"175": 11.1227,"200": 13.04821,"225": 14.37424,"250": 16.20018,"275": 16.71605,"300": 13.48078,"325": 8.02958,"350": 4.72807,"375": 1.08313,"400": 0.49855,"425": 0.3954,"450": 0.05157}}}