{"type": "Feature","bbox": [6.0911,35.6337,6.3074,35.8019],"geometry": {"type": "MultiPolygon","coordinates": [[[[6.144,35.6337,1660.7883],[6.1617,35.6363,1495.1742],[6.1678,35.6398,1466.0159],[6.1831,35.6421,1510.2616],[6.2047,35.6487,1395.8313],[6.2105,35.6472,1472.4324],[6.2169,35.6486,1413.5778],[6.2356,35.6567,1420.9841],[6.2325,35.6784,945.9938],[6.2206,35.6944,853.0914],[6.2242,35.7044,838.2004],[6.2295,35.7097,831.4604],[6.2306,35.7056,832.3906],[6.2354,35.7055,828.3942],[6.2475,35.7103,820.3452],[6.2601,35.7103,835.6408],[6.2768,35.7161,833.585],[6.2795,35.7111,880.1088],[6.2954,35.7162,902.1113],[6.3007,35.7205,831.2479],[6.2982,35.7279,817.9883],[6.3074,35.7368,813.8976],[6.2957,35.7364,812.337],[6.2508,35.7661,813.4891],[6.2374,35.7684,812.7445],[6.2313,35.7723,813.0613],[6.2268,35.7719,813.7224],[6.2223,35.7739,811.4132],[6.223,35.7901,812.5016],[6.2173,35.7924,810.6866],[6.2135,35.7963,809.3493],[6.2077,35.7974,809.1381],[6.2024,35.794,809.3634],[6.1974,35.7946,809.1454],[6.1889,35.7916,809.4094],[6.1819,35.7926,809.0593],[6.1689,35.8019,809.8324],[6.157,35.7719,826.7817],[6.1566,35.7667,858.3962],[6.1589,35.7629,835.433],[6.1587,35.7519,838.4982],[6.1499,35.7451,850.4542],[6.1386,35.7412,878.156],[6.1391,35.7353,1032.3119],[6.1452,35.7323,1109.3547],[6.1459,35.7268,1085.8838],[6.1424,35.7121,1338.8612],[6.1297,35.7053,1290.876],[6.1248,35.7043,1317.1669],[6.1043,35.706,1075.9902],[6.1084,35.6924,1148.0721],[6.108,35.6877,1157.675],[6.1024,35.6795,1250.8801],[6.0963,35.6775,1296.6387],[6.0911,35.6722,1474.8149],[6.0977,35.6683,1479.8986],[6.1086,35.6672,1241.3264],[6.1114,35.663,1289.5765],[6.1137,35.6526,1445.8026],[6.1208,35.6433,1519.8429],[6.1308,35.6416,1421.2561],[6.1354,35.6429,1368.9973],[6.141,35.6405,1320.4921],[6.144,35.6337,1660.7883]]]]}
,"properties": {"GID_2": "DZA.6.51_1","GID_0": "DZA","country": "Algeria","GID_1": "DZA.6_1","province": "Batna","NL_NAME_1": "ولايةباتنة","county": "Seriana","VARNAME_2": "NA","NL_NAME_2": "NA","TYPE_2": "Commune","ENGTYPE_2": "Commune","CC_2": "505","HASC_2": "DZ.BT.SR","name": "Seriana.county","area_km2": 176.1627,"hist_schema_id": "Elevation0-9000","hist_area_km2": {"800": 40.7068,"825": 37.3975,"850": 9.416,"875": 7.0244,"900": 5.3893,"925": 4.7526,"950": 4.0296,"975": 2.9963,"1000": 3.0136,"1025": 3.1859,"1050": 3.2722,"1075": 3.4788,"1100": 3.5995,"1125": 3.0139,"1150": 3.1345,"1175": 3.0657,"1200": 3.9095,"1225": 4.6157,"1250": 4.788,"1275": 5.0979,"1300": 4.0992,"1325": 3.066,"1350": 2.7904,"1375": 2.4288,"1400": 1.9465,"1425": 1.5505,"1450": 1.1371,"1475": 1.1027,"1500": 1.1027,"1525": 0.5514,"1550": 0.1551,"1575": 0.1034,"1600": 0.1206,"1625": 0.0689,"1650": 0.0172,"1675": 0.0345}}}