{"type": "Feature","bbox": [4.2546,36.4612,4.2974,36.5522],"geometry": {"type": "MultiPolygon","coordinates": [[[[4.2906,36.4614,1810.9745],[4.2884,36.4657,1538.5327],[4.2821,36.469,1253.5381],[4.2849,36.4913,780.1151],[4.2833,36.4978,758.3114],[4.2873,36.5047,667.5867],[4.2841,36.5104,623.6382],[4.2853,36.5164,620.4352],[4.2925,36.5227,547.5063],[4.2974,36.5317,515.3446],[4.2948,36.5355,523.8021],[4.289,36.5366,492.2898],[4.283,36.5421,461.9955],[4.2695,36.5444,439.7397],[4.2642,36.5493,443.3068],[4.2546,36.5522,392.5607],[4.263,36.5336,518.6545],[4.2614,36.5274,597.2108],[4.2689,36.5175,651.1401],[4.2708,36.513,642.6465],[4.2705,36.5069,773.8417],[4.2774,36.5004,771.4869],[4.2802,36.4891,973.5027],[4.273,36.4787,962.9738],[4.2602,36.4761,1106.6079],[4.2582,36.466,1568.4746],[4.2619,36.4612,1782.4146],[4.2906,36.4614,1810.9745]]]]}
,"properties": {"GID_2": "DZA.47.66_1","GID_0": "DZA","country": "Algeria","GID_1": "DZA.47_1","province": "TiziOuzou","NL_NAME_1": "ولايةغليزان","county": "Yatafene","VARNAME_2": "Yatafen","NL_NAME_2": "NA","TYPE_2": "Commune","ENGTYPE_2": "Commune","CC_2": "1545","HASC_2": "DZ.TO.YT","name": "Yatafene.county","area_km2": 16.01923,"hist_schema_id": "Elevation0-9000","hist_area_km2": {"400": 0.13626,"425": 0.23847,"450": 0.32365,"475": 0.32365,"500": 0.3918,"525": 0.54513,"550": 0.45998,"575": 0.66443,"600": 0.6304,"625": 0.76669,"650": 0.56224,"675": 0.71562,"700": 0.71563,"725": 0.71566,"750": 0.71563,"775": 0.63047,"800": 0.73273,"825": 0.63051,"850": 0.44306,"875": 0.3749,"900": 0.3238,"925": 0.15341,"950": 0.27274,"975": 0.27276,"1000": 0.25572,"1025": 0.18753,"1050": 0.11934,"1075": 0.18754,"1100": 0.13639,"1125": 0.18754,"1150": 0.17049,"1175": 0.11935,"1200": 0.11935,"1225": 0.11935,"1250": 0.08525,"1275": 0.11935,"1300": 0.01705,"1325": 0.2046,"1350": 0.0682,"1375": 0.15346,"1400": 0.08525,"1425": 0.18756,"1450": 0.0682,"1475": 0.11936,"1500": 0.18756,"1525": 0.0341,"1550": 0.11936,"1575": 0.13641,"1600": 0.08526,"1625": 0.15346,"1650": 0.05115,"1675": 0.08526,"1700": 0.10231,"1725": 0.08526,"1750": 0.08526,"1775": 0.10231,"1800": 0.08526,"1825": 0.08526,"1850": 0.08526,"1875": 0.05116,"1900": 0.0341}}}