{"type":"Feature","properties":{"GID_2":"DZA.9.31_1","GID_0":"DZA","country":"Algeria","GID_1":"DZA.9_1","province":"Biskra","NL_NAME_1":"ولايةبسكرة","county":"SidiOkba","VARNAME_2":"SīdīUkbah","NL_NAME_2":"NA","TYPE_2":"Commune","ENGTYPE_2":"Commune","CC_2":"711","HASC_2":"DZ.BS.SO","name":"Sidi_Okba.county"},
"geometry":{"type": "MultiPolygon","coordinates": [[[[6.0257,34.7825,64.6046],[6.0278,34.7893,70.545],[6.0269,34.8026,86.0435],[6.0146,34.8199,113.2295],[6.003,34.8232,168.68],[5.9933,34.8235,133.0674],[5.9858,34.8272,158.2917],[5.9656,34.832,114.045],[5.9582,34.8383,130.8796],[5.9527,34.8547,457.7519],[5.9333,34.8513,255.2858],[5.9151,34.8618,300.5634],[5.9094,34.8601,298.3346],[5.9051,34.8413,124.2146],[5.8848,34.8357,101.8661],[5.8796,34.8359,96.3173],[5.8744,34.8336,93.0416],[5.8674,34.8237,83.2286],[5.8465,34.809,69.2445],[5.8212,34.8052,63.0715],[5.7937,34.808,70.2458],[5.7829,34.7838,66.1472],[5.7968,34.7834,58.0199],[5.8033,34.7817,54.5234],[5.8059,34.7749,55.7416],[5.8156,34.763,51.1201],[5.8179,34.7578,49.7849],[5.8183,34.7458,45.4304],[5.8142,34.7294,40.0053],[5.8193,34.7277,38.3908],[5.8332,34.7275,35.15],[5.8917,34.699,22.3775],[5.9585,34.6935,15.6586],[5.9528,34.7106,25.6515],[5.962,34.7214,34.5461],[5.9736,34.7156,30.2832],[5.9923,34.7175,30.5885],[6.0139,34.7497,38.9583],[6.0136,34.7561,42.8415],[6.0174,34.7638,49.0421],[6.0162,34.77,52.4919],[6.0176,34.7743,56.7378],[6.0257,34.7825,64.6046]]]]}}