{"type": "Feature","bbox": [8.2151,34.9585,8.4022,35.217],"geometry": {"type": "MultiPolygon","coordinates": [[[[8.2347,35.2008,1110.0332],[8.2278,35.1611,1019.4404],[8.2262,35.1397,1004.3446],[8.2204,35.1209,981.3496],[8.2151,35.1124,970.7153],[8.2282,35.1035,964.3605],[8.2356,35.0937,960.5643],[8.2388,35.0879,961.7771],[8.2383,35.0836,957.411],[8.2424,35.0711,981.5374],[8.242,35.0656,956.5175],[8.2458,35.0614,940.3182],[8.2511,35.0482,932.101],[8.2524,35.0409,927.5582],[8.256,35.0346,922.7798],[8.2611,35.0297,918.1359],[8.2713,35.0251,913.6447],[8.2719,35.019,910.7094],[8.2791,35.0088,904.3817],[8.273,34.9968,896.777],[8.267,34.9945,893.9468],[8.259,34.9885,889.22],[8.2525,34.9747,889.0475],[8.2644,34.9673,916.0706],[8.2729,34.9647,929.975],[8.2985,34.9646,958.4413],[8.3104,34.9588,1010.3099],[8.3169,34.9585,1014.7184],[8.3202,34.9997,965.6678],[8.318,35.0096,904.0728],[8.3405,35.0588,974.9764],[8.345,35.0725,1011.6245],[8.3497,35.0775,1011.9706],[8.3612,35.1018,1062.3184],[8.3815,35.1131,1082.8073],[8.4022,35.1287,1088.0752],[8.3867,35.1394,1123.9602],[8.3287,35.1705,1210.564],[8.3167,35.1848,1270.9368],[8.2979,35.217,1281.845],[8.2791,35.2089,1225.7662],[8.2507,35.2082,1150.9519],[8.2347,35.2008,1110.0332]]]]}
,"properties": {"GID_2": "DZA.42.24_1","GID_0": "DZA","country": "Algeria","GID_1": "DZA.42_1","province": "Tébessa","NL_NAME_1": "ولايةتبسة","county": "OumAli","VARNAME_2": "NA","NL_NAME_2": "NA","TYPE_2": "Commune","ENGTYPE_2": "Commune","CC_2": "1221","HASC_2": "DZ.TB.OA","name": "Oum_Ali.county","area_km2": 243.6103,"hist_schema_id": "Elevation0-9000","hist_area_km2": {"875": 0.1737,"900": 11.4803,"925": 22.2629,"950": 18.6978,"975": 23.9806,"1000": 18.0251,"1025": 15.2286,"1050": 10.2493,"1075": 13.6646,"1100": 18.5706,"1125": 20.859,"1150": 20.9791,"1175": 22.0172,"1200": 16.0175,"1225": 6.2921,"1250": 2.7732,"1275": 1.0569,"1300": 0.7623,"1325": 0.4851,"1350": 0.0346}}}