{"type":"Feature","properties":{"GID_2":"DZA.28.4_1","GID_0":"DZA","country":"Algeria","GID_1":"DZA.28_1","province":"Médéa","NL_NAME_1":"ولايةالمدية","county":"Azziz","VARNAME_2":"Aziz","NL_NAME_2":"NA","TYPE_2":"Commune","ENGTYPE_2":"Commune","CC_2":"2632","HASC_2":"DZ.MD.AZ","name":"Azziz.county"},
"geometry":{"type": "MultiPolygon","coordinates": [[[[2.6432,35.8475,686.6743],[2.6376,35.8506,692.3523],[2.6309,35.8577,709.4529],[2.6249,35.8592,732.8394],[2.6108,35.8567,752.0421],[2.6097,35.868,779.0],[2.6037,35.8808,835.1927],[2.603,35.8864,843.8387],[2.5985,35.89,844.6935],[2.5825,35.9,999.0432],[2.5755,35.9025,1038.1548],[2.5626,35.9024,1130.4033],[2.5442,35.9099,1662.7632],[2.5509,35.9228,1420.8085],[2.5495,35.9289,1494.0275],[2.5387,35.9256,1362.0719],[2.5264,35.9256,1208.564],[2.4999,35.9214,1040.4678],[2.48,35.9123,986.7564],[2.4653,35.9159,990.7783],[2.4493,35.9123,994.6095],[2.4354,35.912,1004.3882],[2.4249,35.9033,1041.9563],[2.4232,35.8988,1105.0714],[2.4248,35.8936,1077.6237],[2.4132,35.8902,1118.4839],[2.4194,35.8785,1263.2183],[2.4205,35.8729,1350.9413],[2.4179,35.8688,1358.5928],[2.4224,35.8654,1326.7588],[2.428,35.8663,1234.1786],[2.4291,35.8567,1059.8796],[2.4241,35.8427,965.1472],[2.4267,35.8343,939.0208],[2.4213,35.8287,1010.9],[2.4183,35.8228,1032.3245],[2.4202,35.8183,971.252],[2.4192,35.8114,952.0923],[2.4119,35.8068,932.0285],[2.4149,35.802,911.152],[2.4032,35.7814,899.1321],[2.4036,35.7759,890.6342],[2.3852,35.772,874.8662],[2.3734,35.7653,877.1367],[2.375,35.7545,856.1496],[2.373,35.7492,869.5078],[2.3684,35.7485,861.6176],[2.3576,35.741,872.699],[2.3514,35.7364,861.6178],[2.3479,35.731,843.1165],[2.3601,35.718,820.2189],[2.3668,35.7154,814.579],[2.3788,35.7033,804.613],[2.4158,35.6976,780.9603],[2.4253,35.6909,774.7658],[2.4313,35.6895,783.1719],[2.4402,35.6834,760.2689],[2.4456,35.6743,749.8861],[2.4474,35.6668,745.0177],[2.4457,35.6601,739.2303],[2.4468,35.654,736.9722],[2.4556,35.6469,728.3578],[2.4588,35.6359,722.5767],[2.4588,35.6242,714.8209],[2.4645,35.6197,713.4171],[2.467,35.6091,702.8801],[2.4714,35.6048,705.2637],[2.4772,35.5943,697.5637],[2.4878,35.5884,686.2197],[2.4912,35.5841,683.0009],[2.4967,35.5812,680.3583],[2.5045,35.5925,685.6177],[2.5135,35.6159,721.8356],[2.5193,35.6234,711.2574],[2.5346,35.6325,735.2625],[2.55,35.6467,718.9432],[2.5611,35.6539,709.7062],[2.5687,35.6622,704.7593],[2.5568,35.6718,717.4072],[2.5292,35.6793,741.2488],[2.5138,35.6817,757.0363],[2.5046,35.6912,777.328],[2.5056,35.6972,790.5024],[2.5023,35.7031,827.0853],[2.5096,35.705,873.7551],[2.5367,35.7057,780.6814],[2.5442,35.7084,776.3251],[2.555,35.706,753.947],[2.561,35.7071,745.9099],[2.5666,35.7097,743.0966],[2.5854,35.7126,732.2631],[2.5999,35.7229,721.5529],[2.6072,35.7247,719.4249],[2.6137,35.7246,721.5615],[2.6303,35.7173,710.3408],[2.6369,35.7233,708.828],[2.6437,35.7533,692.2384],[2.6497,35.7602,687.4823],[2.6558,35.7766,677.0751],[2.6568,35.7821,671.2576],[2.6539,35.7858,670.8513],[2.6585,35.7977,663.6542],[2.6542,35.8026,667.2251],[2.6171,35.8092,698.7723],[2.6109,35.8085,704.7923],[2.5957,35.8133,766.4919],[2.5928,35.817,808.2318],[2.5964,35.8218,850.2322],[2.6071,35.8293,795.4257],[2.6219,35.8442,702.3215],[2.6282,35.8423,701.328],[2.6433,35.8425,679.8748],[2.6432,35.8475,686.6743]]]]}}