{"type":"Feature","properties":{"GID_2":"DZA.6.20_1","GID_0":"DZA","country":"Algeria","GID_1":"DZA.6_1","province":"Batna","NL_NAME_1":"ولايةباتنة","county":"Fesdis","VARNAME_2":"NA","NL_NAME_2":"NA","TYPE_2":"Commune","ENGTYPE_2":"Commune","CC_2":"523","HASC_2":"DZ.BT.FE","name":"Fesdis.county"},
"geometry":{"type": "MultiPolygon","coordinates": [[[[6.2365,35.5873,1161.405],[6.2471,35.5919,1142.0376],[6.2576,35.5928,1111.572],[6.2731,35.5848,1288.1326],[6.2809,35.5855,1353.2783],[6.2779,35.5904,1236.9275],[6.276,35.6016,1052.3943],[6.2795,35.6058,1018.6055],[6.2854,35.6085,1021.2357],[6.2983,35.6196,952.8915],[6.2989,35.6247,933.715],[6.333,35.6347,882.2756],[6.332,35.6399,866.1816],[6.3246,35.6507,865.1542],[6.3145,35.6597,866.0314],[6.3016,35.6566,874.5293],[6.2949,35.6529,883.1205],[6.2809,35.6435,924.8607],[6.2721,35.6342,942.1759],[6.2673,35.6332,971.0465],[6.2565,35.6405,1214.7349],[6.2502,35.64,1290.9969],[6.2445,35.6435,1129.766],[6.2404,35.6557,1430.1752],[6.2356,35.6567,1420.9841],[6.2169,35.6486,1413.5778],[6.2105,35.6472,1472.4324],[6.2047,35.6487,1395.8313],[6.1831,35.6421,1510.2616],[6.1678,35.6398,1466.0159],[6.1617,35.6363,1495.1742],[6.144,35.6337,1660.7883],[6.1436,35.6292,1586.9265],[6.1455,35.6243,1480.6333],[6.1557,35.6126,1270.9946],[6.1679,35.5849,1083.8091],[6.1729,35.5848,1075.6542],[6.1941,35.5912,1054.5642],[6.2002,35.5898,1025.1149],[6.217,35.5775,1206.1162],[6.2365,35.5873,1161.405]]]]}}