{"type": "Feature","bbox": [6.2222,35.0596,6.4955,35.2442],"geometry": {"type": "MultiPolygon","coordinates": [[[[6.3557,35.0674,1535.9404],[6.3579,35.0612,1616.0869],[6.3766,35.0596,1453.8208],[6.381,35.0604,1446.0535],[6.3938,35.0655,1478.4398],[6.3935,35.0708,1512.5007],[6.3989,35.0728,1451.7819],[6.4011,35.0793,1499.6046],[6.4077,35.0802,1437.7369],[6.4094,35.0898,1431.3519],[6.4067,35.1005,1548.9817],[6.4141,35.1139,1461.3757],[6.4091,35.1178,1536.8862],[6.4186,35.1228,1467.7383],[6.4177,35.1347,1576.4379],[6.4221,35.1376,1556.1921],[6.4225,35.1467,1606.9797],[6.4172,35.1577,1640.2274],[6.4241,35.1796,1702.4218],[6.4231,35.1876,1755.9327],[6.4331,35.1999,1735.2574],[6.4387,35.2031,1672.3728],[6.443,35.2018,1600.3206],[6.4481,35.2027,1541.0359],[6.4451,35.2083,1711.0781],[6.4481,35.2126,1827.0759],[6.4845,35.233,1793.5271],[6.492,35.2382,1808.0642],[6.4955,35.2426,1914.1931],[6.4874,35.2442,1905.0475],[6.4365,35.2323,1865.8273],[6.3869,35.2127,1781.0229],[6.3714,35.2051,1718.9255],[6.323,35.1884,1542.7443],[6.2798,35.1696,1398.1809],[6.2545,35.1639,1239.1161],[6.239,35.1523,1121.9447],[6.2223,35.1445,1392.6506],[6.2222,35.1399,1053.0737],[6.2251,35.1351,991.9072],[6.2301,35.1338,964.5208],[6.236,35.1287,831.6101],[6.2407,35.1281,799.5576],[6.2436,35.1238,860.0055],[6.2587,35.1139,858.9587],[6.2722,35.1091,880.4878],[6.2931,35.1069,1109.4473],[6.3114,35.1071,1318.707],[6.3163,35.1042,1307.5812],[6.323,35.1062,1335.8512],[6.3427,35.1174,1515.7058],[6.3513,35.1196,1497.0347],[6.3561,35.1186,1449.4224],[6.3605,35.1129,1526.3594],[6.3554,35.0941,1458.424],[6.3529,35.0902,1388.5195],[6.3416,35.0865,1335.0999],[6.3511,35.079,1402.4368],[6.3563,35.0792,1411.5127],[6.3584,35.0743,1459.5139],[6.3557,35.0674,1535.9404]]],
[[[6.4531,35.2053,1521.512],[6.4481,35.2027,1541.0359],[6.4545,35.201,1481.9741],[6.4531,35.2053,1521.512]]]]}
,"properties": {"GID_2": "DZA.6.52_1","GID_0": "DZA","country": "Algeria","GID_1": "DZA.6_1","province": "Batna","NL_NAME_1": "ولايةباتنة","county": "TKout","VARNAME_2": "Tkout","NL_NAME_2": "NA","TYPE_2": "Commune","ENGTYPE_2": "Commune","CC_2": "544","HASC_2": "DZ.BT.TK","name": "T_Kout.county","area_km2": 186.9667,"hist_schema_id": "Elevation0-9000","hist_area_km2": {"800": 0.1734,"825": 0.6416,"850": 1.2831,"875": 2.0288,"900": 3.6069,"925": 4.1617,"950": 3.3811,"975": 4.0398,"1000": 4.6984,"1025": 5.3224,"1050": 5.3047,"1075": 5.6339,"1100": 5.4258,"1125": 4.4896,"1150": 4.2989,"1175": 3.9001,"1200": 3.3974,"1225": 3.4322,"1250": 3.0507,"1275": 2.9642,"1300": 2.6001,"1325": 2.895,"1350": 3.3806,"1375": 3.2766,"1400": 3.5193,"1425": 3.5887,"1450": 3.9702,"1475": 4.7684,"1500": 5.6007,"1525": 6.4153,"1550": 7.0744,"1575": 6.8486,"1600": 6.8656,"1625": 5.9119,"1650": 5.1318,"1675": 6.2756,"1700": 6.0331,"1725": 6.4837,"1750": 5.8766,"1775": 4.3327,"1800": 3.483,"1825": 3.448,"1850": 2.928,"1875": 2.1829,"1900": 1.767,"1925": 0.6582,"1950": 0.2425,"1975": 0.1213,"2000": 0.052}}}