{"type": "Feature","bbox": [7.1891,36.3871,7.3216,36.4584],"geometry": {"type": "MultiPolygon","coordinates": [[[[7.3145,36.4355,256.9514],[7.3029,36.4399,258.8837],[7.2934,36.446,279.3323],[7.2899,36.4406,364.1784],[7.2853,36.4387,404.4688],[7.2803,36.4381,418.5184],[7.271,36.4429,405.4631],[7.2617,36.4412,405.194],[7.2535,36.4335,521.7491],[7.2331,36.4345,793.4873],[7.2298,36.4395,779.1198],[7.2302,36.4451,672.098],[7.2346,36.4505,536.0323],[7.2323,36.4545,477.0172],[7.2227,36.4549,490.851],[7.2178,36.4584,478.3394],[7.2127,36.4548,385.6131],[7.2101,36.4492,448.698],[7.2055,36.4461,420.8593],[7.1917,36.4437,560.2704],[7.1891,36.4381,597.4335],[7.1929,36.4279,695.9877],[7.1946,36.4083,1043.7738],[7.1994,36.4063,1078.1289],[7.2066,36.4088,1070.105],[7.2123,36.4073,1084.0776],[7.2163,36.4092,1032.4998],[7.2334,36.4106,931.676],[7.245,36.4002,660.4999],[7.2511,36.3979,585.7479],[7.2639,36.4001,525.4508],[7.285,36.3967,494.2858],[7.296,36.3871,409.8274],[7.3022,36.3892,351.2452],[7.3095,36.3972,323.8634],[7.3216,36.4022,300.2419],[7.3197,36.408,296.2962],[7.3098,36.4098,278.9111],[7.3086,36.4152,272.7903],[7.315,36.4252,266.1981],[7.3113,36.4281,260.7683],[7.3145,36.4355,256.9514]]]]}
,"properties": {"GID_2": "DZA.21.22_1","GID_0": "DZA","country": "Algeria","GID_1": "DZA.21_1","province": "Guelma","NL_NAME_1": "ولايةقالمة","county": "HouariBoumediene","VARNAME_2": "NA","NL_NAME_2": "NA","TYPE_2": "Commune","ENGTYPE_2": "Commune","CC_2": "2427","HASC_2": "#N/A","name": "Houari_Boumediene.county","area_km2": 49.86847,"hist_schema_id": "Elevation0-9000","hist_area_km2": {"250": 0.39234,"275": 2.21787,"300": 1.89384,"325": 1.80852,"350": 2.3887,"375": 2.30342,"400": 1.97919,"425": 2.6444,"450": 1.77428,"475": 1.91071,"500": 1.92769,"525": 1.99594,"550": 1.85942,"575": 1.94478,"600": 1.89364,"625": 1.89365,"650": 1.7913,"675": 2.04721,"700": 1.74018,"725": 1.60366,"750": 1.82547,"775": 1.46721,"800": 1.33076,"825": 1.19428,"850": 0.95543,"875": 0.95544,"900": 0.9896,"925": 0.68248,"950": 0.64837,"975": 0.4095,"1000": 0.35832,"1025": 0.3242,"1050": 0.35833,"1075": 0.27302,"1100": 0.085319999999999993}}}