{"type": "Feature","bbox": [0.1971,35.7045,0.3953,35.8317],"geometry": {"type": "MultiPolygon","coordinates": [[[[0.2276,35.7045,77.1756],[0.2365,35.7132,95.8714],[0.2434,35.7277,63.1036],[0.2493,35.7344,73.9828],[0.2474,35.7384,73.9529],[0.264,35.742,104.0974],[0.287,35.7399,190.2809],[0.2905,35.7466,173.1241],[0.2734,35.7586,113.5757],[0.2849,35.759,163.9977],[0.2943,35.7657,178.505],[0.3114,35.7841,257.3908],[0.3178,35.7835,231.7597],[0.3351,35.7912,240.0907],[0.3353,35.7972,298.6504],[0.3375,35.8017,303.2436],[0.3445,35.8021,322.7084],[0.3543,35.8066,361.3882],[0.3592,35.8064,325.5482],[0.3794,35.7944,201.7946],[0.3901,35.7931,149.3493],[0.3953,35.8018,160.9198],[0.3892,35.8035,174.0961],[0.3823,35.8114,214.4117],[0.3699,35.8177,411.5044],[0.366,35.8222,418.5719],[0.3662,35.8277,402.1974],[0.3599,35.8296,420.4743],[0.349,35.8289,418.2806],[0.3413,35.8317,378.1454],[0.3354,35.8305,350.6646],[0.3268,35.8203,348.6796],[0.3258,35.8161,355.4385],[0.3047,35.8127,256.6315],[0.3024,35.807,264.1592],[0.2922,35.806,182.1422],[0.2844,35.7986,150.1606],[0.279,35.8033,157.9777],[0.26,35.8127,213.426],[0.2534,35.8032,216.5317],[0.2343,35.7892,230.2431],[0.2279,35.7868,248.6636],[0.2222,35.7867,221.4541],[0.2194,35.7819,234.1236],[0.2066,35.7688,142.8687],[0.2059,35.7641,104.8596],[0.2144,35.7614,75.3512],[0.2023,35.7441,119.5727],[0.2031,35.7153,53.15],[0.1971,35.7106,50.7384],[0.2143,35.7082,61.2881],[0.2219,35.7088,65.6353],[0.2276,35.7045,77.1756]]]]}
,"properties": {"GID_2": "DZA.30.7_1","GID_0": "DZA","country": "Algeria","GID_1": "DZA.30_1","province": "Mostaganem","NL_NAME_1": "ولايةمستغانم","county": "Bouguirat","VARNAME_2": "NA","NL_NAME_2": "NA","TYPE_2": "Commune","ENGTYPE_2": "Commune","CC_2": "2719","HASC_2": "DZ.MG.BO","name": "Bouguirat.county","area_km2": 85.13252,"hist_schema_id": "Elevation0-9000","hist_area_km2": {"50": 8.60627,"75": 19.99479,"100": 8.37798,"125": 6.43329,"150": 6.48433,"175": 5.07405,"200": 4.69541,"225": 2.66569,"250": 2.80334,"275": 4.1446,"300": 4.09271,"325": 2.09778,"350": 2.3899,"375": 2.35545,"400": 2.28661,"425": 2.4756,"450": 0.15472}}}