{"type": "Feature","bbox": [4.1944,36.4816,4.2373,36.5571],"geometry": {"type": "MultiPolygon","coordinates": [[[[4.2304,36.4816,1620.4899],[4.2319,36.4944,1045.3633],[4.2369,36.4979,1070.1624],[4.2373,36.5031,833.4339],[4.2329,36.5133,620.3583],[4.2364,36.5178,776.2104],[4.2324,36.5218,686.4033],[4.231,36.5286,634.8955],[4.2346,36.5323,641.623],[4.2323,36.5383,518.8035],[4.2261,36.5422,464.944],[4.2212,36.5523,442.9402],[4.2099,36.5571,368.4431],[4.1944,36.5552,314.6328],[4.1988,36.5438,301.5543],[4.199,36.5262,427.7029],[4.2031,36.5217,360.1042],[4.2026,36.5145,417.6479],[4.2074,36.5094,643.87],[4.2148,36.5096,546.4978],[4.2195,36.5036,637.9779],[4.2217,36.4922,934.8765],[4.2304,36.4816,1620.4899]]]]}
,"properties": {"GID_2": "DZA.47.51_1","GID_0": "DZA","country": "Algeria","GID_1": "DZA.47_1","province": "TiziOuzou","NL_NAME_1": "ولايةغليزان","county": "Ouacif","VARNAME_2": "Wasif","NL_NAME_2": "NA","TYPE_2": "Commune","ENGTYPE_2": "Commune","CC_2": "1548","HASC_2": "DZ.TO.OC","name": "Ouacif.county","area_km2": 17.15714,"hist_schema_id": "Elevation0-9000","hist_area_km2": {"300": 0.01703,"325": 0.32366,"350": 0.68142,"375": 0.64734,"400": 0.8688,"425": 0.93696,"450": 1.15843,"475": 1.15846,"500": 1.10736,"525": 1.1585,"550": 1.03927,"575": 1.34595,"600": 1.09038,"625": 0.85188,"650": 0.71561,"675": 0.57932,"700": 0.39189,"725": 0.34083,"750": 0.2045,"775": 0.18746,"800": 0.23859,"825": 0.20451,"850": 0.18747,"875": 0.10226,"900": 0.10226,"925": 0.17044,"950": 0.22157,"975": 0.05113,"1000": 0.25567,"1025": 0.06818,"1050": 0.10227,"1075": 0.10227,"1100": 0.05114,"1125": 0.06818,"1150": 0.08523,"1175": 0.03409,"1200": 0.01705,"1225": 0.05114,"1250": 0.05114,"1275": 0.05114,"1300": 0.03409,"1325": 0.01705,"1350": 0.03409,"1375": 0.03409,"1425": 0.01705}}}