{"type": "Feature","bbox": [4.1452,35.0576,4.3942,35.1708],"geometry": {"type": "MultiPolygon","coordinates": [[[[4.1664,35.1018,1113.6498],[4.1659,35.0961,1228.1249],[4.1597,35.0856,1270.3992],[4.1571,35.0742,1520.9368],[4.1475,35.0638,1437.4578],[4.1452,35.0576,1585.7977],[4.1994,35.0883,1279.2354],[4.2883,35.0699,1003.666],[4.3587,35.0636,980.6635],[4.3871,35.0979,881.0245],[4.392,35.101,860.5381],[4.3942,35.1072,844.1169],[4.391,35.1144,832.6975],[4.3809,35.1231,793.8206],[4.3753,35.1333,764.4799],[4.3745,35.1469,730.0874],[4.373,35.1511,709.178],[4.3695,35.1546,703.0016],[4.3705,35.1599,679.8383],[4.3777,35.1705,618.7389],[4.3522,35.1682,688.5471],[4.3416,35.1699,647.1727],[4.3212,35.169,623.0687],[4.3114,35.1672,639.9496],[4.2456,35.1708,645.4642],[4.2386,35.1631,638.1965],[4.2283,35.1603,650.6608],[4.2237,35.1517,681.612],[4.2231,35.1468,700.713],[4.2249,35.1412,710.9278],[4.2235,35.1363,716.3328],[4.2159,35.1287,774.3896],[4.2118,35.1255,777.9143],[4.1973,35.1302,1130.1906],[4.1869,35.1301,1058.5776],[4.1785,35.1253,1080.9292],[4.1842,35.1172,1088.6351],[4.1807,35.109,1099.1177],[4.1664,35.1018,1113.6498]]]]}
,"properties": {"GID_2": "DZA.26.38_1","GID_0": "DZA","country": "Algeria","GID_1": "DZA.26_1","province": "M'Sila","NL_NAME_1": "ولايةالمسيلة","county": "Oultene","VARNAME_2": "NA","NL_NAME_2": "NA","TYPE_2": "Commune","ENGTYPE_2": "Commune","CC_2": "2846","HASC_2": "DZ.MS.OT","name": "Oultene.county","area_km2": 178.5644,"hist_schema_id": "Elevation0-9000","hist_area_km2": {"625": 1.2133,"650": 5.7894,"675": 15.2545,"700": 17.7003,"725": 13.8192,"750": 15.2772,"775": 12.3305,"800": 13.2511,"825": 13.8423,"850": 10.7904,"875": 8.5703,"900": 6.9393,"925": 6.8351,"950": 7.7548,"975": 7.5117,"1000": 5.5856,"1025": 3.8511,"1050": 2.6194,"1075": 1.8736,"1100": 1.4225,"1125": 1.1103,"1150": 0.7807,"1175": 0.7113,"1200": 0.6766,"1225": 0.3296,"1250": 0.3817,"1275": 0.347,"1300": 0.3297,"1325": 0.1909,"1350": 0.3123,"1375": 0.2603,"1400": 0.2256,"1425": 0.2082,"1450": 0.1388,"1475": 0.1388,"1500": 0.0694,"1525": 0.0694,"1550": 0.0174,"1575": 0.0347}}}