{"type":"Feature","properties":{"GID_2":"DZA.13.7_1","GID_0":"DZA","country":"Algeria","GID_1":"DZA.13_1","province":"Boumerdès","NL_NAME_1":"ولايةبومرداس","county":"Boudouaou","VARNAME_2":"Budwāwū","NL_NAME_2":"NA","TYPE_2":"Commune","ENGTYPE_2":"Commune","CC_2":"3502","HASC_2":"DZ.BM.BD","name":"Boudouaou.county"},
"geometry":{"type": "MultiPolygon","coordinates": [[[[3.3831,36.7279,54.5699],[3.3831,36.7205,61.0323],[3.3797,36.7147,60.8339],[3.3843,36.7137,72.5347],[3.3902,36.7034,92.2423],[3.3975,36.6978,52.6618],[3.4032,36.6966,31.525],[3.406,36.6899,33.9088],[3.4062,36.6832,38.2706],[3.4095,36.6774,47.3216],[3.4085,36.6704,44.1225],[3.4151,36.6692,77.3109],[3.4307,36.6703,222.0673],[3.4519,36.6638,367.562],[3.4657,36.6657,142.1],[3.4689,36.6694,127.8099],[3.4657,36.687,82.1927],[3.4718,36.6933,74.4486],[3.4696,36.6982,56.2008],[3.4643,36.6943,115.9743],[3.4568,36.692,172.6839],[3.4561,36.7003,118.2108],[3.4527,36.7067,120.5886],[3.4348,36.7142,84.3829],[3.4362,36.7201,47.0475],[3.4286,36.7283,79.9903],[3.4187,36.7433,23.7005],[3.4127,36.7424,10.7651],[3.4065,36.75,32.0867],[3.3979,36.7526,29.5727],[3.3809,36.7467,40.306399999999996],[3.3801,36.7416,44.0023],[3.3818,36.7358,46.0831],[3.385,36.733,51.5439],[3.3831,36.7279,54.5699]]]]}}