{"type": "Feature","bbox": [4.2381,36.5421,4.3275,36.6021],"geometry": {"type": "MultiPolygon","coordinates": [[[[4.3275,36.5633,1118.135],[4.3262,36.5679,1186.412],[4.3205,36.5714,1204.0833],[4.315,36.5873,844.7266],[4.3069,36.5985,727.9915],[4.2945,36.602,687.0101],[4.2884,36.6021,648.6755],[4.2819,36.5992,845.4062],[4.2738,36.6002,807.4763],[4.26,36.5986,839.1872],[4.2555,36.5969,682.4079],[4.2533,36.5922,504.0045],[4.2463,36.5912,556.1884],[4.2434,36.5866,424.5659],[4.2443,36.5815,432.0259],[4.2424,36.5776,533.7168],[4.2421,36.5659,620.2961],[4.2381,36.5619,451.1592],[4.2502,36.5529,381.8464],[4.2597,36.5515,419.4576],[4.2695,36.5444,439.7397],[4.283,36.5421,461.9955],[4.289,36.5439,475.3265],[4.2963,36.5433,511.6535],[4.3038,36.546,547.4976],[4.3111,36.5456,574.4501],[4.3169,36.5483,666.2043],[4.319,36.5581,1045.7897],[4.3275,36.5633,1118.135]]]]}
,"properties": {"GID_2": "DZA.47.4_1","GID_0": "DZA","country": "Algeria","GID_1": "DZA.47_1","province": "TiziOuzou","NL_NAME_1": "ولايةغليزان","county": "Ain-El-Hammam","VARNAME_2": "AinElHammam|`Ayn-al-Hamma-m","NL_NAME_2": "NA","TYPE_2": "Commune","ENGTYPE_2": "Commune","CC_2": "1502","HASC_2": "DZ.TO.AE","name": "Ain-El-Hammam.county","area_km2": 38.63587,"hist_schema_id": "Elevation0-9000","hist_area_km2": {"350": 0.03405,"375": 0.30652,"400": 0.35757,"425": 0.63003,"450": 0.85142,"475": 0.91956,"500": 1.19198,"525": 1.2601,"550": 1.43044,"575": 1.56665,"600": 1.58366,"625": 1.58368,"650": 1.63471,"675": 1.78789,"700": 1.78792,"725": 1.51543,"750": 1.80492,"775": 2.12836,"800": 1.87299,"825": 2.1624,"850": 1.82183,"875": 1.78787,"900": 1.37921,"925": 1.36218,"950": 1.243,"975": 1.05569,"1000": 0.86839,"1025": 0.80029,"1050": 0.54488,"1075": 0.44272,"1100": 0.34056,"1125": 0.20434,"1150": 0.15326,"1175": 0.1192,"1200": 0.08514,"1225": 0.01703}}}