{"type": "Feature","bbox": [-3.1045,26.8903,0.4763,27.1728],"geometry": {"type": "MultiPolygon","coordinates": [[[[0.4334,27.1471,303.7466],[0.0372,27.1728,287.8096],[0.0002,27.1577,283.8196],[-0.0885,27.13,277.465],[-0.1327,27.1179,210.9858],[-0.1493,27.1148,164.2813],[-0.499,27.1097,164.2446],[-0.9994,27.0986,288.1428],[-2.4992,27.0502,332.7833],[-2.9997,27.0308,408.7133],[-3.0635,27.0272,407.4201],[-3.077,26.9976,410.8721],[-3.0671,26.9869,409.201],[-3.0701,26.9754,409.1065],[-3.1015,26.9012,426.3002],[-3.1045,26.8903,430.0651],[-3.0133,26.8913,405.4691],[-2.9917,26.8956,402.1558],[-2.4936,26.9089,320.0397],[-1.9964,26.9198,327.7763],[-1.4988,26.9302,295.4433],[-1.1131,26.9336,280.2848],[-0.2545,26.9936,150.4592],[-0.2076,26.9975,150.9152],[-0.0701,27.0162,218.895],[-0.043,27.0161,259.1207],[0.0681,27.0389,285.6223],[0.2839,27.0421,297.3824],[0.4763,27.0653,295.3267],[0.4334,27.1471,303.7466]]]]}
,"properties": {"GID_2": "DZA.1.10_1","GID_0": "DZA","country": "Algeria","GID_1": "DZA.1_1","province": "Adrar","NL_NAME_1": "ولايةأدرا","county": "InZghmir","VARNAME_2": "Inzegmir","NL_NAME_2": "NA","TYPE_2": "Commune","ENGTYPE_2": "Commune","CC_2": "105","HASC_2": "DZ.AR.IZ","name": "In_Zghmir.county","area_km2": 5422.567,"hist_schema_id": "Elevation0-9000","hist_area_km2": {"150": 334.041,"175": 215.482,"200": 92.921,"225": 158.047,"250": 289.465,"275": 805.18,"300": 1764.745,"325": 717.858,"350": 388.589,"375": 213.381,"400": 313.941,"425": 102.046,"450": 20.578,"475": 5.48,"500": 0.661,"525": 0.132}}}