{"type":"Feature","properties":{"GID_2":"DZA.48.48_1","GID_0":"DZA","country":"Algeria","GID_1":"DZA.48_1","province":"Tlemcen","NL_NAME_1":"تلمسان","county":"Souani","VARNAME_2":"NA","NL_NAME_2":"NA","TYPE_2":"Commune","ENGTYPE_2":"Commune","CC_2":"1308","HASC_2":"DZ.TL.SN","name":"Souani.county"},
"geometry":{"type": "MultiPolygon","coordinates": [[[[-1.9731,34.9357,519.4673],[-1.9719,34.9343,525.5016],[-1.9717,34.9168,473.1695],[-1.9697,34.9076,463.224],[-1.9722,34.8971,448.7217],[-1.9698,34.8908,449.3217],[-1.9251,34.8851,469.0969],[-1.9069,34.8813,483.0561],[-1.9012,34.8816,486.4407],[-1.8873,34.8863,488.7963],[-1.884,34.8919,516.7034],[-1.8852,34.8984,556.3998],[-1.8801,34.9107,626.3738],[-1.8846,34.916,663.0778],[-1.8884,34.9364,646.0327],[-1.8982,34.9429,690.1889],[-1.9058,34.9509,551.7004],[-1.9072,34.9557,447.1967],[-1.9046,34.9656,388.6099],[-1.9166,34.9763,367.9772],[-1.9281,34.9694,391.1389],[-1.9295,34.9639,473.4545],[-1.928,34.958,451.0534],[-1.9402,34.955,418.5396],[-1.9418,34.9509,435.0753],[-1.939,34.9471,460.5691],[-1.9549,34.9449,477.3478],[-1.9623,34.9392,539.5529],[-1.9731,34.9357,519.4673]]]]}}