{"type":"Feature","properties":{"GID_2":"DZA.42.12_1","GID_0":"DZA","country":"Algeria","GID_1":"DZA.42_1","province":"Tébessa","NL_NAME_1":"ولايةتبسة","county":"ElMalabiodh","VARNAME_2":"ElMaLabiod","NL_NAME_2":"NA","TYPE_2":"Commune","ENGTYPE_2":"Commune","CC_2":"1220","HASC_2":"DZ.TB.EL","name":"El_Malabiodh.county"},
"geometry":{"type": "MultiPolygon","coordinates": [[[[8.1668,35.3298,1237.6289],[8.1506,35.338,1383.8857],[8.1384,35.3413,1533.3931],[8.1348,35.3437,1420.4634],[8.123,35.3398,1424.531],[8.1004,35.3359,1360.8549],[8.0957,35.3332,1421.4183],[8.0837,35.3342,1520.2629],[8.0789,35.3368,1513.3103],[8.0759,35.3413,1436.8136],[8.0753,35.3527,1264.1946],[8.077,35.3589,1191.522],[8.0721,35.3663,1158.3512],[8.0756,35.3752,1103.8511],[8.0733,35.3795,977.196],[8.0691,35.3762,1043.7893],[8.0682,35.3713,1045.4915],[8.0638,35.3669,1082.6509],[8.0504,35.3583,1251.9009],[8.0446,35.3564,1308.6534],[8.0336,35.3561,1445.6394],[8.0315,35.3481,1478.017],[8.0203,35.3324,1582.3823],[8.0098,35.3282,1672.8192],[8.0032,35.3304,1706.0449],[7.9912,35.3256,1660.3275],[7.9855,35.3216,1670.3724],[7.9986,35.3144,1450.0023],[8.0084,35.3022,1320.1088],[8.0182,35.2952,1262.9596],[8.0271,35.3001,1273.947],[8.039,35.2899,1192.4142],[8.0529,35.2746,1152.4658],[8.0643,35.2596,1113.8059],[8.0751,35.2368,1087.0211],[8.0772,35.2203,1104.4731],[8.0765,35.2082,1122.719],[8.1023,35.2054,1128.6045],[8.1075,35.1994,1152.2795],[8.1201,35.1981,1136.0042],[8.1213,35.1865,1124.3833],[8.1687,35.1576,1109.3174],[8.1693,35.1323,1096.1636],[8.2204,35.1209,981.3496],[8.2262,35.1397,1004.3446],[8.2278,35.1611,1019.4404],[8.2347,35.2008,1110.0332],[8.2319,35.2065,1134.7738],[8.2314,35.2147,1125.0],[8.2349,35.2216,1151.0186],[8.2406,35.224,1150.8132],[8.2443,35.2282,1141.1132],[8.2457,35.2348,1122.1959],[8.2385,35.243,1105.8811],[8.2202,35.2486,1064.3494],[8.2148,35.2527,1076.9568],[8.2001,35.2696,1074.1348],[8.1949,35.2946,1103.1602],[8.1963,35.3126,1119.9777],[8.1937,35.3293,1141.2583],[8.1857,35.326,1193.5938],[8.1791,35.3253,1347.8811],[8.1668,35.3298,1237.6289]]]]}}