{"type":"Feature","properties":{"GID_2":"DZA.6.48_1","GID_0":"DZA","country":"Algeria","GID_1":"DZA.6_1","province":"Batna","NL_NAME_1":"ولايةباتنة","county":"Rehbat","VARNAME_2":"Rahbat","NL_NAME_2":"NA","TYPE_2":"Commune","ENGTYPE_2":"Commune","CC_2":"525","HASC_2":"DZ.BT.RE","name":"Rehbat.county"},
"geometry":{"type": "MultiPolygon","coordinates": [[[[5.6319,35.7149,940.8823],[5.6409,35.7058,922.9603],[5.6422,35.7006,912.1283],[5.6405,35.6949,899.0632],[5.6452,35.6926,897.8557],[5.6512,35.6856,894.3169],[5.6583,35.6884,929.5375],[5.6629,35.6848,922.3188],[5.6598,35.6808,906.671],[5.6591,35.6758,897.2509],[5.6748,35.6698,890.3901],[5.6809,35.6713,897.3122],[5.6852,35.6925,1015.2346],[5.6859,35.7007,1123.7632],[5.6841,35.7071,1295.2081],[5.6896,35.7146,1529.3651],[5.6944,35.725,1488.943],[5.6994,35.7534,1451.675],[5.692,35.754,1418.4371],[5.682,35.7624,1207.0184],[5.6738,35.7662,1313.1162],[5.6672,35.765,1370.5474],[5.6613,35.7516,1508.1229],[5.6565,35.7478,1540.7815],[5.646,35.7466,1421.802],[5.6291,35.7527,1337.5951],[5.6079,35.7665,1223.1523],[5.5966,35.7717,1178.3788],[5.5702,35.7797,1159.6696],[5.5612,35.7766,1019.9426],[5.567,35.7659,994.3267],[5.5741,35.7586,980.9003],[5.5803,35.7564,983.5967],[5.5917,35.7583,1005.6754],[5.612,35.7459,1007.8013],[5.6223,35.7373,1023.8911],[5.6252,35.734,1065.0724],[5.6279,35.7223,978.2532],[5.6319,35.7149,940.8823]]]]}}