{"type":"Feature","properties":{"GID_2":"DZA.35.38_1","GID_0":"DZA","country":"Algeria","GID_1":"DZA.35_1","province":"Relizane","NL_NAME_1":"ولايةغليزان","county":"Zemmoura","VARNAME_2":"Zammūrah","NL_NAME_2":"NA","TYPE_2":"Commune","ENGTYPE_2":"Commune","CC_2":"4812","HASC_2":"DZ.RE.ZM","name":"Zemmoura.county"},
"geometry":{"type": "MultiPolygon","coordinates": [[[[0.7267,35.7919,182.9323],[0.7205,35.7901,183.6533],[0.7098,35.7917,135.7046],[0.7036,35.791,126.3275],[0.698,35.7884,105.2142],[0.6951,35.7844,105.7233],[0.6822,35.7778,93.5439],[0.6595,35.7732,79.1249],[0.6571,35.7596,95.1575],[0.6378,35.7564,90.7864],[0.6241,35.7492,90.4172],[0.6165,35.7431,88.1643],[0.6054,35.7381,81.9044],[0.602,35.7346,83.9336],[0.6227,35.7239,107.1018],[0.6278,35.7193,120.2578],[0.6231,35.7118,130.5956],[0.6276,35.7095,138.2117],[0.6339,35.7126,152.8192],[0.6395,35.7129,148.8235],[0.6432,35.7097,152.5559],[0.6538,35.7081,172.4774],[0.6625,35.7181,172.899],[0.6724,35.7212,168.2875],[0.6769,35.7179,195.0799],[0.6826,35.7167,208.0628],[0.6992,35.7045,272.2206],[0.7153,35.7,468.3782],[0.725,35.7014,379.0727],[0.7337,35.6947,519.5028],[0.7497,35.6962,499.0886],[0.7653,35.6921,449.7498],[0.7764,35.6956,486.7869],[0.7846,35.7023,444.7631],[0.7908,35.7016,472.9439],[0.7947,35.7061,471.1419],[0.8008,35.7086,454.3323],[0.8067,35.709,421.9828],[0.806,35.7025,441.4945],[0.813,35.7022,457.0977],[0.817,35.698,462.733],[0.8167,35.687,474.3568],[0.8347,35.6832,436.2979],[0.8453,35.6852,421.6455],[0.8491,35.6824,439.8593],[0.8551,35.6927,433.8597],[0.8602,35.6926,462.4684],[0.872,35.6968,507.915],[0.8745,35.7013,496.6116],[0.873,35.7054,481.7749],[0.8778,35.707,487.0903],[0.8844,35.7126,462.3362],[0.8853,35.7177,467.7724],[0.8881,35.7217,501.5531],[0.8946,35.7235,509.1158],[0.9006,35.7227,500.8538],[0.9043,35.7268,474.1111],[0.9277,35.7411,300.9462],[0.9392,35.7408,260.1772],[0.9291,35.7641,241.6912],[0.9098,35.7747,210.1209],[0.9054,35.7845,251.3712],[0.9006,35.7863,284.8428],[0.8994,35.7907,291.4796],[0.886,35.8008,368.3284],[0.8805,35.8092,348.4556],[0.8709,35.8137,271.6122],[0.8787,35.8326,196.1325],[0.8729,35.8352,211.3506],[0.8723,35.8399,222.0241],[0.8664,35.8495,253.5346],[0.8615,35.8482,270.3332],[0.854,35.8418,359.2012],[0.852,35.836,351.3177],[0.8449,35.8347,348.3458],[0.8474,35.8251,441.1948],[0.8378,35.823,409.9384],[0.8397,35.8165,332.6488],[0.8346,35.8,300.0672],[0.8244,35.7919,272.241],[0.835,35.7809,327.9111],[0.8278,35.7747,286.2798],[0.8318,35.7707,293.963],[0.8279,35.7641,294.2192],[0.833,35.7559,304.9539],[0.8324,35.7508,340.2232],[0.8268,35.7527,307.1698],[0.8209,35.7511,285.4351],[0.8172,35.7459,293.529],[0.8122,35.7443,298.7782],[0.7946,35.744,264.0169],[0.7923,35.7489,247.8114],[0.7769,35.758,225.7218],[0.7685,35.766,206.416],[0.7584,35.7669,182.1679],[0.7492,35.7648,168.4376],[0.7361,35.7688,153.6133],[0.7399,35.782,324.1913],[0.7267,35.7919,182.9323]]]]}}