{"type":"Feature","properties":{"GID_2":"DZA.47.50_1","GID_0":"DZA","country":"Algeria","GID_1":"DZA.47_1","province":"TiziOuzou","NL_NAME_1":"ولايةغليزان","county":"Mizrana","VARNAME_2":"NA","NL_NAME_2":"NA","TYPE_2":"Commune-Cotiere","ENGTYPE_2":"Commune-Cotiere","CC_2":"1562","HASC_2":"DZ.TO.MI","name":"Mizrana.county"},
"geometry":{"type": "MultiPolygon","coordinates": [[[[4.0115,36.8231,583.751],[4.0311,36.8239,617.9088],[4.0421,36.8263,690.7865],[4.0514,36.8307,727.0178],[4.0583,36.8316,750.6577],[4.0746,36.83,746.1301],[4.08,36.8273,740.9857],[4.0992,36.8254,801.7772],[4.1078,36.8276,800.4382],[4.1121,36.8253,707.049],[4.1241,36.8283,736.1434],[4.1266,36.8323,663.3552],[4.1231,36.8446,464.6499],[4.1184,36.8484,445.7565],[4.1177,36.8559,272.9948],[4.1203,36.8613,197.3179],[4.1202,36.8717,132.1828],[4.1156,36.8746,79.673],[4.1099,36.8737,126.2473],[4.1008,36.8766,219.6616],[4.0889,36.8779,288.8511],[4.0829,36.8757,291.8274],[4.0772,36.8707,357.1637],[4.0736,36.8738,293.9393],[4.0811,36.8951,24.3996],[4.0555,36.8985,16.2368],[4.0502,36.8978,5.6459],[4.039,36.9004,25.4946],[4.0343,36.8984,51.0901],[4.0364,36.868,461.1882],[4.0333,36.8595,614.1333],[4.034,36.8541,689.9437],[4.0379,36.8521,735.08],[4.0338,36.8463,586.4988],[4.0145,36.837,339.4872],[4.0115,36.8231,583.751]]]]}}