{"type":"Feature","properties":{"GID_2":"DZA.12.2_1","GID_0":"DZA","country":"Algeria","GID_1":"DZA.12_1","province":"Bouira","NL_NAME_1":"ولايةالبويرة","county":"AhlElKsar","VARNAME_2":"NA","NL_NAME_2":"NA","TYPE_2":"Commune","ENGTYPE_2":"Commune","CC_2":"1022","HASC_2":"DZ.BU.AK","name":"Ahl_El_Ksar.county"},
"geometry":{"type": "MultiPolygon","coordinates": [[[[4.1171,36.283,536.9777],[4.1087,36.2815,563.6696],[4.0932,36.2876,530.949],[4.0683,36.294,488.4532],[4.0585,36.2886,545.1283],[4.0412,36.2884,501.1395],[4.0359,36.2912,500.0661],[4.0305,36.2898,484.0643],[4.0249,36.2847,493.313],[4.0184,36.2828,512.7021],[3.9833,36.2771,604.7798],[3.9788,36.2724,576.7005],[3.9781,36.2681,562.3655],[3.9737,36.2646,590.1266],[3.9678,36.267,504.7363],[3.9637,36.2637,507.6131],[3.9665,36.2589,520.2621],[3.9667,36.2483,578.5148],[3.9552,36.2352,647.3259],[3.972,36.2248,695.577],[3.9724,36.2203,722.8115],[3.9921,36.212,764.196],[3.9942,36.1961,754.0396],[3.9999,36.1981,777.3803],[4.0032,36.2028,793.1149],[4.0301,36.2046,918.4573],[4.0354,36.2081,932.7084],[4.0398,36.2085,927.6502],[4.0536,36.2066,939.0008],[4.0694,36.2013,924.0125],[4.0859,36.2015,911.7523],[4.0899,36.1999,924.3638],[4.0936,36.2132,843.8228],[4.0935,36.2179,825.5815],[4.1003,36.2282,858.7111],[4.1002,36.2338,840.8317],[4.0939,36.2378,795.9201],[4.0941,36.2439,704.7478],[4.103,36.2676,840.0594],[4.1076,36.2705,771.9265],[4.1171,36.283,536.9777]]]]}}