{"type":"Feature","properties":{"GID_2":"DZA.12.12_1","GID_0":"DZA","country":"Algeria","GID_1":"DZA.12_1","province":"Bouira","NL_NAME_1":"ولايةالبويرة","county":"BirGhbalou","VARNAME_2":"Bi`rGhabālū","NL_NAME_2":"NA","TYPE_2":"Commune","ENGTYPE_2":"Commune","CC_2":"1036","HASC_2":"DZ.BU.BG","name":"Bir_Ghbalou.county"},
"geometry":{"type": "MultiPolygon","coordinates": [[[[3.6432,36.273,683.4174],[3.632,36.2701,663.5443],[3.6216,36.2767,679.796],[3.6028,36.281,664.623],[3.5889,36.2883,726.0508],[3.5844,36.2872,730.9922],[3.575,36.2947,717.6584],[3.5649,36.2964,710.6218],[3.5567,36.3061,636.9334],[3.5598,36.3164,641.0547],[3.555,36.3193,648.6721],[3.5482,36.318,650.5337],[3.5455,36.307,608.271],[3.5386,36.296,596.3793],[3.5344,36.2813,590.6628],[3.5203,36.2767,556.2578],[3.535,36.2727,557.4586],[3.541,36.2727,586.6986],[3.5473,36.2697,568.2524],[3.5557,36.2529,602.8917],[3.568,36.2383,626.139],[3.5673,36.2263,646.6385],[3.6022,36.2258,685.0768],[3.6133,36.2238,706.1582],[3.616,36.2283,697.543],[3.6124,36.2337,685.663],[3.6432,36.273,683.4174]]]]}}