{"type": "Feature","bbox": [3.1576,32.9906,4.4795,33.7986],"geometry": {"type": "MultiPolygon","coordinates": [[[[3.8005,33.4975,738.5479],[3.7127,33.5262,757.777],[3.649,33.6179,774.9162],[3.6117,33.6288,771.6343],[3.5974,33.6478,760.3029],[3.5927,33.662,757.2281],[3.5511,33.6923,731.1251],[3.4658,33.7601,745.1319],[3.3397,33.7986,676.6281],[3.3442,33.7919,677.2597],[3.3395,33.7909,682.2631],[3.3268,33.771,689.3185],[3.3167,33.7646,694.2329],[3.305,33.7497,704.1606],[3.294,33.7441,711.9615],[3.292,33.7384,719.72],[3.2953,33.7214,732.4513],[3.3032,33.7143,726.8951],[3.3005,33.6985,768.4764],[3.2861,33.6519,803.8494],[3.2856,33.6458,809.8097],[3.3051,33.6009,792.9169],[3.3017,33.5979,795.6373],[3.299,33.6012,796.1088],[3.2946,33.5963,797.245],[3.2903,33.5988,795.1321],[3.2846,33.5994,785.845],[3.2874,33.5948,795.9738],[3.2833,33.5935,798.4122],[3.285,33.5864,805.6602],[3.2805,33.5893,799.8198],[3.2796,33.5709,813.8389],[3.2557,33.5433,837.9133],[3.2065,33.5368,837.1765],[3.1576,33.5434,851.1288],[3.1817,33.5074,834.1864],[3.1869,33.4963,827.359],[3.2078,33.4756,816.9909],[3.2167,33.4722,816.4729],[3.2205,33.4691,821.3737],[3.2445,33.4661,811.2037],[3.2636,33.4604,806.7398],[3.2682,33.4549,807.2794],[3.2846,33.4462,796.8068],[3.2954,33.4372,795.7462],[3.3015,33.4402,794.992],[3.3041,33.4363,795.9922],[3.3143,33.4332,792.7418],[3.3258,33.3859,790.5007],[3.3469,33.3764,785.1353],[3.3566,33.3666,782.5274],[3.3693,33.3462,775.2158],[3.3745,33.3447,775.3047],[3.3846,33.3371,772.8384],[3.3896,33.3368,769.8187],[3.3877,33.3324,773.5557],[3.3882,33.3246,776.3504],[3.3923,33.3198,777.0046],[3.3984,33.3171,778.1892],[3.4041,33.3122,782.4738],[3.4096,33.3108,780.8225],[3.4115,33.3031,773.0818],[3.4119,33.2905,781.2551],[3.4153,33.2827,780.4941],[3.42,33.2803,777.744],[3.4934,33.1905,729.8435],[3.6619,33.1532,694.1853],[3.6776,33.1287,657.8301],[3.6938,33.1179,645.477],[3.7102,33.1177,636.775],[3.723,33.1123,629.8312],[3.7307,33.1117,625.3192],[3.7366,33.1084,622.5386],[3.742,33.1104,620.1804],[3.7472,33.1095,617.9669],[3.7489,33.1034,614.2445],[3.7543,33.1039,612.3881],[3.7594,33.1065,608.7755],[3.7639,33.0966,605.1188],[3.7734,33.0947,601.682],[3.7846,33.085,590.074],[3.7871,33.0792,586.7391],[3.7915,33.0769,587.6272],[3.8006,33.0676,576.9395],[3.7968,33.063,575.4167],[3.7958,33.0588,575.0676],[3.8004,33.0471,572.2283],[3.8195,33.0369,562.741],[3.8272,33.0368,555.9366],[3.8388,33.0211,549.0673],[3.8501,33.02,555.7014],[3.8663,33.0294,550.3544],[3.8713,33.0343,540.1488],[3.8759,33.0358,536.4838],[3.8848,33.0296,534.5878],[3.9799,33.024,586.3869],[4.0241,33.0196,569.3705],[4.3488,33.0011,454.0787],[4.4795,32.9906,432.4038],[4.4195,33.0646,450.6262],[4.4146,33.0973,459.5715],[4.3609,33.1419,477.5291],[4.3384,33.2024,492.859],[4.2179,33.3129,572.8562],[4.1929,33.3339,589.5962],[4.0879,33.4011,650.5737],[4.0003,33.4287,688.5748],[3.8005,33.4975,738.5479]]]]}
,"properties": {"GID_2": "DZA.25.11_1","GID_0": "DZA","country": "Algeria","GID_1": "DZA.25_1","province": "Laghouat","NL_NAME_1": "ولايةالأغواط","county": "HassiDelaa","VARNAME_2": "HassiDhelaa","NL_NAME_2": "NA","TYPE_2": "Commune","ENGTYPE_2": "Commune","CC_2": "305","HASC_2": "DZ.LG.HD","name": "Hassi_Delaa.county","area_km2": 4672.464,"hist_schema_id": "Elevation0-9000","hist_area_km2": {"425": 5.884,"450": 126.196,"475": 138.67,"500": 131.58,"525": 151.679,"550": 237.913,"575": 258.254,"600": 265.738,"625": 263.027,"650": 358.061,"675": 312.626,"700": 395.426,"725": 404.014,"750": 422.503,"775": 619.97,"800": 373.29,"825": 185.719,"850": 21.914}}}