{"type": "Feature","bbox": [5.3474,36.5408,5.4833,36.6073],"geometry": {"type": "MultiPolygon","coordinates": [[[[5.4604,36.5408,1641.6044],[5.4653,36.5606,960.9449],[5.4695,36.5643,966.2645],[5.4802,36.5682,969.4688],[5.4833,36.5733,967.0715],[5.4798,36.5779,917.1495],[5.4739,36.5804,791.022],[5.4765,36.5851,631.486],[5.4726,36.5947,1148.9963],[5.4659,36.6021,861.9097],[5.4596,36.6062,1035.7379],[5.4526,36.6073,1246.4465],[5.4423,36.6033,1159.1379],[5.4274,36.6038,1057.3135],[5.4046,36.5985,719.2318],[5.3735,36.5834,839.1895],[5.3616,36.586,756.874],[5.3474,36.5821,263.6783],[5.3507,36.578,53.17],[5.3477,36.5721,101.2811],[5.3574,36.5667,331.1174],[5.3643,36.5577,456.5058],[5.3709,36.555,1040.2919],[5.3873,36.5552,1201.0308],[5.3936,36.5582,1254.1788],[5.4106,36.5589,923.9385],[5.4157,36.5625,831.3878],[5.4207,36.5637,642.6671],[5.439,36.5642,1364.4712],[5.4423,36.5611,1169.7749],[5.4495,36.5485,1239.5559],[5.4604,36.5408,1641.6044]]]]}
,"properties": {"GID_2": "DZA.8.39_1","GID_0": "DZA","country": "Algeria","GID_1": "DZA.8_1","province": "Béjaïa","NL_NAME_1": "بجاية","county": "Tamridjet","VARNAME_2": "NA","NL_NAME_2": "NA","TYPE_2": "Commune","ENGTYPE_2": "Commune","CC_2": "646","HASC_2": "DZ.BJ.TJ","name": "Tamridjet.county","area_km2": 47.6399,"hist_schema_id": "Elevation0-9000","hist_area_km2": {"50": 0.03405,"75": 0.01703,"100": 0.05108,"125": 0.03405,"150": 0.06811,"175": 0.25538,"200": 0.61291,"225": 0.85126,"250": 0.91937,"275": 1.17477,"300": 1.56635,"325": 1.24287,"350": 1.41311,"375": 1.63447,"400": 1.37908,"425": 1.4472,"450": 1.60044,"475": 1.39615,"500": 1.56638,"525": 1.49828,"550": 1.51532,"575": 1.41319,"600": 1.32802,"625": 1.22592,"650": 1.41319,"675": 1.00454,"700": 1.31106,"725": 1.22589,"750": 1.17482,"775": 1.03862,"800": 1.08971,"825": 1.02157,"850": 1.15778,"875": 1.12373,"900": 0.98751,"925": 1.19184,"950": 1.03864,"975": 0.90243,"1000": 1.08973,"1025": 0.81733,"1050": 0.86841,"1075": 0.57896,"1100": 0.40866,"1125": 0.54489,"1150": 0.54489,"1175": 0.52788,"1200": 0.40863,"1225": 0.37461,"1250": 0.34057,"1275": 0.17027,"1300": 0.10218,"1325": 0.08515,"1350": 0.15328,"1375": 0.17031,"1400": 0.10219,"1425": 0.06813,"1450": 0.03407,"1475": 0.03407,"1500": 0.06813,"1525": 0.03407,"1550": 0.03407,"1575": 0.03407,"1600": 0.03407,"1625": 0.03407,"1675": 0.01703,"1700": 0.01703,"1725": 0.01703}}}