{"type":"Feature","properties":{"GID_2":"DZA.45.14_1","GID_0":"DZA","country":"Algeria","GID_1":"DZA.45_1","province":"Tipaza","NL_NAME_1":"ولايةتيبازة","county":"HadjretEnnous","VARNAME_2":"HadjeretEnnous","NL_NAME_2":"NA","TYPE_2":"Commune-Cotiere","ENGTYPE_2":"Commune-Cotiere","CC_2":"4228","HASC_2":"DZ.TP.HE","name":"Hadjret_Ennous.county"},
"geometry":{"type": "MultiPolygon","coordinates": [[[[2.0706,36.5317,160.9034],[2.069,36.5371,281.8143],[2.0709,36.5555,137.0228],[2.0755,36.5584,218.0922],[2.08,36.5574,271.5621],[2.0857,36.5697,80.305],[2.087,36.5793,5.6436],[2.0545,36.5757,0.0],[2.0427,36.5714,21.8672],[2.0119,36.5677,1.161],[2.0162,36.5643,106.3144],[2.0175,36.5588,29.5161],[2.021,36.5544,59.2466],[2.0258,36.5531,86.63],[2.0241,36.5431,64.9812],[2.0354,36.5357,66.9471],[2.0415,36.5383,50.2017],[2.0447,36.5337,112.5833],[2.0441,36.5231,64.0647],[2.0583,36.5179,85.6288],[2.0706,36.5317,160.9034]]]]}}