{"type": "Feature","bbox": [3.1106,36.1957,3.304,36.3568],"geometry": {"type": "MultiPolygon","coordinates": [[[[3.214,36.3568,883.756],[3.202,36.3525,908.7795],[3.2048,36.3487,918.405],[3.2054,36.3435,897.9994],[3.1993,36.3315,696.5718],[3.187,36.325,684.8797],[3.1815,36.324,753.4229],[3.1765,36.3153,632.2433],[3.1691,36.3123,645.6794],[3.1571,36.3104,640.4884],[3.1325,36.3107,946.9053],[3.1168,36.3051,907.8132],[3.115,36.2894,775.1451],[3.1111,36.2818,711.5585],[3.1122,36.277,670.1999],[3.1106,36.2669,708.6003],[3.112,36.2608,702.7786],[3.1233,36.2463,654.9047],[3.1285,36.2426,648.0648],[3.1343,36.2421,647.7994],[3.1384,36.2395,646.6022],[3.1405,36.2336,604.4406],[3.1571,36.232,565.9163],[3.1541,36.2275,566.2298],[3.1477,36.2266,569.9432],[3.1476,36.2213,610.4608],[3.1421,36.2076,589.3269],[3.1452,36.2019,609.3903],[3.1508,36.2014,631.5508],[3.1611,36.1964,644.4457],[3.1683,36.1957,672.6201],[3.1732,36.1998,704.9691],[3.1772,36.2039,734.6111],[3.1796,36.2095,724.0735],[3.1873,36.2165,698.5051],[3.1931,36.2312,645.67],[3.188,36.2368,620.3995],[3.1881,36.2422,633.717],[3.2053,36.2606,667.3494],[3.2122,36.2621,697.0601],[3.2165,36.2667,712.4456],[3.2235,36.2652,725.437],[3.2292,36.2614,715.4277],[3.2453,36.2576,702.3132],[3.2556,36.2623,719.6378],[3.2771,36.2658,788.2975],[3.2796,36.2707,787.1567],[3.2769,36.2763,796.5942],[3.2787,36.2836,777.3177],[3.2831,36.2888,689.2078],[3.2834,36.2943,705.3765],[3.2873,36.3054,661.7863],[3.3017,36.3186,602.6671],[3.304,36.3304,593.8721],[3.3025,36.3423,543.6223],[3.2974,36.3455,468.8889],[3.2878,36.3372,438.1783],[3.2749,36.3373,462.0851],[3.2564,36.3301,451.5454],[3.2506,36.3311,524.7353],[3.245,36.3352,513.7048],[3.2396,36.3359,551.1814],[3.2352,36.3388,613.2175],[3.2203,36.3558,778.2025],[3.214,36.3568,883.756]]]]}
,"properties": {"GID_2": "DZA.28.13_1","GID_0": "DZA","country": "Algeria","GID_1": "DZA.28_1","province": "Médéa","NL_NAME_1": "ولايةالمدية","county": "Boucherahil","VARNAME_2": "Bouchrahil","NL_NAME_2": "NA","TYPE_2": "Commune","ENGTYPE_2": "Commune","CC_2": "2621","HASC_2": "DZ.MD.BH","name": "Boucherahil.county","area_km2": 148.2631,"hist_schema_id": "Elevation0-9000","hist_area_km2": {"425": 0.1708,"450": 1.5886,"475": 3.0239,"500": 3.8271,"525": 6.083,"550": 8.9208,"575": 10.6809,"600": 13.0567,"625": 17.5193,"650": 22.5803,"675": 16.7689,"700": 14.7685,"725": 11.3836,"750": 6.3408,"775": 3.6738,"800": 2.8022,"825": 1.3838,"850": 1.1445,"875": 0.82,"900": 0.7175,"925": 0.3588,"950": 0.2905,"975": 0.1196,"1000": 0.1709,"1025": 0.0683}}}