{"type": "Feature","bbox": [2.728,32.4978,3.7256,32.8973],"geometry": {"type": "MultiPolygon","coordinates": [[[[3.3943,32.8118,727.5151],[3.3322,32.8266,761.6237],[2.9993,32.8973,718.6591],[2.9823,32.8929,718.7989],[2.8777,32.8799,719.0883],[2.8656,32.8747,719.3826],[2.8423,32.8698,722.8755],[2.8264,32.8635,725.1671],[2.8115,32.8607,728.0934],[2.7938,32.8549,730.9186],[2.7508,32.8371,731.3783],[2.728,32.8388,733.7731],[3.1488,32.556,691.4792],[3.1623,32.5527,679.0012],[3.1791,32.5535,670.0204],[3.1877,32.5509,666.8232],[3.2057,32.5491,661.2217],[3.2317,32.5417,657.0364],[3.2373,32.5421,656.42],[3.2426,32.5454,654.5463],[3.2496,32.547,653.41],[3.2694,32.544,647.9704],[3.2917,32.5488,642.6509],[3.2979,32.5484,638.8905],[3.312,32.5432,635.3703],[3.5766,32.4978,549.7058],[3.6027,32.524,562.678],[3.6091,32.524,530.3621],[3.6182,32.5306,553.4155],[3.6169,32.5376,525.6639],[3.6189,32.5446,523.2428],[3.6162,32.5495,536.9363],[3.6154,32.559,581.9314],[3.6178,32.5661,587.1948],[3.6156,32.5729,586.2964],[3.6189,32.5801,580.8248],[3.6414,32.5716,553.1322],[3.6773,32.62,587.0078],[3.6975,32.6503,568.5761],[3.7224,32.6907,616.9922],[3.7256,32.6986,611.4749],[3.6178,32.7324,626.2598],[3.485,32.777,691.7786],[3.3943,32.8118,727.5151]]]]}
,"properties": {"GID_2": "DZA.20.3_1","GID_0": "DZA","country": "Algeria","GID_1": "DZA.20_1","province": "Ghardaïa","NL_NAME_1": "ولايةغرداية","county": "DhayetBendhahoua","VARNAME_2": "DhayetBendahoua","NL_NAME_2": "NA","TYPE_2": "Commune","ENGTYPE_2": "Commune","CC_2": "4703","HASC_2": "DZ.GR.DB","name": "Dhayet_Bendhahoua.county","area_km2": 2234.1,"hist_schema_id": "Elevation0-9000","hist_area_km2": {"525": 9.347,"550": 28.641,"575": 59.358,"600": 116.698,"625": 213.033,"650": 217.005,"675": 201.09,"700": 263.29,"725": 776.575,"750": 304.385,"775": 44.678}}}