{"type": "Feature","bbox": [1.744,35.7337,1.8613,35.9171],"geometry": {"type": "MultiPolygon","coordinates": [[[[1.744,35.9171,718.2556],[1.7458,35.9132,730.2651],[1.7577,35.9087,868.8339],[1.7583,35.9033,969.1475],[1.7629,35.8989,1036.6464],[1.7661,35.8891,922.1388],[1.765,35.8775,812.7424],[1.7621,35.8743,832.2369],[1.7634,35.8687,830.6693],[1.7726,35.8609,690.3951],[1.769,35.8434,638.0],[1.7644,35.8401,638.0],[1.761,35.8343,764.0863],[1.7612,35.8287,940.1082],[1.7652,35.823,894.7799],[1.7663,35.814,981.9165],[1.7637,35.8091,957.7054],[1.7636,35.7997,912.1088],[1.7716,35.7906,851.2178],[1.7779,35.7783,712.6368],[1.7779,35.7734,721.8202],[1.7816,35.7639,712.7256],[1.7851,35.76,739.6273],[1.7908,35.7573,789.5125],[1.7865,35.754,786.2123],[1.7937,35.7498,774.7692],[1.8063,35.7476,785.2157],[1.8151,35.7393,859.7318],[1.8213,35.7367,901.2838],[1.8378,35.7361,843.785],[1.8416,35.7397,883.1309],[1.8488,35.7376,964.4725],[1.8551,35.7337,928.4084],[1.8582,35.739,954.0002],[1.8613,35.7511,912.8681],[1.8566,35.7617,916.8451],[1.8572,35.7683,877.0075],[1.8431,35.7901,865.4421],[1.8534,35.8028,723.2781],[1.8532,35.8109,814.3149],[1.8407,35.8172,785.8798],[1.8346,35.8185,769.5661],[1.83,35.8235,763.1656],[1.829,35.8291,875.8622],[1.8234,35.841,904.418],[1.8226,35.8453,971.0217],[1.8242,35.8495,970.9827],[1.8346,35.8472,970.2754],[1.837,35.8518,967.3513],[1.835,35.8577,851.9114],[1.8389,35.8606,911.9215],[1.8344,35.8643,746.2552],[1.8293,35.8646,722.0432],[1.8282,35.8705,756.8277],[1.8231,35.8745,870.1005],[1.8192,35.8813,946.7969],[1.823,35.8959,1003.8231],[1.8091,35.9073,891.4479],[1.7978,35.9057,910.8361],[1.7906,35.9131,944.2211],[1.7739,35.9144,983.9302],[1.765,35.9134,1066.1326],[1.744,35.9171,718.2556]]]]}
,"properties": {"GID_2": "DZA.46.2_1","GID_0": "DZA","country": "Algeria","GID_1": "DZA.46_1","province": "Tissemsilt","NL_NAME_1": "ولايةتسمسيلت","county": "BeniChaib","VARNAME_2": "NA","NL_NAME_2": "NA","TYPE_2": "Commune","ENGTYPE_2": "Commune","CC_2": "3805","HASC_2": "DZ.TS.BC","name": "Beni_Chaib.county","area_km2": 116.25025,"hist_schema_id": "Elevation0-9000","hist_area_km2": {"650": 5.13978,"675": 5.17496,"700": 6.58476,"725": 7.90829,"750": 9.66232,"775": 10.53945,"800": 10.93458,"825": 11.62227,"850": 10.72891,"875": 10.45318,"900": 8.8371,"925": 6.91103,"950": 4.2976,"975": 2.5092,"1000": 1.71811,"1025": 1.11643,"1050": 0.78999,"1075": 0.53236,"1100": 0.39497,"1125": 0.1889,"1150": 0.12021,"1175": 0.05152,"1200": 0.03435}}}