{"type":"Feature","properties":{"GID_2":"DZA.10.2_1","GID_0":"DZA","country":"Algeria","GID_1":"DZA.10_1","province":"Blida","NL_NAME_1":"البليدة","county":"Beni-Tamou","VARNAME_2":"BeniTamou","NL_NAME_2":"NA","TYPE_2":"Commune","ENGTYPE_2":"Commune","CC_2":"919","HASC_2":"DZ.BL.BT","name":"Beni-Tamou.county"},
"geometry":{"type": "MultiPolygon","coordinates": [[[[2.8377,36.5142,149.9575],[2.8404,36.532,116.8963],[2.8449,36.541,96.766],[2.8363,36.5631,59.5928],[2.837,36.5703,50.2135],[2.8286,36.5691,47.5976],[2.815,36.5644,50.4456],[2.8104,36.5612,52.8144],[2.8117,36.5539,63.3195],[2.8081,36.5495,70.7993],[2.8023,36.548,68.2691],[2.7958,36.5437,69.952],[2.7885,36.5404,71.2249],[2.7819,36.544,57.3188],[2.7755,36.542,55.3995],[2.79,36.5195,106.2994],[2.7936,36.5156,116.0393],[2.8016,36.516,126.3193],[2.8038,36.5107,137.632],[2.8254,36.5109,153.3583],[2.8377,36.5142,149.9575]]]]}}