{"type":"Feature","properties":{"GID_2":"DZA.40.19_1","GID_0":"DZA","country":"Algeria","GID_1":"DZA.40_1","province":"SoukAhras","NL_NAME_1":"ولايةسوقأهراس","county":"Sedrata","VARNAME_2":"Sadrātah","NL_NAME_2":"NA","TYPE_2":"Commune","ENGTYPE_2":"Commune","CC_2":"4102","HASC_2":"DZ.SA.SE","name":"Sedrata.county"},
"geometry":{"type": "MultiPolygon","coordinates": [[[[7.5205,36.22,1188.4073],[7.52,36.2066,1146.2932],[7.5166,36.2017,1198.3015],[7.5196,36.1965,1250.4932],[7.5187,36.1918,1338.5404],[7.4985,36.1837,1284.8595],[7.4916,36.1831,1282.2438],[7.4857,36.1851,1293.1687],[7.4797,36.1872,1224.485],[7.4757999999999996,36.1915,1137.1682],[7.4651,36.1918,1124.5889],[7.4488,36.1843,1121.8716],[7.4543,36.1802,1073.9667],[7.4544,36.1743,1109.0002],[7.4513,36.1713,1030.3813],[7.4487,36.1614,961.1709],[7.4484,36.1552,918.8486],[7.4513,36.1493,891.3362],[7.4499,36.1419,876.0718],[7.46,36.1355,925.9425],[7.4714,36.1322,911.47],[7.4785,36.1242,873.9722],[7.4839,36.1128,831.7352],[7.4934,36.1096,829.9218],[7.5022,36.1032,801.6385],[7.5165,36.0904,772.4664],[7.5194,36.086,765.5088],[7.5261,36.0875,768.274],[7.5365,36.0927,772.0295],[7.5412,36.0918,780.5439],[7.5421,36.0737,852.5176],[7.5468,36.0581,994.4976],[7.559,36.0626,960.9732],[7.564,36.0721,972.8689],[7.57,36.0733,955.1744],[7.5955,36.0843,834.0453],[7.6131,36.08,837.295],[7.6188,36.0824,834.9199],[7.6301,36.0917,810.2796],[7.644,36.0906,815.2234],[7.6503,36.0998,818.8826],[7.6474,36.1049,842.3104],[7.6386,36.1117,912.116],[7.6416,36.1204,956.9684],[7.6477,36.1238,1001.4157],[7.6423,36.1338,1045.3514],[7.6273,36.1455,928.844],[7.6171,36.1483,879.827],[7.6122,36.152,873.3506],[7.6045,36.1544,845.8849],[7.5871,36.1518,835.8811],[7.5785,36.1825,884.8279],[7.5772,36.2053,920.4716],[7.5743,36.2171,966.7061],[7.5802,36.2306,1060.7988],[7.5663,36.2342,1079.4501],[7.5448,36.2283,1151.2076],[7.5338,36.2269,1134.2948],[7.5205,36.22,1188.4073]]]]}}