{"type":"Feature","properties":{"GID_2":"DZA.39.16_1","GID_0":"DZA","country":"Algeria","GID_1":"DZA.39_1","province":"Skikda","NL_NAME_1":"سكيكدة","county":"ElGhedir","VARNAME_2":"NA","NL_NAME_2":"NA","TYPE_2":"Commune","ENGTYPE_2":"Commune","CC_2":"2133","HASC_2":"DZ.SK.EG","name":"El_Ghedir.county"},
"geometry":{"type": "MultiPolygon","coordinates": [[[[6.9996,36.7035,236.4564],[6.9938,36.7037,272.2318],[6.9842,36.7072,121.6838],[6.9703,36.7074,83.9743],[6.9718,36.7016,92.1864],[6.9676,36.6913,164.185],[6.9353,36.6822,150.7673],[6.9336,36.6717,195.4229],[6.9155,36.6495,468.2498],[6.9037,36.6471,405.5434],[6.8966,36.6416,321.0217],[6.9007,36.6383,192.9019],[6.9198,36.6417,369.7606],[6.9381,36.632,328.1299],[6.954,36.6269,346.7863],[6.9833,36.6315,547.025],[6.9898,36.6342,576.7144],[6.9959,36.64,384.5278],[6.9982,36.6486,322.958],[6.9966,36.6552,284.9918],[6.9934,36.66,303.141],[6.9953,36.6657,342.239],[7.0032,36.6696,493.2994],[7.0053,36.6759,340.16],[7.0063,36.6891,213.6933],[6.9973,36.6969,148.094],[6.9996,36.7035,236.4564]]]]}}