{"type":"Feature","properties":{"GID_2":"DZA.46.19_1","GID_0":"DZA","country":"Algeria","GID_1":"DZA.46_1","province":"Tissemsilt","NL_NAME_1":"ولايةتسمسيلت","county":"SidiSlimane","VARNAME_2":"NA","NL_NAME_2":"NA","TYPE_2":"Commune","ENGTYPE_2":"Commune","CC_2":"3820","HASC_2":"DZ.TS.SS","name":"Sidi_Slimane.county"},
"geometry":{"type": "MultiPolygon","coordinates": [[[[1.7634,35.8687,830.6693],[1.7576,35.8653,818.2559],[1.7413,35.8683,633.7648],[1.7392,35.8736,570.9651],[1.7339,35.8764,593.2502],[1.729,35.876,581.6023],[1.7187,35.8949,584.0159],[1.7083,35.898,688.017],[1.6975,35.8985,935.5016],[1.6879,35.8941,1008.3987],[1.6807,35.8842,1367.1755],[1.6735,35.8642,814.3856],[1.6858,35.8426,1114.9543],[1.6937,35.838,1015.3369],[1.7071,35.837,1070.3164],[1.7126,35.8339,1063.5764],[1.7207,35.8257,909.8369],[1.7196,35.819,814.5072],[1.7233,35.8136,746.3893],[1.7277,35.811,858.0775],[1.7348,35.8121,943.0745],[1.7463,35.8087,760.0214],[1.7586,35.8112,882.229],[1.7637,35.8091,957.7054],[1.7663,35.814,981.9165],[1.7652,35.823,894.7799],[1.7612,35.8287,940.1082],[1.761,35.8343,764.0863],[1.7644,35.8401,638.0],[1.769,35.8434,638.0],[1.7726,35.8609,690.3951],[1.7634,35.8687,830.6693]]]]}}