{"type": "Feature","bbox": [5.9505,35.1998,6.2933,35.3538],"geometry": {"type": "MultiPolygon","coordinates": [[[[5.9932,35.2708,1568.2793],[5.9838,35.2677,1513.613],[5.9824,35.2636,1453.8893],[5.9634,35.253,1191.588],[5.9659,35.2472,1306.1444],[5.9658,35.2371,1379.6101],[5.9505,35.2213,1443.1824],[5.9646,35.2172,1461.3055],[5.9685,35.214,1544.3466],[5.969,35.2079,1727.9292],[5.982,35.2171,1733.2955],[5.9926,35.2213,1691.6788],[6.0138,35.203,1003.8856],[6.0193,35.2003,976.0222],[6.0323,35.1998,1190.3672],[6.0509,35.2079,1260.6271],[6.0733,35.2217,1403.7745],[6.1027,35.2345,1539.0129],[6.141,35.2555,1618.0778],[6.1996,35.2805,1750.2886],[6.2276,35.2981,1864.2446],[6.2511,35.3173,1952.4399],[6.2883,35.3404,2175.926],[6.2933,35.346,2231.1682],[6.289,35.3517,2173.7539],[6.2819,35.3538,2157.9011],[6.2629,35.3538,2164.4192],[6.2479,35.349,2087.168],[6.2456,35.3534,2078.1006],[6.2381,35.3533,2095.1936],[6.2206,35.3489,2030.3339],[6.1802,35.3423,1985.527],[6.1369,35.3233,1865.3341],[6.1273,35.3148,1813.228],[6.1105,35.3051,1675.3738],[6.0717,35.2899,1687.7312],[6.0391,35.2799,1618.1882],[6.0169,35.2782,1593.8677],[6.0117,35.2746,1605.2377],[5.9932,35.2708,1568.2793]]]]}
,"properties": {"GID_2": "DZA.6.13_1","GID_0": "DZA","country": "Algeria","GID_1": "DZA.6_1","province": "Batna","NL_NAME_1": "ولايةباتنة","county": "Bouzina","VARNAME_2": "NA","NL_NAME_2": "NA","TYPE_2": "Commune","ENGTYPE_2": "Commune","CC_2": "535","HASC_2": "DZ.BT.BZ","name": "Bouzina.county","area_km2": 196.471,"hist_schema_id": "Elevation0-9000","hist_area_km2": {"975": 0.052,"1000": 0.3811,"1025": 0.9008,"1050": 1.559,"1075": 2.2344,"1100": 2.5287,"1125": 2.5632,"1150": 3.325,"1175": 3.3075,"1200": 3.5671,"1225": 4.5192,"1250": 4.6576,"1275": 5.1943,"1300": 7.2197,"1325": 10.2147,"1350": 12.8111,"1375": 12.8453,"1400": 15.8214,"1425": 16.3911,"1450": 11.9073,"1475": 9.5704,"1500": 8.6181,"1525": 7.199,"1550": 6.0395,"1575": 4.9841,"1600": 3.9456,"1625": 3.2013,"1650": 2.3533,"1675": 2.3706,"1700": 2.1802,"1725": 1.7131,"1750": 1.5917,"1775": 1.5397,"1800": 1.332,"1825": 1.2974,"1850": 1.3665,"1875": 1.3838,"1900": 1.3146,"1925": 1.1935,"1950": 1.107,"1975": 1.1761,"2000": 0.9166,"2025": 1.2625,"2050": 1.643,"2075": 1.7294,"2100": 0.8993,"2125": 0.6053,"2150": 0.6918,"2175": 0.7782,"2200": 0.1902,"2225": 0.1384,"2250": 0.1038,"2275": 0.0173,"2300": 0.0173}}}