{"type":"Feature","properties":{"GID_2":"DZA.12.45_1","GID_0":"DZA","country":"Algeria","GID_1":"DZA.12_1","province":"Bouira","NL_NAME_1":"ولايةالبويرة","county":"Zbarbar|ElIsseri","VARNAME_2":"Zbarbar","NL_NAME_2":"NA","TYPE_2":"Commune","ENGTYPE_2":"Commune","CC_2":"1024","HASC_2":"DZ.BU.ZB","name":"Zbarbar_El_Isseri.county"},
"geometry":{"type": "MultiPolygon","coordinates": [[[[3.5694,36.4413,459.4447],[3.5588,36.4534,311.2859],[3.5551,36.4628,298.5],[3.5607,36.4746,298.5],[3.5659,36.4787,298.5],[3.561,36.4897,452.4478],[3.5635,36.5049,593.2627],[3.548,36.5114,394.5556],[3.5484,36.5162,312.7872],[3.5372,36.5119,458.1584],[3.5277,36.5039,483.4805],[3.5215,36.5023,628.0784],[3.5047,36.5091,426.1734],[3.5033,36.5164,320.2601],[3.4858,36.5063,837.4639],[3.4837,36.5009,823.5143],[3.4779,36.4954,939.2729],[3.4676,36.4938,797.8341],[3.4628,36.4905,848.0126],[3.4645,36.4846,608.3713],[3.4715,36.48,498.8725],[3.4713,36.4743,470.4137],[3.468,36.4641,369.6546],[3.4792,36.4499,298.5],[3.4843,36.4492,298.5],[3.4924,36.4542,298.5],[3.5028,36.4562,298.5],[3.5053,36.4498,298.5],[3.5119,36.445,342.4895],[3.5202,36.4453,553.7505],[3.5265,36.4427,575.4063],[3.535,36.4374,697.0095],[3.5428,36.4297,835.7089],[3.5616,36.4305,507.0364],[3.57,36.4368,462.57],[3.5694,36.4413,459.4447]]]]}}