{"type":"Feature","properties":{"GID_2":"DZA.28.31_1","GID_0":"DZA","country":"Algeria","GID_1":"DZA.28_1","province":"Médéa","NL_NAME_1":"ولايةالمدية","county":"KsarElBoukhari","VARNAME_2":"Qasr-al-Bukharī","NL_NAME_2":"NA","TYPE_2":"Commune","ENGTYPE_2":"Commune","CC_2":"2635","HASC_2":"DZ.MD.KB","name":"Ksar_El_Boukhari.county"},
"geometry":{"type": "MultiPolygon","coordinates": [[[[2.7154,35.8724,755.4407],[2.7174,35.8682,652.1862],[2.7107,35.866,646.6854],[2.7214,35.8595,624.3505],[2.7231,35.8556,646.6097],[2.7201,35.8515,641.3841],[2.7228,35.8456,629.2496],[2.7202,35.841,624.5145],[2.7201,35.8362,625.0909],[2.7316,35.8284,668.0053],[2.745,35.831,645.9907],[2.7512,35.8295,613.7433],[2.7592,35.8305,641.1959],[2.7647,35.8339,651.6517],[2.7707,35.833,642.4626],[2.7809,35.8287,653.8813],[2.7773,35.8389,643.5913],[2.7774,35.8446,643.5684],[2.7864,35.8472,656.8235],[2.8036,35.8576,704.718],[2.8102,35.8682,861.0646],[2.7968,35.877,802.7468],[2.7858,35.8747,763.7849],[2.7795,35.8763,767.1692],[2.7763,35.8812,769.7685],[2.7781,35.8873,804.7376],[2.8029,35.895,893.3281],[2.7968,35.9032,889.7737],[2.7974,35.9099,805.4022],[2.8,35.9139,825.0958],[2.7966,35.9198,697.4774],[2.7913,35.9239,661.7597],[2.7854,35.9253,636.7766],[2.7707,35.9239,602.5489],[2.7685,35.9188,588.2342],[2.7581,35.9108,594.8285],[2.7579,35.9005,597.384],[2.7422,35.8959,606.455],[2.7382,35.8931,607.7991],[2.7346,35.8842,613.3224],[2.7256,35.8791,644.0739],[2.7225,35.874,660.3197],[2.7154,35.8724,755.4407]]]]}}