{"type":"Feature","properties":{"GID_2":"DZA.47.25_1","GID_0":"DZA","country":"Algeria","GID_1":"DZA.47_1","province":"TiziOuzou","NL_NAME_1":"ولايةغليزان","county":"BeniYenni","VARNAME_2":"NA","NL_NAME_2":"NA","TYPE_2":"Commune","ENGTYPE_2":"Commune","CC_2":"1552","HASC_2":"DZ.TO.BY","name":"Beni_Yenni.county"},
"geometry":{"type": "MultiPolygon","coordinates": [[[[4.2434,36.5866,424.5659],[4.2394,36.5913,615.3748],[4.2243,36.5871,335.1067],[4.218,36.5907,329.2601],[4.2086,36.5997,378.9609],[4.2035,36.597,311.4221],[4.1875,36.6033,240.454],[4.1735,36.6051,211.8975],[4.1623,36.6017,197.1496],[4.1577,36.5955,272.7052],[4.1553,36.5888,209.7724],[4.1501,36.5869,251.4689],[4.1545,36.5838,266.295],[4.156,36.578,302.4479],[4.1646,36.5614,455.6639],[4.1697,36.5567,462.9358],[4.1846,36.5511,446.7971],[4.1944,36.5552,314.6328],[4.2099,36.5571,368.4431],[4.2212,36.5523,442.9402],[4.2348,36.5585,448.6854],[4.2421,36.5659,620.2961],[4.2424,36.5776,533.7168],[4.2443,36.5815,432.0259],[4.2434,36.5866,424.5659]]]]}}