{"type": "Feature","bbox": [5.6984,36.7192,5.8338,36.7969],"geometry": {"type": "MultiPolygon","coordinates": [[[[5.7136,36.7302,169.3315],[5.7239,36.7192,538.8808],[5.7426,36.7213,426.7718],[5.7644,36.7295,235.0478],[5.7778,36.7367,97.354],[5.7868,36.7441,80.5674],[5.7931,36.742,159.1315],[5.7923,36.7375,186.6563],[5.7877,36.7356,197.8627],[5.7889,36.7292,257.724],[5.8008,36.7229,183.8876],[5.8213,36.7234,137.5],[5.8259,36.7248,137.5],[5.8297,36.7293,203.5509],[5.8338,36.7418,126.2442],[5.8288,36.7463,92.4905],[5.828,36.753,59.2452],[5.8218,36.7657,34.873],[5.8279,36.7774,24.6134],[5.824,36.7874,36.1725],[5.8171,36.7957,98.2838],[5.8101,36.7969,6.799],[5.8133,36.7901,9.9844],[5.8062,36.7773,24.7993],[5.7924,36.7697,48.8058],[5.7713,36.7666,79.0479],[5.768,36.7707,53.3886],[5.7474,36.7682,211.8064],[5.7307,36.7685,185.1102],[5.7242,36.7704,125.0162],[5.7189,36.7755,107.703],[5.714,36.7745,96.4645],[5.7106,36.7716,183.1691],[5.7155,36.77,137.1354],[5.7143,36.7647,261.2556],[5.6984,36.7652,53.336],[5.7143,36.7362,162.6029],[5.7136,36.7302,169.3315]]]]}
,"properties": {"GID_2": "DZA.23.18_1","GID_0": "DZA","country": "Algeria","GID_1": "DZA.23_1","province": "Jijel","NL_NAME_1": "ولايةجيجل","county": "Kouas","VARNAME_2": "Kaous","NL_NAME_2": "NA","TYPE_2": "Commune","ENGTYPE_2": "Commune","CC_2": "1814","HASC_2": "DZ.JJ.KS","name": "Kouas.county","area_km2": 55.0421,"hist_schema_id": "Elevation0-9000","hist_area_km2": {"0": 0.45844,"25": 3.15872,"50": 4.02553,"75": 5.09607,"100": 4.89242,"125": 4.34886,"150": 4.90986,"175": 4.14544,"200": 3.14301,"225": 3.15996,"250": 2.8032,"275": 2.41242,"300": 2.5654,"325": 2.36161,"350": 1.61412,"375": 1.47819,"400": 1.24038,"425": 0.96855,"450": 0.78164,"475": 0.71368,"500": 0.44176,"525": 0.22089,"550": 0.10194}}}