{"type": "Feature","bbox": [7.648,35.3072,8.023,35.505],"geometry": {"type": "MultiPolygon","coordinates": [[[[7.8384,35.5043,938.0859],[7.8245,35.4977,949.3251],[7.8144,35.4979,962.6528],[7.8037,35.4951,970.8354],[7.7941,35.4884,988.3669],[7.7706,35.4842,1020.2737],[7.7654,35.4817,1026.5406],[7.7588,35.4738,1054.0569],[7.7468,35.4691,1067.9446],[7.7437,35.4638,1085.45],[7.7373,35.46,1104.5369],[7.7173,35.4537,1219.198],[7.7108,35.4406,1209.2329],[7.707,35.4374,1208.7323],[7.6822,35.4332,1196.4862],[7.6773,35.4295,1226.7588],[7.6742,35.4232,1211.395],[7.674,35.4181,1182.67],[7.6661,35.4093,1159.8455],[7.6596,35.3935,1202.5135],[7.6515,35.3869,1226.1188],[7.648,35.3813,1191.6144],[7.6746,35.362,1152.7727],[7.7102,35.3502,1107.3879],[7.7288,35.3642,1111.4906],[7.733,35.3587,1108.4331],[7.7467,35.3518,1105.6414],[7.7613,35.3536,1114.5188],[7.7926,35.3496,1122.6107],[7.8002,35.3421,1126.9475],[7.8058,35.3336,1126.9895],[7.8193,35.3283,1134.5579],[7.835,35.3265,1152.5646],[7.8479,35.322,1170.4856],[7.8522,35.3173,1178.5897],[7.8674,35.3147,1203.4186],[7.8723,35.3114,1217.897],[7.8752,35.3072,1227.6953],[7.8924,35.3127,1253.063],[7.9234,35.3303,1293.4385],[7.9629,35.3435,1378.4998],[7.971,35.3534,1373.4823],[7.9757,35.3747,1316.6421],[7.9878,35.3721,1377.54],[7.9922,35.3728,1375.3734],[7.9927,35.3869,1256.6169],[7.9908,35.3913,1218.3398],[7.9923,35.3954,1146.6707],[7.9995,35.3974,1082.8092],[8.0226,35.4096,955.6696],[8.023,35.4166,899.2913],[8.0188,35.4219,873.1067],[8.0138,35.4243,874.2413],[8.0086,35.4321,833.0887],[8.0024,35.435,844.6956],[7.9991,35.4437,820.8347],[7.987,35.4542,854.1827],[7.9879,35.4586,810.1949],[7.9782,35.4617,823.3427],[7.9647,35.4573,866.6891],[7.9612,35.4526,904.1522],[7.965,35.438,958.4653],[7.9655,35.4227,1069.7985],[7.9694,35.4163,1106.5343],[7.9616,35.4182,981.9269],[7.9511,35.4266,1102.6561],[7.9453,35.4252,1166.224],[7.9356,35.4201,1164.0371],[7.9192,35.407,1130.3292],[7.9081,35.4048,1144.9576],[7.905,35.411,1014.988],[7.9037,35.4231,929.5593],[7.9011,35.4265,921.2591],[7.873,35.4452,950.0769],[7.8689,35.4494,972.4053],[7.8748,35.4519,946.6796],[7.8729,35.4584,944.7415],[7.8661,35.4654,978.9794],[7.8695,35.4683,965.8846],[7.8779,35.4911,905.9622],[7.8821,35.4961,885.856],[7.8785,35.4986,886.3738],[7.873,35.4971,892.5215],[7.8628,35.5002,910.8141],[7.8576,35.4991,910.3008],[7.8447,35.505,931.17],[7.8384,35.5043,938.0859]]]]}
,"properties": {"GID_2": "DZA.42.6_1","GID_0": "DZA","country": "Algeria","GID_1": "DZA.42_1","province": "Tébessa","NL_NAME_1": "ولايةتبسة","county": "BirMokkadem","VARNAME_2": "BirMokadem","NL_NAME_2": "NA","TYPE_2": "Commune","ENGTYPE_2": "Commune","CC_2": "1210","HASC_2": "DZ.TB.BM","name": "Bir_Mokkadem.county","area_km2": 396.0685,"hist_schema_id": "Elevation0-9000","hist_area_km2": {"800": 0.0345,"825": 0.6909,"850": 0.9154,"875": 1.0709,"900": 2.9529,"925": 5.1286,"950": 5.6121,"975": 6.3898,"1000": 7.7373,"1025": 7.9104,"1050": 8.3425,"1075": 8.0317,"1100": 12.5449,"1125": 44.9108,"1150": 52.1154,"1175": 56.846,"1200": 48.0296,"1225": 32.3206,"1250": 27.309,"1275": 26.478,"1300": 19.788,"1325": 10.3691,"1350": 5.9104,"1375": 2.5915,"1400": 1.4163,"1425": 0.5527,"1450": 0.0691}}}