{"type":"Feature","properties":{"GID_2":"DZA.34.5_1","GID_0":"DZA","country":"Algeria","GID_1":"DZA.34_1","province":"OumelBouaghi","NL_NAME_1":"ولايةأمالبواقي","county":"AinElKercha","VARNAME_2":"AinKercha|`AynKirshah","NL_NAME_2":"NA","TYPE_2":"Commune","ENGTYPE_2":"Commune","CC_2":"412","HASC_2":"DZ.OB.AK","name":"Ain_El_Kercha.county"},
"geometry":{"type": "MultiPolygon","coordinates": [[[[6.6817,35.7687,838.8476],[6.6856,35.7753,892.1369],[6.7,35.7899,927.9839],[6.7155,35.8154,874.5746],[6.7234,35.8224,961.998],[6.7312,35.8341,832.4242],[6.7246,35.8549,913.7827],[6.7322,35.8652,915.4563],[6.7322,35.8748,954.8797],[6.7396,35.8892,1015.0272],[6.7365,35.8945,972.0751],[6.7383,35.9067,870.1034],[6.7369,35.9157,843.8515],[6.7334,35.9227,840.1934],[6.7304,35.9266,837.0002],[6.7172,35.9296,831.0431],[6.7155,35.9342,837.2759],[6.7199,35.9565,906.129],[6.7187,35.9607,961.8445],[6.7068,35.9628,935.1326],[6.6972,35.9802,1049.2321],[6.6936,35.9933,1040.1246],[6.6908,35.988,992.9779],[6.6835,35.9819,950.9998],[6.6694,35.9775,935.5262],[6.6677,35.972,899.4418],[6.6617,35.9708,950.0343],[6.656,35.9732,981.7518],[6.6507,35.9788,890.719],[6.6468,35.9731,944.6783],[6.6402,35.9688,850.5865],[6.6381,35.9318,795.6773],[6.6416,35.9285,797.469],[6.6583,35.9203,803.8448],[6.6673,35.8757,843.012],[6.665,35.8692,882.5334],[6.6567,35.8581,1042.1594],[6.6525,35.8563,1089.6604],[6.6409,35.8584,831.75],[6.6256,35.843,1101.9412],[6.6205,35.8325,1241.5715],[6.6141,35.8128,1050.1793],[6.6071,35.801,979.9799],[6.6183,35.7927,946.4579],[6.6601,35.7796,870.2367],[6.6817,35.7687,838.8476]]]]}}