{"type": "Feature","bbox": [3.6963,36.2657,3.8174,36.3493],"geometry": {"type": "MultiPolygon","coordinates": [[[[3.74,36.2657,697.7876],[3.7429,36.2688,695.355],[3.7418,36.2742,675.3474],[3.7517,36.2769,741.3342],[3.7554,36.2817,734.9081],[3.7782,36.2851,807.1821],[3.7941,36.2909,726.4143],[3.8058,36.2869,617.4835],[3.8174,36.2914,595.8242],[3.8134,36.2946,641.2618],[3.8023,36.3104,712.2063],[3.8031,36.3164,725.3766],[3.8004,36.3284,602.137],[3.7851,36.3308,585.6213],[3.7638,36.3377,692.3107],[3.7526,36.3436,688.7621],[3.7248,36.3493,656.1909],[3.7149,36.3469,720.266],[3.7098,36.3438,734.0887],[3.7063,36.339,707.3452],[3.697,36.3355,700.8909],[3.6991,36.3317,677.0655],[3.6963,36.3211,656.5403],[3.6969,36.3162,654.0734],[3.6978,36.3111,652.2786],[3.7012,36.3075,633.5145],[3.6988,36.3021,663.8319],[3.6999,36.2971,704.9723],[3.7036,36.2934,745.0912],[3.708,36.2918,744.7792],[3.7281,36.289,638.9235],[3.735,36.2827,631.5499],[3.7363,36.2717,685.6179],[3.74,36.2657,697.7876]]]]}
,"properties": {"GID_2": "DZA.12.6_1","GID_0": "DZA","country": "Algeria","GID_1": "DZA.12_1","province": "Bouira","NL_NAME_1": "ولايةالبويرة","county": "AinLaloui","VARNAME_2": "NA","NL_NAME_2": "NA","TYPE_2": "Commune","ENGTYPE_2": "Commune","CC_2": "1041","HASC_2": "DZ.BU.AL","name": "Ain_Laloui.county","area_km2": 58.03709,"hist_schema_id": "Elevation0-9000","hist_area_km2": {"575": 1.29822,"600": 3.77546,"625": 9.37909,"650": 10.95069,"675": 10.48958,"700": 9.3454,"725": 7.19352,"750": 3.00749,"775": 1.41843,"800": 0.95704,"825": 0.22217}}}