{"type":"Feature","properties":{"GID_2":"DZA.46.9_1","GID_0":"DZA","country":"Algeria","GID_1":"DZA.46_1","province":"Tissemsilt","NL_NAME_1":"ولايةتسمسيلت","county":"Larbaa","VARNAME_2":"al-Arba`a","NL_NAME_2":"NA","TYPE_2":"Commune","ENGTYPE_2":"Commune","CC_2":"3816","HASC_2":"DZ.TS.LB","name":"Larbaa.county"},
"geometry":{"type": "MultiPolygon","coordinates": [[[[1.3965,35.8831,581.3994],[1.3994,35.8887,577.1044],[1.4095,35.8918,603.9913],[1.4131,35.8965,758.4419],[1.4185,35.8982,796.728],[1.4283,35.8984,764.7894],[1.4391,35.8947,867.1818],[1.4455,35.8966,991.0824],[1.4568,35.8956,816.8809],[1.4611,35.893,795.6309],[1.4667,35.881,720.4267],[1.4704,35.8782,659.7828],[1.4808,35.874,596.4554],[1.4914,35.8743,652.8785],[1.5013,35.8691,700.1511],[1.5076,35.8687,707.597],[1.5174,35.8707,812.2073],[1.5239,35.8683,864.5197],[1.5349,35.8703,939.368],[1.5402,35.8728,872.028],[1.5416,35.8794,619.5897],[1.5325,35.8811,630.4866],[1.5343,35.8965,711.0732],[1.5296,35.9004,756.1135],[1.5124,35.9235,669.5089],[1.508,35.9268,569.3806],[1.5123,35.9311,519.048],[1.5158,35.9525,667.7817],[1.5105,35.9534,715.4545],[1.5068,35.9563,783.9357],[1.4896,35.9472,924.6171],[1.4582,35.9367,532.181],[1.4529,35.9372,437.3198],[1.4481,35.9401,543.9337],[1.4332,35.9405,645.1498],[1.4278,35.9389,713.2613],[1.4307,35.935,672.0295],[1.4233,35.9332,667.882],[1.4109,35.9342,518.0062],[1.4032,35.9324,521.1121],[1.4178,35.9218,438.4555],[1.4154,35.9183,498.9578],[1.4106,35.9187,531.0347],[1.4056,35.9106,733.9999],[1.3962,35.9054,718.4004],[1.3989,35.9018,675.1896],[1.3956,35.899,648.9866],[1.3906,35.8867,583.535],[1.3913,35.8816,495.9901],[1.3965,35.8831,581.3994]]]]}}