{"type":"Feature","properties":{"GID_2":"DZA.25.16_1","GID_0":"DZA","country":"Algeria","GID_1":"DZA.25_1","province":"Laghouat","NL_NAME_1":"ولايةالأغواط","county":"Mekhareg","VARNAME_2":"NA","NL_NAME_2":"NA","TYPE_2":"Commune","ENGTYPE_2":"Commune","CC_2":"303","HASC_2":"#N/A","name":"Mekhareg.county"},
"geometry":{"type": "MultiPolygon","coordinates": [[[[2.9482,33.8146,748.5099],[2.9433,33.809,751.1431],[2.9351,33.7943,759.0175],[2.931,33.7828,758.182],[2.9574,33.7623,745.8926],[2.9624,33.7321,755.713],[2.9262,33.7131,782.3258],[2.8871,33.7057,784.4926],[2.8784,33.7028,779.6158],[2.8562,33.6789,791.8943],[2.9096,33.5436,854.6244],[2.9664,33.4518,847.4422],[3.0308,33.4657,860.5866],[3.0459,33.4257,849.192],[3.0495,33.4041,840.2287],[3.1493,33.3711,809.3559],[3.1634,33.3571,803.8645],[3.1653,33.3528,803.6527],[3.1747,33.3445,800.937],[3.18,33.3359,801.3082],[3.1849,33.3336,797.5961],[3.1892,33.3347,793.582],[3.2011,33.3223,792.202],[3.2212,33.324,784.7311],[3.2742,33.3184,779.1923],[3.3015,33.2981,774.8654],[3.3916,33.2489,761.6659],[3.4934,33.1905,729.8435],[3.42,33.2803,777.744],[3.4153,33.2827,780.4941],[3.4119,33.2905,781.2551],[3.4115,33.3031,773.0818],[3.4096,33.3108,780.8225],[3.4041,33.3122,782.4738],[3.3984,33.3171,778.1892],[3.3923,33.3198,777.0046],[3.3882,33.3246,776.3504],[3.3877,33.3324,773.5557],[3.3896,33.3368,769.8187],[3.3846,33.3371,772.8384],[3.3745,33.3447,775.3047],[3.3693,33.3462,775.2158],[3.3566,33.3666,782.5274],[3.3469,33.3764,785.1353],[3.3258,33.3859,790.5007],[3.3143,33.4332,792.7418],[3.3041,33.4363,795.9922],[3.3015,33.4402,794.992],[3.2954,33.4372,795.7462],[3.2846,33.4462,796.8068],[3.2682,33.4549,807.2794],[3.2636,33.4604,806.7398],[3.2445,33.4661,811.2037],[3.2205,33.4691,821.3737],[3.2167,33.4722,816.4729],[3.2078,33.4756,816.9909],[3.1869,33.4963,827.359],[3.1817,33.5074,834.1864],[3.1576,33.5434,851.1288],[3.1609,33.6092,814.7986],[3.0676,33.6244,815.7735],[3.1412,33.6676,812.8909],[3.1436,33.6739,805.4221],[3.1544,33.6887,793.557],[3.1541,33.7111,784.8051],[3.1557,33.7201,766.6255],[3.1453,33.7289,758.9736],[3.1435,33.7336,755.3965],[3.1389,33.7363,754.157],[3.1326,33.7463,746.3706],[3.1342,33.7533,738.8983],[3.133,33.7579,736.4534],[3.1266,33.768,726.8824],[3.1173,33.7774,723.7538],[3.1164,33.7835,718.4261],[3.077,33.8259,720.6267],[3.0671,33.8176,722.9517],[3.0691,33.8126,724.937],[3.0674,33.8082,725.1399],[3.0479,33.8047,726.0168],[3.0199,33.8046,734.8684],[3.012,33.8062,736.1524],[2.9975,33.8143,738.2425],[2.9539,33.8117,745.9957],[2.9482,33.8146,748.5099]]]]}}