{"type": "Feature","bbox": [3.9094,36.4513,3.9634,36.5315],"geometry": {"type": "MultiPolygon","coordinates": [[[[3.9374,36.4513,1106.1626],[3.9507,36.4525,1198.7753],[3.9631,36.4579,1509.4556],[3.9448,36.4685,1129.3778],[3.9501,36.473,986.046],[3.9492,36.4799,945.2896],[3.9634,36.4982,545.8876],[3.9557,36.5099,470.2541],[3.9538,36.5165,341.526],[3.9559,36.5234,317.1897],[3.9482,36.5261,372.472],[3.9412,36.5315,366.9855],[3.9271,36.53,346.0548],[3.9209,36.5271,346.7034],[3.9174,36.5129,509.9765],[3.9227,36.5023,623.8536],[3.9226,36.4963,730.9303],[3.9186,36.4926,750.3521],[3.9196,36.4801,893.2609],[3.9183,36.4755,772.6307],[3.9094,36.4595,1176.9393],[3.9167,36.4573,1189.1039],[3.9237,36.4584,1191.7598],[3.9294,36.4574,1265.1696],[3.9347,36.455,1201.609],[3.9374,36.4513,1106.1626]]]]}
,"properties": {"GID_2": "DZA.47.29_1","GID_0": "DZA","country": "Algeria","GID_1": "DZA.47_1","province": "TiziOuzou","NL_NAME_1": "ولايةغليزان","county": "Bounouh","VARNAME_2": "NA","NL_NAME_2": "NA","TYPE_2": "Commune","ENGTYPE_2": "Commune","CC_2": "1512","HASC_2": "DZ.TO.BN","name": "Bounouh.county","area_km2": 27.05117,"hist_schema_id": "Elevation0-9000","hist_area_km2": {"300": 0.01704,"325": 0.18743,"350": 0.63043,"375": 0.93714,"400": 1.10752,"425": 1.20978,"450": 1.44837,"475": 1.07356,"500": 0.86913,"525": 0.66465,"550": 0.8351,"575": 0.80102,"600": 0.92035,"625": 1.14197,"650": 0.86927,"675": 0.5284,"700": 0.71591,"725": 0.90346,"750": 0.66482,"775": 0.56255,"800": 0.64781,"825": 0.64781,"850": 0.73306,"875": 0.66488,"900": 0.71604,"925": 0.63081,"950": 0.71606,"975": 0.56265,"1000": 0.57969,"1025": 0.682,"1050": 0.61383,"1075": 0.39219,"1100": 0.34104,"1125": 0.63093,"1150": 0.49452,"1175": 0.51159,"1200": 0.52864,"1225": 0.34106,"1250": 0.20463,"1275": 0.15347,"1300": 0.08526,"1325": 0.03411,"1350": 0.01705,"1375": 0.01705,"1400": 0.01705}}}