{"type": "Feature","bbox": [4.9261,34.6792,5.5273,35.0966],"geometry": {"type": "MultiPolygon","coordinates": [[[[5.19,35.0304,329.6854],[5.1677,35.0264,346.9749],[5.1536,35.0152,363.1406],[5.1425,35.0145,378.0052],[5.1362,35.0214,402.1036],[5.1339,35.027,416.5629],[5.1279,35.0299,426.7492],[5.1204,35.0385,458.9976],[5.1151,35.0393,473.2476],[5.1073,35.058,590.3629],[5.0826,35.0662,591.9417],[5.0488,35.0843,692.6952],[5.0161,35.0966,550.1221],[5.0065,35.0898,603.516],[4.9943,35.0847,621.7313],[5.0008,35.0811,577.7347],[5.0039,35.0768,576.5151],[5.0044,35.0397,618.0739],[5.0009,35.0369,597.0947],[5.0083,35.0219,538.0778],[5.0092,35.0174,528.8223],[5.0069,35.0124,518.4358],[5.0064,35.0,498.1945],[5.0109,34.9979,511.5894],[5.0162,34.986,507.5126],[5.0046,34.9581,514.5352],[5.0042,34.9499,519.2016],[5.0076,34.946,509.7812],[5.0212,34.944,498.1367],[5.0269,34.9402,496.6904],[5.0292,34.9356,537.3974],[5.0266,34.9312,513.4515],[5.0087,34.9357,572.0886],[5.0044,34.9334,555.6362],[4.9975,34.913,682.879],[4.9969,34.8945,567.1052],[4.9937,34.8917,565.5482],[4.9783,34.882,571.5084],[4.9709,34.8747,589.9197],[4.9663,34.8723,555.9623],[4.9422,34.8704,491.8696],[4.9353,34.8636,469.9451],[4.9261,34.8587,483.5379],[4.9334,34.8558,525.5051],[5.0306,34.8386,970.1866],[5.0434,34.8469,923.0997],[5.0504,34.8486,853.2133],[5.0703,34.8449,801.415],[5.0849,34.8558,657.2301],[5.0984,34.8554,618.9401],[5.102,34.853,569.777],[5.1298,34.8482,508.5931],[5.1351,34.8498,498.7554],[5.1403,34.8493,453.4472],[5.1503,34.8422,486.2923],[5.1575,34.8403,575.1199],[5.1606,34.8335,455.7569],[5.1654,34.8297,589.0184],[5.1775,34.8247,572.863],[5.1903,34.8237,577.6675],[5.1917,34.8192,517.51],[5.1969,34.815,422.052],[5.2146,34.8062,449.8757],[5.2375,34.8116,554.3875],[5.241,34.815,596.1378],[5.2488,34.8174,612.6311],[5.2589,34.8175,630.3437],[5.2653,34.8194,576.907],[5.2722,34.8184,551.149],[5.2768,34.815,625.6479],[5.2922,34.8116,571.9481],[5.3072,34.8132,556.7441],[5.3153,34.8089,429.61],[5.3226,34.7998,495.705],[5.3348,34.7983,478.3441],[5.3394,34.7938,363.9599],[5.3424,34.7854,305.2331],[5.3507,34.7743,374.3374],[5.3576,34.7393,161.4239],[5.363,34.7268,157.3263],[5.3629,34.7225,158.2888],[5.3685,34.7185,158.5058],[5.3717,34.7119,145.5214],[5.3808,34.6804,120.691],[5.4195,34.6792,114.6344],[5.4276,34.6927,114.1499],[5.4155,34.6998,126.4287],[5.4137,34.7052,132.5165],[5.4146,34.7175,152.6152],[5.4125,34.7346,159.0177],[5.4141,34.7855,184.3218],[5.441,34.7924,283.4768],[5.4554,34.7919,311.2211],[5.466,34.7966,274.7188],[5.4728,34.7963,232.7614],[5.4831,34.7876,258.9975],[5.4857,34.7805,250.5651],[5.4901,34.7809,253.0559],[5.4983,34.7856,213.3012],[5.5056,34.7976,317.9232],[5.5185,34.804,410.9687],[5.5273,34.806,396.5205],[5.5105,34.8736,178.4338],[5.462,35.0405,244.7614],[5.4579,35.0471,260.0712],[5.4422,35.051,432.399],[5.4295,35.0575,539.3674],[5.4243,35.057,503.3403],[5.4051,35.0599,588.0256],[5.3939,35.0581,570.6717],[5.3907,35.0549,542.6953],[5.375,35.0576,576.9415],[5.3721,35.0544,550.2616],[5.361,35.0546,578.7059],[5.3073,35.047,469.8139],[5.3086,35.042,487.729],[5.3064,35.0373,483.9236],[5.2993,35.0308,445.2706],[5.2935,35.0217,418.348],[5.2876,35.0059,293.8679],[5.2728,35.0058,266.8545],[5.2611,35.0026,284.2144],[5.2556,35.0068,283.1145],[5.2498,35.0074,324.5176],[5.2271,35.0187,303.644],[5.2029,35.0241,383.5519],[5.19,35.0304,329.6854]]]]}
,"properties": {"GID_2": "DZA.9.32_1","GID_0": "DZA","country": "Algeria","GID_1": "DZA.9_1","province": "Biskra","NL_NAME_1": "ولايةبسكرة","county": "Tolga","VARNAME_2": "Tūljā","NL_NAME_2": "NA","TYPE_2": "Commune","ENGTYPE_2": "Commune","CC_2": "721","HASC_2": "DZ.BS.TO","name": "Tolga.county","area_km2": 1214.5743,"hist_schema_id": "Elevation0-9000","hist_area_km2": {"125": 12.3946,"150": 23.957,"175": 99.8083,"200": 164.8983,"225": 192.7495,"250": 82.8331,"275": 55.4249,"300": 47.8635,"325": 38.9407,"350": 37.3551,"375": 34.4597,"400": 34.973,"425": 45.3041,"450": 54.4392,"475": 55.9503,"500": 39.9876,"525": 33.1791,"550": 29.8621,"575": 25.4095,"600": 22.1215,"625": 20.7126,"650": 17.7063,"675": 14.4937,"700": 9.3157,"725": 6.2385,"750": 3.9608,"775": 2.2928,"800": 1.5118,"825": 1.3552,"850": 1.5985,"875": 1.3555,"900": 0.7995,"925": 0.5044,"950": 0.3828,"975": 0.2088,"1000": 0.087,"1025": 0.1044,"1050": 0.0348}}}