{"type":"Feature","properties":{"GID_2":"DZA.27.42_1","GID_0":"DZA","country":"Algeria","GID_1":"DZA.27_1","province":"Mascara","NL_NAME_1":"ولايةمعسكر","county":"SidiKada","VARNAME_2":"NA","NL_NAME_2":"NA","TYPE_2":"Commune","ENGTYPE_2":"Commune","CC_2":"2908","HASC_2":"DZ.MC.SK","name":"Sidi_Kada.county"},
"geometry":{"type": "MultiPolygon","coordinates": [[[[0.4061,35.3771,492.2249],[0.3617,35.3812,492.0977],[0.3563,35.3769,491.5962],[0.3418,35.3736,491.1656],[0.3321,35.3665,490.3427],[0.3199,35.3618,488.3179],[0.2944,35.3601,486.1479],[0.2766,35.3621,489.6423],[0.2772,35.3509,485.2883],[0.2823,35.3423,484.1816],[0.2655,35.3333,481.9153],[0.2661,35.3172,497.2557],[0.2736,35.3151,509.7302],[0.3027,35.3218,525.9891],[0.3105,35.3215,556.3624],[0.3144,35.3175,589.1398],[0.3058,35.3089,642.0628],[0.3113,35.3038,710.517],[0.317,35.3013,720.0195],[0.3157,35.296,751.7779],[0.3284,35.2863,788.4412],[0.3304,35.2823,816.8027],[0.3297,35.2772,823.1273],[0.337,35.276,835.9298],[0.3525,35.2843,832.0442],[0.3532,35.2892,806.3062],[0.3571,35.2927,786.8421],[0.3841,35.303,752.9033],[0.4105,35.3074,714.9756],[0.4102,35.3121,690.4537],[0.416,35.322,633.0015],[0.4201,35.336,577.8701],[0.4237,35.3421,559.0461],[0.4264,35.3577,525.7579],[0.416,35.3656,512.5614],[0.403,35.3724,496.8368],[0.4061,35.3771,492.2249]]]]}}