{"type":"Feature","properties":{"GID_2":"DZA.35.23_1","GID_0":"DZA","country":"Algeria","GID_1":"DZA.35_1","province":"Relizane","NL_NAME_1":"ولايةغليزان","county":"Ouarizane","VARNAME_2":"NA","NL_NAME_2":"NA","TYPE_2":"Commune","ENGTYPE_2":"Commune","CC_2":"4821","HASC_2":"DZ.RE.OU","name":"Ouarizane.county"},
"geometry":{"type": "MultiPolygon","coordinates": [[[[0.9566,36.0336,57.8634],[0.9538,36.0443,99.2237],[0.9551,36.0499,98.0125],[0.9509,36.0567,154.9703],[0.9453,36.062,175.1453],[0.9365,36.061,178.0337],[0.9308,36.069,208.8383],[0.9258,36.0693,192.4323],[0.9281,36.075,247.8129],[0.9276,36.0871,316.1092],[0.9291,36.0927,339.0644],[0.9209,36.0932,286.0464],[0.9068,36.0841,205.7893],[0.9028,36.0732,157.8492],[0.8937,36.0649,201.179],[0.8854,36.0601,200.2988],[0.8806,36.0528,192.8028],[0.8759,36.0493,153.7797],[0.8749,36.0549,166.4188],[0.8564,36.0565,199.4242],[0.8479,36.0643,337.9597],[0.8376,36.0659,506.7386],[0.8334,36.0609,432.0543],[0.8355,36.0548,251.8852],[0.8326,36.0488,225.4004],[0.8284,36.0478,207.9585],[0.8232,36.0489,261.2126],[0.8178,36.0455,215.6289],[0.8041,36.0512,467.5444],[0.8059,36.0452,272.9119],[0.8114,36.0375,159.8769],[0.811,36.0327,127.8453],[0.8147,36.0208,57.077],[0.8292,35.9935,51.7782],[0.8316,35.9817,46.8616],[0.8394,35.9811,52.7059],[0.8365,35.9755,45.795],[0.8425,35.9737,45.9642],[0.847,35.9756,51.7648],[0.8493,35.9821,51.692],[0.8602,35.9799,47.2584],[0.8643,35.9917,51.0056],[0.87,35.9975,54.6434],[0.8775,35.9942,51.8828],[0.8908,36.0066,54.0129],[0.9008,36.0091,58.8942],[0.9079,36.0074,56.9045],[0.9164,36.0076,54.7597],[0.9219,36.0103,54.3359],[0.9294,36.0076,54.1584],[0.9352,36.0105,56.0829],[0.9297,36.0161,56.9641],[0.9334,36.0184,54.1034],[0.9386,36.0191,60.9135],[0.9366,36.0294,53.5972],[0.9455,36.0323,63.3166],[0.9509,36.0321,59.071],[0.9473,36.0281,56.3941],[0.949,36.0241,57.6459],[0.9541,36.0206,57.5789],[0.9566,36.0336,57.8634]]]]}}