{"type":"Feature","properties":{"GID_2":"DZA.25.22_1","GID_0":"DZA","country":"Algeria","GID_1":"DZA.25_1","province":"Laghouat","NL_NAME_1":"ولايةالأغواط","county":"Tadjemout","VARNAME_2":"NA","NL_NAME_2":"NA","TYPE_2":"Commune","ENGTYPE_2":"Commune","CC_2":"308","HASC_2":"DZ.LG.TM","name":"Tadjemout.county"},
"geometry":{"type": "MultiPolygon","coordinates": [[[[2.4699,34.3117,1288.5793],[2.4493,34.3084,1297.2383],[2.4518,34.317,1253.6782],[2.4168,34.41,1093.3333],[2.3932,34.4471,1160.5691],[2.3931,34.4595,1131.5154],[2.3967,34.4853,1070.2273],[2.3886,34.5266,1032.6266],[2.3835,34.5695,1021.8675],[2.3688,34.6293,1112.5107],[2.3648,34.6243,1053.4963],[2.3569,34.6073,1040.7661],[2.3476,34.5979,1053.5874],[2.3273,34.5878,1088.1989],[2.3163,34.5851,1121.6136],[2.3072,34.5786,1097.6816],[2.2979,34.5754,1126.4154],[2.3083,34.5521,1151.798],[2.2961,34.5156,1010.6445],[2.2746,34.4602,1009.9604],[2.2763,34.4496,1022.1663],[2.2802,34.4434,1030.0328],[2.2812,34.4347,1043.165],[2.2868,34.4304,1043.4543],[2.2922,34.4171,1052.0441],[2.2966,34.4141,1054.9919],[2.3143,34.4079,1063.6669],[2.3282,34.4075,1071.5624],[2.3368,34.4003,1076.7314],[2.343,34.3974,1081.8245],[2.3501,34.3995,1085.1157],[2.362,34.3942,1091.4922],[2.3626,34.3899,1095.1766],[2.3659,34.3849,1100.6656],[2.3657,34.3798,1103.8975],[2.3677,34.376,1109.012],[2.3662,34.3719,1114.7377],[2.3721,34.3486,1128.4126],[2.3664,34.3357,1153.7072],[2.3672,34.3287,1178.3936],[2.3704,34.3224,1179.5454],[2.3818,34.3087,1251.3806],[2.3857,34.301,1222.0306],[2.3904,34.2288,1308.4846],[2.3953,34.2247,1305.5237],[2.4216,34.2108,1327.0996],[2.4317,34.2012,1296.6964],[2.4412,34.1858,1281.5613],[2.4555,34.1716,1237.866],[2.4688,34.1493,1196.3807],[2.4763,34.1415,1183.3647],[2.4812,34.1425,1174.663],[2.4872,34.1413,1153.4397],[2.4951,34.1319,1141.9658],[2.4947,34.1271,1135.0212],[2.4876,34.1202,1126.6174],[2.4849,34.1148,1124.5066],[2.492,34.0968,1101.9214],[2.4874,34.0652,1066.6145],[2.4806,34.0633,1056.1482],[2.4761,34.0597,1053.3745],[2.4714,34.06,1051.4459],[2.4677,34.0547,1051.3414],[2.4622,34.0535,1049.4526],[2.4589,34.0372,1031.2767],[2.4526,34.0293,1022.6257],[2.447,34.0066,1001.4731],[2.4537,33.9983,1013.8569],[2.4587,33.9973,990.9324],[2.4629,33.9985,1003.6483],[2.4679,33.9962,974.2737],[2.4647,33.9907,979.2823],[2.465,33.9464,934.1061],[2.463,33.9256,921.0789],[2.4561,33.9129,915.7012],[2.44,33.9016,933.2854],[2.4308,33.8982,935.3276],[2.4094,33.8976,953.5682],[2.39,33.9002,978.2225],[2.3687,33.9002,1044.2235],[2.4316,33.8349,951.0906],[2.5286,33.825,895.7979],[2.4993,33.7565,1063.8362],[2.511,33.73,945.5892],[2.5516,33.651,876.7169],[2.5704,33.6647,892.6857],[2.6226,33.7162,870.5441],[2.6615,33.752,868.6815],[2.6691,33.7564,854.0121],[2.685,33.776,905.2589],[2.7116,33.8014,909.7598],[2.7239,33.8108,850.0638],[2.7376,33.8182,824.1254],[2.7596,33.8258,796.9682],[2.7461,33.8392,810.0101],[2.7244,33.8488,817.3282],[2.7176,33.8473,824.9564],[2.6937,33.8608,852.8634],[2.6852,33.8717,866.5803],[2.6693,33.8825,896.5824],[2.6515,33.888,913.5029],[2.6395,33.8997,915.106],[2.6268,33.9219,910.9084],[2.621,33.9376,958.7753],[2.6213,33.9554,1001.1163],[2.6238,33.9707,1008.9976],[2.6185,34.0137,1040.0182],[2.6174,34.0393,1057.9287],[2.6213,34.0485,1059.7754],[2.6162,34.0647,1048.7275],[2.6137,34.0839,1061.4344],[2.6088,34.0963,1071.3173],[2.6084,34.1124,1075.6954],[2.6095,34.1182,1085.0803],[2.617,34.1273,1084.7482],[2.6216,34.13,1106.8693],[2.6176,34.1356,1092.0648],[2.6169,34.1407,1096.5121],[2.6089,34.1485,1108.5726],[2.607,34.1529,1119.8928],[2.6021,34.1569,1113.8955],[2.5958,34.1655,1130.0293],[2.5649,34.1794,1157.4785],[2.544,34.2166,1196.744],[2.5317,34.2296,1203.8219],[2.5159,34.2325,1193.4008],[2.4908,34.2817,1245.7219],[2.4778,34.2943,1287.8641],[2.4699,34.3117,1288.5793]]]]}}