{"type": "Feature","bbox": [4.678,35.9037,4.866,36.0442],"geometry": {"type": "MultiPolygon","coordinates": [[[[4.8252,35.9959,860.2972],[4.8156,35.9991,857.4357],[4.8073,35.9993,851.9364],[4.8001,36.0094,869.2595],[4.7987,36.0184,870.5568],[4.7958,36.0216,876.1116],[4.7901,36.02,862.7781],[4.7841,36.0278,867.801],[4.783,36.034,881.1926],[4.7774,36.0387,884.5896],[4.7725,36.038,865.0844],[4.7578,36.0224,846.0835],[4.7517,36.0188,847.8914],[4.745,36.0189,842.7901],[4.7392,36.02,836.2822],[4.7314,36.0345,854.7531],[4.7277,36.0378,860.6005],[4.7219,36.0376,855.1442],[4.7197,36.0418,860.889],[4.7125,36.0407,867.4915],[4.6924,36.0442,894.6614],[4.678,36.0438,920.1079],[4.6786,36.0396,921.7566],[4.6895,36.0314,956.4113],[4.6909,36.0239,917.0857],[4.6863,36.0176,942.6567],[4.6875,36.005,884.2451],[4.6899,35.9986,839.3571],[4.6802,35.9953,857.8978],[4.691,35.9875,834.0178],[4.6956,35.98,839.5624],[4.6972,35.9751,832.7678],[4.695,35.9678,795.5834],[4.6973,35.9628,778.2128],[4.7027,35.9632,787.8063],[4.7117,35.9684,788.6298],[4.7177,35.9671,834.4854],[4.7238,35.9636,842.5872],[4.745,35.9601,869.0276],[4.7546,35.9558,871.9672],[4.7815,35.9516,909.5799],[4.7831,35.9377,984.269],[4.7903,35.9363,1011.1707],[4.7956,35.9324,1046.99],[4.7984,35.9276,1140.3915],[4.8113,35.9273,1089.535],[4.8152,35.9158,1259.561],[4.8309,35.9102,1386.9879],[4.8369,35.9105,1330.2932],[4.8476,35.9081,1358.0446],[4.8575,35.9037,1438.6465],[4.8613,35.9058,1407.4385],[4.8623,35.9121,1373.0634],[4.866,35.9181,1216.8705],[4.8583,35.9339,1101.1497],[4.8569,35.9456,991.2513],[4.8542,35.9515,955.9324],[4.8494,35.9533,966.6124],[4.8465,35.9572,938.8621],[4.8497,35.9668,1002.4816],[4.8494,35.9721,931.3821],[4.8343,35.9817,889.8792],[4.8252,35.9959,860.2972]]]]}
,"properties": {"GID_2": "DZA.11.14_1","GID_0": "DZA","country": "Algeria","GID_1": "DZA.11_1","province": "BordjBouArréridj","NL_NAME_1": "ولايةبرجبوعريريج","county": "ElHamadia","VARNAME_2": "ElHammadia","NL_NAME_2": "NA","TYPE_2": "Commune","ENGTYPE_2": "Commune","CC_2": "3411","HASC_2": "DZ.BB.EH","name": "El_Hamadia.county","area_km2": 126.10644,"hist_schema_id": "Elevation0-9000","hist_area_km2": {"775": 0.54912,"800": 5.45602,"825": 13.86146,"850": 34.32315,"875": 18.9378,"900": 12.91872,"925": 11.51325,"950": 6.0403,"975": 3.65559,"1000": 1.85375,"1025": 1.44192,"1050": 1.32182,"1075": 1.33903,"1100": 1.1159,"1125": 1.28761,"1150": 1.3563,"1175": 1.42502,"1200": 1.63109,"1225": 1.49379,"1250": 0.94438,"1275": 0.82421,"1300": 0.80706,"1325": 0.73839,"1350": 0.49799,"1375": 0.36062,"1400": 0.27477,"1425": 0.12021,"1450": 0.01717}}}