{"type":"Feature","properties":{"GID_2":"DZA.39.6_1","GID_0":"DZA","country":"Algeria","GID_1":"DZA.39_1","province":"Skikda","NL_NAME_1":"سكيكدة","county":"BekkoucheLakhdar","VARNAME_2":"NA","NL_NAME_2":"NA","TYPE_2":"Commune","ENGTYPE_2":"Commune","CC_2":"2107","HASC_2":"DZ.SK.BL","name":"Bekkouche_Lakhdar.county"},
"geometry":{"type": "MultiPolygon","coordinates": [[[[7.3876,36.7925,15.8028],[7.3814,36.7822,14.3025],[7.3745,36.7826,14.9458],[7.364,36.7779,16.1909],[7.3519,36.7757,19.0272],[7.3372,36.7695,21.4453],[7.3217,36.7713,24.5683],[7.3114,36.7714,23.9089],[7.3056,36.7695,24.3645],[7.2959,36.7708,56.3919],[7.2971,36.7651,25.634],[7.3053,36.7577,27.847],[7.3079,36.7524,30.3197],[7.308,36.7478,30.8734],[7.3061,36.7418,29.8705],[7.2997,36.7393,29.827],[7.298,36.7329,33.2266],[7.2942,36.7301,32.0105],[7.2886,36.7318,35.3276],[7.2755,36.7184,52.6554],[7.2713,36.7079,91.4904],[7.2778,36.7041,121.8565],[7.2824,36.6903,349.7695],[7.2478,36.6826,498.7364],[7.2375,36.6779,518.9554],[7.2354,36.6721,386.697],[7.2259,36.661,420.6155],[7.2268,36.6564,458.8229],[7.2331,36.6538,392.9436],[7.229,36.6505,460.7678],[7.2175,36.6456,415.5347],[7.1848,36.6462,469.9922],[7.1799,36.6448,421.8886],[7.1803,36.6383,277.4194],[7.1825,36.6326,277.2974],[7.1884,36.6267,205.2701],[7.1771,36.6186,279.7463],[7.1747,36.6136,406.1708],[7.1658,36.6058,574.8994],[7.1634,36.6021,639.9044],[7.1669,36.5973,610.9682],[7.1757,36.5997,497.4945],[7.1859,36.5988,504.529],[7.1956,36.6059,349.1766],[7.2185,36.6133,153.39],[7.2281,36.6138,112.5929],[7.2394,36.6193,108.5851],[7.2585,36.6197,95.3919],[7.2622,36.6228,91.4643],[7.2702,36.625,95.7631],[7.2849,36.6359,82.1831],[7.291,36.6543,81.0],[7.3006,36.6633,81.0],[7.3,36.657,83.2501],[7.3039,36.6523,81.0],[7.3095,36.6532,81.0],[7.3184,36.6484,84.0628],[7.3248,36.6473,105.9624],[7.3365,36.6514,151.0342],[7.3482,36.6591,285.3147],[7.3362,36.6623,201.3076],[7.3352,36.6692,140.4076],[7.3414,36.6718,178.5043],[7.3441,36.677,138.114],[7.3415,36.6805,225.1646],[7.3425,36.6931,116.6621],[7.3411,36.7085,198.4094],[7.3523,36.7141,190.9384],[7.3734,36.7153,215.46],[7.3853,36.7199,119.1788],[7.392,36.7245,85.8734],[7.3991,36.7264,78.3518],[7.4048,36.741,41.2355],[7.4043,36.7613,19.1466],[7.4012,36.7668,16.7166],[7.3923,36.7755,15.4506],[7.3876,36.7925,15.8028]]]]}}