{"type":"Feature","properties":{"GID_2":"DZA.18.5_1","GID_0":"DZA","country":"Algeria","GID_1":"DZA.18_1","province":"ElOued","NL_NAME_1":"ولايةالوادي","county":"DouarElMa","VARNAME_2":"NA","NL_NAME_2":"NA","TYPE_2":"Commune","ENGTYPE_2":"Commune","CC_2":"3915","HASC_2":"DZ.EO.DM","name":"Douar_El_Ma.county"},
"geometry":{"type": "MultiPolygon","coordinates": [[[[7.2108,33.3545,75.7452],[7.2256,33.3243,80.3122],[7.3135,33.1268,88.5985],[7.3504,33.0352,89.7326],[7.3975,32.9111,97.6557],[7.0001,32.7891,112.8378],[6.8639,32.7067,115.2909],[6.8483,32.6998,114.2875],[6.727,32.6249,113.4773],[6.8305,32.4863,131.7654],[6.8853,32.4099,131.0191],[6.9685,32.3021,126.2004],[6.9983,32.2595,139.9257],[7.0202,32.2377,131.627],[7.0503,32.2021,121.8108],[7.2354,32.0035,126.9535],[7.2416,32.0014,127.5258],[7.2525,32.0012,129.3932],[7.5403,32.0243,133.7787],[8.0233,32.0476,164.2674],[8.4992,32.0679,187.327],[9.066,32.0869,207.8952],[8.801,32.2357,167.6283],[8.5111,32.4113,146.5525],[8.3575,32.5021,126.911],[8.3233,32.823,110.3794],[8.2479,32.924,110.5957],[8.1697,33.0045,87.6924],[8.1633,33.0076,87.932],[8.1481,33.0207,80.5851],[8.1159,33.0508,74.0106],[8.115,33.0607,76.4308],[8.1179,33.0977,69.4977],[8.1132,33.1021,65.8588],[8.0589,33.1242,69.1546],[8.052,33.1254,72.0705],[8.0487,33.1287,70.8205],[8.0428,33.1299,73.6118],[7.9048,33.1845,62.4748],[7.8322,33.1903,59.0405],[7.8028,33.2507,59.9958],[7.7882,33.2853,64.687],[7.7534,33.4303,42.2178],[7.7414,33.4425,42.7059],[7.7368,33.4522,41.9225],[7.6344,33.585,39.1508],[7.5559,33.5845,43.0983],[7.4689,33.5665,46.1841],[7.2353,33.5021,57.6434],[7.2054,33.4793,62.5366],[7.1909,33.4065,71.114],[7.2108,33.3545,75.7452]]]]}}