{"type": "Feature","bbox": [4.8299,36.437,4.9925,36.4978],"geometry": {"type": "MultiPolygon","coordinates": [[[[4.8299,36.4721,403.6203],[4.833,36.4665,602.875],[4.8526,36.4522,777.0875],[4.8648,36.4557,789.67],[4.8772,36.4468,1091.9457],[4.8846,36.4454,1043.2426],[4.8843,36.4391,1233.1798],[4.8883,36.437,1295.1663],[4.9063,36.4461,1233.8287],[4.9114,36.448,1154.0449],[4.9221,36.4474,1133.4703],[4.9394,36.4561,1117.3964],[4.9573,36.4562,1035.8845],[4.9743,36.4616,854.2855],[4.9818,36.4624,659.2411],[4.9874,36.4603,512.0289],[4.9925,36.4637,523.1815],[4.9923,36.4694,526.0333],[4.9877,36.4702,507.1906],[4.9882,36.4751,505.3338],[4.9786,36.4742,504.4551],[4.9675,36.4827,482.4608],[4.9566,36.4859,490.7776],[4.9549,36.4909,517.178],[4.9439,36.491,464.4581],[4.9419,36.4958,461.572],[4.9229,36.4978,459.7103],[4.9137,36.4954,472.2929],[4.9098,36.492,515.9273],[4.8984,36.491,444.557],[4.8939,36.493,456.5466],[4.8611,36.4942,446.057],[4.8529,36.4838,429.3048],[4.8464,36.4811,425.8354],[4.8409,36.4808,504.1518],[4.8299,36.4721,403.6203]]]]}
,"properties": {"GID_2": "DZA.37.20_1","GID_0": "DZA","country": "Algeria","GID_1": "DZA.37_1","province": "Sétif","NL_NAME_1": "ولايةسطيف","county": "BeniChebana","VARNAME_2": "NA","NL_NAME_2": "NA","TYPE_2": "Commune","ENGTYPE_2": "Commune","CC_2": "1909","HASC_2": "DZ.SF.BC","name": "Beni_Chebana.county","area_km2": 56.11141,"hist_schema_id": "Elevation0-9000","hist_area_km2": {"400": 0.20459,"425": 0.97164,"450": 1.77279,"475": 2.86385,"500": 2.84699,"525": 2.07985,"550": 2.35264,"575": 2.23333,"600": 2.50612,"625": 2.36977,"650": 2.23335,"675": 2.13116,"700": 2.02882,"725": 1.84134,"750": 2.01185,"775": 2.01192,"800": 2.08013,"825": 1.97786,"850": 2.30188,"875": 2.04616,"900": 2.0121,"925": 1.94392,"950": 2.09741,"975": 1.43243,"1000": 1.67119,"1025": 1.44953,"1050": 1.09144,"1075": 0.75037,"1100": 0.75037,"1125": 0.63099,"1150": 0.25582,"1175": 0.23876,"1200": 0.20467,"1225": 0.13645,"1250": 0.13645,"1275": 0.23879,"1300": 0.08528,"1325": 0.08528,"1350": 0.03411}}}