{"type": "Feature","bbox": [1.1647,34.0744,1.5772,35.0153],"geometry": {"type": "MultiPolygon","coordinates": [[[[1.3357,34.0744,1137.4183],[1.3441,34.0756,1146.4293],[1.3695,34.0877,1185.9871],[1.4233,34.1212,1175.8706],[1.4327,34.1284,1167.7035],[1.4272,34.1306,1170.8296],[1.4104,34.1564,1164.6588],[1.4017,34.1804,1162.9546],[1.4111,34.1857,1160.3047],[1.4783,34.2047,1142.637],[1.5772,34.2686,1128.8453],[1.5758,34.3457,1087.1265],[1.5143,34.4143,1062.7756],[1.548,34.4587,1065.0288],[1.5759,34.5239,1028.4324],[1.5613,34.5572,1017.6771],[1.5612,34.5643,1016.0659],[1.5564,34.5756,1015.5293],[1.4931,34.635,1024.3171],[1.4622,34.65,1024.3317],[1.4149,34.698,1034.1647],[1.4014,34.7254,1040.5891],[1.3936,34.7485,1046.2059],[1.3863,34.7629,1047.9673],[1.389,34.7869,1057.2947],[1.386,34.8074,1060.6738],[1.3862,34.8174,1065.7057],[1.39,34.8688,1090.9692],[1.386,34.8907,1102.3669],[1.3854,34.9051,1112.7603],[1.4081,34.9147,1118.1685],[1.4119,34.919,1123.9241],[1.4024,34.9345,1144.6938],[1.3948,34.9322,1142.6692],[1.3767,34.9504,1195.7939],[1.3959,34.9685,1174.4093],[1.4073,34.9768,1213.6807],[1.4018,34.9805,1181.4316],[1.4029,34.9864,1181.3756],[1.3808,34.9929,1153.179],[1.3705,34.9908,1127.5067],[1.3568,35.0006,1136.6797],[1.3518,35.005,1143.7888],[1.3479,35.0115,1159.4473],[1.344,35.0137,1155.2864],[1.3395,35.0128,1153.8193],[1.335,35.015,1154.5117],[1.3186,35.0121,1170.5098],[1.2931,35.0153,1168.4153],[1.2812,35.013,1172.2029],[1.2561,35.0019,1175.0646],[1.2453,35.0011,1178.8667],[1.2391,35.0033,1192.2205],[1.2415,34.9823,1183.577],[1.2505,34.9758,1148.8346],[1.2816,34.9732,1146.7837],[1.2837,34.9676,1126.9506],[1.2855,34.9428,1120.8245],[1.2929,34.9402,1105.457],[1.2863,34.9172,1098.1609],[1.2861,34.9097,1099.6128],[1.282,34.8926,1090.2823],[1.2831,34.8821,1092.9706],[1.275,34.8779,1092.9318],[1.2694,34.873,1080.9987],[1.2763,34.8643,1075.3156],[1.2855,34.8386,1061.0637],[1.2828,34.8242,1056.5837],[1.2696,34.805,1057.0824],[1.2536,34.7902,1053.7048],[1.2514,34.7805,1044.074],[1.2526,34.7741,1046.1777],[1.2513,34.7677,1038.061],[1.24,34.7529,1034.3823],[1.2414,34.7485,1045.4285],[1.2395,34.7199,1037.2698],[1.2226,34.7003,1033.4165],[1.2219,34.6611,1029.9741],[1.1968,34.6352,999.6494],[1.2157,34.5546,1011.896],[1.2234,34.4974,1016.5429],[1.1848,34.4403,1031.8052],[1.1647,34.3749,1054.0569],[1.1823,34.3072,1054.4355],[1.2306,34.2383,1117.5332],[1.2619,34.2345,1081.2156],[1.2658,34.2324,1082.7629],[1.2678,34.2148,1086.6007],[1.276,34.2016,1091.248],[1.277,34.1952,1106.2881],[1.2713,34.1849,1092.2855],[1.2739,34.1812,1094.9637],[1.2697,34.1761,1096.0842],[1.2737,34.1712,1099.5109],[1.2749,34.1613,1103.0732],[1.2792,34.1568,1105.4166],[1.2837,34.1469,1105.3716],[1.2855,34.1336,1109.0234],[1.291,34.1317,1110.6403],[1.2972,34.1223,1116.2594],[1.306,34.1137,1118.2631],[1.312,34.1112,1128.374],[1.3134,34.0972,1125.7284],[1.3225,34.0864,1134.024],[1.3343,34.0786,1135.3828],[1.3357,34.0744,1137.4183]]]]}
,"properties": {"GID_2": "DZA.43.7_1","GID_0": "DZA","country": "Algeria","GID_1": "DZA.43_1","province": "Tiaret","NL_NAME_1": "ولايةتيارت","county": "Chehaima","VARNAME_2": "NA","NL_NAME_2": "NA","TYPE_2": "Commune","ENGTYPE_2": "Commune","CC_2": "1436","HASC_2": "DZ.TR.CH","name": "Chehaima.county","area_km2": 2221.022,"hist_schema_id": "Elevation0-9000","hist_area_km2": {"1000": 224.392,"1025": 610.87,"1050": 531.054,"1075": 331.707,"1100": 180.219,"1125": 205.699,"1150": 101.36,"1175": 29.449,"1200": 6.272}}}