{"type": "Feature","bbox": [4.2829,36.3756,4.396,36.478],"geometry": {"type": "MultiPolygon","coordinates": [[[[4.3633,36.4663,1819.8438],[4.3398,36.478,1893.4351],[4.3355,36.476,1877.4752],[4.3326,36.4678,1686.2351],[4.3263,36.467,1571.4307],[4.3239,36.4613,1405.1794],[4.3148,36.4515,1158.2306],[4.3166,36.4334,830.0641],[4.3139,36.4215,722.402],[4.3109,36.4173,698.6514],[4.295,36.4116,566.4507],[4.2896,36.4071,530.6357],[4.2838,36.3979,476.7733],[4.2829,36.3936,466.6972],[4.2974,36.3914,677.1564],[4.3025,36.3954,594.7037],[4.3021,36.4066,657.1168],[4.3128,36.4057,590.3878],[4.3155,36.4008,527.6573],[4.3237,36.396,487.7221],[4.3282,36.3912,440.9318],[4.3378,36.3769,372.832],[4.3434,36.3756,368.8122],[4.3545,36.3783,363.5148],[4.3618,36.3851,338.9926],[4.3777,36.3908,358.0673],[4.3894,36.3895,328.6776],[4.396,36.4185,557.7346],[4.3933,36.4243,724.4496],[4.3947,36.431399999999996,849.3649],[4.3897,36.4362,1072.7031],[4.3728,36.4441,1426.8245],[4.3665,36.4556,1641.7089],[4.3633,36.4663,1819.8438]]]]}
,"properties": {"GID_2": "DZA.12.1_1","GID_0": "DZA","country": "Algeria","GID_1": "DZA.12_1","province": "Bouira","NL_NAME_1": "ولايةالبويرة","county": "Aghbalou","VARNAME_2": "Aghbalu","NL_NAME_2": "NA","TYPE_2": "Commune","ENGTYPE_2": "Commune","CC_2": "1027","HASC_2": "DZ.BU.AG","name": "Aghbalou.county","area_km2": 60.85508,"hist_schema_id": "Elevation0-9000","hist_area_km2": {"325": 0.25601,"350": 0.71683,"375": 0.98994,"400": 1.12649,"425": 1.48486,"450": 1.792,"475": 1.72372,"500": 2.16741,"525": 2.62813,"550": 1.92835,"575": 1.86001,"600": 1.96236,"625": 1.89409,"650": 1.85994,"675": 1.87698,"700": 1.74041,"725": 1.45029,"750": 1.45026,"775": 1.36491,"800": 1.27959,"825": 1.0407,"850": 1.14305,"875": 1.07479,"900": 0.87005,"925": 1.0065,"950": 0.80177,"975": 0.87,"1000": 0.71647,"1025": 0.88704,"1050": 0.9382,"1075": 0.6482,"1100": 0.9723,"1125": 0.92111,"1150": 0.90403,"1175": 1.15987,"1200": 0.81871,"1225": 1.00632,"1250": 0.75046,"1275": 0.63105,"1300": 0.78454,"1325": 0.86979,"1350": 0.86981,"1375": 0.88682,"1400": 0.66512,"1425": 0.68216,"1450": 0.75035,"1475": 0.75035,"1500": 0.73329,"1525": 0.5457,"1550": 0.78442,"1575": 0.61389,"1600": 0.44336,"1625": 0.68207,"1650": 0.34104,"1675": 0.57976,"1700": 0.23871,"1725": 0.35805,"1750": 0.23871,"1775": 0.11935,"1800": 0.05115,"1825": 0.08525,"1850": 0.05115,"1875": 0.01705}}}