{"type": "Feature","bbox": [6.0169,35.2782,6.2316,35.3941],"geometry": {"type": "MultiPolygon","coordinates": [[[[6.0169,35.2782,1593.8677],[6.0391,35.2799,1618.1882],[6.0483,35.2837,1692.0938],[6.0602,35.2857,1701.5065],[6.1105,35.3051,1675.3738],[6.1273,35.3148,1813.228],[6.1369,35.3233,1865.3341],[6.1728,35.3401,1994.2234],[6.226,35.3499,2066.6218],[6.2316,35.3522,2040.6558],[6.2249,35.3558,1919.6338],[6.2194,35.3645,1816.2075],[6.2178,35.3696,1723.6952],[6.2181,35.3797,1692.5605],[6.2145,35.3882,1591.5062],[6.215,35.3941,1536.2333],[6.2028,35.3893,1637.6453],[6.2021,35.3841,1705.8597],[6.1994,35.3803,1803.1522],[6.1944,35.3773,1666.8297],[6.1866,35.377,1694.3622],[6.181,35.3798,1708.7019],[6.1697,35.3818,1835.9745],[6.1573,35.3815,1937.7245],[6.1131,35.3689,1796.8165],[6.0955,35.3709,1720.5603],[6.089,35.3676,1707.0476],[6.0778,35.3567,1677.8394],[6.0652,35.3494,1269.243],[6.061,35.3387,1215.7484],[6.0531,35.3341,1149.9075],[6.0325,35.3297,1003.327],[6.0302,35.3186,1174.4512],[6.0329,35.3108,1271.2246],[6.0317,35.3058,1444.8673],[6.0286,35.302,1487.4795],[6.0347,35.2917,1492.4736],[6.0311,35.2881,1495.511],[6.0181,35.2877,1425.4034],[6.0169,35.2782,1593.8677]]]]}
,"properties": {"GID_2": "DZA.6.30_1","GID_0": "DZA","country": "Algeria","GID_1": "DZA.6_1","province": "Batna","NL_NAME_1": "ولايةباتنة","county": "Larbaa","VARNAME_2": "al-Arba`a","NL_NAME_2": "NA","TYPE_2": "Commune","ENGTYPE_2": "Commune","CC_2": "561","HASC_2": "DZ.BL.LA","name": "Larbaa.county","area_km2": 100.85136,"hist_schema_id": "Elevation0-9000","hist_area_km2": {"975": 0.24218,"1000": 0.51896,"1025": 0.76115,"1050": 0.76116,"1075": 0.79574,"1100": 0.60547,"1125": 0.69198,"1150": 0.93415,"1175": 0.88225,"1200": 0.88226,"1225": 1.17637,"1250": 1.40129,"1275": 1.48783,"1300": 1.41867,"1325": 1.6782,"1350": 1.97226,"1375": 2.2837,"1400": 2.61237,"1425": 3.11394,"1450": 3.37341,"1475": 3.40801,"1500": 3.66745,"1525": 3.90952,"1550": 4.03035,"1575": 3.90891,"1600": 4.20281,"1625": 4.2372,"1650": 4.28883,"1675": 4.25413,"1700": 5.15335,"1725": 4.911,"1750": 4.92815,"1775": 5.15277,"1800": 4.2191,"1825": 2.99139,"1850": 2.81865,"1875": 1.59083,"1900": 1.59087,"1925": 1.27963,"1950": 0.81276,"1975": 0.76091,"2000": 0.50153,"2025": 0.294,"2050": 0.24212,"2075": 0.08647,"2100": 0.01729}}}