{"type": "Feature","bbox": [5.5222,35.593,5.6866,35.7149],"geometry": {"type": "MultiPolygon","coordinates": [[[[5.571,35.593,718.424],[5.5843,35.5997,741.4623],[5.5999,35.6011,767.1317],[5.6041,35.5994,749.1851],[5.6063,35.6035,792.4442],[5.6245,35.6183,800.0298],[5.6245,35.6298,826.1286],[5.6286,35.6348,820.5875],[5.6364,35.6364,813.4503],[5.6412,35.6342,797.968],[5.6454,35.6347,787.9673],[5.6553,35.6438,856.7889],[5.6625,35.6477,862.353],[5.6671,35.6531,843.2322],[5.6725,35.6553,868.2191],[5.6773,35.6549,847.0308],[5.6866,35.6603,896.5213],[5.6863,35.6663,894.655],[5.6809,35.6713,897.3122],[5.6748,35.6698,890.3901],[5.6591,35.6758,897.2509],[5.6598,35.6808,906.671],[5.6629,35.6848,922.3188],[5.6583,35.6884,929.5375],[5.6512,35.6856,894.3169],[5.6452,35.6926,897.8557],[5.6405,35.6949,899.0632],[5.6422,35.7006,912.1283],[5.6409,35.7058,922.9603],[5.6319,35.7149,940.8823],[5.6198,35.714,955.884],[5.6113,35.7103,1106.7656],[5.5969,35.7095,1183.5444],[5.5696,35.701,1465.6886],[5.564,35.7012,1667.3274],[5.5544,35.707,1728.6235],[5.5483,35.707,1749.1244],[5.5382,35.7064,1842.3756],[5.5222,35.6993,1686.9369],[5.5269,35.6945,1669.2932],[5.526,35.6801,1495.3762],[5.5282,35.6737,1499.759],[5.535,35.6616,1159.3022],[5.54,35.6471,996.3537],[5.5458,35.6427,987.4402],[5.5484,35.6261,915.382],[5.559,35.6076,835.1763],[5.571,35.593,718.424]]]]}
,"properties": {"GID_2": "DZA.6.47_1","GID_0": "DZA","country": "Algeria","GID_1": "DZA.6_1","province": "Batna","NL_NAME_1": "ولايةباتنة","county": "RasElAioun","VARNAME_2": "Rā's-al-`Ayūn","NL_NAME_2": "NA","TYPE_2": "Commune","ENGTYPE_2": "Commune","CC_2": "551","HASC_2": "DZ.BT.RA","name": "Ras_El_Aioun.county","area_km2": 116.64011,"hist_schema_id": "Elevation0-9000","hist_area_km2": {"725": 0.65512,"750": 2.06864,"775": 2.62008,"800": 3.5848,"825": 6.53074,"850": 9.37245,"875": 12.5239,"900": 11.48993,"925": 11.99097,"950": 9.33774,"975": 5.63303,"1000": 4.46148,"1025": 3.53115,"1050": 2.84193,"1075": 2.01511,"1100": 1.61888,"1125": 1.36054,"1150": 1.36047,"1175": 1.46375,"1200": 1.412,"1225": 1.63598,"1250": 1.51542,"1275": 1.77368,"1300": 1.75645,"1325": 1.37767,"1350": 1.0505,"1375": 1.22268,"1400": 0.94717,"1425": 0.86106,"1450": 0.86106,"1475": 0.8266,"1500": 0.63715,"1525": 0.53383,"1550": 0.48215,"1575": 0.43049,"1600": 0.61989,"1625": 0.65432,"1650": 0.72318,"1675": 0.58542,"1700": 0.68871,"1725": 0.43045,"1750": 0.32713,"1775": 0.24104,"1800": 0.18939,"1825": 0.12052,"1850": 0.1033,"1875": 0.15496,"1900": 0.01722}}}