{"type": "Feature","bbox": [3.828,35.8601,4.046,36.0491],"geometry": {"type": "MultiPolygon","coordinates": [[[[3.828,36.0491,962.2141],[3.8285,36.0422,1038.2732],[3.8329,36.0375,1083.0048],[3.8325,36.0308,1130.3402],[3.8443,36.0256,1250.9015],[3.8575,36.016,1023.4446],[3.8598,36.0113,1024.9521],[3.863,36.0029,1013.973],[3.8603,35.997,975.3206],[3.8725,35.9749,858.1093],[3.8726,35.9678,843.0847],[3.8746,35.9623,827.7695],[3.8754,35.9521,780.7039],[3.8709,35.9426,762.7308],[3.8694,35.936,747.3207],[3.8701,35.9303,763.1459],[3.8735,35.9203,754.9799],[3.8814,35.9211,755.0478],[3.8841,35.9175,741.8442],[3.8869,35.9124,749.0984],[3.8883,35.8986,761.5544],[3.8963,35.8921,760.645],[3.9025,35.8898,772.8123],[3.9126,35.8952,755.1619],[3.9187,35.8941,684.7152],[3.928,35.8885,717.2631],[3.9386,35.8929,670.5748],[3.9847,35.868899999999996,636.0706],[4.0323,35.8601,606.9753],[4.037,35.874,624.604],[4.0332,35.8769,626.6873],[4.0351,35.8813,629.5009],[4.0188,35.9017,646.0862],[4.0158,35.9085,665.1829],[4.0152,35.9158,682.9284],[4.0195,35.9209,675.2689],[4.0282,35.9256,685.7272],[4.0291,35.9357,703.7065],[4.0397,35.9515,719.0196],[4.0427,35.9601,733.534],[4.0425,35.9724,779.4023],[4.046,35.9857,792.7391],[4.0432,35.9893,822.2013],[4.0428,35.9991,878.0529],[4.0395,36.0049,927.3923],[4.032,36.0107,1084.2368],[4.023,36.015,1145.8167],[4.02,36.0323,1285.7866],[4.0246,36.0351,1274.8549],[4.0151,36.045,1005.0718],[3.996,36.0471,904.9351],[3.9675,36.0283,1162.0693],[3.9635,36.0307,1091.9094],[3.9457,36.0328,1070.3071],[3.9329,36.0322,1063.8369],[3.9056,36.0465,1239.9338],[3.8775,36.0475,1344.1514],[3.8569,36.0416,1299.3738],[3.828,36.0491,962.2141]]]]}
,"properties": {"GID_2": "DZA.12.44_1","GID_0": "DZA","country": "Algeria","GID_1": "DZA.12_1","province": "Bouira","NL_NAME_1": "ولايةالبويرة","county": "Taguedit","VARNAME_2": "NA","NL_NAME_2": "NA","TYPE_2": "Commune","ENGTYPE_2": "Commune","CC_2": "1028","HASC_2": "DZ.BU.TD","name": "Taguedit.county","area_km2": 262.335,"hist_schema_id": "Elevation0-9000","hist_area_km2": {"600": 1.0825,"625": 4.2435,"650": 5.7374,"675": 11.1633,"700": 13.291,"725": 14.8688,"750": 18.319,"775": 20.8234,"800": 21.4392,"825": 18.8973,"850": 14.6212,"875": 12.1653,"900": 9.7446,"925": 9.5378,"950": 8.8338,"975": 9.2789,"1000": 9.1411,"1025": 10.4098,"1050": 11.404,"1075": 8.8145,"1100": 5.8821,"1125": 4.5102,"1150": 4.0986,"1175": 3.344,"1200": 2.9152,"1225": 2.2292,"1250": 1.852,"1275": 1.4747,"1300": 0.9603,"1325": 0.4973,"1350": 0.3773,"1375": 0.2058,"1400": 0.0858,"1425": 0.0858}}}