{"type": "Feature","bbox": [4.5775,36.3516,4.7288,36.4296],"geometry": {"type": "MultiPolygon","coordinates": [[[[4.6088,36.3517,685.3885],[4.6151,36.3516,620.7437],[4.6275,36.3576,424.5849],[4.6527,36.3603,501.122],[4.6586,36.3596,573.6695],[4.6745,36.3675,693.3356],[4.6783,36.37,694.6874],[4.6799,36.3745,618.2042],[4.6854,36.3751,736.9827],[4.6964,36.3817,856.5452],[4.7004,36.3858,1103.3643],[4.7046,36.3867,1095.7449],[4.7094,36.3853,1034.9468],[4.7147,36.3877,894.6946],[4.7219,36.3961,559.2762],[4.7242,36.4011,536.8643],[4.7288,36.422,297.1143],[4.7148,36.4205,294.0],[4.7083,36.4128,294.0],[4.7031,36.415,294.0],[4.6969,36.4135,294.0],[4.6919,36.4142,294.0],[4.6869,36.4166,294.0],[4.6809,36.4116,294.0],[4.6759,36.414,312.3803],[4.6584,36.4174,296.3734],[4.6548,36.4211,295.2285],[4.6587,36.4261,294.0],[4.6537,36.4296,302.4993],[4.6484,36.428,248.8947],[4.6392,36.4292,271.5514],[4.6122,36.4157,236.1571],[4.6067,36.4172,234.3153],[4.6017,36.4153,250.4232],[4.5983,36.4124,290.0961],[4.601,36.4082,221.0169],[4.5919,36.4038,218.3807],[4.5871,36.3997,214.4407],[4.5882,36.4072,239.2657],[4.5828,36.4108,288.7054],[4.5823,36.4065,301.778],[4.5775,36.3968,391.5332],[4.5802,36.3896,367.7438],[4.5944,36.3738,694.3002],[4.5994,36.3738,739.0618],[4.6065,36.3709,583.1535],[4.6029,36.3561,525.0076],[4.6088,36.3517,685.3885]]]]}
,"properties": {"GID_2": "DZA.8.38_1","GID_0": "DZA","country": "Algeria","GID_1": "DZA.8_1","province": "Béjaïa","NL_NAME_1": "بجاية","county": "Tamokra","VARNAME_2": "NA","NL_NAME_2": "NA","TYPE_2": "Commune","ENGTYPE_2": "Commune","CC_2": "606","HASC_2": "DZ.BJ.TA","name": "Tamokra.county","area_km2": 68.23448,"hist_schema_id": "Elevation0-9000","hist_area_km2": {"200": 0.13652,"225": 1.058,"250": 1.27977,"275": 1.41637,"300": 5.95501,"325": 2.86694,"350": 3.12314,"375": 4.16426,"400": 3.9767,"425": 3.75494,"450": 3.89156,"475": 3.70383,"500": 3.65271,"525": 3.78921,"550": 3.05529,"575": 2.74799,"600": 2.44079,"625": 2.09938,"650": 2.13355,"675": 1.68972,"700": 1.51908,"725": 1.68965,"750": 1.28007,"775": 1.07525,"800": 1.33126,"825": 1.07527,"850": 0.76804,"875": 0.92165,"900": 0.37549,"925": 0.27309,"950": 0.22189,"975": 0.22189,"1000": 0.11948,"1025": 0.11948,"1050": 0.18775,"1075": 0.05121,"1100": 0.03414,"1125": 0.03414}}}