{"type":"Feature","properties":{"GID_2":"DZA.42.7_1","GID_0":"DZA","country":"Algeria","GID_1":"DZA.42_1","province":"Tébessa","NL_NAME_1":"ولايةتبسة","county":"Boukhadra","VARNAME_2":"NA","NL_NAME_2":"NA","TYPE_2":"Commune","ENGTYPE_2":"Commune","CC_2":"1218","HASC_2":"DZ.TB.BO","name":"Boukhadra.county"},
"geometry":{"type": "MultiPolygon","coordinates": [[[[8.1146,35.715,732.2031],[8.1253,35.7223,711.0605],[8.1315,35.7303,692.6105],[8.1359,35.7322,694.0403],[8.1352,35.7371,678.2886],[8.1443,35.7508,655.7517],[8.1448,35.758,646.131],[8.1367,35.7697,636.2667],[8.1331,35.7809,623.9463],[8.1236,35.801,592.7894],[8.125,35.8057,584.3918],[8.1297,35.8106,585.4707],[8.1299,35.8157,573.3988],[8.1336,35.8184,575.9213],[8.1363,35.8306,567.9116],[8.133,35.8402,552.0088],[8.1355,35.8515,542.2467],[8.133,35.8639,528.073],[8.1356,35.8697,528.8113],[8.1335,35.8736,522.6614],[8.1271,35.8768,521.3815],[8.1157,35.8727,517.9736],[8.1166,35.8681,523.7449],[8.1073,35.8617,529.4628],[8.1018,35.8478,543.5089],[8.0968,35.8449,542.541],[8.0771,35.8395,557.2676],[8.0562,35.8154,585.8587],[8.0405,35.8127,601.15],[8.0344,35.8095,608.8269],[8.0188,35.8081,627.0179],[8.0004,35.8004,671.2356],[7.9815,35.8013,731.3079],[7.9723,35.7815,912.3229],[7.9499,35.7814,875.7382],[7.9395,35.7829,795.649],[7.9347,35.7818,778.8929],[7.9155,35.7727,716.1334],[7.9075,35.7654,694.228],[7.9188,35.7542,695.5934],[7.9855,35.7046,732.964],[7.9903,35.6978,748.0647],[8.015,35.7003,832.689],[8.0385,35.698,1142.7321],[8.0654,35.7086,911.5311],[8.0962,35.7046,788.2394],[8.1037,35.7118,753.593],[8.1146,35.715,732.2031]]]]}}