{"type":"Feature","properties":{"GID_2":"DZA.19.16_1","GID_0":"DZA","country":"Algeria","GID_1":"DZA.19_1","province":"ElTarf","NL_NAME_1":"ولايةالطارف","county":"ElKala","VARNAME_2":"al-Qal`ah","NL_NAME_2":"NA","TYPE_2":"Commune-Cotiere","ENGTYPE_2":"Commune-Cotiere","CC_2":"3605","HASC_2":"DZ.ET.EK","name":"El_Kala.county"},
"geometry":{"type": "MultiPolygon","coordinates": [[[[8.4824,36.8261,3.0298],[8.4929,36.8277,3.1464],[8.495,36.836,3.1211],[8.5012,36.8406,2.7772],[8.5369,36.8555,6.5796],[8.5394,36.8623,21.9388],[8.543,36.8659,19.2599],[8.544,36.8774,4.1731],[8.5337,36.8841,4.0481],[8.5295,36.8914,2.8903],[8.5204,36.8993,36.1578],[8.5222,36.9053,61.5334],[8.5207,36.9096,13.4548],[8.5142,36.9092,0.0],[8.5016,36.9051,1.4518],[8.494,36.9058,1.5378],[8.4786,36.903,0.0],[8.4671,36.8992,0.0],[8.4565,36.8997,0.9459],[8.4518,36.8981,1.6402],[8.4407,36.9001,0.0],[8.4304,36.8954,13.5669],[8.4256,36.8958,0.0],[8.4032,36.9137,0.0],[8.3885,36.9145,1.6484],[8.3603,36.9218,18.6487],[8.3409,36.9183,2.2444],[8.3283,36.9205,0.0],[8.3236,36.9199,1.5277],[8.3193,36.917,6.4618],[8.307,36.9187,1.511],[8.2918,36.9152,10.2319],[8.2835,36.9151,8.8136],[8.268,36.9183,2.21],[8.2652,36.9263,2.7769],[8.2603,36.931,3.4838],[8.2465,36.9335,18.7579],[8.241,36.9366,0.0],[8.2407,36.948,0.0],[8.2264,36.9517,11.0557],[8.208,36.9427,24.7068],[8.2068,36.9386,25.1534],[8.2012,36.9394,0.0],[8.1848,36.9301,38.8121],[8.1407,36.9114,5.6473],[8.1413,36.8931,46.6609],[8.1455,36.8911,22.5867],[8.1742,36.8868,56.5588],[8.1926,36.8936,138.0038],[8.217,36.8764,148.299],[8.2401,36.8646,79.6712],[8.238,36.855,63.5748],[8.2481,36.844,69.1269],[8.3006,36.8249,115.4368],[8.3126,36.8267,64.6162],[8.3188,36.8296,51.2228],[8.3229,36.8273,40.2003],[8.3237,36.8211,48.3306],[8.3307,36.8114,50.5933],[8.3312,36.8066,49.5878],[8.3461,36.8092,60.0445],[8.3472,36.8136,53.0103],[8.3516,36.811,61.4761],[8.3564,36.8047,118.2232],[8.3634,36.8034,160.3498],[8.3712,36.8051,159.138],[8.3753,36.8018,52.1724],[8.3808,36.803,39.5421],[8.395,36.8143,54.4069],[8.3979,36.8177,35.9426],[8.4001,36.8242,25.7469],[8.4046,36.8229,26.5208],[8.4126,36.8302,26.6061],[8.4195,36.8397,27.1552],[8.425,36.8529,28.6235],[8.4311,36.8542,31.1564],[8.4365,36.8515,47.0394],[8.4368,36.8447,49.257],[8.4405,36.8406,39.7928],[8.448,36.8383,41.1904],[8.4625,36.8415,3.2159],[8.4675,36.8392,1.6675],[8.4746,36.8301,2.8304],[8.4824,36.8261,3.0298]]]]}}