{"type": "Feature","bbox": [4.967,35.0026,5.5867,35.3524],"geometry": {"type": "MultiPolygon","coordinates": [[[[4.9715,35.1111,683.0157],[4.967,35.0926,641.1696],[4.9873,35.085,621.5674],[4.9943,35.0847,621.7313],[5.0065,35.0898,603.516],[5.0161,35.0966,550.1221],[5.0488,35.0843,692.6952],[5.0386,35.1077,548.5562],[5.0408,35.118899999999996,519.9854],[5.0444,35.1233,510.2198],[5.054,35.1322,495.7278],[5.0629,35.1358,488.7784],[5.0652,35.1403,484.69],[5.0764,35.1504,471.3483],[5.1191,35.1837,428.9542],[5.143,35.192,416.984],[5.1677,35.2061,404.1499],[5.1823,35.2115,400.7833],[5.199,35.2063,402.2857],[5.2098,35.2011,403.7773],[5.2304,35.1462,472.7781],[5.2337,35.1432,488.0294],[5.2395,35.1418,575.8626],[5.2455,35.1236,589.1824],[5.2511,35.1224,508.9968],[5.2544,35.1182,481.3696],[5.2528,35.1054,480.7993],[5.2469,35.0919,437.8568],[5.2392,35.0871,416.6655],[5.2394,35.0817,415.8838],[5.2372,35.0768,401.2289],[5.2275,35.0683,393.992],[5.209,35.071,375.4398],[5.1957,35.0653,361.989],[5.1917,35.059,360.962],[5.1907,35.0532,350.8507],[5.1938,35.0498,359.9797],[5.195,35.0398,359.2403],[5.1916,35.0365,354.8033],[5.19,35.0304,329.6854],[5.2029,35.0241,383.5519],[5.2271,35.0187,303.644],[5.2498,35.0074,324.5176],[5.2556,35.0068,283.1145],[5.2611,35.0026,284.2144],[5.2728,35.0058,266.8545],[5.2876,35.0059,293.8679],[5.2935,35.0217,418.348],[5.2993,35.0308,445.2706],[5.3064,35.0373,483.9236],[5.3086,35.042,487.729],[5.3073,35.047,469.8139],[5.361,35.0546,578.7059],[5.3721,35.0544,550.2616],[5.375,35.0576,576.9415],[5.3907,35.0549,542.6953],[5.3939,35.0581,570.6717],[5.4051,35.0599,588.0256],[5.4243,35.057,503.3403],[5.4295,35.0575,539.3674],[5.4422,35.051,432.399],[5.4579,35.0471,260.0712],[5.4661,35.0488,361.6242],[5.4844,35.0475,282.4091],[5.4916,35.0487,273.7479],[5.5001,35.057,259.5074],[5.503,35.0621,268.3972],[5.5083,35.0654,280.7341],[5.5372,35.0655,309.0232],[5.561,35.0736,317.7091],[5.5734,35.0797,312.5421],[5.5867,35.0925,318.481],[5.5851,35.1127,337.7662],[5.5817,35.1243,381.0],[5.5783,35.132,381.0],[5.5623,35.1501,416.3753],[5.553,35.157,422.2488],[5.5359,35.1633,433.0092],[5.4996,35.1694,453.6588],[5.4889,35.169,451.7245],[5.486,35.1727,451.6456],[5.4777,35.2012,482.7707],[5.4741,35.2052,494.2125],[5.461,35.2138,546.4045],[5.4544,35.2151,569.4489],[5.4293,35.2287,561.1365],[5.414,35.2416,567.0483],[5.404,35.2656,530.267],[5.4038,35.2703,548.9857],[5.4105,35.2732,605.8636],[5.4259,35.2732,679.4049],[5.4349,35.2622,737.6708],[5.4394,35.2621,745.1597],[5.4491,35.258,779.3451],[5.4534,35.2585,795.723],[5.4498,35.272,618.7476],[5.4519,35.2773,582.8922],[5.4506,35.283,573.8373],[5.4409,35.2918,539.9941],[5.4348,35.3032,515.3771],[5.4341,35.3081,510.1365],[5.4372,35.313,507.6995],[5.4332,35.326,537.6356],[5.4196,35.3436,562.3971],[5.4107,35.351,530.872],[5.4065,35.3524,521.1664],[5.347,35.3511,459.6425],[5.3165,35.3295,446.296],[5.2696,35.319,431.0826],[5.2433,35.3093,421.5316],[5.2275,35.294,414.558],[5.2242,35.2835,411.4123],[5.2128,35.2846,409.2174],[5.209,35.2822,408.8514],[5.2052,35.2767,407.2819],[5.1935,35.2712,404.7085],[5.1666,35.2676,400.6176],[5.1451,35.2522,398.2537],[5.1323,35.2448,397.5779],[5.1257,35.2432,398.7806],[5.1144,35.233,407.5891],[5.0928,35.2189,419.1003],[5.0822,35.2047,431.2615],[5.0805,35.1988,433.1892],[5.0755,35.1959,437.7306],[5.0728,35.1918,442.8369],[5.0721,35.1865,446.6328],[5.0608,35.1638,466.8366],[5.0547,35.1592,474.6982],[5.0274,35.1657,496.2226],[5.0227,35.1637,488.9553],[4.9947,35.1388,550.8524],[4.9715,35.1111,683.0157]]]]}
,"properties": {"GID_2": "DZA.6.9_1","GID_0": "DZA","country": "Algeria","GID_1": "DZA.6_1","province": "Batna","NL_NAME_1": "ولايةباتنة","county": "Bitam","VARNAME_2": "NA","NL_NAME_2": "NA","TYPE_2": "Commune","ENGTYPE_2": "Commune","CC_2": "514","HASC_2": "DZ.BT.BI","name": "Bitam.county","area_km2": 941.2488,"hist_schema_id": "Elevation0-9000","hist_area_km2": {"250": 2.2563,"275": 7.2541,"300": 14.8716,"325": 22.1409,"350": 21.5673,"375": 22.8867,"400": 91.3285,"425": 132.227,"450": 151.3831,"475": 140.3052,"500": 101.4719,"525": 65.8618,"550": 45.9392,"575": 32.2983,"600": 24.0829,"625": 18.9154,"650": 13.1928,"675": 8.9974,"700": 6.5353,"725": 4.3338,"750": 3.5533,"775": 3.6921,"800": 2.4269,"825": 1.8029,"850": 1.1788,"875": 0.624,"900": 0.104,"925": 0.0173}}}