{"type": "Feature","bbox": [-1.2739,35.322,-1.1862,35.4041],"geometry": {"type": "MultiPolygon","coordinates": [[[[-1.1862,35.3553,90.0104],[-1.187,35.368,70.1765],[-1.1998,35.3708,106.3854],[-1.2116,35.3907,101.9506],[-1.2175,35.3961,102.7658],[-1.2227,35.3974,68.8613],[-1.232,35.3948,57.7968],[-1.2358,35.3974,42.2213],[-1.2329,35.4037,33.5725],[-1.2489,35.4041,75.9971],[-1.2541,35.4026,31.7766],[-1.2739,35.3688,39.1004],[-1.2657,35.3611,12.8369],[-1.2606,35.3598,53.0522],[-1.2436,35.3608,52.9982],[-1.23,35.3554,67.5411],[-1.2343,35.342,137.8546],[-1.226,35.3332,162.875],[-1.2192,35.322,174.9042],[-1.2131,35.3296,159.5008],[-1.2146,35.335,139.1025],[-1.2104,35.3405,98.8129],[-1.2041,35.3401,116.8606],[-1.1931,35.3537,103.3504],[-1.1862,35.3553,90.0104]]]]}
,"properties": {"GID_2": "DZA.3.21_1","GID_0": "DZA","country": "Algeria","GID_1": "DZA.3_1","province": "AïnTémouchent","NL_NAME_1": "ولايةعينتموشنت","county": "OuledKihel","VARNAME_2": "OuledKihal","NL_NAME_2": "NA","TYPE_2": "Commune-Cotiere","ENGTYPE_2": "Commune-Cotiere","CC_2": "4622","HASC_2": "DZ.AT.OK","name": "Ouled_Kihel.county","area_km2": 34.80296,"hist_schema_id": "Elevation0-9000","hist_area_km2": {"0": 0.38027,"25": 1.24461,"50": 3.26715,"75": 11.42732,"100": 12.29304,"125": 3.25059,"150": 2.36925,"175": 0.57073}}}