{"type": "Feature","bbox": [-1.1862,35.2806,-1.0407,35.3725],"geometry": {"type": "MultiPolygon","coordinates": [[[[-1.0696,35.2806,297.2328],[-1.0592,35.3006,268.6859],[-1.0449,35.3118,208.3729],[-1.0487,35.3163,221.6417],[-1.0536,35.3177,255.5583],[-1.0407,35.331,276.7438],[-1.0451,35.3332,273.9124],[-1.0488,35.3705,106.1281],[-1.0546,35.3725,91.4396],[-1.0741,35.367,112.5493],[-1.0984,35.366,117.1208],[-1.1104,35.3683,100.5336],[-1.1162,35.3665,104.7319],[-1.1313,35.3454,149.3801],[-1.1394,35.3495,149.2416],[-1.1436,35.355,186.368],[-1.148,35.3531,153.9265],[-1.1615,35.3564,118.1572],[-1.1787,35.3576,97.7536],[-1.1862,35.3553,90.0104],[-1.1786,35.3479,89.9982],[-1.1739,35.348,102.7506],[-1.1679,35.3386,108.112],[-1.162,35.3336,127.5743],[-1.1608,35.3274,141.785],[-1.165,35.3176,168.0552],[-1.1529,35.3152,221.29],[-1.1142,35.3226,182.1825],[-1.1105,35.3188,208.9798],[-1.1019,35.3153,206.8165],[-1.0966,35.3166,202.2515],[-1.0924,35.3115,198.3586],[-1.0937,35.3047,206.8249],[-1.0985,35.2963,231.1605],[-1.0985,35.2898,256.4806],[-1.0955,35.2836,272.9933],[-1.0901,35.2809,288.9185],[-1.0696,35.2806,297.2328]]]]}
,"properties": {"GID_2": "DZA.3.9_1","GID_0": "DZA","country": "Algeria","GID_1": "DZA.3_1","province": "AïnTémouchent","NL_NAME_1": "ولايةعينتموشنت","county": "ChaabetElHam","VARNAME_2": "Sha`abat-al-Laham","NL_NAME_2": "NA","TYPE_2": "Commune","ENGTYPE_2": "Commune","CC_2": "4602","HASC_2": "DZ.AT.CH","name": "Chaabet_El_Ham.county","area_km2": 68.49562,"hist_schema_id": "Elevation0-9000","hist_area_km2": {"75": 0.08646,"100": 3.38898,"125": 7.53917,"150": 11.03328,"175": 15.56646,"200": 11.46847,"225": 7.73319,"250": 6.8343,"275": 3.21845,"300": 1.05573,"325": 0.57113}}}