{"type": "Feature","bbox": [-0.4615,35.5925,-0.2674,35.7102],"geometry": {"type": "MultiPolygon","coordinates": [[[[-0.2946,35.6782,110.4972],[-0.3118,35.6657,77.1348],[-0.3301,35.6586,89.2966],[-0.3422,35.6588,59.2415],[-0.352,35.6553,63.2804],[-0.3599,35.6544,59.5336],[-0.3566,35.6602,56.0],[-0.3461,35.6705,56.4265],[-0.3387,35.6804,56.0],[-0.3281,35.6899,56.0],[-0.3302,35.695,58.3166],[-0.3249,35.6939,56.7243],[-0.3136,35.7006,56.0],[-0.3098,35.7057,56.3767],[-0.3086,35.7102,56.0],[-0.3296,35.7041,63.3065],[-0.3444,35.7058,105.5641],[-0.3708,35.7016,89.0002],[-0.387,35.7044,88.1507],[-0.3912,35.7012,88.9476],[-0.3921,35.6938,86.1655],[-0.3955,35.6886,86.1759],[-0.4226,35.6864,109.5744],[-0.4306,35.6801,133.0652],[-0.4415,35.6751,138.379],[-0.4479,35.6739,161.0782],[-0.4615,35.6749,142.5996],[-0.4589,35.6616,173.4159],[-0.4552,35.654,178.3436],[-0.4318,35.6414,301.7192],[-0.4321,35.6353,300.7903],[-0.4302,35.6305,231.5316],[-0.42,35.6164,121.743],[-0.4102,35.6092,119.0588],[-0.3977,35.6039,169.0408],[-0.3922,35.5997,174.9149],[-0.3888,35.5925,204.2412],[-0.3667,35.6107,277.8242],[-0.3154,35.647,195.5247],[-0.2674,35.676,164.8913],[-0.2885,35.676,174.7305],[-0.2946,35.6782,110.4972]]]]}
,"properties": {"GID_2": "DZA.32.8_1","GID_0": "DZA","country": "Algeria","GID_1": "DZA.32_1","province": "Oran","NL_NAME_1": "ولايةوهران","county": "Boufatis","VARNAME_2": "NA","NL_NAME_2": "NA","TYPE_2": "Commune","ENGTYPE_2": "Commune","CC_2": "3114","HASC_2": "DZ.OR.BO","name": "Boufatis.county","area_km2": 98.74726,"hist_schema_id": "Elevation0-9000","hist_area_km2": {"50": 4.04685,"75": 10.24771,"100": 20.35862,"125": 20.43182,"150": 12.732,"175": 12.80132,"200": 8.25412,"225": 5.11852,"250": 3.01583,"275": 1.32691,"300": 0.41357}}}