{"type": "Feature","bbox": [5.3416,32.4162,6.1316,32.9848],"geometry": {"type": "MultiPolygon","coordinates": [[[[5.8997,32.9848,86.1927],[5.896,32.982,86.4104],[5.7786,32.9412,98.1554],[5.6502,32.8429,98.8838],[5.4981,32.658,116.0256],[5.3496,32.5572,137.7428],[5.3416,32.5551,176.9927],[5.6703,32.4507,122.113],[5.7695,32.4165,127.457],[5.7761,32.4162,125.4071],[5.9853,32.5611,113.6383],[6.046,32.6082,120.4993],[6.1025,32.6181,112.6987],[6.1316,32.9004,95.826],[6.0015,32.8421,96.4037],[5.9916,32.8357,92.6414],[5.9158,32.9621,83.3863],[5.8997,32.9848,86.1927]]]]}
,"properties": {"GID_2": "DZA.33.6_1","GID_0": "DZA","country": "Algeria","GID_1": "DZA.33_1","province": "Ouargla","NL_NAME_1": "ورقلة","county": "ElHadjira","VARNAME_2": "al-Hajīrah","NL_NAME_2": "NA","TYPE_2": "Commune","ENGTYPE_2": "Commune","CC_2": "3014","HASC_2": "DZ.OG.EH","name": "El_Hadjira.county","area_km2": 2495.433,"hist_schema_id": "Elevation0-9000","hist_area_km2": {"75": 19.734,"100": 1408.519,"125": 939.41,"150": 104.289,"175": 23.481}}}