{"type": "Feature","bbox": [3.557,36.1591,3.6862,36.2781],"geometry": {"type": "MultiPolygon","coordinates": [[[[3.6517,36.2781,687.2741],[3.6475,36.2743,682.6981],[3.6432,36.273,683.4174],[3.6124,36.2337,685.663],[3.616,36.2283,697.543],[3.6133,36.2238,706.1582],[3.6022,36.2258,685.0768],[3.5673,36.2263,646.6385],[3.5573,36.2182,653.1317],[3.557,36.2119,690.0131],[3.5659,36.1945,744.3585],[3.5677,36.1651,866.6895],[3.5698,36.1595,924.7505],[3.577,36.1591,1037.3125],[3.5918,36.162,1276.1326],[3.6051,36.1695,1332.3328],[3.6,36.1762,1121.0208],[3.602,36.1828,968.5792],[3.6106,36.1845,1190.0698],[3.6233,36.1923,953.2925],[3.6256,36.2016,905.2017],[3.6322,36.1981,956.9479],[3.6378,36.2019,832.8361],[3.6507,36.2005,933.0104],[3.6612,36.2012,904.4236],[3.6736,36.2047,820.7238],[3.6796,36.2192,763.4973],[3.6781,36.2381,734.3157],[3.6798,36.2432,714.5665],[3.6862,36.2516,701.9762],[3.6789,36.2564,697.2502],[3.6774,36.262,699.906],[3.6652,36.2672,705.3052],[3.6624,36.2731,690.0198],[3.6517,36.2781,687.2741]]]]}
,"properties": {"GID_2": "DZA.12.38_1","GID_0": "DZA","country": "Algeria","GID_1": "DZA.12_1","province": "Bouira","NL_NAME_1": "ولايةالبويرة","county": "Raouraoua","VARNAME_2": "NA","NL_NAME_2": "NA","TYPE_2": "Commune","ENGTYPE_2": "Commune","CC_2": "1010","HASC_2": "DZ.BU.RA","name": "Raouraoua.county","area_km2": 70.59413,"hist_schema_id": "Elevation0-9000","hist_area_km2": {"650": 0.4447,"675": 9.69457,"700": 7.64355,"725": 6.92606,"750": 5.9521,"775": 5.28562,"800": 5.09777,"825": 4.94396,"850": 4.61923,"875": 3.42171,"900": 2.4125,"925": 1.95058,"950": 1.42017,"975": 1.30048,"1000": 1.21493,"1025": 0.92407,"1050": 0.87277,"1075": 0.80432,"1100": 0.70166,"1125": 0.75302,"1150": 0.75302,"1175": 0.71881,"1200": 0.53055,"1225": 0.49635,"1250": 0.37656,"1275": 0.27386,"1300": 0.4108,"1325": 0.58196,"1350": 0.06847}}}