{"type":"Feature","properties":{"GID_2":"DZA.29.32_1","GID_0":"DZA","country":"Algeria","GID_1":"DZA.29_1","province":"Mila","NL_NAME_1":"ولايةميلة","county":"Zeghaia","VARNAME_2":"NA","NL_NAME_2":"NA","TYPE_2":"Commune","ENGTYPE_2":"Commune","CC_2":"4328","HASC_2":"DZ.ML.ZE","name":"Zeghaia.county"},
"geometry":{"type": "MultiPolygon","coordinates": [[[[6.23,36.4957,457.0818],[6.2236,36.4947,342.9546],[6.2205,36.4983,329.9756],[6.2189,36.5096,257.7819],[6.2115,36.5184,267.3345],[6.2108,36.5227,200.651],[6.1991,36.5156,197.0],[6.1736,36.5111,197.0],[6.1662,36.5028,216.7798],[6.1604,36.501,197.0],[6.1556,36.4997,197.0],[6.1354,36.4999,197.0],[6.1311,36.4977,197.0],[6.1218,36.4962,197.0],[6.1196,36.4914,198.6037],[6.1187,36.4808,215.9729],[6.1233,36.4708,282.8523],[6.1219,36.4597,265.1444],[6.1342,36.4522,279.4606],[6.1489,36.4503,292.2674],[6.1609,36.4458,322.54],[6.1722,36.4435,318.677],[6.1773,36.4437,329.443],[6.1813,36.4459,345.3202],[6.1909,36.4409,416.8978],[6.195,36.4368,409.6884],[6.2013,36.4397,491.9445],[6.2058,36.4392,520.356],[6.2099,36.4415,543.2989],[6.2105,36.4479,570.8256],[6.2161,36.4535,522.589],[6.2177,36.4687,563.9791],[6.2139,36.4739,490.8688],[6.2163,36.48,409.6284],[6.2305,36.4826,434.2216],[6.2315,36.4891,455.744],[6.23,36.4957,457.0818]]]]}}