{"type":"Feature","properties":{"GID_2":"DZA.24.9_1","GID_0":"DZA","country":"Algeria","GID_1":"DZA.24_1","province":"Khenchela","NL_NAME_1":"ولايةخنشلة","county":"ElMahmal","VARNAME_2":"al-Mahmal","NL_NAME_2":"NA","TYPE_2":"Commune","ENGTYPE_2":"Commune","CC_2":"4017","HASC_2":"DZ.KH.EM","name":"El_Mahmal.county"},
"geometry":{"type": "MultiPolygon","coordinates": [[[[7.307,35.4476,1194.6768],[7.2548,35.4281,1166.8427],[7.2486,35.4264,1260.7812],[7.2427,35.4275,1296.7064],[7.2398,35.4228,1372.1569],[7.23,35.4147,1415.5194],[7.2206,35.3996,1281.8958],[7.2001,35.3896,1185.7955],[7.1924,35.3787,1209.8014],[7.1916,35.3736,1191.1705],[7.2066,35.3666,1120.855],[7.2091,35.3613,1108.4016],[7.1924,35.2977,1073.1033],[7.1913,35.2801,1062.3245],[7.1972,35.2677,1099.6014],[7.2131,35.2472,1319.3911],[7.2109,35.2241,1354.8765],[7.2158,35.2245,1383.4844],[7.2193,35.2276,1403.8403],[7.2248,35.2244,1385.5365],[7.2281,35.2198,1349.2333],[7.234,35.2003,1310.1538],[7.2312,35.1957,1334.8982],[7.2177,35.1914,1275.9767],[7.2098,35.1853,1254.4656],[7.2155,35.1739,1272.525],[7.2162,35.1543,1303.2185],[7.2186,35.1392,1369.3956],[7.2173,35.1324,1333.3186],[7.2207,35.1249,1320.6813],[7.2373,35.1037,1357.9993],[7.2533,35.0926,1370.2385],[7.2577,35.0853,1296.2263],[7.3002,35.0414,1025.6293],[7.3098,35.0525,1021.9107],[7.3103,35.0589,1022.1337],[7.3054,35.1267,1123.5398],[7.2994,35.1454,1236.5188],[7.3045,35.155,1332.6365],[7.3052,35.1723,1450.3749],[7.2958,35.1839,1439.4449],[7.2948,35.1897,1443.2708],[7.2973,35.1951,1411.6693],[7.2902,35.2111,1366.9812],[7.291,35.2286,1327.187],[7.2851,35.2411,1341.6356],[7.2837,35.254,1376.1693],[7.2851,35.2592,1364.0366],[7.292,35.2723,1396.2877],[7.2996,35.2798,1340.2522],[7.3012,35.2846,1261.5542],[7.2995,35.2965,1187.0828],[7.3008,35.3017,1150.7],[7.3095,35.3124,1138.0118],[7.32,35.3307,1100.7205],[7.3248,35.3355,1100.8279],[7.3394,35.3323,1110.8241],[7.3518,35.3403,1107.2252],[7.3936,35.3402,1109.771],[7.3995,35.3378,1125.8379],[7.4108,35.3498,1122.5776],[7.4084,35.3534,1111.3696],[7.4113,35.3572,1078.2534],[7.4053,35.3653,1077.1998],[7.3954,35.3733,1084.5797],[7.4015,35.3848,1111.4974],[7.3952,35.3887,1131.6102],[7.3857,35.3874,1111.4865],[7.3125,35.4008,1068.2762],[7.3103,35.406,1070.5964],[7.307,35.4476,1194.6768]]]]}}