{"type":"Feature","properties":{"GID_2":"DZA.34.15_1","GID_0":"DZA","country":"Algeria","GID_1":"DZA.34_1","province":"OumelBouaghi","NL_NAME_1":"ولايةأمالبواقي","county":"ElFedjoudjBoughraraSaoudi","VARNAME_2":"NA","NL_NAME_2":"NA","TYPE_2":"Commune","ENGTYPE_2":"Commune","CC_2":"419","HASC_2":"DZ.OB.EF","name":"El_Fedjoudj_Boughrara_Saoudi.county"},
"geometry":{"type": "MultiPolygon","coordinates": [[[[6.7705,35.6828,861.4966],[6.7756,35.6722,953.429],[6.7821,35.6722,1033.2972],[6.7911,35.6763,1106.0873],[6.8083,35.6812,1094.72],[6.8511,35.6871,1016.7462],[6.8594,35.6909,1180.6569],[6.8641,35.6977,1176.4033],[6.8801,35.7047,1137.3547],[6.8852,35.7088,1200.0981],[6.8934,35.7097,1122.6431],[6.8988,35.7403,839.3707],[6.9037,35.755,834.4032],[6.9095,35.7925,830.0],[6.9205,35.817,844.8329],[6.9268,35.8211,860.3981],[6.9301,35.832,913.1152],[6.9219,35.8367,920.6864],[6.917,35.8373,1007.8674],[6.9101,35.8345,898.8917],[6.9037,35.8345,892.9196],[6.8734,35.8443,1017.8842],[6.8066,35.8541,902.2416],[6.7486,35.8686,983.6467],[6.7322,35.8748,954.8797],[6.7322,35.8652,915.4563],[6.7246,35.8549,913.7827],[6.7312,35.8341,832.4242],[6.7234,35.8224,961.998],[6.7155,35.8154,874.5746],[6.7,35.7899,927.9839],[6.6856,35.7753,892.1369],[6.6817,35.7687,838.8476],[6.7088,35.7403,838.2487],[6.7587,35.6995,837.0321],[6.7705,35.6828,861.4966]]]]}}