{"type": "Feature","bbox": [3.9717,35.9857,4.1562,36.1608],"geometry": {"type": "MultiPolygon","coordinates": [[[[4.1419,36.1062,1191.376],[4.1436,36.1175,1213.4031],[4.1483,36.1229,1134.6237],[4.1562,36.1279,1103.8074],[4.1466,36.1314,1037.9657],[4.1205,36.1335,918.8809],[4.0937,36.1177,852.9752],[4.0875,36.1172,837.5604],[4.0807,36.1249,814.8411],[4.0763,36.126,816.9127],[4.0712,36.1251,868.4885],[4.0669,36.1204,947.9179],[4.0572,36.1208,1065.0457],[4.0524,36.1225,1141.4496],[4.0381,36.1425,980.4462],[4.0287,36.1485,903.0912],[4.0215,36.1566,818.4029],[4.0137,36.1586,796.6224],[3.9953,36.1587,694.3696],[3.9852,36.1608,654.7369],[3.9877,36.1527,658.4979],[3.9861,36.1428,650.0563],[3.9782,36.1319,668.4416],[3.9811,36.1277,704.5011],[3.9717,36.1119,709.3287],[3.9735,36.1064,753.5206],[3.9771,36.1024,746.6155],[3.9834,36.102,762.4636],[3.9902,36.0932,797.9105],[4.0054,36.082,811.708],[4.0038,36.0764,772.6688],[3.9985,36.0725,789.9119],[3.9954,36.0662,830.3687],[3.9989,36.053,854.8802],[4.0017,36.047,883.7927],[4.0061,36.0451,905.4955],[4.0101,36.0463,921.0096],[4.0151,36.045,1005.0718],[4.0246,36.0351,1274.8549],[4.02,36.0323,1285.7866],[4.023,36.015,1145.8167],[4.032,36.0107,1084.2368],[4.0395,36.0049,927.3923],[4.0428,35.9991,878.0529],[4.0432,35.9893,822.2013],[4.046,35.9857,792.7391],[4.0495,35.9969,846.5855],[4.0557,36.004,851.7307],[4.0577,36.009,876.1559],[4.0672,36.0162,977.693],[4.0628,36.0229,993.7423],[4.0656,36.0318,1117.886],[4.0639,36.0364,1071.582],[4.0691,36.0386,1026.5675],[4.0713,36.0435,1142.9805],[4.076,36.0455,1189.7487],[4.0941,36.0473,1420.3795],[4.0992,36.05,1460.4119],[4.1059,36.057,1443.2607],[4.1074,36.0614,1515.8838],[4.1206,36.0691,1238.0317],[4.1329,36.0787,1073.1798],[4.1386,36.084,1083.6117],[4.1427,36.0944,1003.1447],[4.1385,36.0992,1072.1384],[4.1419,36.1062,1191.376]]]]}
,"properties": {"GID_2": "DZA.12.35_1","GID_0": "DZA","country": "Algeria","GID_1": "DZA.12_1","province": "Bouira","NL_NAME_1": "ولايةالبويرة","county": "Mezdour","VARNAME_2": "NA","NL_NAME_2": "NA","TYPE_2": "Commune","ENGTYPE_2": "Commune","CC_2": "1011","HASC_2": "DZ.BU.ME","name": "Mezdour.county","area_km2": 146.7167,"hist_schema_id": "Elevation0-9000","hist_area_km2": {"650": 0.1541,"675": 0.6163,"700": 1.1472,"725": 1.5581,"750": 1.9693,"775": 3.8705,"800": 6.6294,"825": 9.1137,"850": 9.1144,"875": 10.2973,"900": 11.548,"925": 11.4446,"950": 12.0273,"975": 11.3598,"1000": 9.0986,"1025": 8.1565,"1050": 6.6317,"1075": 5.4838,"1100": 4.473,"1125": 3.5304,"1150": 3.1879,"1175": 2.7423,"1200": 2.4679,"1225": 1.9538,"1250": 1.6795,"1275": 1.7309,"1300": 1.2854,"1325": 0.9427,"1350": 0.857,"1375": 0.4971,"1400": 0.3943,"1425": 0.4114,"1450": 0.2057,"1475": 0.0686,"1500": 0.0514,"1525": 0.0171}}}