{"type":"Feature","properties":{"GID_2":"DZA.18.11_1","GID_0":"DZA","country":"Algeria","GID_1":"DZA.18_1","province":"ElOued","NL_NAME_1":"ولايةالوادي","county":"HassaniAbdelkrim","VARNAME_2":"Hassan`Abd-al-Karīm","NL_NAME_2":"NA","TYPE_2":"Commune","ENGTYPE_2":"Commune","CC_2":"3912","HASC_2":"DZ.EO.HA","name":"Hassani_Abdelkrim.county"},
"geometry":{"type": "MultiPolygon","coordinates": [[[[6.928,33.513,63.2733],[6.8646,33.5206,55.7378],[6.8669,33.462,64.8143],[6.8738,33.4125,78.0043],[6.8946,33.4374,66.6128],[6.9371,33.4502,64.047],[6.9498,33.4678,63.635],[6.9278,33.5019,59.4127],[6.928,33.513,63.2733]]]]}}