{"type": "Feature","bbox": [6.2602,36.86,6.4115,36.9595],"geometry": {"type": "MultiPolygon","coordinates": [[[[6.3183,36.8619,434.8338],[6.3247,36.86,325.7042],[6.3303,36.8647,439.7204],[6.3412,36.8685,407.7289],[6.3469,36.8759,341.7901],[6.3538,36.8802,222.3059],[6.3591,36.8796,298.8428],[6.3838,36.8936,657.5412],[6.3989,36.8958,597.2817],[6.4058,36.9033,749.4327],[6.4012,36.9201,850.7169],[6.41,36.9315,793.5694],[6.4115,36.94,710.2065],[6.3921,36.9409,460.9898],[6.3858,36.9391,420.989],[6.3723,36.9388,226.624],[6.3403,36.9406,211.4274],[6.3142,36.9595,538.1369],[6.3104,36.9573,550.8022],[6.3084,36.9518,491.4828],[6.3039,36.9479,458.5193],[6.3,36.9507,564.6704],[6.297,36.9466,481.0074],[6.2702,36.94,250.0768],[6.2714,36.9306,194.0118],[6.2745,36.9243,74.9464],[6.2797,36.9207,19.6394],[6.2809,36.9147,7.0407],[6.2771,36.8914,325.6793],[6.2745,36.8872,372.1183],[6.2694,36.8841,381.7418],[6.2673,36.8714,505.9551],[6.2873,36.8678,442.382],[6.3072,36.8664,412.4019],[6.3183,36.8619,434.8338]]],
[[[6.264,36.9377,154.4871],[6.2702,36.94,250.0768],[6.265,36.9431,78.9038],[6.2602,36.9398,117.7519],[6.264,36.9377,154.4871]]]]}
,"properties": {"GID_2": "DZA.39.27_1","GID_0": "DZA","country": "Algeria","GID_1": "DZA.39_1","province": "Skikda","NL_NAME_1": "سكيكدة","county": "OuedZhour","VARNAME_2": "NA","NL_NAME_2": "NA","TYPE_2": "Commune-Cotiere","ENGTYPE_2": "Commune-Cotiere","CC_2": "2114","HASC_2": "DZ.SK.OZ","name": "Oued_Zhour.county","area_km2": 88.08777,"hist_schema_id": "Elevation0-9000","hist_area_km2": {"0": 1.15275,"25": 3.44139,"50": 2.66148,"75": 3.03441,"100": 3.67867,"125": 3.64475,"150": 3.72961,"175": 4.67904,"200": 4.81479,"225": 4.86554,"250": 4.59437,"275": 4.67934,"300": 4.06899,"325": 4.27248,"350": 4.11997,"375": 3.66231,"400": 3.74696,"425": 2.91617,"450": 3.05165,"475": 2.45802,"500": 1.6612,"525": 1.57648,"550": 1.23744,"575": 1.28821,"600": 1.06789,"625": 0.88146,"650": 0.88149,"675": 0.84756,"700": 0.91538,"725": 0.71198,"750": 0.76278,"775": 0.57632,"800": 0.55933,"825": 0.54238,"850": 0.49154,"875": 0.32206,"900": 0.28816,"925": 0.2034}}}