{"type":"Feature","properties":{"GID_2":"DZA.4.23_1","GID_0":"DZA","country":"Algeria","GID_1":"DZA.4_1","province":"Alger","NL_NAME_1":"ولايةالجزائر","county":"Souidania","VARNAME_2":"NA","NL_NAME_2":"NA","TYPE_2":"Commune","ENGTYPE_2":"Commune","CC_2":"1649","HASC_2":"DZ.AL.SO","name":"Souidania.county"},
"geometry":{"type": "MultiPolygon","coordinates": [[[[2.9073,36.7355,110.6621],[2.891,36.7253,97.3552],[2.8784,36.714,85.4941],[2.8807,36.708,58.9324],[2.8897,36.7031,70.1376],[2.8959,36.6879,133.0138],[2.9008,36.6878,174.6611],[2.9168,36.6981,182.3034],[2.9276,36.7009,192.2524],[2.9339,36.7049,154.104],[2.9293,36.7096,140.1981],[2.9246,36.7104,120.6712],[2.9164,36.7226,124.2079],[2.9129,36.7342,119.32],[2.9073,36.7355,110.6621]]]]}}