{"type": "Feature","bbox": [3.5834,36.7083,3.6699,36.7588],"geometry": {"type": "MultiPolygon","coordinates": [[[[3.6699,36.74,22.267],[3.6653,36.7404,25.0831],[3.6556,36.7476,66.7865],[3.6473,36.7512,59.7843],[3.6377,36.7588,99.127],[3.6231,36.7526,56.9034],[3.6002,36.7519,215.328],[3.5909,36.7433,404.7445],[3.5852,36.7349,313.9648],[3.5834,36.717,63.486],[3.5903,36.7096,62.601],[3.5969,36.7107,41.134],[3.6031,36.7083,29.0107],[3.6122,36.7126,30.8904],[3.6243,36.7093,29.5704],[3.6363,36.7182,27.4415],[3.6444,36.7196,27.8147],[3.6506,36.7184,28.9547],[3.6552,36.7219,26.8444],[3.6537,36.7261,29.1911],[3.6482,36.7295,26.292],[3.6507,36.7336,25.1531],[3.6553,36.7342,25.6916],[3.665,36.7315,24.7004],[3.6683,36.7346,23.2545],[3.6699,36.74,22.267]]]]}
,"properties": {"GID_2": "DZA.13.25_1","GID_0": "DZA","country": "Algeria","GID_1": "DZA.13_1","province": "Boumerdès","NL_NAME_1": "ولايةبومرداس","county": "SiMustapha","VARNAME_2": "NA","NL_NAME_2": "NA","TYPE_2": "Commune","ENGTYPE_2": "Commune","CC_2": "3511","HASC_2": "DZ.BM.SM","name": "Si_Mustapha.county","area_km2": 27.42535,"hist_schema_id": "Elevation0-9000","hist_area_km2": {"25": 6.96749,"50": 7.34093,"75": 5.74282,"100": 2.8714,"125": 0.7986,"150": 0.54374,"175": 0.49276,"200": 0.42479,"225": 0.45876,"250": 0.35681,"275": 0.27186,"300": 0.30584,"325": 0.30584,"350": 0.33983,"375": 0.08495,"400": 0.06796,"425": 0.05097}}}