{"type":"Feature","properties":{"GID_2":"DZA.38.19_1","GID_0":"DZA","country":"Algeria","GID_1":"DZA.38_1","province":"SidiBelAbbès","NL_NAME_1":"ولايةسيديبلعباس","county":"Lemtar","VARNAME_2":"Lamtar","NL_NAME_2":"NA","TYPE_2":"Commune","ENGTYPE_2":"Commune","CC_2":"2234","HASC_2":"DZ.SB.LE","name":"Lemtar.county"},
"geometry":{"type": "MultiPolygon","coordinates": [[[[-0.801,35.034,602.979],[-0.781,35.0428,596.7074],[-0.7862,35.0519,587.4859],[-0.7602,35.0518,596.8782],[-0.7426,35.0936,536.9527],[-0.7448,35.0979,534.7259],[-0.7549,35.0951,535.7026],[-0.7659,35.0947,545.8964],[-0.7704,35.1031,561.1614],[-0.7781,35.1028,567.3831],[-0.7768,35.0984,570.7155],[-0.7915,35.0955,576.1164],[-0.7952,35.09,567.5988],[-0.8021,35.0886,566.9889],[-0.8186,35.0914,587.9892],[-0.8303,35.09,596.3293],[-0.843,35.0773,613.5002],[-0.8589,35.068,613.6376],[-0.8454,35.0536,611.2078],[-0.8367,35.0472,619.8328],[-0.8536,35.0375,610.7112],[-0.8395,35.0227,617.7072],[-0.8336,35.014,625.7309],[-0.828,35.0139,625.3252],[-0.801,35.034,602.979]]]]}}