{"type":"Feature","properties":{"GID_2":"DZA.37.10_1","GID_0":"DZA","country":"Algeria","GID_1":"DZA.37_1","province":"Sétif","NL_NAME_1":"ولايةسطيف","county":"Ait-Tizi","VARNAME_2":"AitTizi","NL_NAME_2":"NA","TYPE_2":"Commune","ENGTYPE_2":"Commune","CC_2":"1954","HASC_2":"DZ.SF.AT","name":"Ait-Tizi.county"},
"geometry":{"type": "MultiPolygon","coordinates": [[[[5.1796,36.5424,1053.4553],[5.1761,36.5454,1201.9524],[5.1696,36.5458,1240.7607],[5.167,36.5503,1109.2446],[5.1572,36.5507,969.9071],[5.1539,36.5564,799.256],[5.1476,36.5599,640.3362],[5.1462,36.5661,455.884],[5.1399,36.5662,580.7097],[5.1273,36.5698,613.3408],[5.1115,36.5707,756.6738],[5.1022,36.5761,841.2438],[5.1018,36.5689,919.0423],[5.0987,36.5626,966.194],[5.106,36.5484,1447.0864],[5.1152,36.5403,1602.4651],[5.1285,36.536,1271.1439],[5.1379,36.5285,1300.4271],[5.1395,36.5224,1159.3843],[5.1494,36.5163,1075.9885],[5.1489,36.5094,1064.7368],[5.1521,36.5021,912.3755],[5.1626,36.4923,912.946],[5.1698,36.4923,767.8678],[5.1762,36.4946,896.8013],[5.1895,36.5112,1279.52],[5.1976,36.5166,1534.4691],[5.2007,36.5206,1606.8932],[5.1858,36.5346,1031.5892],[5.1808,36.5374,994.9962],[5.1796,36.5424,1053.4553]]]]}}