{"type":"Feature","properties":{"GID_2":"DZA.34.17_1","GID_0":"DZA","country":"Algeria","GID_1":"DZA.34_1","province":"OumelBouaghi","NL_NAME_1":"ولايةأمالبواقي","county":"ElRahia","VARNAME_2":"Rehia","NL_NAME_2":"NA","TYPE_2":"Commune","ENGTYPE_2":"Commune","CC_2":"426","HASC_2":"DZ.OB.ER","name":"El_Rahia.county"},
"geometry":{"type": "MultiPolygon","coordinates": [[[[7.682,35.8153,878.0369],[7.6672,35.8134,876.82],[7.6496,35.8237,886.1758],[7.6398,35.8211,904.2208],[7.6278,35.8211,914.1987],[7.6032,35.8154,961.9761],[7.588,35.8068,971.652],[7.5857,35.8011,968.8636],[7.5879,35.7839,983.0817],[7.601,35.7828,953.6755],[7.6017,35.7781,959.0018],[7.607,35.7745,937.2729],[7.603,35.7713,957.5806],[7.5911,35.7676,995.5872],[7.5794,35.7671,1038.1646],[7.5748,35.7534,1074.7876],[7.5721,35.7411,1014.1282],[7.5748,35.7377,998.3241],[7.5718,35.7239,974.2632],[7.5755,35.7085,937.7799],[7.5829,35.7007,924.9337],[7.5817,35.6951,941.0597],[7.5851,35.6904,959.3215],[7.5949,35.6849,959.3789],[7.6094,35.681,949.4451],[7.6129,35.6836,935.804],[7.6348,35.6909,886.4026],[7.6412,35.691,884.3828],[7.651,35.6883,871.9058],[7.6629,35.6902,861.6371],[7.6712,35.6943,851.1705],[7.681,35.6936,841.7401],[7.6849,35.6955,834.7877],[7.687,35.7021,837.2986],[7.693,35.705,832.6084],[7.7064,35.7063,811.1021],[7.7195,35.7102,793.0684],[7.7353,35.7269,777.5775],[7.7412,35.7309,774.4498],[7.7482,35.7484,758.3524],[7.7359,35.7485,768.0111],[7.7201,35.752,781.1379],[7.7146,35.7511,786.4773],[7.7054,35.7469,796.885],[7.7011,35.7386,825.2233],[7.6954,35.7407,822.9059],[7.6904,35.7463,825.559],[7.6886,35.7517,830.32],[7.7054,35.7843,817.4457],[7.696,35.7952,841.7091],[7.6957,35.801,849.2678],[7.682,35.8153,878.0369]]]]}}