{"type": "Feature","bbox": [2.8189,36.0963,3.0126,36.2104],"geometry": {"type": "MultiPolygon","coordinates": [[[[2.8189,36.1429,690.371],[2.8233,36.1406,734.8796],[2.8297,36.1412,728.8244],[2.8359,36.1391,758.275],[2.8489,36.1304,794.3821],[2.8689,36.1241,894.2007],[2.8746,36.1207,950.2108],[2.8766,36.1118,907.7966],[2.8795,36.1074,864.5257],[2.8848,36.1098,863.5023],[2.9002,36.1061,812.3019],[2.9283,36.1044,844.0862],[2.9334,36.1018,842.9926],[2.9371,36.0963,782.5568],[2.9421,36.0973,795.0764],[2.9457,36.1001,789.3447],[2.9676,36.104,818.9736],[2.9721,36.1032,828.6692],[2.9781,36.0989,832.6013],[2.9868,36.0983,850.251],[2.9928,36.1076,902.5587],[2.9986,36.1105,941.3029],[3.0016,36.1152,1038.9941],[3.0004,36.1203,1061.8228],[3.0022,36.1266,1187.6018],[3.0083,36.1296,1179.6276],[3.0061,36.1393,991.2119],[3.0062,36.1503,839.548],[3.0107,36.1541,859.0239],[3.0126,36.1667,729.3157],[3.0065,36.1756,808.3835],[2.999,36.1792,828.6381],[2.9947,36.1837,800.6433],[2.9835,36.1884,826.1055],[2.9767,36.1974,923.6772],[2.9648,36.2051,1067.7352],[2.9518,36.2053,1105.1683],[2.9352,36.2104,945.7142],[2.9216,36.2079,991.3336],[2.9107,36.202,1081.6852],[2.8912,36.2062,1172.8481],[2.888,36.2026,1180.7233],[2.8946,36.1915,1184.3276],[2.8927,36.1864,1240.4734],[2.8952,36.1822,1242.3092],[2.8896,36.1804,1090.8904],[2.8699,36.1658,925.8695],[2.8634,36.1665,895.0185],[2.8428,36.1635,820.8767],[2.8328,36.1522,759.2106],[2.8189,36.1429,690.371]]]]}
,"properties": {"GID_2": "DZA.28.9_1","GID_0": "DZA","country": "Algeria","GID_1": "DZA.28_1","province": "Médéa","NL_NAME_1": "ولايةالمدية","county": "Berrouaghia","VARNAME_2": "Birwāghīyah","NL_NAME_2": "NA","TYPE_2": "Commune","ENGTYPE_2": "Commune","CC_2": "2647","HASC_2": "DZ.MD.BE","name": "Berrouaghia.county","area_km2": 136.8915,"hist_schema_id": "Elevation0-9000","hist_area_km2": {"700": 0.0171,"725": 0.1883,"750": 1.1298,"775": 2.4824,"800": 5.0677,"825": 7.0198,"850": 8.9551,"875": 10.77,"900": 12.5853,"925": 15.6674,"950": 13.5261,"975": 11.0084,"1000": 8.6626,"1025": 6.8989,"1050": 6.282,"1075": 5.4086,"1100": 4.9977,"1125": 4.4156,"1150": 3.8507,"1175": 3.0465,"1200": 2.1051,"1225": 1.3007,"1250": 0.7187,"1275": 0.5305,"1300": 0.1711,"1325": 0.0856}}}