{"type":"Feature","properties":{"GID_2":"DZA.43.4_1","GID_0":"DZA","country":"Algeria","GID_1":"DZA.43_1","province":"Tiaret","NL_NAME_1":"ولايةتيارت","county":"AinKermes","VARNAME_2":"NA","NL_NAME_2":"NA","TYPE_2":"Commune","ENGTYPE_2":"Commune","CC_2":"1428","HASC_2":"DZ.TR.AK","name":"Ain_Kermes.county"},
"geometry":{"type": "MultiPolygon","coordinates": [[[[0.9925,34.9794,1185.979],[0.9862,34.9583,1081.9762],[0.9771,34.9174,956.8795],[0.9777,34.9117,974.1917],[0.9751,34.9055,997.1639],[0.9632,34.8881,1010.0363],[0.9614,34.8804,1007.3745],[0.968,34.8784,1013.9806],[1.013,34.8784,1064.7952],[1.0337,34.8749,1076.7288],[1.072,34.8632,1135.1001],[1.1001,34.8683,1123.6115],[1.1141,34.8613,1113.1987],[1.1805,34.8616,1093.4589],[1.1768,34.8881,1124.8707],[1.1589,34.9231,1142.7397],[1.1805,34.9506,1166.4658],[1.1596,34.9922,1210.3585],[1.1587,34.9971,1215.7831],[1.1317,34.9924,1235.7592],[1.1261,34.9894,1230.3466],[1.1223,34.9806,1223.0105],[1.1115,34.9782,1238.9495],[1.107,34.9749,1237.1548],[1.1025,34.9742,1232.1359],[1.0656,34.9756,1221.1797],[1.0607,34.9769,1219.1643],[1.0506,34.9883,1107.224],[1.0452,34.9878,1159.8041],[1.0306,34.9824,1147.0343],[1.0165,34.9902,1112.5654],[1.0088,34.9907,1160.3197],[1.0036,34.9847,1151.0011],[0.9925,34.9794,1185.979]]]]}}