{"type": "Feature","bbox": [7.5512,35.8912,7.7789,36.0936],"geometry": {"type": "MultiPolygon","coordinates": [[[[7.7178,35.8947,740.3168],[7.7196,35.9106,737.2758],[7.7263,35.9288,769.7583],[7.7298,35.9343,773.3038],[7.7412,35.9453,753.3568],[7.743,35.938,762.3107],[7.748,35.9362,748.0853],[7.7587,35.9379,739.0554],[7.7647,35.9314,732.1179],[7.7697,35.9286,728.5582],[7.7789,35.9383,719.5671],[7.7483,35.9841,770.6205],[7.7281,36.0049,856.2515],[7.7227,36.0088,897.4752],[7.7194,36.0185,946.1967],[7.7201,36.025,964.3814],[7.7274,36.0494,906.5549],[7.7277,36.0555,907.9362],[7.7049,36.0445,929.5493],[7.6952,36.0441,937.3996],[7.6955,36.0509,935.2468],[7.6892,36.0581,900.2246],[7.6835,36.0603,921.7475],[7.6807,36.065,918.7245],[7.6873,36.0766,858.0691],[7.688,36.0813,862.5651],[7.6845,36.0864,858.0688],[7.6784,36.0908,849.5856],[7.6705,36.0936,833.4899],[7.6579,36.093,844.9396],[7.6491,36.0871,875.8964],[7.644,36.0906,815.2234],[7.6301,36.0917,810.2796],[7.6188,36.0824,834.9199],[7.6131,36.08,837.295],[7.5955,36.0843,834.0453],[7.57,36.0733,955.1744],[7.564,36.0721,972.8689],[7.559,36.0626,960.9732],[7.5512,36.0588,980.2369],[7.5746,36.0432,880.9495],[7.5778,36.0393,876.3478],[7.5758,36.0336,868.9185],[7.5724,36.0307,869.2717],[7.5724,36.0148,862.8175],[7.5809,36.0075,879.5698],[7.5783,36.0033,883.8954],[7.5835,35.9955,901.4667],[7.5945,35.9923,906.8636],[7.6115,35.9794,941.0392],[7.6126,35.967,1055.4382],[7.6159,35.9621,1086.0786],[7.6205,35.9598,1127.8661],[7.6302,35.9596,1074.5818],[7.6346,35.958,1006.4296],[7.641,35.9469,898.6033],[7.647,35.9423,873.9642],[7.6617,35.9369,826.1949],[7.6629,35.9316,806.8545],[7.6676,35.9267,789.2513],[7.6913,35.9203,768.6356],[7.6963,35.9155,754.9211],[7.7011,35.9014,786.713],[7.7067,35.8924,762.3734],[7.7123,35.8912,752.332],[7.7178,35.8947,740.3168]]]]}
,"properties": {"GID_2": "DZA.40.16_1","GID_0": "DZA","country": "Algeria","GID_1": "DZA.40_1","province": "SoukAhras","NL_NAME_1": "ولايةسوقأهراس","county": "OumElAdhaim","VARNAME_2": "NA","NL_NAME_2": "NA","TYPE_2": "Commune","ENGTYPE_2": "Commune","CC_2": "4116","HASC_2": "DZ.SA.OA","name": "Oum_El_Adhaim.county","area_km2": 222.2725,"hist_schema_id": "Elevation0-9000","hist_area_km2": {"725": 4.6001,"750": 15.2261,"775": 17.9713,"800": 14.4499,"825": 12.6617,"850": 14.8355,"875": 21.8281,"900": 28.6509,"925": 45.1785,"950": 23.2,"975": 11.9711,"1000": 6.604,"1025": 3.5511,"1050": 0.6692,"1075": 0.3947,"1100": 0.3261,"1125": 0.1373,"1150": 0.0172}}}