{"type":"Feature","properties":{"GID_2":"DZA.34.7_1","GID_0":"DZA","country":"Algeria","GID_1":"DZA.34_1","province":"OumelBouaghi","NL_NAME_1":"ولايةأمالبواقي","county":"AinZitoun","VARNAME_2":"NA","NL_NAME_2":"NA","TYPE_2":"Commune","ENGTYPE_2":"Commune","CC_2":"427","HASC_2":"DZ.OB.AZ","name":"Ain_Zitoun.county"},
"geometry":{"type": "MultiPolygon","coordinates": [[[[7.1166,35.5919,839.2624],[7.133,35.6176,843.5771],[7.1363,35.6203,830.5],[7.1533,35.6131,831.1414],[7.1881,35.6164,831.6434],[7.2048,35.6195,831.5735],[7.2099,35.6177,830.5],[7.2131,35.6124,832.2029],[7.2178,35.6106,836.6569],[7.2244,35.6277,840.8888],[7.2251,35.6359,833.0272],[7.2288,35.6472,834.3275],[7.2267,35.6523,834.2153],[7.2156,35.6604,830.5],[7.2114,35.6654,836.296],[7.2041,35.6665,831.1782],[7.1996,35.6706,834.4421],[7.201,35.6764,831.5884],[7.2077,35.6824,830.9996],[7.214,35.6852,830.5],[7.2151,35.6894,832.4235],[7.2209,35.6973,831.0218],[7.2256,35.715,839.5956],[7.2242,35.7277,842.8106],[7.2185,35.7391,842.3701],[7.2132,35.7422,842.6155],[7.1852,35.7463,839.9955],[7.1703,35.7515,835.7975],[7.1642,35.7507,831.6041],[7.1454,35.7406,839.692],[7.1243,35.7364,835.101],[7.1131,35.731,830.7577],[7.0936,35.7302,831.4478],[7.0886,35.7321,840.3386],[7.0802,35.7523,981.2425],[7.0808,35.7576,1092.887],[7.0829,35.7636,1090.1139],[7.1059,35.7928,847.6857],[7.0992,35.8047,851.0078],[7.1032,35.8098,856.3734],[7.0988,35.8158,867.2629],[7.0725,35.8332,928.7645],[7.0687,35.8383,948.3823],[7.0849,35.8548,883.026],[7.0877,35.8596,881.157],[7.0825,35.8649,884.8982],[7.0679,35.8725,889.9299],[7.0679,35.8784,910.9329],[7.0621,35.8824,908.0179],[7.0627,35.8738,893.9231],[7.0577,35.8714,893.9815],[7.047,35.8766,902.6266],[7.0144,35.8572,920.7579],[6.9784,35.8489,986.5422],[6.9741,35.8448,977.7698],[6.972,35.8385,978.9071],[6.9635,35.8312,945.4434],[6.9301,35.832,913.1152],[6.9268,35.8211,860.3981],[6.9205,35.817,844.8329],[6.9095,35.7925,830.0],[6.9037,35.755,834.4032],[6.8988,35.7403,839.3707],[6.8934,35.7097,1122.6431],[6.8852,35.7088,1200.0981],[6.8801,35.7047,1137.3547],[6.8641,35.6977,1176.4033],[6.8594,35.6909,1180.6569],[6.8511,35.6871,1016.7462],[6.8157,35.6826,1144.1868],[6.7911,35.6763,1106.0873],[6.7821,35.6722,1033.2972],[6.7756,35.6722,953.429],[6.8062,35.6157,858.3333],[6.8112,35.6101,860.4058],[6.844,35.6097,855.3125],[6.8714,35.6115,851.4104],[7.0025,35.6263,837.2461],[7.0289,35.6058,838.6127],[7.0289,35.6016,840.1141],[7.0234,35.5927,843.8822],[7.0229,35.5867,845.6035],[7.0136,35.5682,853.7245],[7.019,35.5647,854.9565],[7.0755,35.5473,861.1288],[7.0872,35.5461,860.4674],[7.1166,35.5919,839.2624]]]]}}