{"type":"Feature","properties":{"GID_2":"DZA.2.21_1","GID_0":"DZA","country":"Algeria","GID_1":"DZA.2_1","province":"AïnDefla","NL_NAME_1":"ولايةعينالدفلى","county":"ElAttaf","VARNAME_2":"al-Ashir","NL_NAME_2":"NA","TYPE_2":"Commune","ENGTYPE_2":"Commune","CC_2":"4410","HASC_2":"DZ.AD.ET","name":"El_Attaf.county"},
"geometry":{"type": "MultiPolygon","coordinates": [[[[1.7253,36.2495,165.5285],[1.7226,36.2444,165.0674],[1.7181,36.2449,164.4038],[1.7148,36.241,162.527],[1.709,36.2395,165.2204],[1.7025,36.2413,162.3029],[1.6807,36.2415,160.0404],[1.6765,36.2439,157.841],[1.6757,36.2315,155.7919],[1.6699,36.2322,154.465],[1.6686,36.2375,152.451],[1.6644,36.241,150.9856],[1.6608,36.2373,150.6099],[1.6547,36.2374,150.4494],[1.6495,36.2393,153.8006],[1.6452,36.2288,148.9001],[1.6393,36.2306,148.4936],[1.6328,36.2357,152.2385],[1.6225,36.2357,147.2795],[1.6203,36.2206,147.0102],[1.6253,36.2186,154.2973],[1.6313,36.2189,150.2171],[1.6339,36.2149,249.3857],[1.633,36.2102,423.8353],[1.6264,36.2029,506.5243],[1.6384,36.1853,265.395],[1.667,36.1899,197.5318],[1.6721,36.1935,200.8512],[1.6772,36.1941,205.6501],[1.6984,36.1931,268.314],[1.7113,36.1902,306.8593],[1.7115,36.1848,317.3108],[1.7139,36.1802,305.3115],[1.7201,36.1777,283.5428],[1.7314,36.1685,246.6301],[1.7539,36.185,232.0619],[1.7836,36.1959,306.113],[1.7876,36.1943,338.3601],[1.7939,36.1951,339.3328],[1.7928,36.2012,384.5259],[1.7892,36.2041,394.4944],[1.7837,36.2039,321.1485],[1.7779,36.2057,262.6415],[1.7688,36.2295,208.4168],[1.7689,36.234,198.9328],[1.7737,36.2373,200.3956],[1.7912,36.2429,190.3599],[1.7931,36.2476,179.7949],[1.7845,36.2556,174.8234],[1.7795,36.2561,173.5272],[1.7664,36.2488,172.4329],[1.7538,36.25,170.8279],[1.7492,36.2448,166.5904],[1.7437,36.2469,165.5748],[1.7391,36.2439,168.82],[1.7328,36.2429,170.8993],[1.7301,36.2469,170.1091],[1.7253,36.2495,165.5285]]]]}}