{"type":"Feature","properties":{"GID_2":"DZA.33.2_1","GID_0":"DZA","country":"Algeria","GID_1":"DZA.33_1","province":"Ouargla","NL_NAME_1":"ورقلة","county":"BaladietAmor","VARNAME_2":"BalidatAmeur","NL_NAME_2":"NA","TYPE_2":"Commune","ENGTYPE_2":"Commune","CC_2":"3006","HASC_2":"DZ.OG.BA","name":"Baladiet_Amor.county"},
"geometry":{"type": "MultiPolygon","coordinates": [[[[6.2419,32.9478,101.9929],[6.0856,32.9521,87.7104],[6.0009,32.9498,86.2843],[5.9941,32.9509,89.5615],[5.9846,32.9635,79.9974],[5.9794,32.9759,79.9455],[5.977,32.9891,79.1974],[5.912,32.9844,83.4636],[5.8997,32.9848,86.1927],[5.9158,32.9621,83.3863],[5.9916,32.8357,92.6414],[6.0015,32.8421,96.4037],[6.1316,32.9004,95.826],[6.2419,32.9478,101.9929]]]]}}