{"type":"Feature","properties":{"GID_2":"DZA.25.20_1","GID_0":"DZA","country":"Algeria","GID_1":"DZA.25_1","province":"Laghouat","NL_NAME_1":"ولايةالأغواط","county":"SidiBouzid","VARNAME_2":"NA","NL_NAME_2":"NA","TYPE_2":"Commune","ENGTYPE_2":"Commune","CC_2":"324","HASC_2":"DZ.LG.SB","name":"Sidi_Bouzid.county"},
"geometry":{"type": "MultiPolygon","coordinates": [[[[2.231,34.2334,1463.0728],[2.2729,34.2487,1435.8674],[2.2887,34.263,1308.1038],[2.2907,34.2716,1288.4697],[2.2938,34.2749,1273.0033],[2.3036,34.2775,1292.5155],[2.3096,34.2984,1226.4221],[2.3145,34.3025,1211.3895],[2.3202,34.3149,1195.6649],[2.3204,34.3193,1190.9126],[2.3259,34.325,1190.8381],[2.3664,34.3357,1153.7072],[2.3721,34.3486,1128.4126],[2.3662,34.3719,1114.7377],[2.3677,34.376,1109.012],[2.3657,34.3798,1103.8975],[2.3659,34.3849,1100.6656],[2.3626,34.3899,1095.1766],[2.362,34.3942,1091.4922],[2.3501,34.3995,1085.1157],[2.343,34.3974,1081.8245],[2.3368,34.4003,1076.7314],[2.3282,34.4075,1071.5624],[2.3143,34.4079,1063.6669],[2.2966,34.4141,1054.9919],[2.2922,34.4171,1052.0441],[2.2868,34.4304,1043.4543],[2.2812,34.4347,1043.165],[2.2404,34.4124,1105.6588],[2.178,34.4041,1088.5569],[2.1433,34.3843,1070.6439],[2.0659,34.3284,1122.6089],[1.9964,34.2456,1189.1202],[1.9993,34.2423,1189.6744],[2.0056,34.2403,1186.2701],[2.0137,34.2338,1191.9993],[2.0269,34.2179,1241.6143],[2.1092,34.2624,1401.9945],[2.2013,34.2393,1405.2196],[2.231,34.2334,1463.0728]]]]}}