{"type": "Feature","bbox": [6.1643,35.1237,6.4365,35.2504],"geometry": {"type": "MultiPolygon","coordinates": [[[[6.2401,35.2372,1875.4741],[6.2245,35.2245,1633.5126],[6.2186,35.2241,1779.9944],[6.2125,35.2214,1680.3792],[6.2117,35.2115,1555.6053],[6.2071,35.2017,1605.3315],[6.2064,35.1949,1700.2692],[6.1905,35.1903,1651.4097],[6.1847,35.1833,1705.5697],[6.1876,35.1797,1844.6305],[6.1745,35.1674,1645.74],[6.1682,35.1574,1497.4331],[6.1724,35.1347,1236.2408],[6.1707,35.13,1242.5463],[6.1643,35.1237,1346.7339],[6.2054,35.136,1385.0518],[6.2095,35.1398,1462.2437],[6.239,35.1523,1121.9447],[6.2545,35.1639,1239.1161],[6.2798,35.1696,1398.1809],[6.323,35.1884,1542.7443],[6.3714,35.2051,1718.9255],[6.3869,35.2127,1781.0229],[6.4365,35.2323,1865.8273],[6.4284,35.2413,1601.1624],[6.4272,35.2504,1511.887],[6.409,35.2479,1475.8671],[6.3845,35.2391,1452.5909],[6.3712,35.2368,1441.7515],[6.3584,35.2324,1400.2947],[6.3277,35.2126,1218.2263],[6.3231,35.214,1098.3309],[6.3198,35.2172,1041.4619],[6.3255,35.2196,1043.5212],[6.3285,35.2263,1084.2211],[6.3269,35.2309,1105.4846],[6.3167,35.2389,1165.5555],[6.3118,35.2407,1214.2544],[6.2802,35.2345,1696.598],[6.2696,35.2341,1669.8823],[6.2659,35.2316,1693.459],[6.263,35.2269,1846.265],[6.2566,35.2273,1799.6926],[6.2401,35.2372,1875.4741]]]]}
,"properties": {"GID_2": "DZA.6.57_1","GID_0": "DZA","country": "Algeria","GID_1": "DZA.6_1","province": "Batna","NL_NAME_1": "ولايةباتنة","county": "Tighanimine","VARNAME_2": "NA","NL_NAME_2": "NA","TYPE_2": "Commune","ENGTYPE_2": "Commune","CC_2": "526","HASC_2": "DZ.BT.TN","name": "Tighanimine.county","area_km2": 128.28127,"hist_schema_id": "Elevation0-9000","hist_area_km2": {"875": 0.06933,"900": 0.48532,"925": 0.9186,"950": 1.68108,"975": 2.5995,"1000": 3.13643,"1025": 4.36649,"1050": 4.10638,"1075": 3.8119,"1100": 3.32682,"1125": 3.53472,"1150": 3.58665,"1175": 3.37879,"1200": 3.60406,"1225": 3.82943,"1250": 4.52272,"1275": 4.69614,"1300": 5.57993,"1325": 5.35461,"1350": 5.38903,"1375": 5.64863,"1400": 4.78202,"1425": 4.88568,"1450": 4.72951,"1475": 4.66019,"1500": 4.65995,"1525": 4.74644,"1550": 3.9841,"1575": 4.2439,"1600": 3.67238,"1625": 2.87554,"1650": 2.40782,"1675": 1.99208,"1700": 2.00931,"1725": 1.45499,"1750": 1.14324,"1775": 0.8141,"1800": 0.60621,"1825": 0.58889,"1850": 0.2598,"1875": 0.0866,"1900": 0.05196}}}