{"type": "Feature","bbox": [4.9931,35.4949,5.2403,35.725],"geometry": {"type": "MultiPolygon","coordinates": [[[[5.0881,35.5287,466.6149],[5.0874,35.5353,473.8445],[5.0845,35.5386,476.9295],[5.0832,35.5442,483.7794],[5.0846,35.5501,491.9071],[5.094,35.5642,504.6663],[5.0984,35.5673,525.8412],[5.118,35.5733,525.9391],[5.1388,35.5856,576.7631],[5.1657,35.5957,612.9578],[5.192,35.599,666.0117],[5.2193,35.6057,715.7529],[5.2284,35.6101,715.4324],[5.2322,35.6165,762.476],[5.2306,35.6234,770.1519],[5.2262,35.6278,781.1688],[5.237,35.6397,771.9218],[5.2403,35.6503,815.8651],[5.1778,35.6512,666.203],[5.1733,35.6536,678.9771],[5.1645,35.6687,742.9634],[5.1493,35.6859,728.522],[5.1511,35.6978,779.6848],[5.1636,35.6994,961.2372],[5.1678,35.7037,1164.3411],[5.1487,35.725,802.2558],[5.1423,35.7239,816.274],[5.1327,35.7195,1075.1428],[5.1259,35.7187,1161.8602],[5.1121,35.7201,1173.1223],[5.108,35.7236,1077.8148],[5.1022,35.7222,1055.7639],[5.0955,35.7176,907.2492],[5.0906,35.7137,859.0906],[5.0892,35.7066,766.6407],[5.0812,35.696,713.5823],[5.0793,35.6891,692.1247],[5.0731,35.6782,662.4308],[5.0735,35.6721,641.2085],[5.0683,35.6741,647.0569],[5.0604,35.6623,617.9431],[5.0502,35.6559,607.6063],[5.0502,35.6469,584.7579],[5.0435,35.638,575.7482],[5.0422,35.6326,565.7872],[5.0445,35.6218,541.4515],[5.0405,35.6022,515.0608],[5.0458,35.593,509.1295],[5.0441,35.5735,488.8113],[5.0355,35.5701,486.4785],[5.0228,35.5566,471.0851],[5.001,35.5279,443.4443],[4.9931,35.5244,439.3484],[4.997,35.4949,423.2667],[5.0127,35.5063,433.8473],[5.0206,35.5065,434.6739],[5.024,35.5094,438.942],[5.0318,35.5186,448.9075],[5.0375,35.5297,454.8989],[5.0613,35.5269,464.5637],[5.0824,35.5206,461.9426],[5.0881,35.5287,466.6149]]]]}
,"properties": {"GID_2": "DZA.26.27_1","GID_0": "DZA","country": "Algeria","GID_1": "DZA.26_1","province": "M'Sila","NL_NAME_1": "ولايةالمسيلة","county": "Magra","VARNAME_2": "Maghra","NL_NAME_2": "NA","TYPE_2": "Commune","ENGTYPE_2": "Commune","CC_2": "2811","HASC_2": "DZ.MS.MG","name": "Magra.county","area_km2": 224.1251,"hist_schema_id": "Elevation0-9000","hist_area_km2": {"425": 3.331,"450": 11.9921,"475": 18.7691,"500": 13.1239,"525": 18.9656,"550": 15.2215,"575": 12.9958,"600": 15.665,"625": 17.2658,"650": 18.1606,"675": 16.6259,"700": 17.0036,"725": 12.2308,"750": 9.4056,"775": 6.2184,"800": 4.7711,"825": 2.8761,"850": 1.7735,"875": 0.9469,"900": 0.7575,"925": 0.7403,"950": 0.6886,"975": 0.5681,"1000": 0.7919,"1025": 0.4992,"1050": 0.7403,"1075": 0.5164,"1100": 0.4648,"1125": 0.3099,"1150": 0.2926,"1175": 0.2926,"1200": 0.0344,"1225": 0.0689,"1250": 0.0172}}}