{"type":"Feature","properties":{"GID_2":"DZA.43.27_1","GID_0":"DZA","country":"Algeria","GID_1":"DZA.43_1","province":"Tiaret","NL_NAME_1":"ولايةتيارت","county":"Rechaiga","VARNAME_2":"NA","NL_NAME_2":"NA","TYPE_2":"Commune","ENGTYPE_2":"Commune","CC_2":"1430","HASC_2":"DZ.TR.RE","name":"Rechaiga.county"},
"geometry":{"type": "MultiPolygon","coordinates": [[[[2.0146,35.4949,837.3169],[1.9781,35.4826,843.4319],[1.9293,35.4695,850.2485],[1.8966,35.452,860.3478],[1.8556,35.4208,877.5175],[1.859,35.4164,874.3029],[1.879,35.4028,868.8395],[1.883,35.398,867.8508],[1.9057,35.4004,861.6081],[1.9187,35.3989,858.6456],[1.9308,35.3764,856.6487],[1.9485,35.3341,888.0981],[1.9607,35.3178,859.667],[1.9788,35.2993,848.7786],[2.0059,35.2665,865.3497],[2.0206,35.2112,865.0739],[2.0539,35.1613,964.9301],[2.0606,35.1322,917.1477],[2.079,35.1321,951.6017],[2.0966,35.1295,946.3187],[2.1193,35.1326,915.0525],[2.1472,35.1385,970.7166],[2.1815,35.1547,985.9587],[2.1962,35.1556,1036.569],[2.2153,35.1326,994.5957],[2.2294,35.1295,1026.2098],[2.2385,35.1308,1056.647],[2.2507,35.1422,1124.9133],[2.2695,35.1551,1020.9445],[2.2748,35.1545,1019.3524],[2.2895,35.1763,1227.9983],[2.2833,35.1861,998.4362],[2.287,35.191,954.8218],[2.2791,35.2004,900.2576],[2.2834,35.2052,884.207],[2.2678,35.2121,869.7661],[2.2634,35.2168,864.9975],[2.2602,35.2268,881.1202],[2.2593,35.2394,836.1728],[2.2463,35.2418,855.4227],[2.2368,35.246,818.6604],[2.2446,35.2539,793.2118],[2.285,35.2697,775.5252],[2.2828,35.2762,774.7468],[2.2681,35.3015,765.0641],[2.2762,35.3119,747.7258],[2.281,35.3144,746.0897],[2.3061,35.3183,741.9772],[2.3104,35.3227,740.3815],[2.3009,35.3328,753.3345],[2.272,35.3386,767.9598],[2.0976,35.4378,823.3326],[2.0511,35.4658,833.1172],[2.0447,35.4683,830.7679],[2.0393,35.4671,830.9869],[2.0295,35.4754,833.8545],[2.0183,35.4927,837.3674],[2.0146,35.4949,837.3169]]]]}}