{"type":"Feature","properties":{"GID_2":"DZA.18.1_1","GID_0":"DZA","country":"Algeria","GID_1":"DZA.18_1","province":"ElOued","NL_NAME_1":"ولايةالوادي","county":"Bayadha","VARNAME_2":"NA","NL_NAME_2":"NA","TYPE_2":"Commune","ENGTYPE_2":"Commune","CC_2":"3904","HASC_2":"DZ.EO.BA","name":"Bayadha.county"},
"geometry":{"type": "MultiPolygon","coordinates": [[[[7.1909,33.4065,71.114],[7.1478,33.3916,72.1104],[7.0106,33.367,77.1911],[6.9412,33.357,80.1343],[6.8951,33.3579,93.5673],[6.8919,33.3459,78.7489],[6.8535,33.3331,86.6569],[6.8417,33.2905,100.3975],[6.8566,33.2546,99.2559],[6.8784,33.3114,102.4534],[6.9323,33.3152,81.2827],[7.011,33.3369,76.5525],[7.0458,33.3488,75.9964],[7.2108,33.3545,75.7452],[7.1909,33.4065,71.114]]]]}}