{"type": "Feature","bbox": [4.0736,36.8262,4.2013,36.8951],"geometry": {"type": "MultiPolygon","coordinates": [[[[4.1844,36.8262,557.1993],[4.1982,36.8366,744.5028],[4.2013,36.8408,826.8103],[4.1901,36.8431,785.7682],[4.1591,36.871,231.1563],[4.1529,36.8747,155.0121],[4.1511,36.8792,68.8904],[4.1506,36.8885,23.0576],[4.1474,36.8947,13.5201],[4.1261,36.8944,7.5035],[4.1078,36.8901,25.2885],[4.089,36.8924,0.0],[4.0811,36.8951,24.3996],[4.0736,36.8738,293.9393],[4.0772,36.8707,357.1637],[4.0829,36.8757,291.8274],[4.0889,36.8779,288.8511],[4.1008,36.8766,219.6616],[4.1099,36.8737,126.2473],[4.1156,36.8746,79.673],[4.1202,36.8717,132.1828],[4.1203,36.8613,197.3179],[4.1177,36.8559,272.9948],[4.1184,36.8484,445.7565],[4.1231,36.8446,464.6499],[4.1266,36.8323,663.3552],[4.1482,36.8301,694.949],[4.1747,36.8321,748.0146],[4.1844,36.8262,557.1993]]]]}
,"properties": {"GID_2": "DZA.47.58_1","GID_0": "DZA","country": "Algeria","GID_1": "DZA.47_1","province": "TiziOuzou","NL_NAME_1": "ولايةغليزان","county": "Tigzirt","VARNAME_2": "Tighzirt","NL_NAME_2": "NA","TYPE_2": "Commune-Cotiere","ENGTYPE_2": "Commune-Cotiere","CC_2": "1538","HASC_2": "DZ.TO.TZ","name": "Tigzirt.county","area_km2": 38.30381,"hist_schema_id": "Elevation0-9000","hist_area_km2": {"0": 0.49175,"25": 0.98352,"50": 1.27182,"75": 1.62797,"100": 1.61106,"125": 1.62806,"150": 1.88251,"175": 1.83171,"200": 2.03532,"225": 1.8149,"250": 2.13719,"275": 1.59452,"300": 1.34015,"325": 0.88213,"350": 0.84825,"375": 0.88221,"400": 0.71257,"425": 1.13673,"450": 0.86528,"475": 1.15374,"500": 0.8314,"525": 0.67871,"550": 0.8484,"575": 0.74661,"600": 0.83147,"625": 0.93328,"650": 0.93329,"675": 1.08602,"700": 1.06906,"725": 0.8145,"750": 0.72964,"775": 0.64478,"800": 0.69569,"825": 0.55992,"850": 0.16967}}}