{"type":"Feature","properties":{"GID_2":"DZA.38.40_1","GID_0":"DZA","country":"Algeria","GID_1":"DZA.38_1","province":"SidiBelAbbès","NL_NAME_1":"ولايةسيديبلعباس","county":"SidiHamadouche","VARNAME_2":"NA","NL_NAME_2":"NA","TYPE_2":"Commune","ENGTYPE_2":"Commune","CC_2":"2241","HASC_2":"DZ.SB.SH","name":"Sidi_Hamadouche.county"},
"geometry":{"type": "MultiPolygon","coordinates": [[[[-0.6067,35.3352,592.1223],[-0.6072,35.3296,506.0232],[-0.6122,35.3245,529.9534],[-0.6288,35.3227,611.4937],[-0.6349,35.3201,594.5664],[-0.6334,35.3144,520.1046],[-0.626,35.3054,490.3217],[-0.6143,35.2975,448.3139],[-0.6142,35.2906,444.4398],[-0.6087,35.2858,430.7162],[-0.6005,35.2819,426.584],[-0.5953,35.2823,432.3893],[-0.5911,35.2861,433.0222],[-0.5602,35.2823,410.2235],[-0.5572,35.2788,403.2158],[-0.5523,35.2767,428.9058],[-0.5537,35.2707,437.4586],[-0.55,35.2679,407.5698],[-0.5405,35.2716,447.4699],[-0.529,35.2805,425.3699],[-0.5132,35.2785,419.5142],[-0.5089,35.2816,409.3535],[-0.5012,35.2802,414.8339],[-0.5028,35.2735,422.5134],[-0.5069,35.2678,421.7166],[-0.502,35.2655,430.2469],[-0.4844,35.2659,443.9382],[-0.4789,35.2679,442.5948],[-0.4795,35.2916,381.7455],[-0.4774,35.2956,405.1905],[-0.4707,35.298,386.2192],[-0.4381,35.289,497.0713],[-0.4086,35.2913,491.3949],[-0.4027,35.2968,419.6156],[-0.4019,35.3128,311.157],[-0.4069,35.3141,305.1515],[-0.4116,35.3176,350.3704],[-0.4132,35.3249,347.946],[-0.4215,35.3384,375.5192],[-0.4197,35.3426,415.6215],[-0.4217,35.3492,465.3583],[-0.4288,35.3571,565.1701],[-0.4378,35.3506,556.7183],[-0.4513,35.3442,480.9185],[-0.4785,35.3448,492.6617],[-0.488,35.3411,461.1988],[-0.4997,35.3404,439.131],[-0.5202,35.3352,437.447],[-0.5326,35.3295,418.9378],[-0.5395,35.3323,441.5361],[-0.5584,35.3519,608.5865],[-0.5718,35.3521,660.4971],[-0.5741,35.3474,611.4562],[-0.578,35.3452,561.8305],[-0.5963,35.3438,628.4132],[-0.6028,35.3412,637.5125],[-0.6067,35.3352,592.1223]]]]}}