{"type":"Feature","properties":{"GID_2":"DZA.24.1_1","GID_0":"DZA","country":"Algeria","GID_1":"DZA.24_1","province":"Khenchela","NL_NAME_1":"ولايةخنشلة","county":"AinTouila","VARNAME_2":"NA","NL_NAME_2":"NA","TYPE_2":"Commune","ENGTYPE_2":"Commune","CC_2":"4006","HASC_2":"DZ.KH.AT","name":"Ain_Touila.county"},
"geometry":{"type": "MultiPolygon","coordinates": [[[[7.4721,35.5203,1085.7112],[7.461,35.523,1153.6143],[7.4554,35.5204,1125.2109],[7.4543,35.5141,1102.5259],[7.4508,35.5102,1139.3684],[7.4418,35.5075,1164.3728],[7.4321,35.5117,1148.9397],[7.4248,35.5113,1189.3738],[7.4197,35.5209,1077.1719],[7.424,35.5258,1064.7152],[7.4345,35.5314,1094.2612],[7.4267,35.5378,1084.2303],[7.419,35.5475,1021.5931],[7.3958,35.5552,966.1329],[7.3769,35.5698,931.6724],[7.3703,35.5684,925.2356],[7.3631,35.5642,923.2413],[7.3555,35.5415,994.1417],[7.3496,35.5302,1115.8772],[7.354,35.5205,1174.4663],[7.3494,35.5181,1191.1385],[7.3375,35.5189,1196.5325],[7.3138,35.5133,1094.7742],[7.3083,35.5102,1049.72],[7.3026,35.5104,1041.5042],[7.2997,35.5047,1034.2574],[7.2866,35.5002,1119.2021],[7.2702,35.4811,1199.1283],[7.2678,35.4741,1139.5858],[7.2791,35.4708,1220.2379],[7.2897,35.4717,1238.5902],[7.3029,35.4608,1260.905],[7.3064,35.4544,1304.9778],[7.3103,35.406,1070.5964],[7.3125,35.4008,1068.2762],[7.3857,35.3874,1111.4865],[7.3952,35.3887,1131.6102],[7.407,35.3944,1092.6724],[7.4325,35.3996,1046.4214],[7.4402,35.3992,1039.0256],[7.4455,35.4018,1025.9075],[7.4536,35.4023,1020.0417],[7.4627,35.4003,1012.5891],[7.4737,35.4061,1003.486],[7.5256,35.418,1005.3887],[7.5488,35.4269,1029.0264],[7.5494,35.4389,985.6421],[7.5453,35.4428,978.7296],[7.5276,35.447,976.1295],[7.5236,35.4519,970.8055],[7.5171,35.4695,954.6887],[7.4961,35.4707,952.7496],[7.4846,35.4757,967.6571],[7.48,35.4904,982.9332],[7.4865,35.4952,983.1735],[7.4877,35.5002,986.5253],[7.4833,35.5062,1008.2668],[7.472,35.5147,1054.6614],[7.4721,35.5203,1085.7112]]]]}}