{"type":"Feature","properties":{"GID_2":"DZA.21.6_1","GID_0":"DZA","country":"Algeria","GID_1":"DZA.21_1","province":"Guelma","NL_NAME_1":"ولايةقالمة","county":"Belkheir","VARNAME_2":"NA","NL_NAME_2":"NA","TYPE_2":"Commune","ENGTYPE_2":"Commune","CC_2":"2410","HASC_2":"DZ.GL.BE","name":"Belkheir.county"},
"geometry":{"type": "MultiPolygon","coordinates": [[[[7.4015,36.3559,1311.516],[7.4077,36.3573,1143.3577],[7.4191,36.363,947.5811],[7.4329,36.3612,737.5447],[7.4557,36.3665,525.89],[7.4648,36.3637,445.409],[7.4693,36.3648,433.9446],[7.479,36.3633,368.6296],[7.4937,36.3685,342.8376],[7.5166,36.3812,299.8831],[7.5089,36.3845,395.9505],[7.505,36.3965,401.6738],[7.5106,36.4086,356.4402],[7.5034,36.4094,343.4123],[7.509,36.4208,305.0415],[7.5097,36.4281,285.2749],[7.4997,36.4511,221.0637],[7.5047,36.478,168.9488],[7.5222,36.4934,300.3185],[7.5241,36.5069,377.3367],[7.5199,36.5089,347.9471],[7.522,36.5145,394.3616],[7.5267,36.5188,437.6745],[7.5277,36.5243,533.5326],[7.5263,36.5303,621.0043],[7.5221,36.5368,684.7672],[7.5144,36.5285,650.0877],[7.5098,36.525,717.0797],[7.5048,36.5235,643.5806],[7.5016,36.5193,506.9746],[7.5033,36.5125,384.7746],[7.5014,36.5008,311.5928],[7.4981,36.4972,305.3294],[7.4889,36.4939,244.7698],[7.4905,36.4821,172.4696],[7.4804,36.4723,177.4995],[7.4743,36.4717,179.5807],[7.4627,36.4602,234.6911],[7.4607,36.4496,258.7453],[7.4682,36.4416,272.373],[7.4578,36.4373,306.4199],[7.4683,36.4249,292.2181],[7.453,36.4199,340.8336],[7.446,36.4194,398.1943],[7.4411,36.421,435.1884],[7.4283,36.41,464.6058],[7.3927,36.3942,802.9938],[7.3859,36.3868,1045.1831],[7.3805,36.3773,1303.8804],[7.4015,36.3559,1311.516]]]]}}