{"type":"Feature","properties":{"GID_2":"DZA.36.2_1","GID_0":"DZA","country":"Algeria","GID_1":"DZA.36_1","province":"Saïda","NL_NAME_1":"ولايةسعيدة","county":"AinSekhouna","VARNAME_2":"AinSkhouna","NL_NAME_2":"NA","TYPE_2":"Commune","ENGTYPE_2":"Commune","CC_2":"2013","HASC_2":"DZ.SD.AK","name":"Ain_Sekhouna.county"},
"geometry":{"type": "MultiPolygon","coordinates": [[[[0.8574,34.415,986.4835],[0.9344,34.5286,986.0],[0.8694,34.552,986.1602],[0.7942,34.5754,1038.3872],[0.7791,34.596,1072.3888],[0.8031,34.6148,1097.0459],[0.8139,34.6173,1078.1819],[0.8048,34.6275,1082.2325],[0.7943,34.643,1058.6606],[0.7948,34.6562,1062.0446],[0.7929,34.6626,1062.8768],[0.7431,34.6445,1045.2423],[0.7256,34.6683,1056.1031],[0.6582,34.6437,1065.9022],[0.6524,34.5981,1062.5873],[0.6887,34.5126,1063.6379],[0.73,34.4547,1007.147],[0.7246,34.4419,986.4164],[0.7488,34.4307,987.7148],[0.8574,34.415,986.4835]]]]}}