{"type": "Feature","bbox": [3.51,34.3057,3.9896,34.6428],"geometry": {"type": "MultiPolygon","coordinates": [[[[3.9875,34.4389,1156.3008],[3.9896,34.444,1156.166],[3.9052,34.5229,1368.548],[3.917,34.5628,1180.0815],[3.9211,34.6021,1062.1788],[3.8536,34.6001,1063.1737],[3.8295,34.603,1052.2224],[3.8157,34.6063,1067.8098],[3.763,34.5942,1111.1267],[3.7478,34.5993,1116.5076],[3.7228,34.6154,1147.3157],[3.7173,34.636,1196.6736],[3.6928,34.6428,1215.3992],[3.6892,34.6391,1275.6906],[3.6834,34.6283,1232.2544],[3.6779,34.6228,1224.0726],[3.6762,34.6131,1197.5012],[3.692,34.599,1157.7222],[3.7146,34.5889,1126.1866],[3.7135,34.579,1123.2],[3.7108,34.5725,1138.7311],[3.6938,34.5696,1143.736],[3.6742,34.582,1159.8065],[3.6466,34.5951,1202.3281],[3.6289,34.6119,1232.5001],[3.617,34.6198,1242.4087],[3.5686,34.6056,1248.4841],[3.5377,34.5885,1193.4698],[3.5214,34.6179,1291.6639],[3.51,34.5886,1134.1117],[3.5416,34.5481,1115.74],[3.5543,34.5198,1084.5636],[3.6066,34.4411,1023.3715],[3.6339,34.4126,1053.2092],[3.6447,34.4062,1007.307],[3.6562,34.406,1030.6416],[3.6609,34.4039,1025.5889],[3.6672,34.3878,1042.5312],[3.6743,34.3861,1056.943],[3.6785,34.3803,1055.5406],[3.6836,34.3779,1061.2827],[3.6937,34.3642,1079.4368],[3.7171,34.3515,1107.5648],[3.7283,34.3496,1114.7744],[3.7373,34.3445,1118.512],[3.741,34.3402,1155.8057],[3.738,34.3285,1188.7074],[3.7422,34.3243,1165.28],[3.7739,34.3057,1211.3647],[3.7785,34.3065,1148.9509],[3.7905,34.3129,1101.3958],[3.8444,34.3486,1156.7679],[3.8692,34.3628,1120.7025],[3.874,34.364,1090.1094],[3.8754,34.3687,1105.7676],[3.8797,34.3712,1088.3832],[3.8838,34.3727,1153.2559],[3.8933,34.3713,1166.3444],[3.8971,34.3744,1156.676],[3.903,34.3723,1159.8771],[3.9161,34.383,1158.0111],[3.9223,34.3855,1159.163],[3.9257,34.3895,1150.6763],[3.9353,34.3913,1178.6687],[3.9489,34.4046,1183.5524],[3.9533,34.4062,1141.6289],[3.9612,34.413,1175.3174],[3.9875,34.4389,1156.3008]]]]}
,"properties": {"GID_2": "DZA.16.19_1","GID_0": "DZA","country": "Algeria","GID_1": "DZA.16_1","province": "Djelfa","NL_NAME_1": "ولايةالجلفة","county": "FaidhElBotma","VARNAME_2": "FeidhElBotma","NL_NAME_2": "NA","TYPE_2": "Commune","ENGTYPE_2": "Commune","CC_2": "1707","HASC_2": "DZ.DJ.FB","name": "Faidh_El_Botma.county","area_km2": 905.1794,"hist_schema_id": "Elevation0-9000","hist_area_km2": {"975": 1.4859,"1000": 11.7464,"1025": 19.8403,"1050": 45.1157,"1075": 82.6532,"1100": 107.7759,"1125": 120.2484,"1150": 103.8542,"1175": 107.5832,"1200": 100.4381,"1225": 82.8742,"1250": 52.1213,"1275": 31.7039,"1300": 17.6447,"1325": 10.9298,"1350": 5.2989,"1375": 2.7108,"1400": 1.1194,"1425": 0.035}}}