{"type":"Feature","properties":{"GID_2":"DZA.37.32_1","GID_0":"DZA","country":"Algeria","GID_1":"DZA.37_1","province":"Sétif","NL_NAME_1":"ولايةسطيف","county":"ElEulma","VARNAME_2":"NA","NL_NAME_2":"NA","TYPE_2":"Commune","ENGTYPE_2":"Commune","CC_2":"1920","HASC_2":"DZ.SF.EU","name":"El_Eulma.county"},
"geometry":{"type": "MultiPolygon","coordinates": [[[[5.7727,36.1388,968.0728],[5.7719,36.1595,992.9444],[5.778,36.1643,1017.1877],[5.7838,36.1724,1022.3417],[5.7826,36.1823,1056.2574],[5.7771,36.1838,1040.356],[5.7748,36.188,1040.3601],[5.7805,36.1959,1050.3594],[5.7808,36.2007,1067.6614],[5.779,36.2048,1073.3829],[5.7724,36.2028,1053.0686],[5.7577,36.1874,1049.0093],[5.7458,36.1891,1056.3845],[5.7393,36.1853,1024.9315],[5.7339,36.1674,1023.7858],[5.7234,36.1677,983.8247],[5.7201,36.1724,980.1957],[5.6815,36.1851,985.3527],[5.6781,36.1896,987.5794],[5.6716,36.1894,978.9789],[5.6651,36.1879,975.6736],[5.6372,36.1756,961.5621],[5.6042,36.1567,978.871],[5.6103,36.1553,964.8647],[5.6212,36.1469,947.1483],[5.6202,36.1412,945.3462],[5.6219,36.1363,946.5221],[5.6575,36.1445,951.7919],[5.6574,36.133,944.8754],[5.6596,36.1293,941.8359],[5.6726,36.1284,930.9012],[5.6798,36.1309,932.6522],[5.6868,36.1311,933.0763],[5.7036,36.1279,938.8589],[5.7051,36.1342,945.4071],[5.7103,36.1379,952.4977],[5.7219,36.132,963.3614],[5.7354,36.1345,968.7095],[5.7396,36.1371,970.7878],[5.7549,36.1375,968.6602],[5.7659,36.141,967.6876],[5.7727,36.1388,968.0728]]]]}}