{"type": "Feature","bbox": [-3.1295,31.1862,-2.272,31.798],"geometry": {"type": "MultiPolygon","coordinates": [[[[-2.272,31.1862,632.1685],[-2.2723,31.1977,634.0964],[-2.2775,31.2066,646.9482],[-2.2768,31.2114,657.8273],[-2.2807,31.2343,660.4725],[-2.2815,31.2511,663.2792],[-2.2781,31.2658,661.116],[-2.276,31.2857,675.6147],[-2.2858,31.3198,672.0846],[-2.2869,31.3359,666.3142],[-2.2911,31.3434,662.4218],[-2.3003,31.3692,656.2878],[-2.3019,31.3809,660.2372],[-2.3,31.394,678.3373],[-2.3262,31.5638,765.1996],[-2.4049,31.6958,869.8556],[-2.5626,31.7892,806.9796],[-2.8316,31.798,743.1258],[-2.8426,31.7936,744.864],[-2.8691,31.7875,748.2236],[-2.9922,31.7659,880.819],[-3.0008,31.7626,885.7562],[-2.9995,31.7582,885.7756],[-3.1295,31.7341,921.261],[-3.1223,31.7246,914.1233],[-3.1161,31.7196,912.1892],[-3.0947,31.709,904.6981],[-3.0926,31.7044,901.2635],[-3.08,31.6955,895.4313],[-3.0798,31.6908,895.8314],[-3.0734,31.6899,893.6222],[-3.0711,31.684,891.6506],[-3.0629,31.6771,887.7518],[-3.0611,31.6724,887.7708],[-3.0507,31.6687,884.6155],[-3.0484,31.6628,881.4789],[-3.0368,31.6571,875.1816],[-3.0292,31.6491,874.9694],[-3.0182,31.642,868.1666],[-3.0054,31.6359,864.5518],[-3.0022,31.6304,862.1498],[-2.9703,31.6192,850.3064],[-2.9654,31.6207,850.9939],[-2.9591,31.6192,849.5551],[-2.954,31.6155,847.5819],[-2.9442,31.6163,845.8093],[-2.941,31.6105,844.7393],[-2.9356,31.6105,837.9907],[-2.9322,31.6049,840.0416],[-2.8967,31.5846,831.6545],[-2.8847,31.5755,781.8064],[-2.8684,31.5712,774.4993],[-2.8234,31.5683,717.022],[-2.8006,31.5616,709.5261],[-2.786,31.5598,700.2001],[-2.7905,31.5467,699.2748],[-2.7895,31.5272,695.0],[-2.7942,31.5151,695.0],[-2.7842,31.5039,708.7731],[-2.7951,31.4853,680.4644],[-2.8003999999999998,31.48,674.7336],[-2.8148,31.4729,670.825],[-2.8164,31.468,705.3938],[-2.8085,31.4554,677.2401],[-2.8086,31.4509,668.9796],[-2.813,31.448,672.3179],[-2.8279,31.4449,667.5643],[-2.84,31.4331,690.7095],[-2.8563,31.4248,658.5284],[-2.867,31.4156,688.109],[-2.8873,31.4116,723.0386],[-2.9051,31.4042,735.1661],[-2.9176,31.4041,771.0012],[-2.9304,31.4001,678.8091],[-2.951,31.3842,689.7863],[-2.953,31.3796,661.3249],[-2.9514,31.3743,795.5316],[-2.7463,31.3302,665.6887],[-2.5744,31.3665,673.5466],[-2.377,31.2796,622.3972],[-2.272,31.1862,632.1685]]]]}
,"properties": {"GID_2": "DZA.7.10_1","GID_0": "DZA","country": "Algeria","GID_1": "DZA.7_1","province": "Béchar","NL_NAME_1": "ولايةبشار","county": "Kenadsa","VARNAME_2": "Qanadsan","NL_NAME_2": "NA","TYPE_2": "Commune","ENGTYPE_2": "Commune","CC_2": "810","HASC_2": "DZ.BC.KN","name": "Kenadsa.county","area_km2": 2795.043,"hist_schema_id": "Elevation0-9000","hist_area_km2": {"600": 1.015,"625": 72.143,"650": 160.688,"675": 166.198,"700": 384.759,"725": 525.357,"750": 392.505,"775": 212.436,"800": 193.521,"825": 270.885,"850": 248.658,"875": 118.953,"900": 43.703,"925": 3.985,"950": 0.198,"975": 0.036}}}