{"type":"Feature","properties":{"GID_2":"DZA.10.13_1","GID_0":"DZA","country":"Algeria","GID_1":"DZA.10_1","province":"Blida","NL_NAME_1":"البليدة","county":"Djebabra","VARNAME_2":"NA","NL_NAME_2":"NA","TYPE_2":"Commune","ENGTYPE_2":"Commune","CC_2":"924","HASC_2":"DZ.BL.DJ","name":"Djebabra.county"},
"geometry":{"type": "MultiPolygon","coordinates": [[[[3.3093,36.5528,248.9665],[3.3014,36.5537,356.3466],[3.2929,36.5569,529.9773],[3.287,36.56,594.0071],[3.2846,36.5641,618.1343],[3.2977,36.5817,523.3209],[3.2875,36.5856,416.015],[3.2887,36.5908,342.0801],[3.2918,36.5945,304.5555],[3.2793,36.6128,148.368],[3.2825,36.6171,123.5121],[3.2765,36.6165,194.2725],[3.2621,36.6107,296.4079],[3.2391,36.597,428.3219],[3.2234,36.5928,443.5345],[3.22,36.5881,371.7924],[3.2209,36.5811,223.7962],[3.2263,36.5801,214.4651],[3.2318,36.5768,268.0946],[3.2328,36.572,304.8954],[3.2391,36.5701,392.955],[3.244,36.5659,480.342],[3.2478,36.5595,679.0734],[3.255,36.5596,787.5787],[3.2618,36.5632,735.334],[3.2684,36.5635,620.8632],[3.2875,36.5507,351.6638],[3.2993,36.547,253.6345],[3.3049,36.548,246.3891],[3.3093,36.5528,248.9665]]]]}}