{"type":"Feature","properties":{"GID_2":"DZA.48.20_1","GID_0":"DZA","country":"Algeria","GID_1":"DZA.48_1","province":"Tlemcen","NL_NAME_1":"تلمسان","county":"Bouihi","VARNAME_2":"ElBouihi","NL_NAME_2":"NA","TYPE_2":"Commune","ENGTYPE_2":"Commune","CC_2":"1343","HASC_2":"DZ.TL.BI","name":"Bouihi.county"},
"geometry":{"type": "MultiPolygon","coordinates": [[[[-1.3111,34.2156,1224.5642],[-1.3151,34.218,1221.281],[-1.3126,34.2387,1241.948],[-1.3207,34.2386,1236.7546],[-1.3334,34.2341,1215.5959],[-1.3538,34.2377,1203.073],[-1.3586,34.2515,1201.9415],[-1.3655,34.2604,1173.5409],[-1.371,34.2639,1167.0308],[-1.3959,34.2723,1153.1104],[-1.4134,34.2759,1153.9302],[-1.5795,34.3312,1124.304],[-1.5886,34.3381,1107.5603],[-1.6025,34.3911,1165.3529],[-1.6122,34.4388,1666.8624],[-1.6291,34.4656,1671.3182],[-1.6199,34.4708,1590.7327],[-1.6104,34.4795,1505.5703],[-1.6133,34.4893,1505.0225],[-1.6101,34.4979,1546.7117],[-1.6123,34.5036,1408.9125],[-1.616,34.5063,1356.7013],[-1.6506,34.5056,1441.764],[-1.6603,34.513,1436.6952],[-1.6655,34.509,1425.6252],[-1.6763,34.5049,1423.6324],[-1.7802,34.393,1155.0911],[-1.7712,34.3768,1207.7617],[-1.7318,34.345,1145.6593],[-1.7049,34.3096,1111.6775],[-1.7053,34.3021,1121.8943],[-1.7093,34.2916,1115.5527],[-1.707,34.2746,1102.5898],[-1.7134,34.2515,1060.1736],[-1.7113,34.237,1062.7209],[-1.6476,34.1067,1203.4966],[-1.6476,34.0978,1253.0326],[-1.6233,34.1102,1280.189],[-1.5966,34.1294,1408.7212],[-1.5835,34.1361,1377.6997],[-1.5379,34.1674,1359.7551],[-1.5244,34.1673,1362.0881],[-1.5147,34.1798,1357.5953],[-1.4835,34.1993,1341.4282],[-1.4651,34.1953,1351.4749],[-1.454,34.2034,1284.7595],[-1.4196,34.2058,1222.9033],[-1.4139,34.2086,1227.6235],[-1.3901,34.2073,1271.1931],[-1.3654,34.2094,1243.1001],[-1.3322,34.208,1221.8293],[-1.3229,34.215,1207.8662],[-1.3111,34.2156,1224.5642]]]]}}