{"type": "Feature","bbox": [2.0923,36.2265,2.1836,36.2919],"geometry": {"type": "MultiPolygon","coordinates": [[[[2.1095,36.2521,254.2246],[2.1068,36.247,254.0156],[2.1096,36.243,256.1877],[2.1206,36.2365,256.5924],[2.1267,36.2343,257.762],[2.1463,36.2351,253.5299],[2.1576,36.2301,260.2729],[2.1615,36.2321,261.4389],[2.1715,36.2265,254.5414],[2.1776,36.2265,256.811],[2.1771,36.2339,265.8846],[2.1835,36.2634,286.5795],[2.1782,36.2656,313.8549],[2.1836,36.2763,361.2689],[2.1738,36.2825,495.7473],[2.1727,36.287,573.0957],[2.1674,36.2843,406.9233],[2.1387,36.2919,355.3733],[2.1322,36.29,311.8832],[2.129,36.2837,289.5773],[2.1328,36.2787,288.471],[2.1293,36.2762,284.693],[2.127,36.27,272.349],[2.1212,36.2673,265.9424],[2.1029,36.2669,253.1745],[2.0975,36.2653,252.4108],[2.1074,36.2583,253.6327],[2.1095,36.2521,254.2246]]],
[[[2.0923,36.2634,251.8983],[2.0975,36.2653,252.4108],[2.0937,36.2688,251.2514],[2.0923,36.2634,251.8983]]]]}
,"properties": {"GID_2": "DZA.2.32_1","GID_0": "DZA","country": "Algeria","GID_1": "DZA.2_1","province": "AïnDefla","NL_NAME_1": "ولايةعينالدفلى","county": "SidiLakhdar","VARNAME_2": "NA","NL_NAME_2": "NA","TYPE_2": "Commune","ENGTYPE_2": "Commune","CC_2": "4424","HASC_2": "DZ.AD.SL","name": "Sidi_Lakhdar.county","area_km2": 35.20178,"hist_schema_id": "Elevation0-9000","hist_area_km2": {"250": 14.51675,"275": 12.15603,"300": 2.4955599999999998,"325": 1.21356,"350": 1.60663,"375": 1.40152,"400": 0.90588,"425": 0.4273,"450": 0.27347,"475": 0.06836,"500": 0.08546,"525": 0.01709,"550": 0.01709,"575": 0.01709}}}