{"type": "Feature","bbox": [7.2885,36.6038,7.8302,37.0837],"geometry": {"type": "MultiPolygon","coordinates": [[[[7.6829,36.7169,71.3503],[7.6817,36.722,90.5226],[7.6825,36.7293,58.1292],[7.6789,36.7342,17.1215],[7.6816,36.7396,13.3249],[7.6937,36.7426,12.1886],[7.7048,36.7638,10.2755],[7.7095,36.7621,10.2063],[7.7192,36.755,11.6198],[7.7221,36.7582,11.2231],[7.7274,36.7773,9.0274],[7.7319,36.778,9.1384],[7.7511,36.7724,9.8433],[7.7582,36.7736,9.4787],[7.7732,36.7707,11.1596],[7.7728,36.7936,8.5715],[7.7803,36.8019,8.5871],[7.7812,36.8064,8.4709],[7.7765,36.81,8.7826],[7.7782,36.8146,7.4322],[7.778,36.8199,5.9783],[7.7847,36.8218,4.7954],[7.803,36.8182,4.1376],[7.8138,36.8141,3.159],[7.8302,36.8219,1.0622],[7.8271,36.8392,0.799],[7.8213,36.8425,1.694],[7.8172,36.8476,1.2911],[7.8009,36.8521,1.2348],[7.7722,36.866,0.7337],[7.7618,36.8829,0.1206],[7.763,36.8872,0.0703],[7.7747,36.8965,1.3775],[7.7774,36.9016,0.52],[7.7707,36.8997,0.0],[7.7761,36.9069,1.0564],[7.7723,36.9108,2.5306],[7.771,36.916,4.6648],[7.7662,36.919,1.0905],[7.7613,36.9284,0.0],[7.7629,36.9325,0.0],[7.767,36.9351,0.0],[7.7683,36.9421,0.0],[7.7741,36.947,3.1039],[7.7807,36.9497,6.7507],[7.7835,36.9605,6.8207],[7.7924,36.9684,0.9739],[7.7796,36.969,0.0],[7.7702,36.9612,0.0],[7.756,36.9579,0.0],[7.7244,36.9561,0.0],[7.7089,36.9498,0.0],[7.7039,36.9515,0.0],[7.702,36.9634,6.7765],[7.6955,36.9628,0.0],[7.6858,36.9657,0.0],[7.6809,36.9736,0.0],[7.6766,36.972,39.9816],[7.673,36.9677,0.0],[7.6647,36.9676,0.0],[7.6613,36.9708,0.0],[7.6603,36.9779,0.0],[7.6553,36.9786,0.7049],[7.6502,36.9698,4.772],[7.642,36.9657,0.0],[7.6275,36.9648,7.1073],[7.623,36.9628,0.5776],[7.6062,36.9696,0.0],[7.6001,36.9698,18.281],[7.594,36.9729,0.0],[7.5904,36.9772,0.0],[7.5674,36.9868,0.0],[7.558,36.9934,0.0],[7.554,37.0049,21.0397],[7.5251,37.0209,0.0],[7.5159,37.0405,0.0],[7.5049,37.0428,0.0],[7.4915,37.0419,12.6407],[7.4657,37.0468,10.1342],[7.4308,37.0411,0.0],[7.4085,37.0404,11.2027],[7.4057,37.044,0.0],[7.3972,37.0479,0.0],[7.3827,37.0625,0.0],[7.3852,37.0665,0.0],[7.3906,37.0693,0.0],[7.3935,37.0756,0.0],[7.3933,37.08,19.42],[7.3834,37.0837,12.9819],[7.3704,37.0817,11.8918],[7.371,37.0744,0.0],[7.3648,37.0712,0.0],[7.3536,37.0709,0.0],[7.3502,37.0669,6.2537],[7.3399,37.0656,0.0],[7.3216,37.0683,0.0],[7.308,37.0729,0.0],[7.3049,37.0766,0.8535],[7.2936,37.0812,0.0],[7.2885,37.0773,29.9494],[7.2944,37.0733,49.4551],[7.2962,37.0648,154.9302],[7.3008,37.061,239.7127],[7.3091,37.0586,277.0349],[7.3108,37.0539,408.0663],[7.3226,37.049,470.9679],[7.3261,37.0438,341.1859],[7.3144,37.0328,371.3755],[7.3142,37.0225,317.6677],[7.3245,37.0107,116.0782],[7.323,36.9943,9.6273],[7.3281,36.9911,9.0182],[7.3387,36.9882,92.9927],[7.3482,36.9748,150.6774],[7.3532,36.9614,63.5949],[7.3512,36.9504,148.1361],[7.3532,36.9457,158.7901],[7.3492,36.9397,249.4425],[7.3371,36.9407,124.665],[7.3323,36.9426,44.6841],[7.3279,36.9473,108.5737],[7.3213,36.9429,57.4894],[7.3259,36.9361,10.506],[7.329,36.9191,3.7022],[7.372,36.9023,9.8512],[7.38,36.8942,2.4806],[7.3846,36.8762,3.4528],[7.378,36.8639,4.1378],[7.3779,36.8571,18.9159],[7.3802,36.8518,28.3473],[7.3771,36.8416,70.5583],[7.3739,36.8363,79.7533],[7.3806,36.8244,64.7966],[7.385,36.8123,17.6085],[7.3908,36.805,15.5713],[7.3876,36.7925,15.8028],[7.3923,36.7755,15.4506],[7.4012,36.7668,16.7166],[7.4043,36.7613,19.1466],[7.4057,36.7463,33.5367],[7.3991,36.7264,78.3518],[7.392,36.7245,85.8734],[7.3853,36.7199,119.1788],[7.3734,36.7153,215.46],[7.3523,36.7141,190.9384],[7.3411,36.7085,198.4094],[7.3425,36.6931,116.6621],[7.3415,36.6805,225.1646],[7.3441,36.677,138.114],[7.3414,36.6718,178.5043],[7.3352,36.6692,140.4076],[7.3362,36.6623,201.3076],[7.3692,36.6559,358.3301],[7.39,36.6636,411.617],[7.3975,36.6635,408.8357],[7.4036,36.6614,392.4967],[7.4073,36.6407,583.5524],[7.4217,36.6282,718.8139],[7.4236,36.6396,494.1674],[7.4298,36.6515,262.6103],[7.4339,36.6551,340.1721],[7.4447,36.6549,270.0041],[7.4567,36.6626,180.9182],[7.4676,36.6669,169.0562],[7.4805,36.6664,150.2408],[7.485,36.6701,145.7771],[7.4861,36.6743,174.4265],[7.4907,36.6699,150.7531],[7.4972,36.6586,168.3734],[7.4922,36.6481,205.2596],[7.4937,36.6298,245.2384],[7.5006,36.6266,274.9921],[7.5133,36.6284,220.3352],[7.5185,36.6313,211.7539],[7.5284,36.6331,197.2483],[7.5325,36.6305,191.1332],[7.5355,36.6257,224.2745],[7.5437,36.6206,248.8995],[7.5456,36.6163,202.4625],[7.5567,36.6089,208.8318],[7.5628,36.6094,204.709],[7.5949,36.604,194.0097],[7.6005,36.6045,196.7099],[7.611,36.6134,172.9077],[7.6194,36.6038,276.6913],[7.6263,36.6039,238.7565],[7.6393,36.6156,156.0879],[7.6581,36.6458,92.9919],[7.6684,36.6532,98.4558],[7.6673,36.6634,85.2822],[7.6706,36.6747,69.1018],[7.6743,36.6805,57.4558],[7.6924,36.6905,38.6784],[7.6964,36.708,43.1669],[7.6829,36.7169,71.3503]]]]}
,"properties": {"GID_1": "DZA.5_1","GID_0": "DZA","country": "Algeria","province": "Annaba","VARNAME_1": "Anaba|Bona|Bône","NL_NAME_1": "ولايةعنابة","TYPE_1": "Wilaya","ENGTYPE_1": "Province","CC_1": "23","HASC_1": "DZ.AN","ISO_1": "DZ-23","name": "Annaba.province","area_km2": 1409.681,"hist_schema_id": "Elevation0-9000","hist_area_km2": {"0": 277.335,"25": 212.291,"50": 108.925,"75": 85.419,"100": 76.617,"125": 76.437,"150": 78.352,"175": 76.607,"200": 64.724,"225": 54.264,"250": 45.966,"275": 40.472,"300": 33.547,"325": 26.674,"350": 22.244,"375": 18.391,"400": 15.677,"425": 12.016,"450": 10.576,"475": 9.966,"500": 8.916,"525": 7.984,"550": 7.137,"575": 5.493,"600": 4.747,"625": 4.068,"650": 3.628,"675": 3.119,"700": 2.763,"725": 2.695,"750": 2.933,"775": 1.916,"800": 1.543,"825": 1.356,"850": 1.356,"875": 0.899,"900": 0.78,"925": 0.797,"950": 0.627,"975": 0.407,"1000": 0.017}}}