{"type": "Feature","bbox": [6.5529,35.6765,6.7705,35.801],"geometry": {"type": "MultiPolygon","coordinates": [[[[6.6817,35.7687,838.8476],[6.6601,35.7796,870.2367],[6.6183,35.7927,946.4579],[6.6071,35.801,979.9799],[6.5957,35.7964,977.4294],[6.567,35.7943,938.73],[6.5652,35.7892,936.5992],[6.5584,35.787,932.5379],[6.553,35.7827,943.5292],[6.5596,35.7759,907.865],[6.5584,35.7655,902.8724],[6.5552,35.7611,884.3915],[6.5529,35.7494,840.2053],[6.5603,35.6974,833.9422],[6.5638,35.6924,838.7426],[6.5623,35.6873,862.1061],[6.5647,35.6822,948.9291],[6.569,35.677,1043.9878],[6.6016,35.6888,853.8589],[6.6083,35.6829,857.4324],[6.6186,35.6808,860.3059],[6.648,35.6931,855.8661],[6.6549,35.701,852.5528],[6.6619,35.7037,851.3092],[6.6686,35.7041,849.4962],[6.6747,35.7032,849.0138],[6.7012,35.6842,848.2035],[6.7071,35.6828,849.6645],[6.7255,35.6845,886.5759],[6.7322,35.6874,882.1061],[6.7377,35.6878,852.6932],[6.7387,35.6788,864.1146],[6.7468,35.6765,941.2905],[6.7483,35.6806,862.4169],[6.7553,35.6831,871.4255],[6.7608,35.6812,885.1371],[6.7705,35.6828,861.4966],[6.7587,35.6995,837.0321],[6.7088,35.7403,838.2487],[6.6817,35.7687,838.8476]]]]}
,"properties": {"GID_2": "DZA.6.10_1","GID_0": "DZA","country": "Algeria","GID_1": "DZA.6_1","province": "Batna","NL_NAME_1": "ولايةباتنة","county": "Boulhilat","VARNAME_2": "Boulehilet","NL_NAME_2": "NA","TYPE_2": "Commune","ENGTYPE_2": "Commune","CC_2": "560","HASC_2": "DZ.BT.BL","name": "Boulhilat.county","area_km2": 161.7823,"hist_schema_id": "Elevation0-9000","hist_area_km2": {"825": 15.8013,"850": 109.7315,"875": 14.9006,"900": 8.653,"925": 6.4334,"950": 2.9417,"975": 1.7547,"1000": 0.9292,"1025": 0.568,"1050": 0.0517,"1075": 0.0172}}}