{"type": "Feature","bbox": [-2.92,27.6989,-0.1485,27.9875],"geometry": {"type": "MultiPolygon","coordinates": [[[[-0.3102,27.9875,256.7454],[-0.3688,27.9228,251.9744],[-0.3979,27.9131,242.1094],[-0.7786,27.8796,271.3275],[-0.9908,27.8905,254.7054],[-1.4919,27.8991,356.2772],[-2.7871,27.9057,348.1066],[-2.8019,27.894,341.1686],[-2.8256,27.8568,342.7992],[-2.87,27.8115,339.5319],[-2.8809,27.7946,336.6964],[-2.8851,27.7912,336.0383],[-2.8921,27.7787,335.4902],[-2.9035,27.7694,331.9785],[-2.903,27.7642,325.6527],[-2.8978,27.7577,320.5681],[-2.8954,27.7468,329.9737],[-2.9159,27.7142,318.6985],[-2.92,27.6989,317.6829],[-2.4943,27.7194,325.3223],[-1.707,27.7615,356.6962],[-0.9923,27.7313,260.0064],[-0.778,27.7239,219.9445],[-0.3408,27.7015,241.6044],[-0.3376,27.7116,237.871],[-0.3323,27.7529,229.6281],[-0.3189,27.7872,223.0801],[-0.3116,27.7863,223.7724],[-0.3067,27.7818,224.2102],[-0.2986,27.7808,223.7978],[-0.2865,27.776,230.1157],[-0.2764,27.776,232.5607],[-0.2673,27.7705,236.5282],[-0.2595,27.7691,234.5654],[-0.2277,27.7663,256.7074],[-0.1485,27.7689,285.5918],[-0.152,27.7754,282.9046],[-0.178,27.7983,279.9225],[-0.1969,27.8122,278.4248],[-0.2152,27.8232,270.2383],[-0.2517,27.851,263.4839],[-0.2644,27.8561,259.8497],[-0.2957,27.8512,247.6991],[-0.3008,27.8476,245.7915],[-0.3157,27.8608,241.3138],[-0.3111,27.8738,252.4035],[-0.2951,27.8919,259.8479],[-0.3102,27.9875,256.7454]]]]}
,"properties": {"GID_2": "DZA.1.13_1","GID_0": "DZA","country": "Algeria","GID_1": "DZA.1_1","province": "Adrar","NL_NAME_1": "ولايةأدرا","county": "OuledAhmedTemmi","VARNAME_2": "OuledAhmedTimi","NL_NAME_2": "NA","TYPE_2": "Commune","ENGTYPE_2": "Commune","CC_2": "121","HASC_2": "DZ.AR.OT","name": "Ouled_Ahmed_Temmi.county","area_km2": 4801.125,"hist_schema_id": "Elevation0-9000","hist_area_km2": {"200": 284.377,"225": 815.903,"250": 342.164,"275": 363.615,"300": 581.682,"325": 1427.5,"350": 605.335,"375": 252.272,"400": 92.209,"425": 27.889,"450": 6.679,"475": 1.351,"500": 0.131}}}