{"type":"Feature","properties":{"GID_2":"DZA.12.11_1","GID_0":"DZA","country":"Algeria","GID_1":"DZA.12_1","province":"Bouira","NL_NAME_1":"ولايةالبويرة","county":"Bechloul","VARNAME_2":"NA","NL_NAME_2":"NA","TYPE_2":"Commune","ENGTYPE_2":"Commune","CC_2":"1033","HASC_2":"DZ.BU.BE","name":"Bechloul.county"},
"geometry":{"type": "MultiPolygon","coordinates": [[[[4.1171,36.283,536.9777],[4.1151,36.289,507.1622],[4.1157,36.2943,481.4451],[4.1227,36.3022,464.9915],[4.1218,36.3179,425.8549],[4.1199,36.3229,406.4873],[4.1227,36.335,386.2566],[4.1203,36.3426,388.0804],[4.115,36.351,408.9733],[4.1175,36.3618,438.2321],[4.1125,36.3736,501.877],[4.1134,36.3808,514.6017],[4.1278,36.3886,724.7963],[4.1358,36.3996,794.8423],[4.1527,36.4176,1091.0331],[4.1555,36.4326,1458.9373],[4.1641,36.4411,1456.7148],[4.1638,36.4468,1467.2203],[4.1727,36.4582,1506.235],[4.1667,36.4603,1787.2792],[4.166,36.4659,2031.7167],[4.1611,36.4707,1954.4202],[4.1568,36.469,2147.873],[4.1427,36.4688,2265.7417],[4.1376,36.4648,1837.09],[4.1383,36.4444,1143.844],[4.13,36.4375,1177.4301],[4.1283,36.4263,1248.2593],[4.1176,36.4145,1070.7087],[4.1188,36.4084,940.4553],[4.1151,36.4053,874.6864],[4.1033,36.4036,819.4026],[4.0818,36.396,750.9182],[4.0772,36.3925,702.86],[4.0757,36.3867,638.301],[4.0679,36.3788,615.8519],[4.0612,36.3685,547.3076],[4.0562,36.3541,453.9973],[4.056,36.3458,452.0],[4.0635,36.3348,528.8187],[4.0657,36.3184,420.044],[4.0454,36.3137,434.6161],[4.0395,36.3093,452.1916],[4.0307,36.295,485.2389],[4.0305,36.2898,484.0643],[4.0359,36.2912,500.0661],[4.0412,36.2884,501.1395],[4.0585,36.2886,545.1283],[4.0683,36.294,488.4532],[4.0932,36.2876,530.949],[4.1087,36.2815,563.6696],[4.1171,36.283,536.9777]]]]}}