{"type": "Feature","bbox": [0.8419,36.2079,1.0182,36.3668],"geometry": {"type": "MultiPolygon","coordinates": [[[[1.0067,36.2355,282.9521],[1.0058,36.24,318.718],[1.0074,36.244,363.4625],[1.0139,36.2541,212.7276],[1.0103,36.2605,271.3709],[1.016,36.273,325.3936],[1.0086,36.2836,418.482],[1.0063,36.2951,626.6667],[1.0182,36.3044,647.2858],[1.0063,36.3105,483.0655],[1.0022,36.3148,423.209],[1.0037,36.3196,384.3712],[0.9963,36.3264,614.0785],[0.9849,36.328,542.6187],[0.9803,36.3315,513.9895],[0.9699,36.3439,666.762],[0.9686,36.3489,781.4517],[0.963,36.3486,735.296],[0.95009999999999994,36.3526,484.014],[0.9392,36.3524,306.8514],[0.938,36.3571,308.8063],[0.927,36.3667,184.6137],[0.9188,36.3668,222.5192],[0.8841,36.36,344.0239],[0.8732,36.3564,289.1903],[0.8612,36.3564,158.0735],[0.8553,36.3538,55.1809],[0.8555,36.3443,40.2087],[0.8594,36.3399,71.2259],[0.8604,36.3261,93.0024],[0.864,36.321,117.4781],[0.8692,36.3171,127.5685],[0.8618,36.3114,171.2567],[0.8654,36.2953,372.0225],[0.8608,36.2911,308.692],[0.8585,36.2857,330.0452],[0.8602,36.2786,356.6526],[0.8728,36.2636,482.1056],[0.873,36.2593,514.9446],[0.8673,36.2498,562.1487],[0.8667,36.245,518.2157],[0.8533,36.2347,370.1151],[0.853,36.2302,360.3132],[0.8476,36.228,326.548],[0.8437,36.224,311.0024],[0.8419,36.2198,349.1671],[0.8436,36.2107,524.4265],[0.8499,36.2117,492.6068],[0.8608,36.2193,553.4146],[0.8714,36.2237,604.996],[0.8883,36.2274,493.6514],[0.895,36.2263,405.2242],[0.9027,36.2165,346.3306],[0.9133,36.2079,334.4453],[0.9197,36.2094,340.6954],[0.9232,36.2144,349.9615],[0.9283,36.2181,388.6591],[0.9395,36.2194,526.6841],[0.9414,36.2346,514.181],[0.9456,36.2318,498.9515],[0.9586,36.232,403.966],[0.9642,36.2307,378.2039],[0.9799,36.2342,348.6714],[0.9989,36.2363,285.8066],[1.0067,36.2355,282.9521]]]]}
,"properties": {"GID_2": "DZA.14.32_1","GID_0": "DZA","country": "Algeria","GID_1": "DZA.14_1","province": "Chlef","NL_NAME_1": "ولايةالشلف","county": "Taougrit","VARNAME_2": "Taougrite","NL_NAME_2": "NA","TYPE_2": "Commune","ENGTYPE_2": "Commune","CC_2": "206","HASC_2": "DZ.CH.TG","name": "Taougrit.county","area_km2": 185.5125,"hist_schema_id": "Elevation0-9000","hist_area_km2": {"50": 0.222,"75": 0.2049,"100": 0.3757,"125": 0.427,"150": 1.1103,"175": 1.4691,"200": 2.1352,"225": 2.5114,"250": 3.2123,"275": 4.631,"300": 5.9985,"325": 7.6398,"350": 11.7088,"375": 11.5718,"400": 12.5287,"425": 12.6649,"450": 16.0503,"475": 14.6645,"500": 15.9103,"525": 14.3719,"550": 11.6203,"575": 9.8427,"600": 8.1169,"625": 5.7929,"650": 4.7678,"675": 2.8879,"700": 1.6746,"725": 0.9738,"750": 0.3587,"775": 0.0683}}}