{"type": "Feature","bbox": [2.2669,36.4151,2.478,36.5233],"geometry": {"type": "MultiPolygon","coordinates": [[[[2.2771,36.4151,974.5975],[2.288,36.4155,933.3929],[2.2984,36.4214,964.9653],[2.3048,36.4225,946.4169],[2.3316,36.4222,769.2939],[2.3379,36.4214,774.6906],[2.3425,36.4184,823.4429],[2.3547,36.4235,827.3112],[2.3707,36.4263,822.2589],[2.3818,36.4219,615.7664],[2.4048,36.4273,504.9818],[2.4193,36.426,393.4609],[2.4363,36.4203,304.5743],[2.4505,36.4212,274.3979],[2.455,36.4188,392.6108],[2.4694,36.4173,486.3588],[2.4632,36.4245,471.8177],[2.461,36.4312,253.1715],[2.4615,36.4373,445.977],[2.4638,36.4474,356.0323],[2.478,36.4756,139.733],[2.4729,36.4803,123.8445],[2.4677,36.4817,119.6201],[2.4395,36.501,94.2975],[2.4326,36.4916,128.6992],[2.4265,36.4896,140.2846],[2.4204,36.4911,117.086],[2.4176,36.4963,108.6653],[2.4072,36.5025,91.099],[2.4028,36.5092,83.3865],[2.3958,36.5042,118.4299],[2.3952,36.4989,139.2402],[2.385,36.4962,112.6412],[2.3772,36.4965,162.2705],[2.3685,36.5022,121.7134],[2.3655,36.5059,96.3665],[2.3606,36.5018,129.0389],[2.3507,36.5015,179.7793],[2.3498,36.507,164.5909],[2.354,36.5172,113.1765],[2.3533,36.5233,89.6871],[2.3216,36.5204,140.1443],[2.3141,36.5212,110.7354],[2.3129,36.5155,108.0],[2.3254,36.4925,143.7719],[2.3248,36.4738,177.7714],[2.3221,36.4694,283.29],[2.3162,36.4647,247.6083],[2.2916,36.4531,310.1417],[2.2869,36.4482,450.338],[2.2852,36.4384,464.3377],[2.2764,36.4257,818.5903],[2.2669,36.4193,842.9529],[2.2771,36.4151,974.5975]]]]}
,"properties": {"GID_2": "DZA.45.19_1","GID_0": "DZA","country": "Algeria","GID_1": "DZA.45_1","province": "Tipaza","NL_NAME_1": "ولايةتيبازة","county": "Merad","VARNAME_2": "Meurad","NL_NAME_2": "NA","TYPE_2": "Commune","ENGTYPE_2": "Commune","CC_2": "4216","HASC_2": "DZ.TP.MR","name": "Merad.county","area_km2": 131.1481,"hist_schema_id": "Elevation0-9000","hist_area_km2": {"75": 0.0511,"100": 2.6928,"125": 8.8804,"150": 12.3756,"175": 12.2399,"200": 11.1499,"225": 9.1902,"250": 8.0314,"275": 7.0429,"300": 5.7301,"325": 4.9629,"350": 4.4684,"375": 3.7523,"400": 4.2982,"425": 3.7353,"450": 2.8484,"475": 2.5926,"500": 1.9444,"525": 1.6034,"550": 1.7398,"575": 1.6887,"600": 1.484,"625": 1.5864,"650": 1.4499,"675": 1.467,"700": 1.5864,"725": 1.467,"750": 1.6547,"775": 1.6206,"800": 1.433,"825": 1.4159,"850": 1.4842,"875": 1.1089,"900": 0.7847,"925": 0.4777,"950": 0.5801,"975": 0.4095,"1000": 0.0512,"1025": 0.0682}}}