{"type": "Feature","bbox": [5.1192,36.5661,5.2113,36.6754],"geometry": {"type": "MultiPolygon","coordinates": [[[[5.2113,36.6507,0.5593],[5.143,36.6754,10.5205],[5.1308,36.6618,171.6493],[5.12,36.6543,440.4831],[5.1335,36.6511,444.8183],[5.1259,36.6398,197.9752],[5.1249,36.6349,148.3028],[5.1278,36.6293,79.598],[5.1274,36.6214,118.7492],[5.1229,36.6159,156.3647],[5.1245,36.6119,367.7623],[5.1365,36.6039,1038.1156],[5.1379,36.5985,1070.6002],[5.1338,36.5951,1185.8163],[5.1279,36.5936,1198.0978],[5.1265,36.5883,1204.4015],[5.1277,36.5824,1162.2551],[5.1192,36.5799,1151.1025],[5.1225,36.5753,852.8906],[5.123,36.5702,606.5153],[5.1462,36.5661,455.884],[5.1562,36.5664,428.1964],[5.1608,36.57,402.9259],[5.1664,36.5755,323.9476],[5.168,36.5888,249.743],[5.175,36.5991,214.97],[5.177,36.6064,162.6808],[5.1833,36.6187,125.8111],[5.1958,36.6292,136.4809],[5.1937,36.6351,16.2878],[5.1968,36.6389,73.0563],[5.2023,36.6413,28.5615],[5.206,36.6471,5.3522],[5.2113,36.6507,0.5593]]]]}
,"properties": {"GID_2": "DZA.8.43_1","GID_0": "DZA","country": "Algeria","GID_1": "DZA.8_1","province": "Béjaïa","NL_NAME_1": "بجاية","county": "Tichy","VARNAME_2": "Tichi","NL_NAME_2": "NA","TYPE_2": "Commune-Cotiere","ENGTYPE_2": "Commune-Cotiere","CC_2": "611","HASC_2": "DZ.BJ.TC","name": "Tichy.county","area_km2": 55.50713,"hist_schema_id": "Elevation0-9000","hist_area_km2": {"0": 2.55138,"25": 1.58212,"50": 2.10963,"75": 1.80339,"100": 2.41593,"125": 2.39889,"150": 2.38188,"175": 2.19474,"200": 2.46692,"225": 1.92252,"250": 2.36492,"275": 2.00769,"300": 2.09271,"325": 2.00774,"350": 1.90565,"375": 1.48031,"400": 1.36127,"425": 1.46335,"450": 1.15708,"475": 1.14009,"500": 1.03804,"525": 0.79984,"550": 0.71472,"575": 0.90201,"600": 0.90204,"625": 0.8511,"650": 0.8682,"675": 0.97034,"700": 0.80011,"725": 0.76605,"750": 0.90223,"775": 0.68096,"800": 0.6469,"825": 0.49372,"850": 0.68096,"875": 0.44264,"900": 0.5448,"925": 0.56181,"950": 0.49372,"975": 0.45966,"1000": 0.34048,"1025": 0.30643,"1050": 0.20429,"1075": 0.28941,"1100": 0.23833,"1125": 0.27239,"1150": 0.10214,"1175": 0.2043,"1200": 0.1362,"1225": 0.03405,"1250": 0.05107}}}