{"type": "Feature","bbox": [-0.5371,35.6702,-0.4363,35.7248],"geometry": {"type": "MultiPolygon","coordinates": [[[[-0.4567,35.7138,110.0462],[-0.4631,35.7106,93.1898],[-0.4724,35.7099,93.6407],[-0.4805,35.7156,99.5381],[-0.4857,35.7248,126.074],[-0.5033,35.7157,142.2309],[-0.5318,35.7097,128.5534],[-0.5321,35.7042,122.6196],[-0.5371,35.6998,111.91],[-0.5292,35.6968,98.031],[-0.5171,35.6948,104.047],[-0.5158,35.6892,103.6047],[-0.5086,35.6793,94.2545],[-0.4968,35.6702,112.124],[-0.4906,35.6702,121.2212],[-0.474,35.6744,120.8692],[-0.4479,35.6739,161.0782],[-0.4415,35.6751,138.379],[-0.4363,35.6777,138.7936],[-0.4508,35.7092,106.3243],[-0.4567,35.7138,110.0462]]]]}
,"properties": {"GID_2": "DZA.32.17_1","GID_0": "DZA","country": "Algeria","GID_1": "DZA.32_1","province": "Oran","NL_NAME_1": "ولايةوهران","county": "HassiBounif","VARNAME_2": "HassīBūNif","NL_NAME_2": "NA","TYPE_2": "Commune","ENGTYPE_2": "Commune","CC_2": "3104","HASC_2": "DZ.OR.HB","name": "Hassi_Bounif.county","area_km2": 31.88971,"hist_schema_id": "Elevation0-9000","hist_area_km2": {"100": 19.61184,"125": 8.9024,"150": 2.04939,"175": 1.30886,"200": 0.01722}}}