{"type":"Feature","properties":{"GID_2":"DZA.40.2_1","GID_0":"DZA","country":"Algeria","GID_1":"DZA.40_1","province":"SoukAhras","NL_NAME_1":"ولايةسوقأهراس","county":"AinZana","VARNAME_2":"NA","NL_NAME_2":"NA","TYPE_2":"Commune","ENGTYPE_2":"Commune","CC_2":"4117","HASC_2":"DZ.SA.AZ","name":"Ain_Zana.county"},
"geometry":{"type": "MultiPolygon","coordinates": [[[[8.1508,36.4475,395.6361],[8.1474,36.4423,378.0634],[8.1331,36.4295,424.7376],[8.1297,36.4245,455.8588],[8.1249,36.411,775.0566],[8.1199,36.4047,930.0421],[8.1253,36.4009,796.9436],[8.1428,36.3959,807.9061],[8.1439,36.385,856.4713],[8.1286,36.3739,970.6654],[8.1218,36.3728,1024.9701],[8.1129,36.3564,947.9223],[8.133,36.3521,703.3336],[8.1458,36.3533,569.218],[8.1507,36.3519,561.1843],[8.1635,36.3521,455.7109],[8.1678,36.349,418.4367],[8.1697,36.3438,394.8427],[8.1759,36.3475,387.0948],[8.1809,36.3469,406.9109],[8.1846,36.3385,670.8229],[8.1895,36.3364,779.2677],[8.2084,36.339,830.3458],[8.2239,36.3471,654.1815],[8.2347,36.3505,426.4069],[8.2384,36.3602,393.2411],[8.2375,36.3673,339.2355],[8.2395,36.3723,339.3706],[8.2536,36.3761,328.3342],[8.2686,36.3774,322.0384],[8.2723,36.3804,354.5207],[8.2824,36.3808,312.0872],[8.2929,36.3856,317.9867],[8.2986,36.3894,307.474],[8.2994,36.3956,477.3628],[8.2971,36.4059,630.5393],[8.3008,36.4095,658.7235],[8.3055,36.4087,620.0623],[8.3112,36.41,523.0298],[8.3167,36.4175,427.3982],[8.3206,36.4137,554.974],[8.3314,36.4158,508.1894],[8.3391,36.4241,454.9006],[8.3403,36.4289,394.1375],[8.3372,36.4324,413.9238],[8.3282,36.4313,329.181],[8.323,36.4345,352.4354],[8.3173,36.4264,322.7334],[8.3155,36.4329,450.8362],[8.3092,36.4334,458.4093],[8.3103,36.4361,460.4044],[8.3088,36.4417,500.4702],[8.2908,36.4428,695.7899],[8.2859,36.4452,733.2778],[8.262,36.4385,940.6727],[8.2496,36.4462,833.8419],[8.2108,36.4471,788.2235],[8.2033,36.4506,782.6508],[8.1969,36.4589,781.7727],[8.1917,36.4609,754.5388],[8.1751,36.4601,651.134],[8.1694,36.4628,714.0264],[8.1663,36.4666,787.7668],[8.1636,36.4578,632.8114],[8.1508,36.4475,395.6361]]]]}}