{"type":"Feature","properties":{"GID_2":"DZA.28.29_1","GID_0":"DZA","country":"Algeria","GID_1":"DZA.28_1","province":"Médéa","NL_NAME_1":"ولايةالمدية","county":"Hannacha","VARNAME_2":"NA","NL_NAME_2":"NA","TYPE_2":"Commune","ENGTYPE_2":"Commune","CC_2":"2660","HASC_2":"DZ.MD.HA","name":"Hannacha.county"},
"geometry":{"type": "MultiPolygon","coordinates": [[[[2.5849,36.1585,423.0],[2.5812,36.1562,445.7609],[2.5802,36.15,466.8639],[2.5911,36.145,435.1401],[2.5894,36.1382,465.2108],[2.5962,36.1386,448.3971],[2.6017,36.1333,463.3624],[2.6024,36.1277,429.5533],[2.6076,36.1298,474.5725],[2.6132,36.1382,546.6597],[2.6182,36.1423,556.2037],[2.6163,36.1489,601.0676],[2.6221,36.1577,639.5428],[2.6231,36.1638,681.3649],[2.636,36.1677,668.6834],[2.6395,36.1713,705.6251],[2.6413,36.1762,733.0011],[2.6577,36.1832,843.7818],[2.6631,36.187,876.7704],[2.6671,36.1911,866.6247],[2.6669,36.1976,712.2875],[2.6461,36.2094,539.3123],[2.6234,36.2066,801.6556],[2.6153,36.212,698.4044],[2.602,36.207,763.6437],[2.5957,36.1996,681.9855],[2.5774,36.204,402.7622],[2.565,36.199,402.4596],[2.5519,36.2023,419.4472],[2.5341,36.1955,365.0109],[2.5217,36.1951,356.4896],[2.5219,36.187,364.8794],[2.5269,36.1762,394.7689],[2.5464,36.1752,373.3358],[2.5489,36.1792,372.9188],[2.5518,36.1744,411.782],[2.5648,36.1664,445.7812],[2.5849,36.1585,423.0]],
[[2.5849,36.1585,423.0],[2.5906,36.1611,451.995],[2.5924,36.156,484.5511],[2.5849,36.1585,423.0]]]]}}