{"type":"Feature","properties":{"GID_2":"DZA.30.24_1","GID_0":"DZA","country":"Algeria","GID_1":"DZA.30_1","province":"Mostaganem","NL_NAME_1":"ولايةمستغانم","county":"SidiAli","VARNAME_2":"SīdīÂli","NL_NAME_2":"NA","TYPE_2":"Commune","ENGTYPE_2":"Commune","CC_2":"2712","HASC_2":"DZ.MG.SA","name":"Sidi_Ali.county"},
"geometry":{"type": "MultiPolygon","coordinates": [[[[0.3569,36.0664,175.4002],[0.3546,36.0601,163.5431],[0.362,36.056,267.9742],[0.3829,36.0535,126.0],[0.3827,36.0371,37.5052],[0.3768,36.0282,21.0217],[0.3936,36.0168,22.0794],[0.3987,36.0145,23.8373],[0.4295,36.0245,60.0009],[0.4479,36.0177,104.6278],[0.4573,36.0107,60.6589],[0.4587,36.0054,72.9659],[0.4542,35.9951,60.1142],[0.4585,35.992,58.7477],[0.4612,35.987,27.4741],[0.4668,35.9904,30.865],[0.4697,35.9852,28.7495],[0.4754,35.9888,27.0],[0.4795,35.9872,29.6967],[0.4837,35.9829,32.5355],[0.496,35.98,81.8205],[0.497,35.974,29.6728],[0.5023,35.9745,34.2899],[0.5097,35.9796,29.1628],[0.5209,35.9845,67.4276],[0.5223,35.9783,74.9598],[0.5174,35.9739,38.0258],[0.5217,35.9706,37.034],[0.5286,35.9712,29.5225],[0.5373,35.9787,37.176],[0.5368,35.9834,27.5],[0.5461,35.987,37.9239],[0.5492,35.9913,32.1537],[0.5541,35.9896,35.1231],[0.5571,35.9969,39.1411],[0.554,36.0038,74.2707],[0.544,36.0173,149.8517],[0.5441,36.0228,177.2303],[0.5466,36.0286,205.4388],[0.5495,36.0585,243.5419],[0.5544,36.0633,175.5116],[0.5476,36.0746,252.5664],[0.535,36.0814,361.6115],[0.5348,36.0944,494.7363],[0.5311,36.0968,514.3909],[0.5241,36.0966,482.5321],[0.5203,36.0924,455.3165],[0.5139,36.0904,416.974],[0.5085,36.0907,403.8807],[0.502,36.0925,388.6482],[0.489,36.1004,367.59],[0.4774,36.1187,262.432],[0.4413,36.1234,198.3063],[0.4299,36.1229,189.8171],[0.4251,36.1272,176.0172],[0.4226,36.1407,165.0111],[0.4077,36.1523,84.5558],[0.4038,36.1485,128.2397],[0.393,36.1448,142.7828],[0.375,36.144,114.518],[0.37,36.1422,115.2939],[0.368,36.1257,172.2661],[0.3701,36.1199,220.4291],[0.3746,36.1145,257.9936],[0.3841,36.1085,355.7187],[0.3865,36.0962,315.3159],[0.3846,36.0909,283.594],[0.379,36.0889,292.0993],[0.3692,36.0811,256.0304],[0.3689,36.0768,209.2383],[0.3569,36.0664,175.4002]]]]}}