{"type": "Feature","bbox": [3.7466,36.0388,3.8482,36.146],"geometry": {"type": "MultiPolygon","coordinates": [[[[3.8477,36.1355,760.0185],[3.8446,36.1392,719.6416],[3.8234,36.1394,751.4384],[3.8103,36.142,765.6409],[3.804,36.1408,775.1735],[3.7919,36.146,832.0614],[3.7859,36.1457,830.6249],[3.7687,36.1376,913.5826],[3.7538,36.1364,997.4984],[3.749,36.1334,999.9579],[3.7466,36.1272,994.1536],[3.7511,36.1179,963.3375],[3.7506,36.1067,1062.0569],[3.7643,36.0825,948.1588],[3.7658,36.0784,914.5585],[3.765,36.0741,936.6887],[3.7741,36.0689,1010.4361],[3.7766,36.0646,1001.6865],[3.7904,36.0605,1053.7559],[3.8166,36.0564,1043.1195],[3.819,36.0411,1149.3457],[3.824,36.0388,1043.4143],[3.8285,36.0422,1038.2732],[3.828,36.0491,962.2141],[3.8339,36.0645,896.0018],[3.8331,36.0705,871.3544],[3.8277,36.0751,977.7983],[3.8266,36.0806,1028.3639],[3.8331,36.0935,964.4824],[3.8444,36.0981,813.8505],[3.8482,36.1046,795.6973],[3.8477,36.1355,760.0185]]]]}
,"properties": {"GID_2": "DZA.12.24_1","GID_0": "DZA","country": "Algeria","GID_1": "DZA.12_1","province": "Bouira","NL_NAME_1": "ولايةالبويرة","county": "ElHakimia","VARNAME_2": "NA","NL_NAME_2": "NA","TYPE_2": "Commune","ENGTYPE_2": "Commune","CC_2": "1020","HASC_2": "DZ.BU.EA","name": "El_Hakimia.county","area_km2": 68.50506,"hist_schema_id": "Elevation0-9000","hist_area_km2": {"725": 0.37671,"750": 1.06169,"775": 1.74675,"800": 2.68868,"825": 2.91132,"850": 3.30525,"875": 4.09315,"900": 4.81283,"925": 5.73818,"950": 6.11555,"975": 6.42435,"1000": 6.66474,"1025": 8.03574,"1050": 7.26498,"1075": 4.42053,"1100": 1.78207,"1125": 0.85687,"1150": 0.18851,"1175": 0.01714}}}