{"type":"Feature","properties":{"GID_2":"DZA.43.41_1","GID_0":"DZA","country":"Algeria","GID_1":"DZA.43_1","province":"Tiaret","NL_NAME_1":"ولايةتيارت","county":"Tousnina","VARNAME_2":"NA","NL_NAME_2":"NA","TYPE_2":"Commune","ENGTYPE_2":"Commune","CC_2":"1426","HASC_2":"DZ.TR.TO","name":"Tousnina.county"},
"geometry":{"type": "MultiPolygon","coordinates": [[[[1.344,35.0137,1155.2864],[1.3485,35.0234,1169.3938],[1.3448,35.0341,1172.4121],[1.3483,35.0381,1170.194],[1.3631,35.0447,1185.5796],[1.3862,35.0624,1209.0864],[1.4166,35.0787,1214.3615],[1.4411,35.1248,1216.6082],[1.439,35.1326,1198.1123],[1.4336,35.142,1169.9091],[1.4279,35.1397,1153.838],[1.4146,35.144,1124.9254],[1.3912,35.161,1088.2167],[1.3713,35.1713,1050.9202],[1.3616,35.1736,1040.2325],[1.3446,35.1844,1011.1235],[1.3349,35.1805,1031.552],[1.3191,35.1828,1030.775],[1.2916,35.1746,979.1373],[1.2874,35.1703,987.7524],[1.282,35.1688,999.2234],[1.2706,35.1694,1011.8889],[1.2607,35.1722,1029.8099],[1.2415,35.1724,1048.0044],[1.2401,35.1636,1064.1487],[1.2436,35.1535,1069.9556],[1.2409,35.1487,1073.3248],[1.2345,35.12,1114.1691],[1.2241,35.0952,1122.5875],[1.2186,35.0897,1136.4087],[1.2121,35.0763,1161.4725],[1.2136,35.0698,1179.4575],[1.2118,35.0636,1186.0596],[1.2012,35.0495,1204.1631],[1.192,35.0422,1223.9883],[1.189,35.0368,1229.7657],[1.1879,35.0263,1244.7737],[1.194,35.0244,1238.6686],[1.2132,35.0127,1210.8083],[1.22,35.0116,1204.073],[1.2335,35.0135,1187.3824],[1.238,35.0125,1184.0918],[1.2391,35.0033,1192.2205],[1.2453,35.0011,1178.8667],[1.2561,35.0019,1175.0646],[1.2812,35.013,1172.2029],[1.2931,35.0153,1168.4153],[1.3186,35.0121,1170.5098],[1.335,35.015,1154.5117],[1.3395,35.0128,1153.8193],[1.344,35.0137,1155.2864]]]]}}