{"type":"Feature","properties":{"GID_2":"DZA.32.16_1","GID_0":"DZA","country":"Algeria","GID_1":"DZA.32_1","province":"Oran","NL_NAME_1":"ولايةوهران","county":"HassiBenOkba","VARNAME_2":"NA","NL_NAME_2":"NA","TYPE_2":"Commune-Cotiere","ENGTYPE_2":"Commune-Cotiere","CC_2":"3119","HASC_2":"DZ.OR.HO","name":"Hassi_Ben_Okba.county"},
"geometry":{"type": "MultiPolygon","coordinates": [[[[-0.4387,35.7434,108.9164],[-0.4432,35.7478,116.2717],[-0.4556,35.7535,130.1459],[-0.4773,35.7679,220.4561],[-0.5057,35.7803,203.6844],[-0.5082,35.7858,4.5117],[-0.5176,35.7765,13.2321],[-0.5135,35.773,117.2833],[-0.5183,35.767,270.0136],[-0.515,35.7592,327.9173],[-0.5104,35.7546,260.3032],[-0.5132,35.7489,222.4331],[-0.5175,35.745,202.1573],[-0.5181,35.7389,189.815],[-0.5222,35.7359,179.9968],[-0.5173,35.7306,179.3979],[-0.5195,35.7258,167.2543],[-0.5103,35.7148,130.5726],[-0.5033,35.7157,142.2309],[-0.4857,35.7248,126.074],[-0.4805,35.7156,99.5381],[-0.4766,35.7124,101.5026],[-0.4724,35.7099,93.6407],[-0.4631,35.7106,93.1898],[-0.4567,35.7138,110.0462],[-0.449,35.7235,93.4057],[-0.4387,35.7434,108.9164]]]]}}