{"type": "Feature","bbox": [2.7048,34.3963,2.9744,34.5567],"geometry": {"type": "MultiPolygon","coordinates": [[[[2.9515,34.54,1286.3081],[2.9392,34.5448,1254.9034],[2.9293,34.5474,1221.8657],[2.9196,34.5478,1249.6624],[2.8884,34.5567,1406.4611],[2.8624,34.5559,1369.8188],[2.8584,34.5541,1418.7954],[2.8394,34.5199,1373.0273],[2.8283,34.5185,1375.8816],[2.8164,34.5089,1375.6958],[2.8068,34.5048,1371.1611],[2.8032,34.5073,1353.5302],[2.7975,34.5063,1388.4869],[2.7776,34.4929,1337.4562],[2.7745,34.4881,1337.8855],[2.7668,34.4851,1346.1348],[2.7402,34.4822,1297.9509],[2.7303,34.4797,1283.9187],[2.7226,34.4569,1262.5143],[2.7137,34.4493,1257.8633],[2.7073,34.4409,1237.2972],[2.7081,34.4298,1250.6254],[2.7048,34.4108,1214.3727],[2.7305,34.4099,1228.8926],[2.7541,34.3963,1218.7083],[2.7688,34.398,1241.6948],[2.7745,34.3995,1244.4395],[2.7764,34.4109,1266.9109],[2.7805,34.4157,1276.901],[2.7867,34.434,1296.3401],[2.792,34.4431,1276.7397],[2.8072,34.4432,1286.7593],[2.8187,34.4352,1264.3048],[2.8237,34.4385,1274.2236],[2.8346,34.4368,1316.803],[2.861,34.4388,1567.1501],[2.8639,34.444,1555.2106],[2.8777,34.451,1522.4012],[2.9019,34.4715,1498.5369],[2.9284,34.4889,1506.0868],[2.969,34.5212,1508.1708],[2.9744,34.5274,1508.3074],[2.9515,34.54,1286.3081]]]]}
,"properties": {"GID_2": "DZA.16.8_1","GID_0": "DZA","country": "Algeria","GID_1": "DZA.16_1","province": "Djelfa","NL_NAME_1": "ولايةالجلفة","county": "Benyacoub","VARNAME_2": "BeniYagoub","NL_NAME_2": "NA","TYPE_2": "Commune","ENGTYPE_2": "Commune","CC_2": "1727","HASC_2": "DZ.DJ.BY","name": "Benyacoub.county","area_km2": 193.4385,"hist_schema_id": "Elevation0-9000","hist_area_km2": {"1200": 2.6061,"1225": 13.5695,"1250": 18.1796,"1275": 24.1379,"1300": 26.8127,"1325": 23.7502,"1350": 24.6382,"1375": 21.0213,"1400": 13.4902,"1425": 8.9294,"1450": 5.312,"1475": 3.7744,"1500": 3.4075,"1525": 2.464,"1550": 0.9087,"1575": 0.3321,"1600": 0.1049}}}