{"type": "Feature","bbox": [1.117,36.3509,1.2649,36.467],"geometry": {"type": "MultiPolygon","coordinates": [[[[1.2165,36.4611,236.4012],[1.2029,36.4468,279.5923],[1.1974,36.4445,245.3531],[1.1897,36.4446,267.7034],[1.1808,36.4467,297.3898],[1.1732,36.4509,351.2487],[1.1586,36.467,722.3026],[1.1512,36.4634,617.1058],[1.1538,36.4504,346.3119],[1.1575,36.4462,354.3091],[1.1572,36.4412,275.4109],[1.1513,36.4341,301.6624],[1.1424,36.432,244.5598],[1.1385,36.4288,223.0188],[1.1178,36.4263,182.453],[1.1188,36.4195,229.1298],[1.117,36.4076,447.8008],[1.1275,36.4113,331.0287],[1.1337,36.4113,321.0399],[1.1384,36.4081,356.8298],[1.1402,36.402,382.2804],[1.146,36.3968,231.1425],[1.161,36.3981,199.3788],[1.1592,36.3915,224.4359],[1.1637,36.3781,259.2701],[1.162,36.3726,242.4153],[1.1577,36.3688,273.8667],[1.155,36.362,314.0854],[1.154,36.3553,385.3576],[1.1569,36.3509,497.9503],[1.1722,36.3559,561.6899],[1.193,36.366,496.4247],[1.1986,36.3643,471.525],[1.2048,36.3657,481.2784],[1.2185,36.3725,418.5269],[1.2201,36.3848,273.0119],[1.2256,36.4004,190.6461],[1.2401,36.4025,206.4727],[1.2507,36.4066,192.3108],[1.2562,36.416,135.9796],[1.2569,36.4219,135.7633],[1.2649,36.4299,124.8607],[1.259,36.4364,141.1318],[1.2522,36.4357,151.8173],[1.2472,36.4322,162.753],[1.242,36.4313,177.9397],[1.2366,36.4378,312.5507],[1.2295,36.4375,426.2146],[1.2316,36.4485,321.9532],[1.224,36.4573,216.5096],[1.2165,36.4611,236.4012]]]]}
,"properties": {"GID_2": "DZA.14.1_1","GID_0": "DZA","country": "Algeria","GID_1": "DZA.14_1","province": "Chlef","NL_NAME_1": "ولايةالشلف","county": "AbouElHassen","VARNAME_2": "Abu-al-Hassan","NL_NAME_2": "NA","TYPE_2": "Commune","ENGTYPE_2": "Commune","CC_2": "222","HASC_2": "DZ.CH.AH","name": "Abou_El_Hassen.county","area_km2": 80.75877,"hist_schema_id": "Elevation0-9000","hist_area_km2": {"125": 2.18372,"150": 5.61335,"175": 7.72963,"200": 7.91777,"225": 7.90084,"250": 7.3378,"275": 6.07462,"300": 5.57947,"325": 6.0396,"350": 4.89658,"375": 4.57261,"400": 3.99258,"425": 3.5661,"450": 2.73,"475": 1.68927,"500": 0.93854,"525": 0.63141,"550": 0.5803,"575": 0.30711,"600": 0.18759,"625": 0.08526,"650": 0.06821,"675": 0.0341,"700": 0.0341,"725": 0.0682}}}