{"type":"Feature","properties":{"GID_2":"DZA.39.14_1","GID_0":"DZA","country":"Algeria","GID_1":"DZA.39_1","province":"Skikda","NL_NAME_1":"سكيكدة","county":"Collo","VARNAME_2":"al-Qull","NL_NAME_2":"NA","TYPE_2":"Commune-Cotiere","ENGTYPE_2":"Commune-Cotiere","CC_2":"2110","HASC_2":"DZ.SK.CO","name":"Collo.county"},
"geometry":{"type": "MultiPolygon","coordinates": [[[[6.5624,36.9517,24.3783],[6.5682,36.9533,103.3934],[6.5707,36.9569,11.8113],[6.5718,36.9682,4.2741],[6.577,36.9658,3.7573],[6.5872,36.9717,3.776],[6.5689,36.984,0.8714],[6.5647,36.99,4.2813],[6.5657,36.9961,0.0],[6.5695,37.0017,0.0],[6.5779,37.0082,0.0],[6.5813,37.0131,46.2492],[6.5758,37.0132,56.8441],[6.572,37.0103,21.6698],[6.5665,37.0103,1.2679],[6.566,37.0153,0.0],[6.5701,37.0247,7.5095],[6.5683,37.0287,54.276],[6.5557,37.026,0.0],[6.5471,37.0283,4.8321],[6.5417,37.0324,0.0],[6.5412,37.0378,0.0],[6.5448,37.0486,0.0],[6.5487,37.0537,29.2348],[6.5446,37.056399999999996,2.0221],[6.5402,37.0525,0.0],[6.5324,37.0522,0.0],[6.5316,37.0401,377.5414],[6.5292,37.0331,382.89],[6.5255,37.0278,373.2549],[6.5243,37.0174,347.7018],[6.5253,37.0128,295.925],[6.5286,37.0084,249.0876],[6.5348,37.0048,286.6157],[6.5312,37.0003,249.6624],[6.5346,36.9948,201.2765],[6.558,36.9893,12.3332],[6.5618,36.984,1.7169],[6.5649,36.9662,1.6961],[6.561,36.9598,3.7394],[6.5624,36.9517,24.3783]]]]}}