{"type":"Feature","properties":{"GID_2":"DZA.11.26_1","GID_0":"DZA","country":"Algeria","GID_1":"DZA.11_1","province":"BordjBouArréridj","NL_NAME_1":"ولايةبرجبوعريريج","county":"OuledSidiBrahim","VARNAME_2":"NA","NL_NAME_2":"NA","TYPE_2":"Commune","ENGTYPE_2":"Commune","CC_2":"3423","HASC_2":"DZ.BB.OS","name":"Ouled_Sidi_Brahim.county"},
"geometry":{"type": "MultiPolygon","coordinates": [[[[4.3756,36.2869,341.0627],[4.3584,36.2801,390.2937],[4.3456,36.2585,497.6692],[4.3366,36.2504,515.1454],[4.3252,36.2473,536.0594],[4.3206,36.2483,544.5856],[4.3116,36.2445,589.8022],[4.285,36.2487,604.894],[4.2732,36.2537,558.28],[4.2693,36.2516,554.3116],[4.2647,36.2407,607.3981],[4.2572,36.232,647.6508],[4.2749,36.2081,917.2251],[4.2844,36.2082,1039.7354],[4.2887,36.2067,1067.9587],[4.2944,36.1908,949.9329],[4.2981,36.1871,833.3391],[4.3031,36.1863,836.3388],[4.3151,36.1882,853.9459],[4.3204,36.1858,716.4944],[4.363,36.1989,640.6893],[4.3808,36.2028,462.1504],[4.3783,36.2083,539.6344],[4.4095,36.2185,448.2247],[4.398,36.224,405.9855],[4.3943,36.2372,384.1579],[4.3952,36.2423,399.5516],[4.3923,36.2472,423.3631],[4.3876,36.2464,376.3163],[4.3814,36.2501,376.003],[4.3785,36.2568,373.9478],[4.375,36.2751,375.4514],[4.3721,36.2795,346.501],[4.3756,36.2869,341.0627]]]]}}