{"type":"Feature","properties":{"GID_2":"DZA.37.13_1","GID_0":"DZA","country":"Algeria","GID_1":"DZA.37_1","province":"Sétif","NL_NAME_1":"ولايةسطيف","county":"Babor","VARNAME_2":"NA","NL_NAME_2":"NA","TYPE_2":"Commune","ENGTYPE_2":"Commune","CC_2":"1916","HASC_2":"DZ.SF.BR","name":"Babor.county"},
"geometry":{"type": "MultiPolygon","coordinates": [[[[5.4558,36.5357,1790.2756],[5.4514,36.5217,1180.2566],[5.4535,36.5162,1147.7292],[5.468,36.504,1777.6296],[5.4699,36.4996,1971.3992],[5.4555,36.4931,1854.189],[5.4461,36.4859,1459.4999],[5.4234,36.4596,718.8188],[5.4271,36.4497,679.0635],[5.4263,36.4345,694.2726],[5.4309,36.4339,742.6641],[5.442,36.4275,769.6472],[5.4573,36.4225,836.5334],[5.4569,36.4282,726.8563],[5.4723,36.4287,753.4019],[5.4774,36.4274,781.3961],[5.4828,36.4244,773.7927],[5.486,36.4204,785.0822],[5.4867,36.416,789.4623],[5.496,36.41,868.3779],[5.5043,36.4106,783.4036],[5.511,36.4093,814.447],[5.5149,36.4128,875.3027],[5.5119,36.4168,821.2252],[5.5151,36.4234,967.9416],[5.5247,36.4353,1030.0221],[5.5265,36.442,1042.4877],[5.5319,36.4493,893.6587],[5.5326,36.4613,826.0424],[5.547,36.4773,950.4702],[5.5519,36.4792,976.9806],[5.5542,36.4856,1074.4424],[5.5641,36.4914,1105.7408],[5.5693,36.4899,1076.9758],[5.5751,36.4912,1056.0305],[5.5801,36.4943,938.2363],[5.5917,36.4965,823.8817],[5.598,36.5001,925.3012],[5.5818,36.5063,995.504],[5.5746,36.5166,975.0299],[5.5709,36.5192,863.3215],[5.5585,36.5218,718.2687],[5.5518,36.5206,815.4611],[5.5251,36.5231,1113.2002],[5.5171,36.5276,972.8302],[5.5106,36.5365,888.5784],[5.5157,36.5463,1002.9225],[5.5142,36.5522,1172.4978],[5.5181,36.5566,1175.8867],[5.5143,36.5689,962.9233],[5.5175,36.5733,1049.8115],[5.5155,36.5774,1100.7869],[5.5109,36.5805,1012.2264],[5.5087,36.5843,924.3852],[5.5074,36.5961,770.9836],[5.4998,36.5955,892.0239],[5.4902,36.5919,998.8253],[5.4726,36.5947,1148.9963],[5.4765,36.5851,631.486],[5.4739,36.5804,791.022],[5.4798,36.5779,917.1495],[5.4833,36.5733,967.0715],[5.4802,36.5682,969.4688],[5.4695,36.5643,966.2645],[5.4653,36.5606,960.9449],[5.4604,36.5408,1641.6044],[5.4558,36.5357,1790.2756]]]]}}