{"type": "Feature","bbox": [5.1493,35.6317,5.3509,35.7341],"geometry": {"type": "MultiPolygon","coordinates": [[[[5.338,35.6317,770.7321],[5.3355,35.6378,782.616],[5.3367,35.6453,802.2697],[5.3427,35.6486,806.3774],[5.3456,35.6745,895.2871],[5.3457,35.6803,929.64],[5.3412,35.6921,1261.4286],[5.3421,35.6986,1254.1232],[5.3509,35.7049,1434.1985],[5.3475,35.7079,1304.4683],[5.3436,35.729,1622.0645],[5.3348,35.7283,1810.8445],[5.3301,35.7318,1631.3206],[5.3104,35.7341,1548.3806],[5.3048,35.7326,1568.3658],[5.286,35.722,1567.9581],[5.2721,35.7231,1474.3619],[5.2605,35.726,1516.9899],[5.2476,35.7208,1573.5748],[5.2311,35.7237,1612.627],[5.2173,35.7226,1682.3848],[5.1924,35.7114,1387.5897],[5.1782,35.7108,1324.1561],[5.1725,35.7077,1098.1057],[5.1636,35.6994,961.2372],[5.1511,35.6978,779.6848],[5.1493,35.6859,728.522],[5.1645,35.6687,742.9634],[5.1733,35.6536,678.9771],[5.1778,35.6512,666.203],[5.2193,35.6496,772.4028],[5.2454,35.651,816.8881],[5.2583,35.6494,799.0311],[5.2615,35.645,780.8581],[5.2662,35.6423,773.864],[5.2904,35.633,740.877],[5.297,35.6326,751.5135],[5.3087,35.6384,795.6538],[5.3133,35.6387,785.7352],[5.338,35.6317,770.7321]]]]}
,"properties": {"GID_2": "DZA.37.28_1","GID_0": "DZA","country": "Algeria","GID_1": "DZA.37_1","province": "Sétif","NL_NAME_1": "ولايةسطيف","county": "Boutaleb","VARNAME_2": "NA","NL_NAME_2": "NA","TYPE_2": "Commune","ENGTYPE_2": "Commune","CC_2": "1905","HASC_2": "DZ.SF.BT","name": "Boutaleb.county","area_km2": 142.9208,"hist_schema_id": "Elevation0-9000","hist_area_km2": {"675": 0.8269,"700": 1.9639,"725": 3.6864,"750": 7.0973,"775": 9.3196,"800": 10.5775,"825": 9.2333,"850": 7.6137,"875": 5.9597,"900": 5.0638,"925": 4.3918,"950": 3.9266,"975": 3.651,"1000": 3.7197,"1025": 3.2374,"1050": 3.2546,"1075": 3.0479,"1100": 2.9961,"1125": 3.7365,"1150": 3.2715,"1175": 2.996,"1200": 3.3747,"1225": 3.323,"1250": 3.5295,"1275": 3.5123,"1300": 3.6843,"1325": 2.9096,"1350": 2.7374,"1375": 2.393,"1400": 2.7889,"1425": 1.9969,"1450": 2.1174,"1475": 2.0657,"1500": 1.6698,"1525": 1.4976,"1550": 1.3083,"1575": 1.1878,"1600": 0.9812,"1625": 0.6197,"1650": 0.3443,"1675": 0.3787,"1700": 0.2754,"1725": 0.241,"1750": 0.1549,"1775": 0.1033,"1800": 0.0861,"1825": 0.0516,"1850": 0.0172}}}