{"type": "Feature","bbox": [0.0761,34.7879,0.2186,34.8975],"geometry": {"type": "MultiPolygon","coordinates": [[[[0.2113,34.8036,1162.6058],[0.2157,34.8032,1151.8743],[0.2186,34.8106,1163.2313],[0.2058,34.812,1092.6989],[0.1951,34.8253,1003.4946],[0.1969,34.8332,1004.6404],[0.1802,34.8422,871.9444],[0.1695,34.8652,780.1284],[0.1659,34.8688,769.5274],[0.1612,34.8681,756.1517],[0.1576,34.8719,758.7686],[0.1517,34.8728,747.7283],[0.1469,34.8759,729.7609],[0.1445,34.8933,709.142],[0.1408,34.8975,703.955],[0.1371,34.8794,746.386],[0.1383,34.8694,766.9877],[0.1251,34.867,778.8616],[0.1104,34.8605,799.5271],[0.1073,34.8635,809.2505],[0.109,34.8685,789.1601],[0.1037,34.8699,803.5867],[0.0948,34.8637,824.5375],[0.0887,34.8642,846.5555],[0.0827,34.8608,956.5751],[0.0792,34.8559,1052.2483],[0.0808,34.8511,1106.4037],[0.0844,34.8479,1108.4512],[0.0819,34.8424,1140.6683],[0.0865,34.8337,1162.619],[0.0985,34.8264,984.9255],[0.1018,34.8223,928.3904],[0.099,34.8155,926.2941],[0.0819,34.8104,933.0304],[0.0763,34.8063,903.7004],[0.0761,34.802,889.4677],[0.0869,34.799,905.0509],[0.0917,34.7992,918.1252],[0.1053,34.7902,964.9722],[0.1177,34.7879,1012.0851],[0.1265,34.7933,1020.2017],[0.1352,34.8025,947.6577],[0.1447,34.8015,926.3096],[0.148,34.7976,946.666],[0.1555,34.7967,992.9366],[0.1793,34.801,1031.1025],[0.185,34.7989,1044.0518],[0.1923,34.8065,1029.5566],[0.2061,34.8059,1097.2571],[0.2113,34.8036,1162.6058]]]]}
,"properties": {"GID_2": "DZA.36.11_1","GID_0": "DZA","country": "Algeria","GID_1": "DZA.36_1","province": "Saïda","NL_NAME_1": "ولايةسعيدة","county": "Saida","VARNAME_2": "Saydā'","NL_NAME_2": "NA","TYPE_2": "Chef-Lieu-Wilaya","ENGTYPE_2": "Chef-Lieu-Wilaya","CC_2": "2001","HASC_2": "DZ.SD.SD","name": "Saida.county","area_km2": 75.77496,"hist_schema_id": "Elevation0-9000","hist_area_km2": {"700": 0.12173,"725": 1.09575,"750": 3.04426,"775": 4.15807,"800": 6.02024,"825": 7.37796,"850": 6.45621,"875": 6.71772,"900": 7.03176,"925": 7.1715,"950": 6.77126,"975": 5.814,"1000": 5.10031,"1025": 3.08106,"1050": 1.61876,"1075": 1.20089,"1100": 0.6439,"1125": 0.52211,"1150": 1.06173,"1175": 0.57433,"1200": 0.19143}}}