{"type":"Feature","properties":{"GID_2":"DZA.27.15_1","GID_0":"DZA","country":"Algeria","GID_1":"DZA.27_1","province":"Mascara","NL_NAME_1":"ولايةمعسكر","county":"ElHachem","VARNAME_2":"NA","NL_NAME_2":"NA","TYPE_2":"Commune","ENGTYPE_2":"Commune","CC_2":"2907","HASC_2":"DZ.MC.EH","name":"El_Hachem.county"},
"geometry":{"type": "MultiPolygon","coordinates": [[[[0.6797,35.3114,407.8571],[0.6655,35.3309,392.3614],[0.6698,35.3362,376.2707],[0.6719,35.342,364.989],[0.672,35.352,344.9848],[0.6697,35.357,337.4252],[0.6686,35.3677,341.3219],[0.672,35.3723,346.9514],[0.6691,35.3754,346.2256],[0.6609,35.3797,342.0685],[0.66,35.384,326.2819],[0.6648,35.3887,302.1038],[0.6703,35.3868,319.0598],[0.6788,35.3978,288.4727],[0.6839,35.4012,285.1554],[0.6778,35.4086,278.601],[0.6805,35.4184,270.5578],[0.6841,35.4216,266.5118],[0.679,35.4224,269.1124],[0.6675,35.4207,305.1583],[0.6584,35.416,336.0911],[0.6435,35.4136,371.4543],[0.6359,35.4145,412.6519],[0.614,35.4259,394.5456],[0.6071,35.4281,412.8827],[0.5716,35.4302,418.7815],[0.5683,35.4337,390.5233],[0.5665,35.4384,346.7143],[0.5625,35.4358,373.2011],[0.5539,35.4231,430.5255],[0.5492,35.4189,438.2031],[0.5428,35.4173,435.4455],[0.5299,35.4157,434.2846],[0.525,35.4165,441.407],[0.5207,35.4214,419.7651],[0.5163,35.4192,409.7911],[0.5034,35.4224,391.6742],[0.4985,35.4225,362.9365],[0.4881,35.4182,405.7383],[0.4788,35.4222,440.9344],[0.4677,35.4236,445.0486],[0.4608,35.4212,440.6348],[0.4563,35.4154,449.6154],[0.4489,35.415,447.4319],[0.4439,35.4166,448.9412],[0.4396,35.4207,452.6769],[0.4129,35.4179,485.662],[0.4171,35.4143,481.0622],[0.4203,35.4081,483.141],[0.4243,35.3958,499.0834],[0.4148,35.3874,484.5461],[0.403,35.3724,496.8368],[0.416,35.3656,512.5614],[0.4381,35.348,584.4957],[0.474,35.3296,643.4008],[0.4881,35.3256,658.2995],[0.5017,35.3283,608.4511],[0.505,35.3313,592.0199],[0.5085,35.3265,647.8209],[0.5157,35.3237,668.7198],[0.5354,35.3295,666.0825],[0.5524,35.3305,687.5863],[0.5581,35.3295,716.7631],[0.5623,35.3266,723.6455],[0.563,35.3223,738.7159],[0.5865,35.3218,825.4582],[0.6046,35.3184,805.9895],[0.6056,35.314,713.3863],[0.6277,35.2954,530.8487],[0.6309,35.2888,518.4191],[0.6448,35.2932,510.3283],[0.6534,35.3011,496.3517],[0.675,35.3077,443.3436],[0.6797,35.3114,407.8571]]]]}}