{"type": "Feature","bbox": [6.7065,35.3178,6.9212,35.5032],"geometry": {"type": "MultiPolygon","coordinates": [[[[6.7874,35.3178,1380.4021],[6.8022,35.3258,1429.3314],[6.8122,35.3369,1440.2501],[6.8507,35.3686,1490.5791],[6.8555,35.3759,1476.8953],[6.8503,35.3846,1479.7644],[6.8584,35.3924,1453.1263],[6.8831,35.4,1215.5608],[6.8938,35.4049,1182.8225],[6.9064,35.4152,1115.2942],[6.8941,35.4145,1216.2354],[6.889,35.4178,1256.861],[6.8865,35.424,1388.7153],[6.8954,35.4324,1146.9354],[6.9013,35.4348,1122.54],[6.9178,35.437,1058.4692],[6.9109,35.447,1108.1708],[6.9194,35.4544,1155.5416],[6.9212,35.461,1120.4854],[6.9111,35.4737,1045.8002],[6.9123,35.478,981.0621],[6.9206,35.4897,943.4666],[6.9072,35.4921,941.6599],[6.897,35.4915,949.0288],[6.8912,35.4944,938.9642],[6.8927,35.5032,906.5853],[6.8384,35.5032,917.0343],[6.8349,35.5005,924.9347],[6.8432,35.477,1000.5772],[6.84,35.4719,1018.0444],[6.8232,35.4625,1113.5183],[6.8258,35.4574,1192.5652],[6.8336,35.4572,1305.6504],[6.8484,35.4521,1330.9371],[6.8533,35.4367,1440.532],[6.8532,35.425,1539.3027],[6.844,35.4203,1608.366],[6.8238,35.4217,1368.9285],[6.8162,35.4192,1426.5034],[6.7962,35.4176,1493.0884],[6.7757,35.4106,1635.9148],[6.7706,35.4066,1574.5793],[6.7707,35.3832,1291.6273],[6.7634,35.3805,1329.6469],[6.7531,35.3736,1338.095],[6.7383,35.3738,1317.674],[6.7261,35.3684,1566.3882],[6.7213,35.3633,1807.3969],[6.7142,35.3605,1946.5942],[6.7075,35.3602,2006.6033],[6.7065,35.3553,2034.0759],[6.7334,35.3414,1363.8169],[6.7477,35.3318,1189.6578],[6.7718,35.3223,1134.6134],[6.7832,35.3211,1305.4532],[6.7874,35.3178,1380.4021]]]]}
,"properties": {"GID_2": "DZA.24.6_1","GID_0": "DZA","country": "Algeria","GID_1": "DZA.24_1","province": "Khenchela","NL_NAME_1": "ولايةخنشلة","county": "Chelia","VARNAME_2": "NA","NL_NAME_2": "NA","TYPE_2": "Commune","ENGTYPE_2": "Commune","CC_2": "4021","HASC_2": "DZ.KH.CL","name": "Chelia.county","area_km2": 151.7441,"hist_schema_id": "Elevation0-9000","hist_area_km2": {"900": 0.2762,"925": 4.0564,"950": 5.9903,"975": 4.7478,"1000": 3.3841,"1025": 2.8318,"1050": 2.5383,"1075": 2.4176,"1100": 2.2106,"1125": 4.8728,"1150": 7.8461,"1175": 9.7665,"1200": 10.977,"1225": 12.1006,"1250": 12.5325,"1275": 10.0257,"1300": 8.2101,"1325": 7.6568,"1350": 6.8097,"1375": 6.2738,"1400": 5.0815,"1425": 4.8222,"1450": 3.4913,"1475": 3.0244,"1500": 2.5232,"1525": 1.8666,"1550": 1.227,"1575": 0.9505,"1600": 0.7259,"1625": 0.5876,"1650": 0.3631,"1675": 0.1902,"1700": 0.1729,"1725": 0.1729,"1750": 0.121,"1775": 0.1729,"1800": 0.1037,"1825": 0.0865,"1850": 0.0865,"1875": 0.0865,"1900": 0.0865,"1925": 0.0692,"1950": 0.0692,"1975": 0.0692,"2000": 0.0346,"2025": 0.0346}}}