{"type":"Feature","properties":{"GID_2":"DZA.10.3_1","GID_0":"DZA","country":"Algeria","GID_1":"DZA.10_1","province":"Blida","NL_NAME_1":"البليدة","county":"BeniMerad","VARNAME_2":"BeniMered|Bani-Mara-d","NL_NAME_2":"NA","TYPE_2":"Commune","ENGTYPE_2":"Commune","CC_2":"921","HASC_2":"DZ.BL.BM","name":"Beni_Merad.county"},
"geometry":{"type": "MultiPolygon","coordinates": [[[[2.8377,36.5142,149.9575],[2.8478,36.498,195.5457],[2.8614,36.5178,153.3837],[2.8685,36.5243,138.3369],[2.8751,36.526,135.9283],[2.8792,36.5301,128.034],[2.8776,36.5358,113.6455],[2.8707,36.5392,103.8791],[2.8705,36.5491,86.6403],[2.8636,36.5499,86.8218],[2.8575,36.5529,77.7276],[2.8555,36.5595,65.9966],[2.8513,36.5622,59.9362],[2.8502,36.5687,52.6384],[2.8441,36.5706,47.5754],[2.837,36.5703,50.2135],[2.8363,36.5631,59.5928],[2.8449,36.541,96.766],[2.8404,36.532,116.8963],[2.8377,36.5142,149.9575]]]]}}