{"type":"Feature","properties":{"GID_2":"DZA.6.34_1","GID_0":"DZA","country":"Algeria","GID_1":"DZA.6_1","province":"Batna","NL_NAME_1":"ولايةباتنة","county":"Maafa","VARNAME_2":"NA","NL_NAME_2":"NA","TYPE_2":"Commune","ENGTYPE_2":"Commune","CC_2":"503","HASC_2":"DZ.BT.MA","name":"Maafa.county"},
"geometry":{"type": "MultiPolygon","coordinates": [[[[5.7729,35.2792,708.8798],[5.778,35.2691,730.4219],[5.785,35.2648,833.47],[5.7956,35.2645,886.7118],[5.8,35.2627,880.5051],[5.8094,35.2549,976.8387],[5.8172,35.2523,967.1378],[5.8295,35.2511,977.2309],[5.8404,35.2431,1112.9293],[5.8481,35.2408,1096.7188],[5.8508,35.2334,1208.1445],[5.8554,35.2275,1256.4453],[5.8728,35.2251,1275.9192],[5.8751,35.2204,1323.672],[5.8751,35.2147,1340.5103],[5.8783,35.2105,1436.4871],[5.8891,35.2077,1442.7838],[5.8939,35.209,1484.9414],[5.8965,35.2124,1480.5569],[5.8977,35.2173,1489.6637],[5.901,35.2203,1496.8776],[5.9101,35.2194,1494.1592],[5.9209,35.2237,1496.9475],[5.941,35.2264,1470.478],[5.9505,35.2213,1443.1824],[5.9658,35.2371,1379.6101],[5.9659,35.2472,1306.1444],[5.9634,35.253,1191.588],[5.9824,35.2636,1453.8893],[5.9838,35.2677,1513.613],[5.9932,35.2708,1568.2793],[5.9955,35.2811,1392.0894],[5.9983,35.2857,1360.593],[5.995,35.2887,1286.5308],[5.9718,35.2892,1227.7795],[5.9636,35.2971,1092.3468],[5.9588,35.2986,1062.8434],[5.955,35.2964,1050.2566],[5.9496,35.2962,1008.9187],[5.9467,35.3003,981.0592],[5.9449,35.3171,834.275],[5.9395,35.3178,824.1199],[5.9351,35.313,815.0441],[5.9296,35.3122,818.2332],[5.9216,35.3186,802.9735],[5.9095,35.3339,994.3042],[5.8973,35.3447,1038.1285],[5.8916,35.3393,963.2947],[5.8819,35.3337,914.9861],[5.8636,35.33,881.3751],[5.8487,35.3222,836.6744],[5.85,35.3178,863.5389],[5.8377,35.3002,792.2386],[5.8324,35.2952,722.1776],[5.8157,35.2916,675.7725],[5.8114,35.2895,669.5544],[5.8087,35.2859,667.0993],[5.7941,35.2873,673.9677],[5.7886,35.2832,735.9369],[5.7729,35.2792,708.8798]]]]}}