{"type":"Feature","properties":{"GID_2":"DZA.8.6_1","GID_0":"DZA","country":"Algeria","GID_1":"DZA.8_1","province":"Béjaïa","NL_NAME_1":"بجاية","county":"Amalou","VARNAME_2":"NA","NL_NAME_2":"NA","TYPE_2":"Commune","ENGTYPE_2":"Commune","CC_2":"616","HASC_2":"DZ.BJ.AL","name":"Amalou.county"},
"geometry":{"type": "MultiPolygon","coordinates": [[[[4.5526,36.4387,161.8412],[4.5982,36.457,631.275],[4.6089,36.4594,777.0952],[4.6195,36.4592,876.6064],[4.6379,36.4505,723.1698],[4.6526,36.4502,614.5273],[4.7001,36.4773,729.2778],[4.7178,36.48,716.8462],[4.7227,36.4861,682.413],[4.7208,36.4955,883.8877],[4.7225,36.5026,1080.9417],[4.7014,36.5023,847.3163],[4.6909,36.5063,527.3646],[4.6773,36.5066,321.9654],[4.6696,36.5134,281.2868],[4.6687,36.5092,315.6614],[4.6636,36.5068,297.1517],[4.6537,36.5093,256.0728],[4.6304,36.4954,252.8531],[4.6244,36.4943,198.0612],[4.6051,36.5051,130.5439],[4.5958,36.4861,141.2599],[4.5882,36.4757,144.5692],[4.5677,36.465,152.9578],[4.5585,36.4583,155.3416],[4.5559,36.4549,154.4024],[4.5526,36.4387,161.8412]]]]}}