{"type":"Feature","properties":{"GID_2":"DZA.9.15_1","GID_0":"DZA","country":"Algeria","GID_1":"DZA.9_1","province":"Biskra","NL_NAME_1":"ولايةبسكرة","county":"ElHaouch","VARNAME_2":"NA","NL_NAME_2":"NA","TYPE_2":"Commune","ENGTYPE_2":"Commune","CC_2":"713","HASC_2":"DZ.BS.EC","name":"El_Haouch.county"},
"geometry":{"type": "MultiPolygon","coordinates": [[[[5.9585,34.6935,15.6586],[5.8917,34.699,22.3775],[5.8332,34.7275,35.15],[5.8193,34.7277,38.3908],[5.8142,34.7294,40.0053],[5.8107,34.7206,36.931],[5.8147,34.7073,32.8101],[5.8274,34.6975,30.6932],[5.8416,34.6909,28.2812],[5.8442,34.681,27.3186],[5.8743,34.6564,21.5886],[5.8718,34.6514,21.7899],[5.8726,34.6406,22.5223],[5.8947,34.5692,18.4622],[5.9003,34.5451,20.7739],[5.9002,34.5354,16.2576],[5.9017,34.5306,20.4234],[5.9683,34.3932,-0.238],[6.1611,34.426,-27.7217],[6.2111,34.4284,-27.3937],[6.2258,34.463,-26.877],[6.2312,34.5011,-26.0005],[6.2303,34.5057,-25.7926],[6.236,34.519,-25.0199],[6.2369,34.5253,-24.7977],[6.2326,34.5275,-24.4102],[6.2051,34.5517,-22.3712],[6.1785,34.5819,-19.8808],[6.1696,34.5876,-19.1915],[6.1722,34.5991,-19.0299],[6.1261,34.6175,-14.8554],[6.097,34.6334,-11.5609],[6.0891,34.6278,-11.0367],[6.0701,34.6374,-7.2039],[6.0517,34.6391,-2.6839],[6.0035,34.6558,3.1959],[5.9674,34.6845,11.4909],[5.9585,34.6935,15.6586]]]]}}