{"type":"Feature","properties":{"GID_2":"DZA.48.31_1","GID_0":"DZA","country":"Algeria","GID_1":"DZA.48_1","province":"Tlemcen","NL_NAME_1":"تلمسان","county":"Honaine","VARNAME_2":"NA","NL_NAME_2":"NA","TYPE_2":"Commune-Cotiere","ENGTYPE_2":"Commune-Cotiere","CC_2":"1344","HASC_2":"DZ.TL.HO","name":"Honaine.county"},
"geometry":{"type": "MultiPolygon","coordinates": [[[[-1.6371,35.2063,0.0],[-1.6423,35.2026,19.8274],[-1.6492,35.1885,23.8928],[-1.6551,35.1841,0.0],[-1.6588,35.1781,0.4743],[-1.6653,35.1775,5.5828],[-1.6844,35.181,17.8071],[-1.6998,35.1798,0.0],[-1.7049,35.1778,0.0],[-1.7185,35.1642,0.0],[-1.7238,35.1616,0.0],[-1.7256,35.1552,0.0],[-1.7232,35.1498,167.8141],[-1.718,35.1454,132.1924],[-1.7205,35.1402,245.5159],[-1.7162,35.1293,275.7522],[-1.7137,35.1247,235.6537],[-1.7058,35.1186,304.6041],[-1.6996,35.1067,357.3072],[-1.6942,35.1098,469.4844],[-1.6883,35.1168,555.9396],[-1.6822,35.1174,589.9298],[-1.6734,35.1238,380.4802],[-1.6671,35.1248,344.4884],[-1.6575,35.1229,240.4982],[-1.6538,35.1162,344.3396],[-1.6468,35.1121,680.5447],[-1.643,35.1158,643.5913],[-1.6389,35.1278,647.4885],[-1.6281,35.142,654.5313],[-1.6227,35.1572,422.6262],[-1.6138,35.1691,373.2278],[-1.6122,35.1847,318.4071],[-1.6212,35.1987,53.4086],[-1.6266,35.2031,16.025],[-1.6371,35.2063,0.0]]]]}}