{"type": "Feature","bbox": [7.6673,36.6459,7.7733,36.7245],"geometry": {"type": "MultiPolygon","coordinates": [[[[7.6684,36.6532,98.4558],[7.6791,36.648,102.0586],[7.691,36.6459,119.269],[7.6954,36.6467,115.3366],[7.6896,36.6558,93.8445],[7.6964,36.6593,90.8002],[7.7106,36.6621,64.0806],[7.7232,36.6569,38.0373],[7.7252,36.6622,29.568],[7.7317,36.6635,26.9658],[7.7537,36.6618,23.9805],[7.7557,36.6666,20.7801],[7.7703,36.6674,30.2418],[7.7676,36.672,20.2221],[7.7693,36.6811,19.7325],[7.7652,36.6796,18.4417],[7.7614,36.6841,18.3073],[7.7668,36.6876,17.3554],[7.7733,36.6888,22.3069],[7.7711,36.6925,19.0256],[7.7626,36.6935,16.1859],[7.7655,36.6977,14.8532],[7.7703,36.6984,20.7132],[7.7646,36.7031,14.252],[7.7666,36.7075,14.3268],[7.7611,36.7104,13.1985],[7.7612,36.7162,13.1597],[7.7688,36.7197,15.8506],[7.7638,36.7241,11.0574],[7.7589,36.7218,10.571],[7.7535,36.7216,15.665],[7.746,36.7245,15.6371],[7.7338,36.7241,17.9108],[7.7144,36.7121,25.8038],[7.6964,36.708,43.1669],[7.6924,36.6905,38.6784],[7.6743,36.6805,57.4558],[7.6706,36.6747,69.1018],[7.6673,36.6634,85.2822],[7.6684,36.6532,98.4558]]]]}
,"properties": {"GID_2": "DZA.19.13_1","GID_0": "DZA","country": "Algeria","GID_1": "DZA.19_1","province": "ElTarf","NL_NAME_1": "ولايةالطارف","county": "Drean","VARNAME_2": "Darīyan","NL_NAME_2": "NA","TYPE_2": "Commune","ENGTYPE_2": "Commune","CC_2": "3613","HASC_2": "DZ.ET.DR","name": "Drean.county","area_km2": 48.61028,"hist_schema_id": "Elevation0-9000","hist_area_km2": {"0": 0.69682,"25": 30.70364,"50": 8.09382,"75": 4.1835,"100": 4.67734,"125": 0.25516}}}