{"type":"Feature","properties":{"GID_2":"DZA.46.17_1","GID_0":"DZA","country":"Algeria","GID_1":"DZA.46_1","province":"Tissemsilt","NL_NAME_1":"ولايةتسمسيلت","county":"SidiBoutouchent","VARNAME_2":"NA","NL_NAME_2":"NA","TYPE_2":"Commune","ENGTYPE_2":"Commune","CC_2":"3815","HASC_2":"DZ.TS.SB","name":"Sidi_Boutouchent.county"},
"geometry":{"type": "MultiPolygon","coordinates": [[[[1.8389,35.8606,911.9215],[1.835,35.8577,851.9114],[1.837,35.8518,967.3513],[1.8346,35.8472,970.2754],[1.8242,35.8495,970.9827],[1.8226,35.8453,971.0217],[1.8234,35.841,904.418],[1.829,35.8291,875.8622],[1.83,35.8235,763.1656],[1.8346,35.8185,769.5661],[1.8407,35.8172,785.8798],[1.8532,35.8109,814.3149],[1.8534,35.8028,723.2781],[1.8431,35.7901,865.4421],[1.8572,35.7683,877.0075],[1.8625,35.7726,862.6931],[1.8794,35.7781,845.8617],[1.8862,35.7833,771.226],[1.895,35.7785,778.9072],[1.8993,35.7786,791.1193],[1.9124,35.7688,888.4666],[1.9193,35.7673,914.6256],[1.9251,35.7667,916.3324],[1.9297,35.77,925.4052],[1.9426,35.7748,1091.1897],[1.9473,35.7796,1169.6338],[1.9587,35.7742,1315.4214],[1.9716,35.7724,1275.8158],[1.978,35.7699,1254.2368],[1.9843,35.77,1151.6482],[1.9961,35.7764,1065.1307],[2.0018,35.7885,1083.6201],[1.9999,35.7943,1203.6704],[2.0076,35.8016,1280.2166],[2.0197,35.8049,1037.2727],[2.0251,35.805,1004.1528],[2.0309,35.8029,967.2679],[2.0325,35.8089,998.215],[2.0289,35.8135,1018.9597],[2.0197,35.8185,1029.1344],[2.0125,35.8292,1178.1301],[2.0154,35.836,1268.6027],[2.0084,35.8409,1315.5593],[1.9977,35.8551,1464.6847],[1.9865,35.8533,1393.1165],[1.9801,35.8492,1452.2493],[1.9617,35.8557,1533.7078],[1.9576,35.8517,1523.0229],[1.9535,35.8525,1624.8311],[1.9493,35.8566,1595.9744],[1.9437,35.8584,1611.6028],[1.941,35.8638,1647.51],[1.936,35.8677,1616.8569],[1.9269,35.8698,1512.8726],[1.9231,35.8731,1463.3521],[1.9159,35.873,1317.5226],[1.91,35.8772,1172.3044],[1.9022,35.8783,1065.0768],[1.8897,35.8746,960.817],[1.8782,35.8663,906.5971],[1.8672,35.8639,875.7446],[1.8598,35.8691,815.3284],[1.8563,35.8638,923.7344],[1.8389,35.8606,911.9215]]]]}}