{"type":"Feature","properties":{"GID_2":"DZA.38.5_1","GID_0":"DZA","country":"Algeria","GID_1":"DZA.38_1","province":"SidiBelAbbès","NL_NAME_1":"ولايةسيديبلعباس","county":"AinTindamine","VARNAME_2":"NA","NL_NAME_2":"NA","TYPE_2":"Commune","ENGTYPE_2":"Commune","CC_2":"2224","HASC_2":"DZ.SB.AN","name":"Ain_Tindamine.county"},
"geometry":{"type": "MultiPolygon","coordinates": [[[[-0.6068,34.7339,1007.8437],[-0.5913,34.7552,958.3824],[-0.5895,34.7617,947.9905],[-0.5947,34.7645,963.3751],[-0.6188,34.7631,970.9945],[-0.6423,34.7591,972.6138],[-0.6578,34.7486,951.0381],[-0.6708,34.7546,927.2296],[-0.6832,34.7431,943.9158],[-0.7114,34.7228,965.7064],[-0.7207,34.7106,973.1371],[-0.7375,34.7043,955.4159],[-0.7379,34.6999,963.5242],[-0.7321,34.6863,1007.2581],[-0.7359,34.6827,1016.338],[-0.7482,34.6789,989.2046],[-0.7602,34.6677,992.9886],[-0.7638,34.6605,1006.7496],[-0.7784,34.6549,999.5204],[-0.782,34.6496,1009.5002],[-0.7544,34.6392,1231.297],[-0.744,34.6436,1359.3344],[-0.7305,34.6425,1323.8621],[-0.7178,34.6546,1357.3619],[-0.7186,34.6592,1390.9692],[-0.7106,34.6669,1380.3549],[-0.7092,34.6719,1348.7478],[-0.6805,34.6685,1356.2076],[-0.6756,34.6666,1429.3851],[-0.6657,34.6709,1424.9368],[-0.653,34.6835,1456.3442],[-0.6426,34.6878,1373.9502],[-0.6438,34.6931,1348.7388],[-0.641,34.697,1280.9878],[-0.64,34.7066,1201.2235],[-0.631,34.719,1200.4617],[-0.6256,34.721,1172.8391],[-0.6135,34.7322,1064.9608],[-0.6068,34.7339,1007.8437]]]]}}