{"type":"Feature","properties":{"GID_2":"DZA.11.6_1","GID_0":"DZA","country":"Algeria","GID_1":"DZA.11_1","province":"BordjBouArréridj","NL_NAME_1":"ولايةبرجبوعريريج","county":"BordjBouArreridj","VARNAME_2":"BurjBūArrīrij","NL_NAME_2":"NA","TYPE_2":"Chef-Lieu-Wilaya","ENGTYPE_2":"Chef-Lieu-Wilaya","CC_2":"3401","HASC_2":"DZ.BB.BB","name":"Bordj_Bou_Arreridj.county"},
"geometry":{"type": "MultiPolygon","coordinates": [[[[4.8393,36.077,984.1481],[4.8376,36.0901,1013.2473],[4.8421,36.0979,938.8007],[4.8464,36.1209,849.7852],[4.8349,36.1199,904.9081],[4.8303,36.1181,949.2303],[4.8278,36.1137,987.7926],[4.8135,36.1086,999.1811],[4.8095,36.1028,969.2822],[4.7993,36.1031,958.9934],[4.785,36.1095,977.9749],[4.779,36.1005,955.3776],[4.7608,36.1077,965.0438],[4.749,36.108,971.6544],[4.7492,36.0979,953.2344],[4.7452,36.1,962.3179],[4.7391,36.1002,955.8214],[4.7412,36.0947,947.9487],[4.7378,36.091,942.5066],[4.7223,36.1009,979.4459],[4.7176,36.0968,992.8627],[4.7118,36.095,1001.8136],[4.7012,36.0963,1018.6262],[4.6919,36.09,998.0485],[4.6911,36.0853,964.3288],[4.6915,36.069,901.3862],[4.6967,36.0657,899.4751],[4.7073,36.0509,881.5161],[4.7314,36.0345,854.7531],[4.7392,36.02,836.2822],[4.745,36.0189,842.7901],[4.7517,36.0188,847.8914],[4.7578,36.0224,846.0835],[4.7725,36.038,865.0844],[4.7832,36.04,875.0364],[4.7867,36.0438,885.0498],[4.7871,36.0484,883.4799],[4.7842,36.0556,880.8398],[4.7991,36.0576,931.391],[4.8031,36.0616,968.1273],[4.8015,36.0659,929.6625],[4.8049,36.0701,916.739],[4.8295,36.0735,958.2361],[4.8393,36.077,984.1481]]]]}}