{"type":"Feature","properties":{"GID_2":"DZA.10.6_1","GID_0":"DZA","country":"Algeria","GID_1":"DZA.10_1","province":"Blida","NL_NAME_1":"البليدة","county":"Bouaarfa","VARNAME_2":"Bouarfa|BūArfa","NL_NAME_2":"NA","TYPE_2":"Commune","ENGTYPE_2":"Commune","CC_2":"920","HASC_2":"DZ.BL.BA","name":"Bouaarfa.county"},
"geometry":{"type": "MultiPolygon","coordinates": [[[[2.7576,36.4644,109.6689],[2.7547,36.4604,105.709],[2.754,36.4539,105.8299],[2.7568,36.4415,122.0667],[2.7551,36.4316,147.7051],[2.7582,36.4262,141.3358],[2.7638,36.424,172.4953],[2.7611,36.4199,247.4941],[2.7605,36.4143,317.1309],[2.7666,36.4046,272.87],[2.7697,36.3828,507.0894],[2.7742,36.3769,321.9297],[2.7851,36.3704,650.2961],[2.8154,36.3689,805.4212],[2.8272,36.3641,909.5396],[2.834,36.3652,859.5599],[2.8397,36.3696,841.7348],[2.8438,36.3746,933.0461],[2.835,36.3799,658.6273],[2.8304,36.3808,627.6771],[2.8266,36.3843,673.4391],[2.8298,36.3895,787.475],[2.8246,36.3988,1194.2577],[2.8254,36.4043,1412.2449],[2.8238,36.4114,1198.7196],[2.8299,36.4168,930.7152],[2.8338,36.4265,702.4493],[2.8424,36.4405,435.7241],[2.8428,36.445,432.7585],[2.8405,36.4486,412.4364],[2.8425,36.4593,369.2596],[2.8372,36.464,321.5658],[2.8227,36.4684,249.226],[2.8085,36.4655,212.4356],[2.8019,36.4663,192.0771],[2.797,36.4625,174.8221],[2.7806,36.4611,158.1159],[2.7746,36.4637,131.6762],[2.7576,36.4644,109.6689]]]]}}