{"type": "Feature","bbox": [7.6994,36.8663,7.7924,36.969],"geometry": {"type": "MultiPolygon","coordinates": [[[[7.764,36.8776,1.3315],[7.7618,36.8829,0.1206],[7.763,36.8872,0.0703],[7.7747,36.8965,1.3775],[7.7774,36.9016,0.52],[7.7707,36.8997,0.0],[7.7761,36.9069,1.0564],[7.7723,36.9108,2.5306],[7.771,36.916,4.6648],[7.7662,36.919,1.0905],[7.7613,36.9284,0.0],[7.7629,36.9325,0.0],[7.767,36.9351,0.0],[7.7683,36.9421,0.0],[7.7741,36.947,3.1039],[7.7807,36.9497,6.7507],[7.7835,36.9605,6.8207],[7.7924,36.9684,0.9739],[7.7796,36.969,0.0],[7.7702,36.9612,0.0],[7.756,36.9579,0.0],[7.7244,36.9561,0.0],[7.7089,36.9498,0.0],[7.7169,36.9445,129.7703],[7.7205,36.9332,452.7856],[7.7171,36.9233,352.5977],[7.7163,36.9113,267.1862],[7.714,36.9061,304.2626],[7.7075,36.9044,247.9414],[7.7022,36.8996,199.462],[7.7058,36.8953,172.4303],[7.7103,36.8943,121.2283],[7.7116,36.8883,13.605],[7.6994,36.8856,32.5261],[7.6994,36.8793,233.9517],[7.7049,36.879,238.7057],[7.7113,36.8688,71.889],[7.7169,36.8663,36.5957],[7.7224,36.8678,1.5534],[7.7259,36.8735,4.5042],[7.7358,36.8781,1.8488],[7.7423,36.8788,8.7819],[7.7477,36.8761,2.8308],[7.7603,36.8751,2.2528],[7.764,36.8776,1.3315]]]]}
,"properties": {"GID_2": "DZA.5.2_1","GID_0": "DZA","country": "Algeria","GID_1": "DZA.5_1","province": "Annaba","NL_NAME_1": "ولايةعنابة","county": "Annaba","VARNAME_2": "Annābah","NL_NAME_2": "NA","TYPE_2": "Chef-Lieu-Wilaya","ENGTYPE_2": "Chef-Lieu-Wilaya","CC_2": "2301","HASC_2": "DZ.AN.AN","name": "Annaba.county","area_km2": 48.53205,"hist_schema_id": "Elevation0-9000","hist_area_km2": {"0": 15.54811,"25": 7.3403,"50": 5.20372,"75": 3.22039,"100": 2.71192,"125": 2.1016,"150": 2.05079,"175": 1.59316,"200": 1.67788,"225": 1.27118,"250": 1.18637,"275": 0.91516,"300": 0.86431,"325": 0.54229,"350": 0.59315,"375": 0.49147,"400": 0.59316,"425": 0.27117,"450": 0.10169,"475": 0.10169,"500": 0.15254}}}