{"type": "Feature","bbox": [3.9138,36.6914,4.0017,36.7522],"geometry": {"type": "MultiPolygon","coordinates": [[[[3.9761,36.7489,37.3156],[3.9468,36.747,29.8513],[3.9358,36.7522,26.5733],[3.9312,36.7334,262.6042],[3.9201,36.7218,386.4998],[3.9138,36.7122,502.7682],[3.9174,36.7081,302.0612],[3.9465,36.7006,50.8337],[3.9679,36.6923,75.6671],[3.9754,36.693,91.1105],[3.9847,36.6914,125.1787],[3.9861,36.6967,122.8119],[3.9994,36.7028,79.5976],[3.9992,36.709,75.8753],[4.0017,36.7193,97.2337],[3.9923,36.7251,57.0185],[3.9855,36.7315,52.9546],[3.9833,36.7372,47.9344],[3.9833,36.7428,45.5303],[3.9761,36.7489,37.3156]]]]}
,"properties": {"GID_2": "DZA.47.31_1","GID_0": "DZA","country": "Algeria","GID_1": "DZA.47_1","province": "TiziOuzou","NL_NAME_1": "ولايةغليزان","county": "Draa-Ben-Khedda","VARNAME_2": "DraaBenKhedda|Dara`aBanKhadd","NL_NAME_2": "NA","TYPE_2": "Commune","ENGTYPE_2": "Commune","CC_2": "1547","HASC_2": "DZ.TO.DB","name": "Draa-Ben-Khedda.county","area_km2": 33.51395,"hist_schema_id": "Elevation0-9000","hist_area_km2": {"25": 0.91741,"50": 12.11617,"75": 4.84368,"100": 4.26606,"125": 3.4504,"150": 2.2266,"175": 1.59765,"200": 1.08776,"225": 0.86678,"250": 0.30593,"275": 0.3059,"300": 0.39091,"325": 0.22094,"350": 0.30592,"375": 0.20395,"400": 0.16996,"425": 0.10198,"450": 0.08498,"475": 0.017,"500": 0.03399}}}