{"type": "Feature","bbox": [6.4116,36.9443,6.5142,37.0351],"geometry": {"type": "MultiPolygon","coordinates": [[[[6.5097,36.9443,106.134],[6.5142,36.9523,84.2939],[6.5098,36.9566,141.7242],[6.4978,36.963,267.9812],[6.5058,36.9879,376.6246],[6.4957,36.9944,402.85],[6.4907,36.9937,392.3712],[6.4881,36.9985,220.2238],[6.4954,37.0059,163.7932],[6.4966,37.0105,281.7375],[6.49,37.009,250.9348],[6.4867,37.0134,372.8925],[6.4857,37.0203,375.1678],[6.4828,37.0252,412.2681],[6.4851,37.0288,413.6171],[6.4734,37.0313,367.5316],[6.4683,37.0351,205.9079],[6.4607,37.0281,353.519],[6.4589,37.0241,406.6248],[6.4632,37.0138,666.0115],[6.4589,37.0103,662.6914],[6.4425,37.0065,707.2158],[6.4318,37.0112,798.0112],[6.4253,37.0106,874.7467],[6.4135,37.0057,923.4921],[6.4116,36.9949,807.8155],[6.4159,36.9897,879.6082],[6.4291,36.9802,925.0857],[6.4287,36.9741,922.5756],[6.4311,36.9691,1070.7207],[6.4721,36.9636,249.5137],[6.4793,36.9567,164.3783],[6.4864,36.9539,126.0049],[6.5064,36.9499,69.6111],[6.5097,36.9443,106.134]]]]}
,"properties": {"GID_2": "DZA.39.38_1","GID_0": "DZA","country": "Algeria","GID_1": "DZA.39_1","province": "Skikda","NL_NAME_1": "سكيكدة","county": "Zitouna","VARNAME_2": "NA","NL_NAME_2": "NA","TYPE_2": "Commune","ENGTYPE_2": "Commune","CC_2": "2115","HASC_2": "DZ.SK.ZI","name": "Zitouna.county","area_km2": 42.42269,"hist_schema_id": "Elevation0-9000","hist_area_km2": {"75": 0.22027,"100": 0.28804,"125": 0.38966,"150": 0.79621,"175": 0.83004,"200": 0.67759,"225": 0.98246,"250": 0.99932,"275": 1.05009,"300": 1.21941,"325": 1.21938,"350": 1.4225,"375": 1.43947,"400": 1.74432,"425": 2.04909,"450": 2.1677,"475": 2.69262,"500": 2.23536,"525": 2.37075,"550": 1.71031,"575": 2.03201,"600": 1.54099,"625": 1.4055,"650": 1.3208,"675": 1.3376999999999999,"700": 1.35467,"725": 1.0668,"750": 1.01605,"775": 0.89752,"800": 0.74514,"825": 0.57579,"850": 0.64356,"875": 0.62661,"900": 0.45728,"925": 0.47423,"950": 0.22019,"975": 0.11857,"1000": 0.05081,"1025": 0.03388}}}