{"type":"Feature","properties":{"GID_2":"DZA.1.3_1","GID_0":"DZA","country":"Algeria","GID_1":"DZA.1_1","province":"Adrar","NL_NAME_1":"ولايةأدرا","county":"Aougrout","VARNAME_2":"NA","NL_NAME_2":"NA","TYPE_2":"Commune","ENGTYPE_2":"Commune","CC_2":"123","HASC_2":"DZ.AR.AG","name":"Aougrout.county"},
"geometry":{"type": "MultiPolygon","coordinates": [[[[2.0408,28.8977,461.3924],[2.0584,28.9718,469.2526],[2.0924,29.0892,439.5435],[2.0233,29.4355,504.3542],[1.7378,29.3813,516.0014],[1.3631,29.3127,354.2291],[0.8837,29.1829,324.6881],[0.4577,29.0407,305.9676],[0.2907,28.9823,303.5095],[0.1986,28.7549,294.5152],[0.1394,28.6242,286.1709],[0.39,28.5781,345.8505],[0.3958,28.3819,361.9238],[0.9779,28.4812,429.669],[1.1883,28.5648,420.0199],[1.6555,28.5585,444.6175],[1.6631,28.5604,436.9332],[1.6771,28.5549,443.7192],[1.6997,28.5583,445.212],[1.7045,28.5602,442.7045],[1.7096,28.565,452.6856],[1.716,28.5662,443.4444],[1.7287,28.5594,447.4294],[1.7487,28.5557,450.0477],[1.7552,28.5565,459.7363],[1.7778,28.5681,465.6882],[1.7919,28.5733,466.948],[1.8011,28.5743,456.3048],[1.8079,28.5678,458.5478],[1.8248,28.5643,460.0572],[1.8312,28.5613,463.2737],[1.836,28.5569,463.2573],[1.8424,28.5556,471.2709],[1.855,28.5577,464.739],[1.853,28.5468,474.779],[1.8543,28.5231,475.5032],[1.8578,28.5205,476.9024],[1.8688,28.5206,479.2162],[1.8742,28.5191,475.0721],[1.8792,28.5153,482.0705],[1.8776,28.5088,487.2659],[1.8732,28.5027,479.2123],[1.8765,28.4966,489.4523],[1.8828,28.4961,494.4197],[1.8952,28.5004,492.6917],[1.9,28.5107,504.88869999999997],[1.9054,28.5141,505.8509],[1.9164,28.5115,498.726],[1.9301,28.4995,557.2728],[1.9401,28.5077,505.6258],[1.94,28.5025,498.5663],[1.9427,28.4965,523.9693],[1.9487,28.4966,511.7041],[1.9575,28.5053,520.7202],[1.964,28.5051,509.2446],[1.9702,28.5009,507.2139],[1.9898,28.5012,509.5583],[1.9938,28.4995,512.1311],[1.9959,28.4953,517.2432],[1.9873,28.4865,515.5206],[1.9883,28.4823,513.6064],[1.9916,28.4771,538.124],[1.9985,28.4755,530.1015],[2.0055,28.4829,523.7565],[2.0159,28.7288,579.5],[2.0408,28.8977,461.3924]]]]}}