{"type":"Feature","properties":{"GID_2":"DZA.19.10_1","GID_0":"DZA","country":"Algeria","GID_1":"DZA.19_1","province":"ElTarf","NL_NAME_1":"ولايةالطارف","county":"ChebaitaMokhtar","VARNAME_2":"ChbaitaMokhtar|Saba`itaMuk","NL_NAME_2":"NA","TYPE_2":"Commune","ENGTYPE_2":"Commune","CC_2":"3615","HASC_2":"DZ.ET.CM","name":"Chebaita_Mokhtar.county"},
"geometry":{"type": "MultiPolygon","coordinates": [[[[7.6964,36.708,43.1669],[7.7144,36.7121,25.8038],[7.7338,36.7241,17.9108],[7.746,36.7245,15.6371],[7.7535,36.7216,15.665],[7.7589,36.7218,10.571],[7.77,36.7283,15.206],[7.775,36.7327,21.372],[7.7718,36.75,14.7465],[7.7748,36.7553,12.8461],[7.773,36.7604,12.6434],[7.7732,36.7707,11.1596],[7.7582,36.7736,9.4787],[7.7511,36.7724,9.8433],[7.7319,36.778,9.1384],[7.7274,36.7773,9.0274],[7.7221,36.7582,11.2231],[7.7192,36.755,11.6198],[7.7095,36.7621,10.2063],[7.7048,36.7638,10.2755],[7.6937,36.7426,12.1886],[7.6816,36.7396,13.3249],[7.6789,36.7342,17.1215],[7.6825,36.7293,58.1292],[7.6817,36.722,90.5226],[7.6829,36.7169,71.3503],[7.6964,36.708,43.1669]]]]}}