{"type":"Feature","properties":{"GID_2":"DZA.28.32_1","GID_0":"DZA","country":"Algeria","GID_1":"DZA.28_1","province":"Médéa","NL_NAME_1":"ولايةالمدية","county":"Medea","VARNAME_2":"Midyah","NL_NAME_2":"NA","TYPE_2":"Chef-Lieu-Wilaya","ENGTYPE_2":"Chef-Lieu-Wilaya","CC_2":"2601","HASC_2":"DZ.MD.MD","name":"Medea.county"},
"geometry":{"type": "MultiPolygon","coordinates": [[[[2.7352,36.2314,581.9666],[2.7401,36.2333,585.4764],[2.7562,36.2323,612.9924],[2.7714,36.2372,634.876],[2.7811,36.2424,640.9613],[2.7921,36.2447,654.5255],[2.7977,36.2433,669.2546],[2.805,36.2455,683.6906],[2.8104,36.2478,712.022],[2.812,36.253,843.1293],[2.822,36.2565,887.1372],[2.8246,36.2617,861.8463],[2.8157,36.2682,828.9371],[2.8139,36.2775,853.28],[2.7965,36.2844,697.2849],[2.7944,36.3021,494.33],[2.7952,36.3079,451.3256],[2.7826,36.3121,498.369],[2.7756,36.3162,446.1451],[2.767,36.3291,508.8813],[2.767,36.3351,417.5659],[2.7603,36.3342,399.0204],[2.7558,36.3372,467.1986],[2.7514,36.3371,445.1392],[2.7412,36.3328,446.0374],[2.7295,36.3243,521.5195],[2.7269,36.3181,643.721],[2.726,36.3129,699.7433],[2.7287,36.3031,845.2911],[2.7251,36.2922,1027.6957],[2.7289,36.2835,1016.2784],[2.7316,36.2695,815.1678],[2.735,36.263,753.6268],[2.7293,36.2572,713.1222],[2.7258,36.2504,688.7921],[2.7248,36.2427,655.1261],[2.7352,36.2314,581.9666]]]]}}