{"type":"Feature","properties":{"GID_2":"DZA.37.52_1","GID_0":"DZA","country":"Algeria","GID_1":"DZA.37_1","province":"Sétif","NL_NAME_1":"ولايةسطيف","county":"Rosfa","VARNAME_2":"NA","NL_NAME_2":"NA","TYPE_2":"Commune","ENGTYPE_2":"Commune","CC_2":"1923","HASC_2":"DZ.SF.RO","name":"Rosfa.county"},
"geometry":{"type": "MultiPolygon","coordinates": [[[[5.1678,35.7037,1164.3411],[5.1782,35.7108,1324.1561],[5.1924,35.7114,1387.5897],[5.2173,35.7226,1682.3848],[5.2311,35.7237,1612.627],[5.2476,35.7208,1573.5748],[5.2605,35.726,1516.9899],[5.2721,35.7231,1474.3619],[5.286,35.722,1567.9581],[5.3048,35.7326,1568.3658],[5.3104,35.7341,1548.3806],[5.3301,35.7318,1631.3206],[5.3348,35.7283,1810.8445],[5.3436,35.729,1622.0645],[5.3465,35.7329,1621.7488],[5.345,35.738,1586.4238],[5.3555,35.7461,1445.2122],[5.3588,35.759,1424.2466],[5.3574,35.766,1385.7695],[5.3506,35.7794,1281.848],[5.3418,35.7836,1184.0254],[5.3413,35.7954,1075.2434],[5.3371,35.7982,1107.0204],[5.3196,35.8027,1055.5951],[5.3148,35.8054,1035.8262],[5.312,35.823,982.8462],[5.3077,35.8255,992.7703],[5.3027,35.8258,1026.3484],[5.3006,35.8295,1024.3953],[5.2871,35.8284,988.3374],[5.2792,35.8321,980.9054],[5.2679,35.8471,1132.0863],[5.2579,35.8484,1135.1333],[5.2444,35.8545,1090.625],[5.2327,35.8482,1124.9331],[5.2279,35.8483,1143.6296],[5.2197,35.8527,1203.209],[5.2087,35.8429,1494.2239],[5.1985,35.8284,1435.7872],[5.1925,35.816,1256.7257],[5.1909,35.8087,1197.6924],[5.1595,35.7792,1262.8149],[5.1575,35.7749,1188.6254],[5.1596,35.7711,1161.9746],[5.1643,35.7687,1076.9517],[5.1881,35.7643,1006.5125],[5.1914,35.7607,985.531],[5.1905,35.7557,988.1923],[5.1833,35.7462,933.0139],[5.1776,35.7457,1011.0368],[5.1718,35.7429,1008.4839],[5.1708,35.7379,915.4656],[5.1674,35.733,900.0308],[5.1532,35.7291,823.4662],[5.1487,35.725,802.2558],[5.1678,35.7037,1164.3411]]]]}}