{"type":"Feature","properties":{"GID_2":"DZA.28.49_1","GID_0":"DZA","country":"Algeria","GID_1":"DZA.28_1","province":"Médéa","NL_NAME_1":"ولايةالمدية","county":"Saneg","VARNAME_2":"NA","NL_NAME_2":"NA","TYPE_2":"Commune","ENGTYPE_2":"Commune","CC_2":"2664","HASC_2":"DZ.MD.SA","name":"Saneg.county"},
"geometry":{"type": "MultiPolygon","coordinates": [[[[2.8999,35.814,720.169],[2.9036,35.8195,704.8688],[2.9103,35.8217,714.1365],[2.9137,35.833,739.4429],[2.9146,35.8399,756.0952],[2.9119,35.8473,843.1351],[2.9123,35.8534,829.4374],[2.9096,35.8602,879.9417],[2.9042,35.866,859.6665],[2.8719,35.873,1026.1533],[2.8701,35.8514,774.4653],[2.8726,35.8365,720.6454],[2.8708,35.8321,709.9864],[2.8644,35.8513,749.81],[2.857,35.8603,777.0371],[2.8547,35.8693,837.7246],[2.8462,35.8719,843.2885],[2.8455,35.8834,919.5579],[2.8385,35.883,1038.2988],[2.8173,35.8731,917.3953],[2.8102,35.8682,861.0646],[2.8036,35.8576,704.718],[2.7864,35.8472,656.8235],[2.7774,35.8446,643.5684],[2.7773,35.8389,643.5913],[2.7809,35.8287,653.8813],[2.7707,35.833,642.4626],[2.7647,35.8339,651.6517],[2.7592,35.8305,641.1959],[2.7644,35.8276,611.6212],[2.768,35.812,619.3696],[2.7754,35.8077,626.8835],[2.7772,35.8019,629.5198],[2.786,35.7976,657.8247],[2.7921,35.7987,673.0413],[2.807,35.8053,698.2665],[2.8281,35.8186,754.3422],[2.8403,35.819,812.4712],[2.8471,35.8149,714.7708],[2.855,35.8066,688.5937],[2.8735,35.8043,718.1589],[2.8832,35.8099,738.2719],[2.8999,35.814,720.169]]]]}}