{"type": "Feature","bbox": [2.767,36.2855,2.9527,36.4106],"geometry": {"type": "MultiPolygon","coordinates": [[[[2.7742,36.3769,321.9297],[2.7672,36.3643,355.4833],[2.7707,36.3521,441.8844],[2.768,36.3471,370.4425],[2.77,36.3425,411.1055],[2.767,36.3351,417.5659],[2.767,36.3291,508.8813],[2.7756,36.3162,446.1451],[2.7826,36.3121,498.369],[2.7952,36.3079,451.3256],[2.8092,36.306399999999996,496.0976],[2.8318,36.2977,527.7994],[2.8407,36.2966,527.8666],[2.863,36.2885,542.8388],[2.8674,36.2855,561.7867],[2.8806,36.2867,581.6431],[2.8851,36.2916,600.838],[2.9061,36.3021,624.8291],[2.9176,36.3032,656.3535],[2.9341,36.31,723.7778],[2.938,36.3162,840.5844],[2.9527,36.3276,911.5961],[2.9524,36.3384,941.0984],[2.9484,36.343,909.2],[2.9483,36.3486,779.1957],[2.9394,36.3522,890.1082],[2.9372,36.3574,944.9666],[2.9293,36.3655,1142.917],[2.9379,36.3789,1324.5254],[2.9347,36.3833,1212.2639],[2.9229,36.3915,831.0773],[2.9285,36.3956,1056.3152],[2.9285,36.4053,765.1262],[2.9262,36.4106,533.2014],[2.9228,36.4072,531.9421],[2.9077,36.4085,598.253],[2.9012,36.4071,764.7631],[2.8805,36.3972,1143.868],[2.8692,36.3938,1351.0566],[2.8604,36.3878,1387.6196],[2.8497,36.3729,963.9595],[2.8438,36.3746,933.0461],[2.834,36.3652,859.5599],[2.8272,36.3641,909.5396],[2.8154,36.3689,805.4212],[2.7851,36.3704,650.2961],[2.7742,36.3769,321.9297]]]]}
,"properties": {"GID_2": "DZA.28.25_1","GID_0": "DZA","country": "Algeria","GID_1": "DZA.28_1","province": "Médéa","NL_NAME_1": "ولايةالمدية","county": "ElHamdania","VARNAME_2": "NA","NL_NAME_2": "NA","TYPE_2": "Commune","ENGTYPE_2": "Commune","CC_2": "2616","HASC_2": "DZ.MD.EH","name": "El_Hamdania.county","area_km2": 142.9599,"hist_schema_id": "Elevation0-9000","hist_area_km2": {"325": 0.1024,"350": 0.0341,"375": 0.1537,"400": 0.222,"425": 0.5465,"450": 0.6661,"475": 1.1785,"500": 1.3322,"525": 1.5885,"550": 2.3058,"575": 3.3821,"600": 3.8945,"625": 4.202,"650": 4.4581,"675": 4.4751,"700": 4.8164,"725": 5.1922,"750": 5.3801,"775": 5.5677,"800": 5.5505,"825": 5.3457,"850": 5.6357,"875": 6.1309,"900": 5.8064,"925": 5.3964,"950": 6.1476,"975": 5.3451,"1000": 5.123,"1025": 5.4987,"1050": 5.3107,"1075": 4.2862,"1100": 4.1324,"1125": 3.6542,"1150": 3.1932,"1175": 3.0053,"1200": 2.2369,"1225": 2.4588,"1250": 1.9978,"1275": 1.4515,"1300": 1.2979,"1325": 0.9905,"1350": 1.0759,"1375": 0.8368,"1400": 0.6319,"1425": 0.5807,"1450": 0.2903,"1475": 0.0512}}}