{"type":"Feature","properties":{"GID_2":"DZA.1.6_1","GID_0":"DZA","country":"Algeria","GID_1":"DZA.1_1","province":"Adrar","NL_NAME_1":"ولايةأدرا","county":"Bouda","VARNAME_2":"NA","NL_NAME_2":"NA","TYPE_2":"Commune","ENGTYPE_2":"Commune","CC_2":"122","HASC_2":"DZ.AR.BO","name":"Bouda.county"},
"geometry":{"type": "MultiPolygon","coordinates": [[[[-0.2243,28.0874,262.2497],[-0.2072,28.1296,263.2563],[-0.1958,28.1471,264.9468],[-0.5668,28.0952,235.3158],[-1.0008,28.0846,243.7549],[-1.4997,28.0555,341.6491],[-2.0002,28.0175,316.7867],[-2.0587,28.0116,312.961],[-2.6697,28.045,347.7513],[-2.7006,28.0067,349.268],[-2.7042,27.9984,350.3292],[-2.7181,27.9817,348.1009],[-2.729,27.9641,346.4128],[-2.7685,27.9222,348.8394],[-2.7871,27.9057,348.1066],[-1.4919,27.8991,356.2772],[-0.9908,27.8905,254.7054],[-0.7786,27.8796,271.3275],[-0.3979,27.9131,242.1094],[-0.3688,27.9228,251.9744],[-0.3102,27.9875,256.7454],[-0.3119,27.9974,257.0432],[-0.283,28.0604,259.5536],[-0.2243,28.0874,262.2497]]]]}}