{"type": "Feature","bbox": [-1.2123,35.2106,-1.069,35.3226],"geometry": {"type": "MultiPolygon","coordinates": [[[[-1.0894,35.2317,465.2196],[-1.0871,35.2465,412.753],[-1.0874,35.2604,314.8098],[-1.0852,35.266,308.8609],[-1.0716,35.2699,358.9213],[-1.069,35.2734,341.9699],[-1.0696,35.2806,297.2328],[-1.0901,35.2809,288.9185],[-1.0955,35.2836,272.9933],[-1.0985,35.2898,256.4806],[-1.0985,35.2963,231.1605],[-1.0937,35.3047,206.8249],[-1.0924,35.3115,198.3586],[-1.0966,35.3166,202.2515],[-1.1019,35.3153,206.8165],[-1.1105,35.3188,208.9798],[-1.1142,35.3226,182.1825],[-1.1529,35.3152,221.29],[-1.165,35.3176,168.0552],[-1.17,35.313,163.2902],[-1.1713,35.2999,207.6661],[-1.1789,35.2922,238.9075],[-1.177,35.2829,292.3152],[-1.1821,35.2794,296.6095],[-1.203,35.2792,282.1343],[-1.2123,35.276,302.8568],[-1.2113,35.2688,264.8374],[-1.2023,35.2596,287.2492],[-1.1964,35.2562,324.3449],[-1.1847,35.2538,354.566],[-1.1732,35.2529,292.6233],[-1.1743,35.2578,374.2448],[-1.1698,35.2617,346.2272],[-1.165,35.2616,303.5396],[-1.1509,35.2546,353.8472],[-1.1353,35.26,343.2162],[-1.1273,35.2612,337.4337],[-1.123,35.2542,396.8505],[-1.1302,35.2489,405.8572],[-1.1334,35.2385,438.3858],[-1.1385,35.2355,437.0298],[-1.1409,35.2289,445.567],[-1.1405,35.2218,443.0794],[-1.1371,35.2179,463.6284],[-1.1219,35.2149,536.2404],[-1.1171,35.2107,577.2285],[-1.107,35.2106,602.0945],[-1.103,35.2153,586.3409],[-1.103,35.2216,538.1261],[-1.1,35.2271,476.3926],[-1.0959,35.2312,454.216],[-1.0894,35.2317,465.2196]]]]}
,"properties": {"GID_2": "DZA.3.4_1","GID_0": "DZA","country": "Algeria","GID_1": "DZA.3_1","province": "AïnTémouchent","NL_NAME_1": "ولايةعينتموشنت","county": "AinTemouchent","VARNAME_2": "Ain-Temouchent|`AynTamūshanat","NL_NAME_2": "NA","TYPE_2": "Chef-Lieu-Wilaya","ENGTYPE_2": "Chef-Lieu-Wilaya","CC_2": "4601","HASC_2": "DZ.AT.AT","name": "Ain_Temouchent.county","area_km2": 77.87656,"hist_schema_id": "Elevation0-9000","hist_area_km2": {"150": 0.0173,"175": 0.27682,"200": 3.8236,"225": 10.41627,"250": 8.89496,"275": 7.65017,"300": 11.99544,"325": 8.56881,"350": 7.27102,"375": 4.55347,"400": 3.37642,"425": 2.06066,"450": 1.73183,"475": 2.06098,"500": 2.09567,"525": 1.43761,"550": 0.918,"575": 0.38107,"600": 0.29448,"625": 0.05197}}}