{"type": "Feature","bbox": [-0.3888,35.4973,-0.216,35.6433],"geometry": {"type": "MultiPolygon","coordinates": [[[[-0.2708,35.5014,489.196],[-0.2591,35.5058,349.0936],[-0.2401,35.5169,151.235],[-0.2332,35.5236,113.048],[-0.2258,35.5362,67.2538],[-0.2307,35.5399,68.8747],[-0.2271,35.5718,39.9832],[-0.2257,35.5768,38.2944],[-0.2166,35.5798,32.6294],[-0.216,35.5887,30.9411],[-0.2282,35.5937,34.4582],[-0.2314,35.5894,37.6997],[-0.2369,35.5872,41.5162],[-0.2432,35.5881,44.9755],[-0.2495,35.5941,47.6281],[-0.2507,35.5995,50.1438],[-0.2563,35.6019,56.5292],[-0.266,35.6025,70.3583],[-0.2805,35.5996,95.4003],[-0.2873,35.6037,118.9291],[-0.2897,35.6079,136.2739],[-0.2845,35.6192,143.7076],[-0.2951,35.6337,180.904],[-0.3096,35.6404,201.8416],[-0.3203,35.6433,188.2163],[-0.3667,35.6107,277.8242],[-0.3888,35.5925,204.2412],[-0.375,35.571,252.5458],[-0.3707,35.5701,221.4961],[-0.3543,35.5733,219.4883],[-0.3466,35.544,157.1749],[-0.3416,35.5396,158.6787],[-0.3355,35.5394,149.7849],[-0.3231,35.542,133.977],[-0.3227,35.5342,142.951],[-0.3275,35.5228,203.4807],[-0.3255,35.517,206.9527],[-0.3253,35.5098,225.4765],[-0.3155,35.5102,196.9246],[-0.3171,35.5048,228.8625],[-0.3226,35.4995,252.5498],[-0.2868,35.4973,493.3136],[-0.2708,35.5014,489.196]]]]}
,"properties": {"GID_2": "DZA.27.33_1","GID_0": "DZA","country": "Algeria","GID_1": "DZA.27_1","province": "Mascara","NL_NAME_1": "ولايةمعسكر","county": "Oggaz","VARNAME_2": "NA","NL_NAME_2": "NA","TYPE_2": "Commune","ENGTYPE_2": "Commune","CC_2": "2927","HASC_2": "DZ.MC.OG","name": "Oggaz.county","area_km2": 141.2482,"hist_schema_id": "Elevation0-9000","hist_area_km2": {"25": 1.3104,"50": 12.6235,"75": 14.0044,"100": 13.7294,"125": 13.9027,"150": 11.7294,"175": 10.2973,"200": 13.2264,"225": 10.0363,"250": 9.9502,"275": 9.3624,"300": 8.1893,"325": 6.1038,"350": 1.1905,"375": 0.8974,"400": 1.1563,"425": 1.1909,"450": 1.26,"475": 0.7249,"500": 0.2589,"525": 0.1036}}}