{"type":"Feature","properties":{"GID_2":"DZA.32.2_1","GID_0":"DZA","country":"Algeria","GID_1":"DZA.32_1","province":"Oran","NL_NAME_1":"ولايةوهران","county":"AinKerma","VARNAME_2":"NA","NL_NAME_2":"NA","TYPE_2":"Commune","ENGTYPE_2":"Commune","CC_2":"3125","HASC_2":"DZ.OR.AK","name":"Ain_Kerma.county"},
"geometry":{"type": "MultiPolygon","coordinates": [[[[-1.0282,35.6087,137.9784],[-1.0216,35.5995,140.998],[-1.0132,35.5967,158.3333],[-1.007,35.5878,166.3665],[-0.9948,35.5824,171.053],[-0.9906,35.5837,196.0161],[-0.9798,35.5832,196.04],[-0.9691,35.587,218.5655],[-0.9541,35.5892,232.8876],[-0.9499,35.5927,218.7521],[-0.9422,35.5948,256.0359],[-0.9358,35.6034,275.6285],[-0.9236,35.6039,272.549],[-0.9128,35.6062,301.854],[-0.9062,35.6093,313.9337],[-0.9055,35.6155,319.64],[-0.9155,35.6275,354.0122],[-0.9206,35.638,359.3846],[-0.9253,35.6542,147.845],[-0.9362,35.6629,255.5002],[-0.9418,35.6811,343.9073],[-0.9615,35.6863,227.1996],[-0.9715,35.6918,58.9875],[-0.9838,35.6864,16.6251],[-0.9958,35.6782,1.9102],[-1.01,35.677,16.2658],[-1.0225,35.6804,7.6594],[-1.0314,35.673,0.0],[-1.0396,35.6711,1.6478],[-1.0491,35.664,0.0],[-1.0506,35.6586,0.0],[-1.0555,35.6538,0.0],[-1.0574,35.6377,5.2786],[-1.0515,35.6365,13.7496],[-1.0456,35.6376,27.2227],[-1.0406,35.6348,91.5949],[-1.0398,35.63,113.1959],[-1.0486,35.6209,118.4592],[-1.0328,35.6131,132.8195],[-1.0282,35.6087,137.9784]]]]}}