{"type": "Feature","bbox": [2.8789,36.7342,3.0119,36.7835],"geometry": {"type": "MultiPolygon","coordinates": [[[[2.8975,36.781,11.0717],[2.8904,36.7787,9.7647],[2.8789,36.7678,4.6531],[2.8869,36.7639,21.9912],[2.8951,36.7541,68.4743],[2.9027,36.7491,100.908],[2.9073,36.7355,110.6621],[2.9129,36.7342,119.32],[2.9187,36.7395,122.399],[2.9253,36.7421,131.3077],[2.9279,36.7461,135.931],[2.9345,36.7473,140.6945],[2.9675,36.7414,199.8048],[2.9837,36.7442,226.4329],[2.9946,36.749,222.1415],[3.0013,36.761,257.1404],[3.0119,36.7681,270.5316],[2.9984,36.7717,256.2065],[2.9914,36.7695,259.5555],[2.9797,36.7689,242.7768],[2.9629,36.7724,167.4843],[2.958,36.7745,133.7487],[2.9545,36.7791,107.3033],[2.927,36.7835,79.2746],[2.8975,36.781,11.0717]]]]}
,"properties": {"GID_2": "DZA.4.6_1","GID_0": "DZA","country": "Algeria","GID_1": "DZA.4_1","province": "Alger","NL_NAME_1": "ولايةالجزائر","county": "Cheraga","VARNAME_2": "Shiragha","NL_NAME_2": "NA","TYPE_2": "Commune","ENGTYPE_2": "Commune","CC_2": "1650","HASC_2": "DZ.AL.CH","name": "Cheraga.county","area_km2": 36.85926,"hist_schema_id": "Elevation0-9000","hist_area_km2": {"0": 0.16983,"25": 2.03801,"50": 2.19094,"75": 1.23986,"100": 2.93846,"125": 6.9983,"150": 7.83037,"175": 2.93879,"200": 2.667,"225": 2.37817,"250": 3.51611,"275": 1.95342}}}