{"type":"Feature","properties":{"GID_2":"DZA.1.28_1","GID_0":"DZA","country":"Algeria","GID_1":"DZA.1_1","province":"Adrar","NL_NAME_1":"ولايةأدرا","county":"ZaouietKounta","VARNAME_2":"NA","NL_NAME_2":"NA","TYPE_2":"Commune","ENGTYPE_2":"Commune","CC_2":"111","HASC_2":"DZ.AR.ZK","name":"Zaouiet_Kounta.county"},
"geometry":{"type": "MultiPolygon","coordinates": [[[[0.4334,27.1471,303.7466],[0.2432,27.4526,316.5744],[0.0007,27.3646,291.0253],[-0.0216,27.352,287.5132],[-0.2169,27.3428,236.5804],[-0.2287,27.3401,229.331],[-0.4969,27.3399,195.5184],[-0.997,27.3354,270.6855],[-1.9973,27.3189,327.4408],[-2.9822,27.3004,379.2849],[-2.98,27.2944,382.4457],[-2.983,27.2634,381.9291],[-2.9944,27.2318,384.1491],[-2.9979,27.2087,387.221],[-3.0065,27.1813,389.4674],[-3.0117,27.1567,400.998],[-3.0227,27.1362,422.103],[-3.0295,27.1191,401.909],[-3.0344,27.0945,402.9977],[-3.0416,27.0804,403.5706],[-3.0438,27.0644,404.2896],[-3.0529,27.0525,405.101],[-3.0635,27.0272,407.4201],[-2.9997,27.0308,408.7133],[-2.4992,27.0502,332.7833],[-0.9994,27.0986,288.1428],[-0.499,27.1097,164.2446],[-0.1493,27.1148,164.2813],[-0.1327,27.1179,210.9858],[-0.0885,27.13,277.465],[0.0002,27.1577,283.8196],[0.0372,27.1728,287.8096],[0.4334,27.1471,303.7466]]]]}}