{"type": "Feature","bbox": [1.213,35.8513,1.4582,36.086],"geometry": {"type": "MultiPolygon","coordinates": [[[[1.2213,35.9622,464.6212],[1.2253,35.9601,500.0924],[1.2407,35.9612,485.844],[1.2506,35.9626,413.5366],[1.2613,35.9665,375.2627],[1.2731,35.9661,362.4084],[1.2883,35.9777,314.4207],[1.2935,35.9749,324.9676],[1.301,35.9666,293.4239],[1.3005,35.954,274.7687],[1.3036,35.9423,302.4659],[1.3096,35.9397,254.0],[1.3139,35.9297,340.5797],[1.3211,35.9301,397.5591],[1.3277,35.9275,506.9851],[1.3331,35.9249,617.1262],[1.337,35.9203,750.0357],[1.3419,35.9133,966.2083],[1.3434,35.9074,1066.1608],[1.3412,35.9028,1117.4395],[1.3422,35.8969,986.9938],[1.3455,35.8922,975.5731],[1.3524,35.8891,758.0194],[1.3671,35.8748,466.7802],[1.3736,35.8658,430.7988],[1.3703,35.8605,433.6685],[1.384,35.8532,491.2851],[1.3919,35.8513,441.8326],[1.4071,35.866,544.0767],[1.4089,35.8727,661.5336],[1.409,35.8775,732.1597],[1.4039,35.8787,639.7512],[1.3965,35.8831,581.3994],[1.3913,35.8816,495.9901],[1.3906,35.8867,583.535],[1.3956,35.899,648.9866],[1.3989,35.9018,675.1896],[1.3962,35.9054,718.4004],[1.4056,35.9106,733.9999],[1.4106,35.9187,531.0347],[1.4154,35.9183,498.9578],[1.4178,35.9218,438.4555],[1.4032,35.9324,521.1121],[1.4109,35.9342,518.0062],[1.4233,35.9332,667.882],[1.4307,35.935,672.0295],[1.4278,35.9389,713.2613],[1.4332,35.9405,645.1498],[1.4481,35.9401,543.9337],[1.4529,35.9372,437.3198],[1.4582,35.9367,532.181],[1.4556,35.9408,411.3265],[1.4565,35.9546,361.8007],[1.4434,35.958,328.6628],[1.4364,35.966,351.386],[1.4347,35.9706,318.0851],[1.4202,35.9681,291.1571],[1.4168,35.971,278.7295],[1.3968,35.9729,261.829],[1.3926,35.968,272.0602],[1.3751,35.9677,242.0745],[1.3713,35.9656,237.7905],[1.367,35.9688,236.8262],[1.3513,35.9722,224.8896],[1.3391,35.9823,248.9503],[1.3334,35.9827,210.3642],[1.324,35.9871,219.565],[1.3194,35.9852,188.3118],[1.311,35.9868,180.0485],[1.307,35.9909,178.649],[1.3024,36.013,273.2506],[1.3077,36.0212,296.315],[1.3072,36.0271,333.0746],[1.3089,36.0341,319.6724],[1.3134,36.0413,357.3031],[1.3063,36.0515,296.2965],[1.302,36.0651,372.153],[1.2967,36.0697,299.0342],[1.2956,36.0803,338.1484],[1.2926,36.086,279.291],[1.2882,36.0834,284.675],[1.2761,36.0813,319.9011],[1.2552,36.0709,137.4377],[1.2503,36.0626,116.5478],[1.2503,36.056,118.6535],[1.2327,36.0435,308.7251],[1.2296,36.0369,273.347],[1.2326,36.0334,314.1586],[1.2284,36.0284,392.4666],[1.2318,36.0218,333.9663],[1.2151,36.0019,342.4712],[1.213,35.9947,356.8931],[1.2207,35.9876,379.6868],[1.2213,35.9758,444.0883],[1.2244,35.9714,477.3448],[1.2205,35.9673,426.3651],[1.2213,35.9622,464.6212]]]]}
,"properties": {"GID_2": "DZA.14.24_1","GID_0": "DZA","country": "Algeria","GID_1": "DZA.14_1","province": "Chlef","NL_NAME_1": "ولايةالشلف","county": "OuledBenAbdelkader","VARNAME_2": "NA","NL_NAME_2": "NA","TYPE_2": "Commune","ENGTYPE_2": "Commune","CC_2": "230","HASC_2": "DZ.CH.OB","name": "Ouled_Ben_Abdelkader.county","area_km2": 182.0937,"hist_schema_id": "Elevation0-9000","hist_area_km2": {"125": 3.2743,"150": 7.7846,"175": 9.1921,"200": 8.4882,"225": 8.9346,"250": 18.0813,"275": 13.1735,"300": 12.745,"325": 10.5335,"350": 8.8016,"375": 7.4986,"400": 7.2592,"425": 6.8823,"450": 6.403,"475": 6.5068,"500": 6.1467,"525": 6.4565,"550": 5.3403,"575": 4.6362,"600": 4.3787,"625": 3.1426,"650": 2.8163,"675": 2.3011,"700": 2.0263,"725": 1.5798,"750": 1.2536,"775": 0.8758,"800": 0.893,"825": 0.601,"850": 0.7212,"875": 0.5324,"900": 0.5839,"925": 0.5152,"950": 0.395,"975": 0.3778,"1000": 0.2748,"1025": 0.2233,"1050": 0.2061,"1075": 0.1202,"1100": 0.0687,"1125": 0.0172,"1150": 0.0515}}}