{"type": "Feature","bbox": [5.5569,36.5913,5.7123,36.7087],"geometry": {"type": "MultiPolygon","coordinates": [[[[5.5769,36.6989,107.9269],[5.5762,36.6814,203.3555],[5.5686,36.6743,219.4455],[5.5616,36.6724,330.3628],[5.5569,36.6611,192.3405],[5.5591,36.6564,156.4531],[5.5638,36.6526,154.5019],[5.5627,36.6462,265.2339],[5.5681,36.6331,512.8502],[5.5569,36.6197,1304.9705],[5.5716,36.6194,962.0775],[5.5807,36.6214,1050.2095],[5.5909,36.6183,925.0859],[5.6031,36.6174,884.6664],[5.6054,36.6117,747.4734],[5.6098,36.6076,701.8896],[5.6149,36.6059,662.8578],[5.6208,36.5948,687.0905],[5.6275,36.5913,603.8525],[5.6307,36.5943,559.2636],[5.6385,36.5955,575.3199],[5.6429,36.6019,535.3585],[5.6479,36.6041,525.07],[5.6609,36.6046,549.3678],[5.6707,36.602,527.1638],[5.6756,36.5989,495.4167],[5.6873,36.6014,482.2589],[5.6908,36.6052,464.5557],[5.6954,36.6056,458.2687],[5.6994,36.6082,458.629],[5.7113,36.6094,485.9194],[5.7123,36.6153,707.1859],[5.703,36.6367,1498.6276],[5.7078,36.6548,1253.5852],[5.6981,36.6646,1061.0868],[5.6959,36.6706,802.875],[5.6908,36.6748,785.1782],[5.6776,36.6761,435.416],[5.6708,36.6794,577.9174],[5.6644,36.6963,973.7142],[5.6583,36.6971,1080.3707],[5.6542,36.6947,973.2284],[5.6495,36.698,932.2096],[5.6443,36.6982,824.641],[5.6401,36.6951,728.4427],[5.6365,36.7011,569.29],[5.6319,36.7052,417.8854],[5.6207,36.7087,300.3823],[5.6052,36.7077,201.861],[5.5853,36.699,90.2095],[5.5769,36.6989,107.9269]]]]}
,"properties": {"GID_2": "DZA.23.22_1","GID_0": "DZA","country": "Algeria","GID_1": "DZA.23_1","province": "Jijel","NL_NAME_1": "ولايةجيجل","county": "SelmaBenziada","VARNAME_2": "SelmaBenZiada","NL_NAME_2": "NA","TYPE_2": "Commune","ENGTYPE_2": "Commune","CC_2": "1818","HASC_2": "DZ.JJ.SB","name": "Selma_Benziada.county","area_km2": 120.96145,"hist_schema_id": "Elevation0-9000","hist_area_km2": {"75": 0.204,"100": 0.20401,"125": 0.37402,"150": 0.81618,"175": 1.05428,"200": 1.5475,"225": 2.0577,"250": 2.26186,"275": 2.31289,"300": 2.31299,"325": 2.10888,"350": 2.58514,"375": 2.38101,"400": 2.21101,"425": 2.26212,"450": 2.34717,"475": 2.85762,"500": 2.73851,"525": 2.92582,"550": 3.02793,"575": 3.30021,"600": 3.0109,"625": 3.33419,"650": 3.09605,"675": 3.67464,"700": 3.96388,"725": 4.0317,"750": 3.64077,"775": 4.06571,"800": 3.65752,"825": 4.23584,"850": 3.23226,"875": 3.64043,"900": 3.35135,"925": 3.50432,"950": 3.21505,"975": 3.04493,"1000": 2.63666,"1025": 2.39852,"1050": 2.14348,"1075": 1.59912,"1100": 1.92247,"1125": 1.39503,"1150": 1.39502,"1175": 1.49712,"1200": 1.24192,"1225": 1.4631,"1250": 1.1739,"1275": 0.79962,"1300": 0.68052,"1325": 0.45934,"1350": 0.44235,"1375": 0.30622,"1400": 0.22117,"1425": 0.20416,"1450": 0.1191,"1475": 0.13611,"1500": 0.05104,"1525": 0.08507}}}