{"type":"Feature","properties":{"ISO3166-1-Alpha-3":"DZA","country":"Algeria","fill":"#FF0","id":"2204","name":"Saïda"},
"geometry":{"type": "Polygon","coordinates": [[[-0.004,35.06365,512.8497],[-0.01433,35.06385,535.1774],[-0.03444,35.07574,501.3827],[-0.05144,35.08897,573.0773],[-0.05909,35.09295,527.8264],[-0.07412,35.09595,682.7141],[-0.08544,35.10241,525.3803],[-0.09102,35.10791,507.2013],[-0.09278,35.11396,468.8947],[-0.09309,35.11972,465.4669],[-0.09216,35.13212,406.3376],[-0.09268,35.1378,422.6399],[-0.09361,35.14328,428.6382],[-0.09826,35.15243,370.905],[-0.10167,35.15643,387.4753],[-0.10596,35.15974,355.4196],[-0.11169,35.16059,388.2238],[-0.1197,35.15754,402.1701],[-0.12627,35.14902,395.0446],[-0.12864,35.14209,403.758],[-0.12926,35.13584,411.6717],[-0.13185,35.13114,428.3228],[-0.13557,35.12765,429.4995],[-0.16518,35.12292,430.4648],[-0.18208,35.12452,446.6031],[-0.18921,35.12432,433.4508],[-0.19474,35.12256,437.8393],[-0.19934,35.11946,435.9608],[-0.20729,35.11202,455.3858],[-0.21195,35.10892,458.6084],[-0.21763,35.10706,464.7635],[-0.23169,35.10623,463.214],[-0.23758,35.10473,464.8313],[-0.24264,35.10225,468.8258],[-0.24688,35.09889,474.5264],[-0.2507,35.09357,486.0813],[-0.2536,35.08649,496.5812],[-0.25442,35.07347,512.1395],[-0.2536,35.06561,525.1058],[-0.24957,35.04753,587.5931],[-0.2475,35.04122,611.7702],[-0.2384,35.03373,706.5732],[-0.23551,35.02954,758.078],[-0.23628,35.02381,740.4904],[-0.24243,35.01644,778.8568],[-0.24822,35.01239,744.4547],[-0.25422,35.01032,816.3732],[-0.26021,35.01083,759.2501],[-0.27179,35.01476,662.9125],[-0.27819,35.0158,727.6183],[-0.28398,35.01481,761.6549],[-0.28822,35.01104,671.1068],[-0.29158,35.00484,660.9866],[-0.29328,34.99494,688.6754],[-0.29778,34.98794,640.9722],[-0.29928,34.98234,642.6156],[-0.29716,34.97859,635.8398],[-0.29411,34.97456,640.0722],[-0.29251,34.96758,641.6047],[-0.29535,34.94094,727.5651],[-0.29411,34.93224,710.256],[-0.29044,34.92647,699.7732],[-0.28026,34.9205,688.4135],[-0.27571,34.9172,693.0951],[-0.2721,34.91353,666.7726],[-0.27075,34.90908,644.8679],[-0.27272,34.90433,667.5482],[-0.27871,34.89999,660.0806],[-0.28496,34.89753,662.7608],[-0.30987,34.89182,698.3877],[-0.33111,34.88387,762.6349],[-0.33623,34.88397,762.2986],[-0.3463,34.88787,739.118],[-0.35225,34.8881,763.4395],[-0.35716,34.88614,798.4147],[-0.3616,34.88291,791.782],[-0.36522,34.87888,798.6992],[-0.3679,34.87446,813.0223],[-0.36806,34.86965,810.4742],[-0.36398,34.86413,813.1],[-0.35778,34.86097,820.4691],[-0.3185,34.8478,831.5504],[-0.31302,34.84506,846.6072],[-0.30367,34.83857,783.8724],[-0.30042,34.83454,774.3608],[-0.29876,34.82953,804.5782],[-0.2984,34.81627,839.7122],[-0.29685,34.80847,833.784],[-0.29297,34.80384,807.4399],[-0.28719,34.80072,785.4532],[-0.26786,34.7947,830.7785],[-0.26326,34.7925,889.0225],[-0.26088,34.79059,869.4853],[-0.2582,34.78739,865.4688],[-0.25587,34.78408,876.0363],[-0.25225,34.78206,889.085],[-0.24698,34.78193,917.4721],[-0.24068,34.7824,919.1997],[-0.22703,34.78196,952.9965],[-0.22125,34.78077,959.3906],[-0.21618,34.77834,978.6274],[-0.21257,34.77351,997.7825],[-0.21091,34.76635,1009.7703],[-0.21009,34.7547,1055.3909],[-0.20574,34.74899,1050.9136],[-0.20006,34.74519,1100.5887],[-0.19412,34.74269,1182.2881],[-0.18941,34.73959,1139.5054],[-0.18146,34.73235,1115.0669],[-0.1475,34.71065,1159.3199],[-0.11438,34.68243,1133.9655],[-0.06126,34.6182,1177.882],[-0.0565,34.60905,1188.2474],[-0.055,34.60404,1171.7007],[-0.05258,34.58755,1158.9067],[-0.05283,34.5814,1160.7975],[-0.05531,34.56771,1141.4784],[-0.0609,34.55009,1153.7329],[-0.06849,34.53474,1143.1316],[-0.0719,34.5297,1126.6938],[-0.48573,34.22933,1090.1763],[-0.49813,34.20559,1091.6694],[-0.49968,34.19316,1088.4349],[-0.49482,34.17381,1082.2279],[-0.48888,34.15812,1076.5901],[-0.41286,34.03376,996.0174],[-0.38599,33.97493,981.5],[-0.38444,33.96235,982.5211],[-0.38651,33.95581,981.5],[-0.38765,33.94609,981.6495],[-0.38403,33.9386,981.9387],[-0.36656,33.92033,982.5011],[-0.36108,33.91646,982.4084],[-0.35612,33.91504,982.5975],[-0.35251,33.91757,982.5626],[-0.34977,33.9217,983.7643],[-0.34878,33.92703,983.127],[-0.34909,33.93235,988.3419],[-0.35033,33.94072,986.705],[-0.35033,33.9446,985.874],[-0.34982,33.94912,986.0519],[-0.34822,33.95289,985.1702],[-0.34661,33.95521,986.4276],[-0.33928,33.9602,981.5],[-0.33349,33.9618,983.2564],[-0.32677,33.96211,981.7748],[-0.3184,33.96033,982.6995],[-0.31199,33.96018,981.8501],[-0.3076,33.96242,981.5],[-0.30445,33.96671,981.5],[-0.29607,33.98183,981.5],[-0.26083,34.02428,992.7883],[-0.22895,34.05394,982.2938],[-0.22466,34.05697,982.3676],[-0.22021,34.05945,983.6329],[-0.2105,34.06322,992.916],[-0.19179,34.06764,993.5208],[-0.15769,34.07911,1012.0662],[-0.1488,34.08479,1013.4859],[-0.14342,34.08681,1011.5516],[-0.13712,34.08795,1002.9683],[-0.11231,34.08683,1004.7558],[-0.08177,34.08154,993.2705],[-0.07366,34.07715,1004.4942],[-0.0688,34.07224,1008.6887],[-0.06208,34.05234,1020.5796],[-0.06043,34.02345,986.2792],[-0.05847,34.01296,983.3344],[-0.05836,34.00785,985.1663],[-0.06053,34.00128,984.9532],[-0.06136,33.99963,984.9371],[-0.06183,33.99767,985.1729],[-0.06167,33.99467,985.7545],[-0.05996,33.98896,986.6805],[-0.05537,33.98625,986.7637],[-0.04973,33.9857,987.6716],[-0.0441,33.98725,989.524],[3E-05,34.00681,994.4962],[0.04768,34.0356,996.3322],[0.06923,34.04573,991.215],[0.08602,34.04831,993.7528],[0.09749,34.07516,984.8995],[0.10773,34.09223,990.3483],[0.11687,34.10412,989.9006],[0.1456,34.13017,985.6306],[0.1825,34.15577,996.1193],[0.19759,34.16962,1001.4099],[0.20426,34.17822,998.1251],[0.20674,34.18288,1006.3117],[0.21061,34.19264,1004.1336],[0.21991,34.209,987.1592],[0.22767,34.21838,985.4414],[0.22999,34.22179,988.3075],[0.23542,34.22587,989.0251],[0.24379,34.23013,991.0546],[0.2612,34.23414,989.7198],[0.28089,34.23553,994.8507],[0.34079,34.23414,987.2268],[0.35148,34.23812,986.9694],[0.39277,34.26711,1017.8792],[0.40114,34.27434,1021.8746],[0.61979,34.38403,1027.8252],[0.62397,34.38733,1029.7202],[0.69601,34.42431,986.0],[0.7295,34.43547,986.0],[0.75761,34.43818,991.9277],[0.77606,34.44953,1001.3628],[0.83765,34.47725,987.8276],[0.84773,34.48425,987.718],[0.85393,34.49172,988.7608],[0.85626,34.49743,989.811],[0.85688,34.49986,990.7616],[0.85626,34.50213,994.0013],[0.69353,34.73633,1078.0464],[0.67348,34.78938,1045.2104],[0.66836,34.82051,1019.2473],[0.66743,34.84221,1053.4053],[0.66976,34.8555,1015.863],[0.68154,34.86692,1015.1474],[0.77404,34.93513,888.8347],[0.78303,34.94815,881.9415],[0.78505,34.95787,820.5781],[0.78164,34.9727,861.4051],[0.77451,34.98458,842.1769],[0.7542,35.00784,799.9164],[0.73833,35.02063,835.7013],[0.71802,35.03197,752.4683],[0.68356,35.04585,703.3816],[0.65937,35.05817,682.1827],[0.65627,35.06174,725.7156],[0.6541,35.06546,736.049],[0.65317,35.0682,673.5819],[0.65255,35.0898,659.9125],[0.62506,35.09592,645.1226],[0.49225,35.08633,1003.9064],[0.47721,35.07866,809.9411],[0.44879,35.05907,848.9836],[0.43143,35.05073,938.3986],[0.40936,35.04662,784.8475],[0.38952,35.04716,692.4044],[0.34807,35.05553,941.785],[0.33117,35.05476,721.1379],[0.29423,35.0407,927.3181],[0.26229,35.03564,757.176],[0.24632,35.03161,655.1381],[0.22953,35.02528,849.205],[0.20984,35.02148,785.1886],[0.18999,35.0235,1018.9431],[0.16591,35.03812,983.3146],[0.15382,35.05078,830.5771],[0.13692,35.07863,860.9089],[0.12493,35.09057,564.7637],[0.11222,35.0961,539.542],[0.1009,35.09429,532.3414],[0.08788,35.08933,533.2427],[0.07088,35.08783,522.3705],[0.04303,35.09357,479.9385],[0.02535,35.09264,471.566],[0.01274,35.08323,474.4974],[0.0037,35.06825,501.5756],[-0.004,35.06365,512.8497]]]}}