{"type": "Feature","bbox": [2.0151,34.0414,2.2437,34.2624],"geometry": {"type": "MultiPolygon","coordinates": [[[[2.231,34.2334,1463.0728],[2.2013,34.2393,1405.2196],[2.1092,34.2624,1401.9945],[2.0269,34.2179,1241.6143],[2.0234,34.2133,1264.675],[2.0151,34.1804,1401.5338],[2.0179,34.1214,1663.5431],[2.0368,34.0657,1431.9407],[2.0473,34.0455,1461.3615],[2.051,34.0414,1495.2357],[2.0552,34.0432,1477.7141],[2.0705,34.057,1518.3668],[2.111,34.0844,1491.6179],[2.1163,34.0898,1496.5569],[2.1315,34.0862,1477.9565],[2.1461,34.1013,1459.0282],[2.1545,34.1245,1416.6571],[2.1671,34.1481,1393.2681],[2.1995,34.1623,1399.5067],[2.2196,34.167,1379.0417],[2.2218,34.1725,1405.807],[2.2201,34.181,1437.0332],[2.2268,34.1864,1464.5938],[2.2383,34.1914,1498.0773],[2.2437,34.2068,1541.1052],[2.231,34.2334,1463.0728]]]]}
,"properties": {"GID_2": "DZA.25.1_1","GID_0": "DZA","country": "Algeria","GID_1": "DZA.25_1","province": "Laghouat","NL_NAME_1": "ولايةالأغواط","county": "Aflou","VARNAME_2": "Aflū","NL_NAME_2": "NA","TYPE_2": "Commune","ENGTYPE_2": "Commune","CC_2": "319","HASC_2": "DZ.LG.AF","name": "Aflou.county","area_km2": 302.976,"hist_schema_id": "Elevation0-9000","hist_area_km2": {"1200": 0.0701,"1225": 1.946,"1250": 7.0481,"1275": 9.064,"1300": 9.45,"1325": 13.413,"1350": 21.4113,"1375": 43.2547,"1400": 52.5543,"1425": 60.523,"1450": 33.7815,"1475": 21.8316,"1500": 11.4925,"1525": 4.8941,"1550": 2.9639,"1575": 3.0516,"1600": 2.5605,"1625": 2.2975,"1650": 1.0349,"1675": 0.3158,"1700": 0.0175}}}