{"type": "Feature","bbox": [-0.2156,28.6242,0.2907,28.9823],"geometry": {"type": "MultiPolygon","coordinates": [[[[0.2907,28.9823,303.5095],[0.0005,28.9713,179.5585],[-0.1627,28.9635,248.3556],[-0.2156,28.7534,246.3076],[0.0435,28.715699999999998,267.2167],[0.1394,28.6242,286.1709],[0.1986,28.7549,294.5152],[0.2907,28.9823,303.5095]]]]}
,"properties": {"GID_2": "DZA.1.8_1","GID_0": "DZA","country": "Algeria","GID_1": "DZA.1_1","province": "Adrar","NL_NAME_1": "ولايةأدرا","county": "Deldoul","VARNAME_2": "NA","NL_NAME_2": "NA","TYPE_2": "Commune","ENGTYPE_2": "Commune","CC_2": "117","HASC_2": "DZ.AR.DE","name": "Deldoul.county","area_km2": 1206.1933,"hist_schema_id": "Elevation0-9000","hist_area_km2": {"175": 266.5977,"200": 148.7125,"225": 172.9281,"250": 154.71,"275": 261.8314,"300": 201.4136}}}