{"type":"Feature","properties":{"GID_2":"DZA.6.1_1","GID_0":"DZA","country":"Algeria","GID_1":"DZA.6_1","province":"Batna","NL_NAME_1":"ولايةباتنة","county":"AinDjasser","VARNAME_2":"NA","NL_NAME_2":"NA","TYPE_2":"Commune","ENGTYPE_2":"Commune","CC_2":"519","HASC_2":"DZ.BT.AD","name":"Ain_Djasser.county"},
"geometry":{"type": "MultiPolygon","coordinates": [[[[6.014,35.8962,925.1561],[6.008,35.8964,921.136],[6.0009,35.894,903.676],[5.9908,35.9055,943.5678],[5.9506,35.8807,922.658],[5.9236,35.8735,1071.478],[5.9212,35.8684,1030.766],[5.9216,35.8622,1090.5575],[5.9394,35.8499,1162.1526],[5.9381,35.8353,1001.1079],[5.9393,35.8268,946.168],[5.9508,35.8244,877.7104],[5.9573,35.82,867.789],[5.9565,35.812,867.3544],[5.9589,35.8067,866.849],[5.957,35.8027,866.9935],[5.9659,35.7969,865.9136],[5.9673,35.7926,866.2949],[5.9773,35.7901,875.1252],[5.9817,35.7862,870.061],[5.9861,35.7741,881.8618],[6.0005,35.7581,924.8359],[6.0156,35.768,907.8615],[6.0401,35.7731,908.4767],[6.0495,35.7776,847.0958],[6.0518,35.7824,828.1932],[6.0517,35.7887,820.4132],[6.046,35.8032,858.6613],[6.0455,35.8086,864.6404],[6.0428,35.8135,887.3972],[6.0326,35.8199,1023.8917],[6.0304,35.8241,940.6726],[6.0315,35.8294,918.395],[6.0353,35.8343,905.021],[6.0471,35.8409,876.6357],[6.0552,35.8546,846.2213],[6.0596,35.8579,838.2482],[6.0742,35.8628,833.5858],[6.0795,35.8603,831.3434],[6.0843,35.8606,829.8657],[6.0798,35.8756,837.0847],[6.0798,35.8807,842.4121],[6.0821,35.887,847.4261],[6.043,35.8908,889.433],[6.0297,35.8896,886.5378],[6.0238,35.8918,904.8771],[6.0192,35.897,923.1528],[6.014,35.8962,925.1561]]]]}}