{"type":"Feature","properties":{"GID_2":"DZA.4.18_1","GID_0":"DZA","country":"Algeria","GID_1":"DZA.4_1","province":"Alger","NL_NAME_1":"ولايةالجزائر","county":"OuledFayet","VARNAME_2":"NA","NL_NAME_2":"NA","TYPE_2":"Commune","ENGTYPE_2":"Commune","CC_2":"1651","HASC_2":"DZ.AL.OF","name":"Ouled_Fayet.county"},
"geometry":{"type": "MultiPolygon","coordinates": [[[[2.9129,36.7342,119.32],[2.9164,36.7226,124.2079],[2.9246,36.7104,120.6712],[2.9293,36.7096,140.1981],[2.9339,36.7049,154.104],[2.9489,36.7021,194.2637],[2.958,36.7069,171.3766],[2.9643,36.7078,195.7182],[2.9625,36.7189,216.8721],[2.9726,36.7416,235.2679],[2.9449,36.7445,152.1848],[2.9345,36.7473,140.6945],[2.9279,36.7461,135.931],[2.9253,36.7421,131.3077],[2.9187,36.7395,122.399],[2.9129,36.7342,119.32]]]]}}