{"type": "Feature","id": "2191","bbox": [5.00805,32.00019,9.0633,34.49981],"geometry": {"type": "Polygon","coordinates": [[[5.99853,34.39496,-15.4799],[5.47716,34.44984,120.2979],[5.38156,34.47495,137.3339],[5.31934,34.49893,145.3069],[5.31578,34.49981,146.3069],[5.31175,34.49826,147.2158],[5.30632,34.4928,149.7416],[5.29981,34.47919,160.8414],[5.30121,34.46291,168.5832],[5.29904,34.44906,161.2028],[5.28782,34.43904,166.2515],[5.26984,34.43108,182.2798],[5.22886,34.41769,200.1143],[5.21723,34.41196,202.142],[5.20638,34.40312,202.6711],[5.19925,34.39369,213.9848],[5.19196,34.38142,215.87],[5.18778,34.36891,220.3471],[5.18545,34.35666,216.8015],[5.18917,34.34917,211.4653],[5.19444,34.34392,213.2088],[5.26534,34.29274,195.758],[5.30198,34.25566,189.8431],[5.33314,34.2177,180.3004],[5.34368,34.20081,180.2521],[5.35986,34.16621,176.7911],[5.36978,34.12931,169.8922],[5.37288,34.10771,177.8093],[5.37381,34.05839,190.771],[5.33485,33.846,242.4743],[5.32648,33.82321,240.9168],[5.31392,33.80349,255.7546],[5.27092,33.76636,263.6663],[5.21816,33.70921,252.9835],[5.12179,33.57268,306.7635],[5.00805,33.44189,298.8211],[6.19299,33.37698,73.6521],[6.37856,33.31755,91.399],[6.4648,33.15769,100.0791],[6.68376,32.51176,135.1818],[6.72737,32.42797,122.2634],[6.85088,32.23925,121.7177],[6.92943,32.14248,146.1271],[7.03087,32.05295,131.677],[7.16993,32.01637,137.1107],[7.3138,32.00226,131.6643],[9.0631,32.00019,235.2306],[9.0633,32.00019,235.2306],[9.04501,32.07184,223.4349],[9.03374,32.09076,217.9858],[9.01989,32.10486,236.0698],[8.85153,32.20824,218.0385],[8.64235,32.33666,187.1188],[8.48267,32.43479,139.2785],[8.35999,32.50101,124.3511],[8.33263,32.52636,124.1205],[8.33125,32.52763,124.6226],[8.31957,32.5606,124.3041],[8.30996,32.66387,142.1494],[8.29642,32.80441,113.4983],[8.28288,32.83637,110.2247],[8.18139,32.96982,98.4308],[8.08682,33.09429,70.7033],[8.0645,33.10578,69.2679],[8.04362,33.10183,67.2075],[8.02264,33.10305,71.9579],[8.00218,33.10837,67.3706],[7.98275,33.11682,68.9099],[7.87195,33.18413,55.8109],[7.83547,33.19454,57.889],[7.78751,33.19831,61.9833],[7.75072,33.20766,59.8995],[7.72499,33.23141,55.426],[7.70969,33.27815,58.9412],[7.70829,33.4107,45.2944],[7.70824,33.41486,45.0399],[7.69315,33.45411,43.8787],[7.61657,33.56596,40.1619],[7.5530099999999996,33.65875,36.2553],[7.54443,33.68425,35.2553],[7.5342,33.73624,46.7406],[7.50546,33.78285,34.6487],[7.49854,33.79998,34.9366],[7.4849,33.85501,30.315],[7.47983,33.8939,30.0156],[7.50061,33.99426,18.2277],[7.50371,34.06797,-8.8318],[7.51745,34.09503,-5.5654],[7.53923,34.11376,-8.9215],[7.53838,34.11376,-8.778],[7.53818,34.11376,-8.778],[7.32759,34.10831,3.105],[7.27111,34.11384,7.9752],[7.20238,34.13099,8.6368],[7.13577,34.16058,7.1912],[7.01738,34.17851,-2.9179],[6.96059,34.19393,-11.2298],[6.74489,34.29873,-21.6081],[6.71497,34.32661,-21.8683],[6.6959,34.37609,-18.2204],[6.66112,34.35124,-23.0172],[6.62619,34.33315,-25.1451],[6.59022,34.32196,-26.5904],[6.55855,34.31703,-27.0357],[6.52692,34.31654,-27.6696],[6.50547,34.31971,-27.8465],[6.49075,34.32359,-27.8761],[6.47183,34.33101,-27.8832],[6.45659,34.34015,-27.6883],[6.44589,34.34994,-27.4331],[6.4386,34.36075,-26.7645],[6.42853,34.37,-26.1912],[6.3705,34.39247,-26.6406],[6.21144,34.42842,-27.5451],[6.1933,34.42896,-27.7524],[5.99853,34.39496,-15.4799]]]}
,"properties": {"ISO3166-1-Alpha-3": "DZA","country": "Algeria","fill": "#00F","name": "El Oued","area_km2": 46372.04,"hist_schema_id": "Elevation0-9000","hist_area_km2": {"-25": 4167.25,"0": 2874.78,"25": 3314.35,"50": 4364.24,"75": 5692.97,"100": 9450.21,"125": 8819.12,"150": 3053.04,"175": 1984.46,"200": 1206.24,"225": 720.52,"250": 456.66,"275": 207.7,"300": 60.44}}}