{"type": "Feature","bbox": [5.1838,32.0012,9.066,34.5102],"geometry": {"type": "MultiPolygon","coordinates": [[[[7.645,33.571,40.0804],[7.6333,33.5863,38.4534],[7.627,33.598,40.1816],[7.6011,33.655,38.3428],[7.6069,33.6958,36.0937],[7.5955,33.7582,57.3338],[7.5699,33.7871,32.7087],[7.5317,33.8041,30.5608],[7.5539,33.8394,55.6802],[7.5537,33.8492,42.323],[7.5441,33.8807,24.5479],[7.5302,33.9129,24.6603],[7.5533,33.9433,23.6638],[7.5474,33.9813,20.8467],[7.5634,34.0223,11.2027],[7.5372,34.0465,-4.7],[7.5307,34.0592,-15.8038],[7.5301,34.0658,-15.0204],[7.5319,34.0697,-14.8412],[7.5371,34.0734,-13.6585],[7.5593,34.0786,-18.8886],[7.5637,34.0831,-16.5417],[7.5808,34.0857,-21.0653],[7.587,34.0903,-21.1825],[7.5892,34.096,-20.3175],[7.5831,34.0944,-19.1389],[7.579,34.0967,-16.8992],[7.5824,34.0996,-18.6579],[7.5868,34.1032,-18.6893],[7.5983,34.1064,-19.1612],[7.6016,34.1096,-17.4765],[7.6125,34.1128,-16.4585],[7.6192,34.1392,-2.7957],[7.6612,34.1966,15.6686],[7.7381,34.1671,-4.0338],[7.8159,34.2129,13.8635],[7.8133,34.2408,23.9394],[7.7851,34.2455,19.4395],[7.6551,34.2592,30.0405],[7.6431,34.2618,39.282],[7.4274,34.2746,52.3067],[7.2315,34.3401,65.0138],[7.0228,34.3323,22.8664],[7.0218,34.2889,13.0094],[7.0118,34.2047,0.9866],[7.01,34.1545,-9.629],[6.9377,34.1708,-10.4316],[6.9122,34.1894,-10.2066],[6.8238,34.2274,-18.6057],[6.7629,34.2657,-23.2783],[6.7059,34.2978,-19.6116],[6.6979,34.3053,-20.5982],[6.6918,34.3245,-16.8694],[6.6989,34.3754,-18.2186],[6.6975,34.3805,-17.7122],[6.6917,34.374,-18.9618],[6.6866,34.3616,-20.8027],[6.6827,34.3578,-20.995],[6.6667,34.3456,-22.887],[6.6529,34.3309,-23.9986],[6.6214,34.3059,-26.0729],[6.587,34.2871,-27.5056],[6.5686,34.283,-27.6465],[6.5514,34.2826,-27.6503],[6.538,34.283,-27.7532],[6.5266,34.287,-27.9096],[6.512,34.3041,-27.8629],[6.5068,34.3059,-27.9582],[6.492,34.3236,-27.8843],[6.4724,34.3393,-27.6231],[6.3906,34.3617,-27.4378],[6.3613,34.3644,-27.6162],[6.3242,34.3899,-27.887],[6.3122,34.3961,-28.088],[6.2956,34.4007,-27.8053],[6.2633,34.403,-28.3063],[6.2344,34.4191,-27.6628],[6.2157,34.4234,-27.5232],[6.2111,34.4284,-27.3937],[6.1611,34.426,-27.7217],[5.9683,34.3932,-0.238],[5.9585,34.3858,0.9772],[5.943,34.3857,11.5794],[5.7054,34.4139,63.0083],[5.6817,34.4198,70.7197],[5.5596,34.4265,95.9829],[5.5166,34.4336,110.2976],[5.4714,34.4366,121.9091],[5.4125,34.4464,136.7049],[5.3922,34.4521,141.8828],[5.3392,34.4789,148.8563],[5.2997,34.5008,153.5912],[5.2935,34.5102,129.6444],[5.2778,34.4995,138.8481],[5.2407,34.4885,141.8722],[5.2705,34.4632,167.8151],[5.2626,34.4579,168.9363],[5.2369,34.4499,186.9823],[5.1945,34.4261,209.8613],[5.1838,34.4128,214.0739],[5.2069,34.3989,205.2302],[5.211,34.3937,210.374],[5.2197,34.3876,207.3583],[5.2231,34.379,204.4277],[5.2375,34.3577,202.8971],[5.2321,34.3438,203.3976],[5.2025,34.2875,218.6145],[5.276,34.2428,200.2326],[5.3393,34.1749,177.8898],[5.3697,34.1566,169.0033],[5.3588,34.116,179.4165],[5.3434,34.0868,187.7516],[5.3364,34.0606,200.7775],[5.3286,34.0525,206.0064],[5.2711,33.9762,193.5649],[5.2684,33.9653,203.8983],[5.2677,33.933,241.2551],[5.2607,33.8964,264.6369],[5.2318,33.8543,272.5538],[5.2254,33.8214,286.0376],[5.2496,33.7906,284.2111],[5.2722,33.7406,275.4009],[5.272,33.7341,260.6846],[5.2776,33.6986,240.4835],[5.2869,33.6547,258.9197],[5.2879,33.6434,260.3823],[5.2878,33.5986,260.8339],[5.2829,33.558,256.0136],[5.2855,33.5499,242.6773],[5.3127,33.4955,236.3048],[5.3149,33.4722,233.5015],[5.3126,33.4669,229.7209],[5.2987,33.4535,215.7541],[5.2802,33.4302,195.0957],[5.4028,33.4257,212.459],[5.7184,33.4185,104.0953],[5.7291,33.4209,96.8784],[5.7614,33.4223,78.2369],[5.9963,33.4249,60.7681],[5.9998,33.4218,62.6599],[6.0832,33.4199,54.2084],[6.073,33.5175,26.8801],[6.071,33.5249,26.179],[6.0677,33.5316,25.0027],[6.058,33.5427,24.4084],[6.0456,33.5503,29.9681],[6.0332,33.5615,21.6188],[6.0249,33.5716,19.8817],[6.0192,33.5824,22.2951],[6.0197,33.5931,16.3049],[6.0231,33.6039,19.3913],[6.0265,33.6084,13.9312],[6.0319,33.6111,13.6503],[6.0466,33.6122,12.4992],[6.0531,33.6144,11.9914],[6.0638,33.6215,12.0293],[6.0655,33.6258,11.2855],[6.0641,33.6385,10.4688],[6.0565,33.6675,10.0],[6.0531,33.6877,11.3809],[6.0548,33.6978,11.3096],[6.065,33.7134,13.5387],[6.0676,33.7232,9.2631],[6.0616,33.7449,12.7606],[6.0615,33.769,7.9214],[6.048,33.7805,9.4852],[6.0443,33.7863,7.9618],[6.0438,33.796,4.5585],[6.0402,33.8055,3.9193],[6.0237,33.8186,2.2278],[6.0191,33.8276,3.1351],[6.0208,33.8415,1.8624],[6.0278,33.8609,-10.2719],[6.0241,33.8825,-18.5674],[6.027,33.8874,-19.6022],[6.0358,33.8953,-19.3424],[6.0488,33.9026,-23.4112],[6.054,33.904,-23.5182],[6.0601,33.9019,-25.523],[6.0635,33.8993,-26.403],[6.0648,33.8938,-26.5525],[6.0638,33.882,-27.3577],[6.0661,33.8671,-26.5163],[6.0701,33.863,-27.2017],[6.0813,33.8625,-27.7515],[6.0945,33.8662,-26.4156],[6.1198,33.8766,-26.808],[6.1443,33.9072,-26.2772],[6.1585,33.92,-26.3772],[6.1789,33.9298,-28.403],[6.2103,33.9413,-28.2127],[6.2313,33.9454,-18.4259],[6.2386,33.9458,-19.9197],[6.2467,33.9438,-22.2691],[6.2565,33.9264,-20.5643],[6.2627,33.9078,-27.6705],[6.2669,33.9038,-26.1773],[6.2727,33.9055,-23.5397],[6.2843,33.9323,-28.1865],[6.3279,33.634,60.5478],[6.5027,33.1853,95.4861],[6.562,33.0197,109.2194],[6.5755,32.9712,117.2128],[6.647,32.7706,115.8478],[6.6614,32.7255,112.925],[6.6914,32.6769,119.4582],[6.727,32.6249,113.4773],[6.8305,32.4863,131.7654],[6.8853,32.4099,131.0191],[6.9685,32.3021,126.2004],[6.9983,32.2595,139.9257],[7.0202,32.2377,131.627],[7.0503,32.2021,121.8108],[7.2354,32.0035,126.9535],[7.2416,32.0014,127.5258],[7.2525,32.0012,129.3932],[7.5403,32.0243,133.7787],[8.0233,32.0476,164.2674],[8.4992,32.0679,187.327],[9.066,32.0869,207.8952],[8.801,32.2357,167.6283],[8.5111,32.4113,146.5525],[8.3575,32.5021,126.911],[8.3233,32.823,110.3794],[8.2479,32.924,110.5957],[8.1697,33.0045,87.6924],[8.1633,33.0076,87.932],[8.1481,33.0207,80.5851],[8.1159,33.0508,74.0106],[8.115,33.0607,76.4308],[8.1179,33.0977,69.4977],[8.1132,33.1021,65.8588],[8.0589,33.1242,69.1546],[8.052,33.1254,72.0705],[8.0487,33.1287,70.8205],[8.0428,33.1299,73.6118],[7.9048,33.1845,62.4748],[7.8322,33.1903,59.0405],[7.8028,33.2507,59.9958],[7.7882,33.2853,64.687],[7.7534,33.4303,42.2178],[7.7414,33.4425,42.7059],[7.7368,33.4522,41.9225],[7.645,33.571,40.0804]]]]}
,"properties": {"GID_1": "DZA.18_1","GID_0": "DZA","country": "Algeria","province": "ElOued","VARNAME_1": "ElOuadi|ElWad","NL_NAME_1": "ولايةالوادي","TYPE_1": "Wilaya","ENGTYPE_1": "Province","CC_1": "39","HASC_1": "DZ.EO","ISO_1": "DZ-39","name": "El_Oued.province","area_km2": 43826.44,"hist_schema_id": "Elevation0-9000","hist_area_km2": {"-25": 3965.44,"0": 2965.87,"25": 3786.46,"50": 4410.37,"75": 5183.91,"100": 9170.86,"125": 7785.61,"150": 2688.4,"175": 1793.74,"200": 1119.78,"225": 557.88,"250": 337.55,"275": 59.72,"300": 0.79}}}