{"type":"Feature","properties":{"ISO3166-1-Alpha-3":"DZA","country":"Algeria","fill":"#00F","id":"2215","name":"Sétif"},
"geometry":{"type": "Polygon","coordinates": [[[5.54279,36.52397,764.48],[5.5321,36.52547,928.8849],[5.52047,36.53048,883.3389],[5.51096,36.53852,846.0694],[5.50491,36.55379,1023.9357],[5.50352,36.56666,926.7011],[5.49825,36.5841,699.7219],[5.47546,36.59064,1032.7725],[5.46197,36.57322,682.7208],[5.45913,36.56748,688.6603],[5.45727,36.5611,773.9861],[5.45587,36.5478,1456.2759],[5.45634,36.54087,1817.8181],[5.4582,36.53271,1544.7341],[5.46151,36.52449,1299.1919],[5.46383,36.51581,1380.8145],[5.46368,36.50883,1645.6757],[5.46068,36.50279,1710.2788],[5.45789,36.49992,1821.4214],[5.45262,36.4962,1850.0325],[5.4258,36.4816,930.1155],[5.40704,36.47364,765.0702],[5.37025,36.46739,582.902],[5.33764,36.45496,670.6505],[5.32787,36.4493,744.5492],[5.32198,36.44367,622.2921],[5.31609,36.43514,728.8469],[5.31237,36.42245,787.9103],[5.31314,36.41124,873.6966],[5.31097,36.39832,956.6025],[5.30322,36.3893,909.8535],[5.27713,36.3814,946.9811],[5.25542,36.37887,751.0422],[5.22219,36.38432,710.6434],[5.20747,36.3924,696.6072],[5.18778,36.40842,820.2816],[5.18762,36.41685,888.1965],[5.1946,36.43922,807.6605],[5.19475,36.44966,821.0677],[5.19057,36.46067,659.0428],[5.18328,36.47059,746.0303],[5.16711,36.48863,895.9772],[5.16556,36.49416,814.551],[5.16819,36.49813,836.8215],[5.17036,36.49992,879.6487],[5.1808,36.50573,1085.8029],[5.18979,36.51253,1297.3331],[5.19413,36.52048,1356.7332],[5.19336,36.52754,1158.1477],[5.18762,36.53449,1044.2843],[5.15765,36.55343,939.4833],[5.14292,36.56498,481.1296],[5.13533,36.56955,645.4542],[5.1254,36.57312,756.3551],[5.10163,36.57766,893.7946],[5.08985,36.5771,787.8085],[5.07652,36.57431,770.3738],[5.06468,36.56242,742.6412],[5.06081,36.55203,600.3779],[5.05895,36.53963,741.8697],[5.05461,36.53074,861.9435],[5.0453,36.52418,1372.8872],[5.02841,36.52294,1238.5856],[5.01709,36.52526,1049.9247],[5.0082,36.52811,942.9886],[5.00293,36.5293,751.9746],[5.00014,36.52961,690.3087],[4.95642,36.5095,791.2085],[4.94986,36.50299,579.4981],[4.94831,36.50087,571.7609],[4.94846,36.49886,565.9791],[4.95048,36.49607,522.1769],[4.95497,36.49139,517.178],[4.97844,36.47576,549.6641],[4.98634,36.46899,505.0885],[4.98681,36.46243,565.9526],[4.97999,36.45581,522.6661],[4.96169,36.44785,653.3082],[4.95172,36.43834,930.5477],[4.94769,36.42847,1045.3287],[4.94707,36.4184,910.3242],[4.94397,36.40801,766.2253],[4.93653,36.39941,697.1811],[4.92257,36.38941,897.9708],[4.90847,36.38274,1007.8826],[4.88686,36.37783,870.8431],[4.87074,36.37574,990.1135],[4.80108,36.37974,435.3279],[4.7893,36.36595,465.8031],[4.7863,36.3584,520.2092],[4.78522,36.34664,428.2469],[4.78992,36.33385,661.1189],[4.80418,36.31763,873.461],[4.82124,36.30685,1117.613],[4.83844,36.30497,1325.0378],[4.85322,36.30533,1404.0538],[4.89756,36.29985,1431.3301],[4.91358,36.29996,1265.3428],[4.94366,36.30275,1389.481],[4.99068,36.31546,1206.1719],[4.99921,36.31597,1104.8224],[5.0065,36.31556,1052.9467],[5.03476,36.31088,1351.1925],[5.06282,36.30138,1104.0176],[5.07404,36.29422,961.3368],[5.08396,36.28179,845.1938],[5.10737,36.24554,878.0797],[5.12556,36.23236,922.6663],[5.14401,36.22934,888.5232],[5.16028,36.23505,885.9652],[5.17455,36.24241,910.5945],[5.18809,36.24551,985.9338],[5.19816,36.24141,1011.7983],[5.20328,36.23384,1023.3142],[5.20654,36.22089,1009.4487],[5.2084,36.20751,926.3681],[5.21243,36.19665,897.8163],[5.22018,36.19459,953.7193],[5.22793,36.19841,960.262],[5.23852,36.20552,1010.6915],[5.24736,36.20487,1045.4032],[5.25356,36.19738,1033.8392],[5.25418,36.18066,997.1369],[5.25124,36.16914,984.5093],[5.24333,36.15438,956.3452],[5.22684,36.13754,924.9255],[5.21026,36.13082,879.978],[5.19537,36.12772,865.713],[5.18731,36.12317,917.4307],[5.18406,36.11537,929.4346],[5.18778,36.10255,897.3907],[5.19708,36.08232,885.6587],[5.1963,36.07434,892.4547],[5.18576,36.06095,923.5026],[5.18142,36.05211,925.0435],[5.17904,36.0332,987.7612],[5.17517,36.01635,1008.7194],[5.15346,35.98145,1033.7629],[5.14478,35.96421,1092.9401],[5.13765,35.9354,1145.0624],[5.13672,35.91218,1257.2441],[5.14029,35.87063,1363.2578],[5.13998,35.85662,1583.7491],[5.13455,35.84799,1444.1517],[5.12241,35.84469,1436.0417],[5.07745,35.84396,1411.5272],[5.06654,35.84047,1422.406],[5.05879,35.82944,1326.4641],[5.05492,35.82086,1179.1918],[5.05445,35.77733,1043.5991],[5.06034,35.76805,1077.9331],[5.06577,35.76208,1299.5261],[5.07962,35.75226,1351.7925],[5.10148,35.74102,1142.1122],[5.17083,35.71782,1355.9048],[5.17687,35.71056,1324.1561],[5.18421,35.68991,1064.9768],[5.1994,35.6772,804.7811],[5.22622,35.66402,793.8973],[5.3797,35.63292,799.3976],[5.40952,35.6324,821.3132],[5.42347,35.63565,838.802],[5.4382,35.64186,863.6744],[5.45355,35.65653,965.019],[5.46135,35.66992,1166.0034],[5.46647,35.68614,1119.7543],[5.46988,35.71555,1094.151],[5.4722,35.72681,1255.2485],[5.47685,35.73609,1254.3741],[5.48476,35.74387,1158.4537],[5.53551,35.77376,1019.0948],[5.55349,35.78143,1028.9087],[5.56109,35.79389,1104.7427],[5.56713,35.80784,995.2831],[5.57509,35.81828,981.2144],[5.58889,35.82309,968.1349],[5.60687,35.8189,966.1541],[5.62362,35.81123,998.8428],[5.64987,35.80324,1032.4481],[5.66025,35.79738,1057.3673],[5.67064,35.7896,1134.3879],[5.68273,35.7826,1162.5645],[5.72278,35.76862,1325.0284],[5.73643,35.77105,1491.0289],[5.74686,35.78291,1317.7012],[5.7619,35.81092,1281.4121],[5.75539,35.8221,1295.4843],[5.74221,35.82993,1294.9398],[5.72619,35.83443,1234.4517],[5.71627,35.84045,1198.5527],[5.71162,35.84967,1049.1533],[5.71379,35.86042,950.812],[5.72108,35.87166,931.151],[5.73146,35.88117,931.8439],[5.74562,35.89021,910.4484],[5.77833,35.90709,874.0],[5.80009,35.91347,874.0],[5.82288,35.91473,874.0],[5.85611,35.90649,874.0],[5.87967,35.89401,885.0812],[5.92158,35.86623,1045.2185],[5.94019,35.86213,946.8558],[5.9498,35.86546,918.3686],[5.94995,35.87797,952.6069],[5.94592,35.88641,906.2095],[5.94546,35.89497,891.1297],[5.94685,35.89897,889.2973],[5.97667,35.91579,918.9928],[5.97853,35.94638,915.0711],[5.97264,35.96194,901.5865],[5.98334,36.05847,879.4987],[5.97682,36.07857,871.8767],[5.96297,36.09271,874.48],[5.94701,36.0994,877.391],[5.93538,36.1103,881.5105],[5.9315,36.11746,884.688],[5.93057,36.12989,888.3058],[5.9284,36.13599,889.5399],[5.92189,36.14487,904.5533],[5.9098,36.155,912.8651],[5.89936,36.16968,949.1149],[5.89983,36.18051,961.8679],[5.9082,36.18885,1082.9231],[5.91941,36.19665,1121.4318],[5.92902,36.20709,1089.4149],[5.93352,36.22497,1037.1255],[5.92546,36.23474,1067.0659],[5.91166,36.23701,1058.4246],[5.89347,36.23624,1158.6537],[5.87843,36.24001,1113.1523],[5.86603,36.25541,1068.3287],[5.86712,36.2752,871.4794],[5.87378,36.29918,1012.6],[5.87549,36.36326,754.3146],[5.87239,36.40189,549.622],[5.86277,36.41966,584.4646],[5.84768,36.43002,747.0286],[5.82939,36.43137,882.3109],[5.81017,36.43114,1022.3771],[5.79074,36.43328,705.0883],[5.77616,36.44,646.7021],[5.76624,36.45261,562.2661],[5.76454,36.46847,714.8755],[5.76996,36.49788,845.0016],[5.76919,36.51457,781.4363],[5.76516,36.52557,738.6761],[5.75787,36.53632,945.0228],[5.75229,36.5424,1093.3402],[5.7372,36.55513,1496.0195],[5.67545,36.53653,1316.2375],[5.66304,36.53679,1366.2411],[5.65018,36.53968,1232.8578],[5.62486,36.55363,1142.0905],[5.614,36.5555,1165.3929],[5.59974,36.55082,894.1356],[5.59059,36.54531,805.2584],[5.57463,36.53193,702.2509],[5.56589,36.52697,694.3406],[5.55473,36.52408,711.3932],[5.54279,36.52397,764.48]]]}}