{"type": "Feature","bbox": [7.6309,36.0434,7.7778,36.192],"geometry": {"type": "MultiPolygon","coordinates": [[[[7.6309,36.1418,949.0284],[7.6423,36.1338,1045.3514],[7.6477,36.1238,1001.4157],[7.6416,36.1204,956.9684],[7.6386,36.1117,912.116],[7.6474,36.1049,842.3104],[7.6503,36.0998,818.8826],[7.644,36.0906,815.2234],[7.6491,36.0871,875.8964],[7.6579,36.093,844.9396],[7.6705,36.0936,833.4899],[7.6784,36.0908,849.5856],[7.6845,36.0864,858.0688],[7.688,36.0813,862.5651],[7.6873,36.0766,858.0691],[7.6807,36.065,918.7245],[7.6835,36.0603,921.7475],[7.6892,36.0581,900.2246],[7.6955,36.0509,935.2468],[7.6952,36.0441,937.3996],[7.6998,36.0434,927.616],[7.7101,36.0466,917.2875],[7.7277,36.0555,907.9362],[7.7286,36.0681,897.2515],[7.7381,36.0761,881.7303],[7.7448,36.0849,928.5188],[7.7525,36.1054,920.1125],[7.7574,36.1115,977.363],[7.7695,36.1143,1003.2308],[7.7778,36.119,980.2687],[7.7672,36.124,948.3939],[7.7558,36.1248,908.0487],[7.7378,36.1287,849.8873],[7.7212,36.1508,880.1483],[7.7161,36.1546,884.092],[7.7052,36.1572,912.4413],[7.7002,36.1611,948.717],[7.6928,36.1754,1036.5448],[7.6875,36.1784,1064.0745],[7.6808,36.1798,1053.4382],[7.6711,36.192,951.4614],[7.6589,36.1897,947.6003],[7.6586,36.18,1028.8522],[7.6562,36.1753,1010.1243],[7.6602,36.1716,1048.1654],[7.6575,36.1642,1058.3691],[7.6502,36.1524,1052.0459],[7.6492,36.146,1052.9109],[7.6434,36.1464,987.0832],[7.6309,36.1418,949.0284]]]]}
,"properties": {"GID_2": "DZA.40.17_1","GID_0": "DZA","country": "Algeria","GID_1": "DZA.40_1","province": "SoukAhras","NL_NAME_1": "ولايةسوقأهراس","county": "Ragouba","VARNAME_2": "Raggouba","NL_NAME_2": "NA","TYPE_2": "Commune","ENGTYPE_2": "Commune","CC_2": "4122","HASC_2": "DZ.SA.RA","name": "Ragouba.county","area_km2": 97.07882,"hist_schema_id": "Elevation0-9000","hist_area_km2": {"825": 7.91421,"850": 23.9635,"875": 18.55187,"900": 12.60804,"925": 8.70275,"950": 4.65856,"975": 3.13334,"1000": 2.96173,"1025": 2.84155,"1050": 4.07415,"1075": 5.34097,"1100": 2.15694,"1125": 0.17121}}}