{"type": "Feature","bbox": [2.8912,36.1756,3.0219,36.267],"geometry": {"type": "MultiPolygon","coordinates": [[[[3.0065,36.1756,808.3835],[3.0138,36.1879,783.5108],[3.0178,36.1988,770.854],[3.0199,36.2182,723.0611],[3.0219,36.2241,802.4187],[3.0132,36.2299,812.2479],[3.0103,36.2414,845.2592],[3.0029,36.2487,910.0806],[3.0068,36.2545,852.6679],[3.0038,36.2586,853.2136],[2.998,36.258,861.8314],[2.989,36.2604,1004.7859],[2.9801,36.267,971.3996],[2.9506,36.2604,1219.5316],[2.939,36.2499,1091.3083],[2.9239,36.246,1170.6761],[2.9092,36.2294,1197.0518],[2.9069,36.2248,1219.9126],[2.9107,36.2213,1141.9734],[2.8952,36.2109,1171.5872],[2.8912,36.2062,1172.8481],[2.9107,36.202,1081.6852],[2.9216,36.2079,991.3336],[2.9352,36.2104,945.7142],[2.9518,36.2053,1105.1683],[2.9648,36.2051,1067.7352],[2.9767,36.1974,923.6772],[2.9835,36.1884,826.1055],[2.9947,36.1837,800.6433],[2.999,36.1792,828.6381],[3.0065,36.1756,808.3835]]]]}
,"properties": {"GID_2": "DZA.28.43_1","GID_0": "DZA","country": "Algeria","GID_1": "DZA.28_1","province": "Médéa","NL_NAME_1": "ولايةالمدية","county": "OuledBrahim","VARNAME_2": "NA","NL_NAME_2": "NA","TYPE_2": "Commune","ENGTYPE_2": "Commune","CC_2": "2612","HASC_2": "DZ.MD.OB","name": "Ouled_Brahim.county","area_km2": 62.08699,"hist_schema_id": "Elevation0-9000","hist_area_km2": {"725": 0.30789,"750": 0.97499,"775": 2.06986,"800": 3.02786,"825": 4.25935,"850": 4.25927,"875": 4.48147,"900": 4.73813,"925": 3.74602,"950": 3.07875,"975": 2.85632,"1000": 3.01008,"1025": 3.52304,"1050": 3.86504,"1075": 3.12974,"1100": 3.30078,"1125": 3.21526,"1150": 3.23236,"1175": 2.65079,"1200": 1.77857,"1225": 0.5301,"1250": 0.05132}}}