{"type": "Feature","bbox": [2.8063,36.6612,2.8807,36.732],"geometry": {"type": "MultiPolygon","coordinates": [[[[2.8807,36.708,58.9324],[2.8784,36.714,85.4941],[2.8672,36.7222,40.8663],[2.8542,36.7279,15.4137],[2.8491,36.7318,12.2092],[2.8418,36.732,7.438],[2.835,36.7278,2.9332],[2.8245,36.7127,5.2177],[2.8199,36.7109,0.2357],[2.8077,36.6986,2.3459],[2.81,36.6856,62.8787],[2.8063,36.6765,6.2062],[2.8261,36.6657,25.6327],[2.8267,36.6612,44.4421],[2.842,36.6695,181.2396],[2.8546,36.6697,177.0856],[2.8604,36.6723,177.5507],[2.8626,36.6764,192.4347],[2.855,36.6867,123.7453],[2.8598,36.6916,113.5491],[2.8622,36.6976,108.668],[2.8678,36.7016,108.9003],[2.8771,36.7013,106.969],[2.8807,36.708,58.9324]]]]}
,"properties": {"GID_2": "DZA.4.26_1","GID_0": "DZA","country": "Algeria","GID_1": "DZA.4_1","province": "Alger","NL_NAME_1": "ولايةالجزائر","county": "Zeralda","VARNAME_2": "Ziralda","NL_NAME_2": "NA","TYPE_2": "Commune-Cotiere","ENGTYPE_2": "Commune-Cotiere","CC_2": "1646","HASC_2": "DZ.AL.ZE","name": "Zeralda.county","area_km2": 30.24292,"hist_schema_id": "Elevation0-9000","hist_area_km2": {"0": 3.16136,"25": 5.52425,"50": 4.86164,"75": 3.9609,"100": 5.64417,"125": 4.25077,"150": 1.58143,"175": 0.98631,"200": 0.27208}}}