{"type":"Feature","properties":{"GID_2":"DZA.37.55_1","GID_0":"DZA","country":"Algeria","GID_1":"DZA.37_1","province":"Sétif","NL_NAME_1":"ولايةسطيف","county":"Setif","VARNAME_2":"Satīf","NL_NAME_2":"NA","TYPE_2":"Chef-Lieu-Wilaya","ENGTYPE_2":"Chef-Lieu-Wilaya","CC_2":"1901","HASC_2":"DZ.SF.SE","name":"Setif.county"},
"geometry":{"type": "MultiPolygon","coordinates": [[[[5.3513,36.1627,991.4592],[5.3543,36.1496,953.2596],[5.3512,36.1425,955.6382],[5.3566,36.1397,947.7674],[5.3682,36.1406,977.8565],[5.3689,36.1355,973.9547],[5.3775,36.1378,980.9836],[5.3833,36.1413,990.0178],[5.4257,36.142,999.4957],[5.4333,36.1408,1001.4115],[5.437,36.1339,1002.7007],[5.4493,36.1426,1016.7495],[5.4682,36.1458,1019.4092],[5.4729,36.154,1037.5922],[5.471,36.1584,1048.3256],[5.4777,36.1652,1042.0201],[5.478,36.1718,1053.3588],[5.4946,36.1785,1058.9163],[5.4957,36.1827,1064.813],[5.4988,36.1856,1074.1277],[5.4953,36.2018,1133.5397],[5.4991,36.2121,1130.7075],[5.5064,36.2191,1150.288],[5.5065,36.2238,1163.835],[5.5022,36.2361,1208.129],[5.493,36.236,1233.0095],[5.4776,36.2265,1173.991],[5.4726,36.2251,1170.526],[5.4508,36.2238,1126.0398],[5.4426,36.228,1105.5698],[5.4306,36.2282,1092.9033],[5.4321,36.2423,1184.8418],[5.4276,36.2453,1176.3824],[5.4136,36.248,1072.402],[5.3773,36.2298,1064.03],[5.3656,36.2275,1115.4467],[5.357,36.2208,1145.0768],[5.3392,36.2172,1068.6899],[5.3406,36.2041,1057.1917],[5.3386,36.1916,1014.9208],[5.3471,36.176,1022.8076],[5.3513,36.1627,991.4592]]]]}}