{"type":"Feature","properties":{"GID_2":"DZA.2.7_1","GID_0":"DZA","country":"Algeria","GID_1":"DZA.2_1","province":"AïnDefla","NL_NAME_1":"ولايةعينالدفلى","county":"Arib","VARNAME_2":"NA","NL_NAME_2":"NA","TYPE_2":"Commune","ENGTYPE_2":"Commune","CC_2":"4406","HASC_2":"DZ.AD.AR","name":"Arib.county"},
"geometry":{"type": "MultiPolygon","coordinates": [[[[2.0951,36.2493,253.2345],[2.1068,36.247,254.0156],[2.1095,36.2521,254.2246],[2.1074,36.2583,253.6327],[2.103,36.2621,253.3946],[2.0975,36.2653,252.4108],[2.0923,36.2634,251.8983],[2.0935,36.2743,251.1248],[2.0958,36.2793,253.2525],[2.099,36.2847,258.2882],[2.1057,36.2883,265.8092],[2.1012,36.2973,310.6961],[2.1102,36.3126,570.4722],[2.1066,36.3174,596.7519],[2.1082,36.3232,704.5258],[2.1071,36.3287,758.4],[2.0999,36.33,812.0311],[2.0889,36.3291,691.8699],[2.0873,36.3396,608.7637],[2.0918,36.3471,365.1353],[2.0982,36.3488,436.9806],[2.1112,36.3475,430.8322],[2.1161,36.3505,432.0771],[2.1165,36.3605,439.0131],[2.1208,36.3634,558.5732],[2.1258,36.3709,507.6462],[2.1302,36.387,683.9065],[2.1439,36.3943,746.5356],[2.1645,36.3956,953.7897],[2.1689,36.4009,1069.0022],[2.1819,36.4031,1110.8965],[2.1954,36.4136,1108.4453],[2.2149,36.424,1172.3958],[2.2159,36.4284,1058.4285],[2.2146,36.4335,1147.6594],[2.2032,36.4333,1178.9468],[2.1853,36.4357,1166.5522],[2.1753,36.441,1252.205],[2.1622,36.4397,1328.5135],[2.1551,36.4416,1379.0671],[2.1445,36.4386,1213.5356],[2.1387,36.4403,1173.5631],[2.1347,36.4451,1304.2428],[2.1291,36.447,1293.9913],[2.1243,36.4467,1276.1263],[2.1148,36.4422,1180.4282],[2.1083,36.4428,1119.4087],[2.0971,36.4333,1223.9619],[2.0886,36.4293,1275.5327],[2.0848,36.4241,1108.6599],[2.0786,36.423,1038.6],[2.0734,36.4242,983.0132],[2.0686,36.4196,1012.784],[2.0571,36.4173,961.9839],[2.0476,36.4202,1063.5258],[2.038,36.4255,985.8589],[2.0326,36.4251,1026.5065],[2.028,36.4188,935.8489],[2.0209,36.4158,910.1207],[2.0096,36.4171,936.3984],[1.9998,36.4134,978.7772],[1.9785,36.4109,942.8212],[1.9782,36.4011,748.2946],[1.994,36.3855,604.4729],[1.9917,36.3753,574.6141],[1.9929,36.3698,451.2472],[1.9962,36.3641,439.8545],[1.9943,36.3596,405.2224],[1.9975,36.3497,409.6476],[1.9967,36.3423,375.0373],[2.0001,36.3375,340.2759],[2.0166,36.3293,314.5],[2.015,36.3227,352.1374],[2.0187,36.3126,277.1017],[2.01,36.306,259.189],[2.0048,36.3079,254.9971],[1.9988,36.3068,247.6878],[1.9985,36.3022,246.3823],[1.9931,36.2998,240.5382],[1.9896,36.2957,236.1763],[1.9881,36.2902,242.5066],[1.9833,36.2873,232.0321],[1.9876,36.2822,235.1635],[1.9981,36.2854,237.1595],[2.0025,36.2839,237.0087],[2.0148,36.2858,238.6226],[2.0174,36.2892,237.4328],[2.0233,36.2909,239.8048],[2.0301,36.2885,239.18],[2.0283,36.2846,243.6678],[2.0328,36.2818,242.1258],[2.0193,36.2745,245.1274],[2.025,36.2658,246.5465],[2.0304,36.2629,246.9443],[2.0315,36.2576,247.52],[2.0359,36.2543,248.1282],[2.0482,36.2551,248.2345],[2.0602,36.2517,249.7688],[2.0721,36.2544,250.6419],[2.0951,36.2493,253.2345]]]]}}