{"type": "Feature","bbox": [6.82,36.6293,6.9718,36.744],"geometry": {"type": "MultiPolygon","coordinates": [[[[6.9703,36.7074,83.9743],[6.9576,36.7106,89.1494],[6.9541,36.7132,82.4538],[6.944,36.7163,68.6873],[6.9334,36.7165,70.6804],[6.9157,36.7229,58.7206],[6.909,36.7316,46.5808],[6.9039,36.7309,51.2485],[6.8862,36.7369,41.935],[6.8805,36.7397,41.4343],[6.8785,36.744,41.8832],[6.8727,36.7431,41.1966],[6.8625,36.737,41.5443],[6.8589,36.7413,69.5957],[6.8539,36.7422,45.4564],[6.8487,36.741,47.2704],[6.8439,36.7428,55.6147],[6.8306,36.7371,54.2657],[6.8333,36.7266,89.1902],[6.8263,36.7063,119.1397],[6.8266,36.6968,161.977],[6.8292,36.6927,116.7639],[6.8245,36.6891,115.1484],[6.8243,36.6846,151.731],[6.82,36.6754,202.609],[6.8325,36.674,189.4067],[6.851,36.6686,94.3168],[6.8625,36.668,72.2726],[6.8606,36.6632,69.4194],[6.8559,36.6598,74.6738],[6.8615,36.6554,77.2542],[6.8633,36.65,80.2841],[6.8607,36.6439,83.3703],[6.863,36.6366,93.4934],[6.8691,36.6293,196.5847],[6.8734,36.6344,225.059],[6.8799,36.6375,265.601],[6.8966,36.6416,321.0217],[6.9037,36.6471,405.5434],[6.9155,36.6495,468.2498],[6.9336,36.6717,195.4229],[6.9353,36.6822,150.7673],[6.9676,36.6913,164.185],[6.9718,36.7016,92.1864],[6.9703,36.7074,83.9743]]]]}
,"properties": {"GID_2": "DZA.39.33_1","GID_0": "DZA","country": "Algeria","GID_1": "DZA.39_1","province": "Skikda","NL_NAME_1": "سكيكدة","county": "SalahBouchaour","VARNAME_2": "NA","NL_NAME_2": "NA","TYPE_2": "Commune","ENGTYPE_2": "Commune","CC_2": "2125","HASC_2": "DZ.SK.SB","name": "Salah_Bouchaour.county","area_km2": 94.77988,"hist_schema_id": "Elevation0-9000","hist_area_km2": {"50": 12.76275,"75": 14.58427,"100": 16.69383,"125": 14.38277,"150": 11.88459,"175": 8.51893,"200": 5.10163,"225": 3.11227,"250": 2.347,"275": 1.73477,"300": 0.93548,"325": 0.71442,"350": 0.73142,"375": 0.44226,"400": 0.39123,"425": 0.20412,"450": 0.13608,"475": 0.05103,"500": 0.05103}}}