{"type":"Feature","properties":{"GID_2":"DZA.12.29_1","GID_0":"DZA","country":"Algeria","GID_1":"DZA.12_1","province":"Bouira","NL_NAME_1":"ولايةالبويرة","county":"Haizer","VARNAME_2":"NA","NL_NAME_2":"NA","TYPE_2":"Commune","ENGTYPE_2":"Commune","CC_2":"1012","HASC_2":"DZ.BU.HA","name":"Haizer.county"},
"geometry":{"type": "MultiPolygon","coordinates": [[[[3.9679,36.3534,469.2947],[3.9899,36.3465,462.0564],[3.9886,36.3619,498.9088],[3.9944,36.366,566.1054],[3.9957,36.3706,611.1157],[4.0386,36.3836,557.7877],[4.0573,36.3997,553.6694],[4.0694,36.4051,594.3696],[4.0829,36.4057,657.4504],[4.0889,36.4089,702.1836],[4.0921,36.4136,709.5234],[4.0912,36.4192,752.6668],[4.0961,36.437,945.4181],[4.0922,36.4427,1112.9796],[4.0996,36.4655,1782.1571],[4.0896,36.4681,2078.4055],[4.0832,36.4644,1915.203],[4.0677,36.4617,1774.447],[4.0465,36.4652,2076.958],[4.0287,36.459,2054.9958],[4.0255,36.4536,1618.9648],[4.0215,36.4405,1041.793],[4.0148,36.437,942.4333],[4.0114,36.4307,877.1162],[3.9864,36.4137,623.6739],[3.9816,36.413,624.8347],[3.9545,36.3949,546.7568],[3.9466,36.3819,516.5589],[3.939,36.373,496.349],[3.9385,36.3686,492.4776],[3.9449,36.3573,483.116],[3.949,36.3544,495.3876],[3.9591,36.3496,476.005],[3.9679,36.3534,469.2947]]]]}}