{"type": "Feature","bbox": [5.46,35.3802,5.7172,35.4765],"geometry": {"type": "MultiPolygon","coordinates": [[[[5.4711,35.4541,546.4069],[5.4659,35.4437,535.8993],[5.4647,35.4358,535.3436],[5.4615,35.4297,530.9924],[5.462,35.4247,531.7953],[5.4665,35.4239,539.0413],[5.4701,35.4176,533.6239],[5.4633,35.4162,536.1049],[5.46,35.4133,539.4474],[5.4642,35.4087,545.5757],[5.4814,35.3971,562.4565],[5.4749,35.3889,549.6334],[5.4862,35.3832,573.2596],[5.4954,35.3809,581.6867],[5.5018,35.3802,587.1168],[5.516,35.3834,603.8482],[5.5268,35.39,613.4524],[5.5372,35.3923,623.0945],[5.5411,35.3955,627.6306],[5.5581,35.4019,648.3385],[5.5703,35.3998,660.8765],[5.5753,35.4005,663.1821],[5.5809,35.398,665.9408],[5.5945,35.3988,682.3604],[5.6006,35.3966,688.0609],[5.6075,35.3983,695.1039],[5.6123,35.3977,696.3309],[5.6167,35.3936,710.4736],[5.6272,35.3899,723.9305],[5.6476,35.3967,756.3055],[5.6658,35.3855,770.7675],[5.6732,35.3849,816.1476],[5.7013,35.3886,830.782],[5.7076,35.3911,850.494],[5.7113,35.3944,858.8727],[5.7134,35.4169,1057.5706],[5.7085,35.4271,928.635],[5.7145,35.4316,946.7786],[5.7172,35.4378,1064.1764],[5.7163,35.4559,1263.5381],[5.707,35.4596,1342.0232],[5.6879,35.4718,1429.6217],[5.6793,35.473,1249.2245],[5.6738,35.4704,1303.1293],[5.6427,35.4635,1236.6074],[5.6113,35.4634,1170.1953],[5.5967,35.4667,1114.9211],[5.5798,35.4765,1038.4017],[5.5445,35.4672,699.781],[5.5372,35.4666,683.1244],[5.5211,35.4689,635.7646],[5.511,35.4672,617.3664],[5.5027,35.462,601.3662],[5.5022,35.4573,595.1995],[5.499,35.4541,588.8733],[5.4833,35.4584,560.1799],[5.4711,35.4541,546.4069]]]]}
,"properties": {"GID_2": "DZA.6.49_1","GID_0": "DZA","country": "Algeria","GID_1": "DZA.6_1","province": "Batna","NL_NAME_1": "ولايةباتنة","county": "Sefiane","VARNAME_2": "NA","NL_NAME_2": "NA","TYPE_2": "Commune","ENGTYPE_2": "Commune","CC_2": "524","HASC_2": "DZ.BT.SF","name": "Sefiane.county","area_km2": 184.3382,"hist_schema_id": "Elevation0-9000","hist_area_km2": {"525": 0.7947,"550": 10.4529,"575": 17.2272,"600": 15.2219,"625": 13.0091,"650": 12.2143,"675": 11.8689,"700": 10.4524,"725": 10.8674,"750": 8.8978,"775": 8.2071,"800": 5.9609,"825": 5.4426,"850": 5.1662,"875": 4.855,"900": 4.3193,"925": 4.2846,"950": 3.5241,"975": 3.282,"1000": 2.9019,"1025": 3.0573,"1050": 2.9535,"1075": 2.5389,"1100": 2.1071,"1125": 2.2106,"1150": 2.6078,"1175": 1.9343,"1200": 1.7271,"1225": 1.4334,"1250": 1.2434,"1275": 1.3816,"1300": 1.1398,"1325": 0.4144,"1350": 0.3281,"1375": 0.1381,"1400": 0.0863,"1425": 0.0863}}}