{"type":"Feature","properties":{"GID_2":"DZA.26.9_1","GID_0":"DZA","country":"Algeria","GID_1":"DZA.26_1","province":"M'Sila","NL_NAME_1":"ولايةالمسيلة","county":"Benzouh","VARNAME_2":"NA","NL_NAME_2":"NA","TYPE_2":"Commune","ENGTYPE_2":"Commune","CC_2":"2835","HASC_2":"DZ.MS.BZ","name":"Benzouh.county"},
"geometry":{"type": "MultiPolygon","coordinates": [[[[4.2332,35.5175,420.2146],[4.21,35.5386,435.5221],[4.2114,35.5443,434.7685],[4.2241,35.5685,447.6174],[4.2222,35.5778,452.5467],[4.2102,35.5823,455.3574],[4.1874,35.5877,479.556],[4.1783,35.6014,500.8307],[4.1618,35.5984,492.7198],[4.1095,35.5774,510.1929],[4.0768,35.5773,542.1494],[4.0528,35.5736,564.9487],[4.0325,35.5509,593.3671],[4.0029,35.5086,639.8918],[4.0019,35.4526,635.9555],[3.9958,35.4514,654.53],[3.9939,35.4474,670.8937],[3.996,35.437,702.0947],[3.9882,35.421,721.2144],[3.9897,35.4156,730.0891],[3.9887,35.4081,737.6507],[3.9963,35.3799,800.689],[3.9976,35.3641,840.2753],[4.0259,35.3306,880.0015],[4.0414,35.3165,841.4943],[4.0479,35.3129,785.8561],[4.0477,35.319,859.9423],[4.0507,35.3239,866.7357],[4.0577,35.3305,904.5402],[4.0664,35.3485,966.62],[4.0775,35.3601,1021.0803],[4.0739,35.3675,938.3551],[4.0766,35.3745,1018.5601],[4.0823,35.384,1053.0579],[4.0982,35.398,675.6406],[4.122,35.4173,639.4083],[4.1497,35.4311,584.396],[4.1752,35.4347,477.7805],[4.1821,35.4399,476.464],[4.1964,35.4423,469.2058],[4.2016,35.4364,439.4901],[4.2035,35.4435,429.1698],[4.2031,35.4774,432.603],[4.229,35.4837,416.9626],[4.2444,35.4832,409.2528],[4.2571,35.4855,404.769],[4.2655,35.4976,406.521],[4.2629,35.502,407.1763],[4.2332,35.5175,420.2146]]]]}}