{"type": "Feature","bbox": [1.344,34.4583,2.1111,35.1558],"geometry": {"type": "MultiPolygon","coordinates": [[[[2.1111,34.6063,965.3032],[2.0888,34.6734,1054.3921],[2.0226,34.7312,953.3875],[2.0159,34.733,952.8074],[1.9921,34.7315,960.65],[1.9812,34.7341,965.744],[1.9612,34.7339,973.9463],[1.9452,34.7393,978.9228],[1.9333,34.7368,983.3743],[1.9244,34.743,988.8743],[1.913,34.7483,993.5628],[1.9004,34.7501,999.1822],[1.8791,34.7562,1008.2109],[1.8679,34.7536,1013.5772],[1.8538,34.7554,1018.9864],[1.8426,34.7619,1026.0056],[1.8383,34.7721,1033.4192],[1.8275,34.7821,1043.5386],[1.8236,34.7965,1081.5022],[1.7531,34.8141,1103.1584],[1.7104,34.8604,1120.3588],[1.7048,34.8714,1134.36],[1.6711,34.8973,1162.1284],[1.6655,34.9176,1174.9646],[1.6454,34.9517,1219.1217],[1.6438,34.9779,1238.3059],[1.6312,35.0316,1298.8435],[1.6378,35.0538,1322.5591],[1.6447,35.0574,1324.5193],[1.6419,35.0672,1324.8066],[1.6358,35.0729,1328.2699],[1.6336,35.0785,1327.7787],[1.6343,35.0842,1286.2532],[1.621,35.0916,1347.4099],[1.6184,35.1027,1286.918],[1.6111,35.1144,1257.9238],[1.5736,35.1408,1092.7621],[1.562,35.1558,1057.3247],[1.5422,35.1401,1084.3595],[1.5285,35.1358,1094.6747],[1.5193,35.13,1104.0248],[1.5148,35.1307,1115.973],[1.5051,35.1277,1121.04],[1.4895,35.133,1157.5863],[1.4683,35.1367,1189.105],[1.4617,35.1361,1217.6465],[1.4448,35.1273,1210.3037],[1.4411,35.1248,1216.6082],[1.4166,35.0787,1214.3615],[1.3862,35.0624,1209.0864],[1.3631,35.0447,1185.5796],[1.3483,35.0381,1170.194],[1.3448,35.0341,1172.4121],[1.3485,35.0234,1169.3938],[1.344,35.0137,1155.2864],[1.3479,35.0115,1159.4473],[1.3725,35.0275,1177.0487],[1.3936,35.0253,1169.6652],[1.394,35.0344,1180.8435],[1.4034,35.0389,1202.0839],[1.4146,35.0409,1207.6422],[1.4187,35.0258,1189.0222],[1.4224,35.0192,1197.9568],[1.4255,35.0149,1214.4133],[1.437,35.0073,1238.4865],[1.44,35.0009,1256.7223],[1.442,34.9947,1268.6355],[1.4363,34.9894,1267.3645],[1.4505,34.9675,1219.3309],[1.4716,34.955,1156.1221],[1.4806,34.9172,1120.0564],[1.4929,34.9097,1111.0259],[1.5009,34.9151,1117.1523],[1.5214,34.9173,1128.0396],[1.5247,34.9199,1155.6733],[1.536,34.9201,1138.8129],[1.5408,34.9235,1146.9364],[1.5532,34.9274,1151.473],[1.5748,34.9279,1161.5776],[1.5903,34.9071,1203.2059],[1.6386,34.8052,1072.9625],[1.6113,34.7562,1047.0396],[1.6122,34.7517,1044.7554],[1.6333,34.7159,1033.7415],[1.654,34.6979,1024.6604],[1.6588,34.6915,1023.707],[1.6735,34.6804,1024.0986],[1.6805,34.6787,1024.4766],[1.694,34.6695,1019.4969],[1.7074,34.6658,1023.8924],[1.711,34.6613,1022.2555],[1.7434,34.5981,1017.2239],[1.7505,34.5805,1022.8406],[1.7505,34.5738,1025.9288],[1.7432,34.5691,1032.6868],[1.7354,34.5587,1031.3298],[1.7336,34.548,1035.688],[1.7297,34.5435,1038.1947],[1.7246,34.5422,1041.127],[1.8058,34.4583,1111.2458],[1.8229,34.4679,1132.3458],[1.8381,34.4659,1145.7555],[1.8443,34.4673,1143.1885],[1.8509,34.4698,1146.8088],[1.8538,34.4731,1166.0034],[1.866,34.4793,1140.7823],[1.8718,34.4781,1148.8513],[1.8783,34.4806,1141.2395],[1.884,34.4794,1101.313],[1.887,34.4836,1136.1283],[1.8931,34.4831,1129.8877],[1.8981,34.4861,1119.8917],[1.9275,34.4861,1115.3082],[1.9442,34.4909,1101.5593],[1.9542,34.4965,1061.5453],[2.0003,34.5068,1083.3546],[2.0258,34.5483,1007.4673],[2.1111,34.6063,965.3032]]]]}
,"properties": {"GID_2": "DZA.43.24_1","GID_0": "DZA","country": "Algeria","GID_1": "DZA.43_1","province": "Tiaret","NL_NAME_1": "ولايةتيارت","county": "Naima","VARNAME_2": "NA","NL_NAME_2": "NA","TYPE_2": "Commune","ENGTYPE_2": "Commune","CC_2": "1420","HASC_2": "DZ.TR.NM","name": "Naima.county","area_km2": 1607.339,"hist_schema_id": "Elevation0-9000","hist_area_km2": {"950": 9.534,"975": 95.016,"1000": 221.478,"1025": 324.022,"1050": 201.547,"1075": 147.592,"1100": 88.83,"1125": 51.988,"1150": 61.25,"1175": 81.368,"1200": 82.331,"1225": 65.337,"1250": 43.09,"1275": 35.143,"1300": 31.39,"1325": 36.892,"1350": 20.154,"1375": 3.818,"1400": 2.863,"1425": 2.637,"1450": 1.024,"1475": 0.035}}}