{"type":"Feature","properties":{"GID_2":"DZA.39.15_1","GID_0":"DZA","country":"Algeria","GID_1":"DZA.39_1","province":"Skikda","NL_NAME_1":"سكيكدة","county":"DjendelSaadiMohamed","VARNAME_2":"NA","NL_NAME_2":"NA","TYPE_2":"Commune-Cotiere","ENGTYPE_2":"Commune-Cotiere","CC_2":"2105","HASC_2":"DZ.SK.DS","name":"Djendel_Saadi_Mohamed.county"},
"geometry":{"type": "MultiPolygon","coordinates": [[[[7.2754,36.7873,104.7081],[7.2654,36.7963,215.8746],[7.2552,36.7961,171.6198],[7.2507,36.7939,150.1351],[7.2432,36.7952,138.6497],[7.2285,36.805,252.5393],[7.2224,36.8069,307.9183],[7.2257999999999996,36.8124,222.9183],[7.2289,36.8249,170.8336],[7.2255,36.8292,158.0574],[7.2214,36.8395,184.9229],[7.2178,36.843,185.1133],[7.2184,36.8479,213.3824],[7.2141,36.848,260.9512],[7.2117,36.8521,125.8535],[7.234,36.8635,31.818],[7.2391,36.8683,23.6207],[7.2415,36.8725,27.728],[7.2358,36.8747,24.4503],[7.2341,36.8789,37.1416],[7.2418,36.8879,27.2229],[7.251,36.9038,35.6569],[7.2521,36.9085,36.9488],[7.2329,36.92,31.162],[7.2288,36.9234,32.89],[7.228,36.928,30.7651],[7.2236,36.9318,44.7297],[7.2083,36.9407,21.812],[7.2039,36.945,6.038],[7.1885,36.9353,0.0],[7.1798,36.9278,0.6859],[7.169,36.9226,0.0],[7.1653,36.9166,22.5843],[7.1709,36.9143,39.8732],[7.1739,36.9095,52.0614],[7.1734,36.8994,94.6867],[7.1706,36.8951,175.7936],[7.1611,36.8879,422.8379],[7.1511,36.8833,525.8538],[7.1349,36.8792,502.323],[7.1328,36.8747,449.2105],[7.121,36.8686,492.71],[7.1053,36.8716,332.2305],[7.0895,36.8697,387.373],[7.0788,36.8704,417.194],[7.0714,36.8679,396.1719],[7.0614,36.8602,502.3851],[7.0512,36.8563,519.4711],[7.0411,36.8567,508.5257],[7.0272,36.8521,556.3149],[7.0164,36.8411,539.612],[7.0184,36.8371,551.0626],[7.0172,36.8321,504.2285],[7.0215,36.8276,403.9889],[7.0288,36.8133,391.4529],[7.0422,36.8133,421.8607],[7.0399,36.8176,282.2808],[7.0417,36.8234,215.9081],[7.0589,36.8291,246.4497],[7.0766,36.8242,170.8582],[7.0789,36.8166,129.3958],[7.0856,36.8164,119.54],[7.0894,36.8124,162.8953],[7.1141,36.8038,170.5285],[7.1176,36.7982,219.0359],[7.1286,36.7892,136.2548],[7.1472,36.785,115.3186],[7.1477,36.7787,60.2271],[7.1445,36.7741,57.4134],[7.1428,36.7618,68.0751],[7.1499,36.7581,59.973],[7.16,36.7579,61.5419],[7.1742,36.7542,64.7082],[7.175,36.7588,59.0841],[7.1778,36.763,57.4303],[7.1831,36.7672,45.973],[7.1888,36.7676,72.9077],[7.2101,36.7674,42.1133],[7.2133,36.7633,64.8797],[7.2188,36.7656,41.5028],[7.2206,36.7615,70.0317],[7.2269,36.7615,40.7448],[7.2389,36.7684,75.5623],[7.2489,36.7679,112.9069],[7.2654,36.7637,188.0395],[7.271,36.7689,58.4866],[7.2653,36.7763,69.8356],[7.2667,36.7804,71.3942],[7.2754,36.7873,104.7081]]]]}}