{"type":"Feature","properties":{"GID_2":"DZA.4.21_1","GID_0":"DZA","country":"Algeria","GID_1":"DZA.4_1","province":"Alger","NL_NAME_1":"ولايةالجزائر","county":"Saoula","VARNAME_2":"Sawlah","NL_NAME_2":"NA","TYPE_2":"Commune","ENGTYPE_2":"Commune","CC_2":"1657","HASC_2":"DZ.AL.SA","name":"Saoula.county"},
"geometry":{"type": "MultiPolygon","coordinates": [[[[3.0786,36.6722,15.6606],[3.0642,36.6795,27.8809],[3.0413,36.6967,73.0588],[3.0263,36.7159,136.3937],[3.0124,36.7105,155.9295],[3.0106,36.7007,145.604],[3.0048,36.6918,109.5453],[3.0096,36.6819,161.704],[3.0102,36.6767,192.2031],[3.0214,36.6646,89.9449],[3.0401,36.6582,30.4858],[3.0588,36.6682,22.0283],[3.0648,36.6661,21.474],[3.0746,36.669,19.0775],[3.0786,36.6722,15.6606]]]]}}