{"type": "Feature","bbox": [8.114,35.7019,8.2766,35.9434],"geometry": {"type": "MultiPolygon","coordinates": [[[[8.2661,35.7303,832.8787],[8.2689,35.7376,708.249],[8.2647,35.7458,670.6145],[8.2615,35.7634,643.5381],[8.2627,35.7704,641.1152],[8.2681,35.7822,633.9395],[8.268,35.7965,611.6026],[8.2726,35.8101,582.6204],[8.2717,35.8148,573.5374],[8.2738,35.816,571.667],[8.275,35.8239,570.1025],[8.2698,35.8715,504.6733],[8.2766,35.8907,485.4316],[8.2623,35.8914,485.6937],[8.2703,35.8985,480.1126],[8.2727,35.9028,474.9264],[8.2583,35.9088,466.7404],[8.2601,35.9146,462.5009],[8.2643,35.9188,457.2992],[8.2639,35.9255,452.4293],[8.2655,35.9286,452.0121],[8.2662,35.9403,437.4897],[8.2324,35.9434,454.0744],[8.2201,35.9395,456.6237],[8.2141,35.9409,467.6699],[8.2056,35.9368,463.898],[8.1972,35.9259,470.8372],[8.1907,35.9243,471.6848],[8.1825,35.9191,475.0378],[8.1782,35.92,479.3835],[8.1734,35.9141,484.9524],[8.1669,35.9103,484.1135],[8.1597,35.9029,488.2158],[8.152,35.9037,490.2494],[8.1499,35.8983,498.0231],[8.1381,35.8945,500.2294],[8.1351,35.889,503.8589],[8.1274,35.8856,505.9574],[8.124,35.8812,509.7038],[8.1271,35.8768,521.3815],[8.1335,35.8736,522.6614],[8.1356,35.8697,528.8113],[8.133,35.8639,528.073],[8.1355,35.8515,542.2467],[8.133,35.8402,552.0088],[8.1363,35.8306,567.9116],[8.1336,35.8184,575.9213],[8.1299,35.8157,573.3988],[8.1297,35.8106,585.4707],[8.125,35.8057,584.3918],[8.1236,35.801,592.7894],[8.1331,35.7809,623.9463],[8.1367,35.7697,636.2667],[8.1448,35.758,646.131],[8.1443,35.7508,655.7517],[8.1352,35.7371,678.2886],[8.1359,35.7322,694.0403],[8.1315,35.7303,692.6105],[8.1253,35.7223,711.0605],[8.1146,35.715,732.2031],[8.114,35.7084,766.3737],[8.1159,35.7044,784.6074],[8.1206,35.705,775.2233],[8.1304,35.7095,751.1713],[8.1493,35.711,747.241],[8.1562,35.7098,758.7004],[8.163,35.7019,768.9418],[8.1652,35.7061,763.0084],[8.1696,35.7094,751.7],[8.1916,35.7181,733.2214],[8.2109,35.7227,715.7477],[8.2185,35.7267,706.8408],[8.2487,35.7316,1024.2163],[8.2593,35.7296,867.8467],[8.2661,35.7303,832.8787]]]]}
,"properties": {"GID_2": "DZA.42.13_1","GID_0": "DZA","country": "Algeria","GID_1": "DZA.42_1","province": "Tébessa","NL_NAME_1": "ولايةتبسة","county": "ElMeridj","VARNAME_2": "NA","NL_NAME_2": "NA","TYPE_2": "Commune","ENGTYPE_2": "Commune","CC_2": "1224","HASC_2": "DZ.TB.ER","name": "El_Meridj.county","area_km2": 280.8557,"hist_schema_id": "Elevation0-9000","hist_area_km2": {"425": 0.103,"450": 6.6439,"475": 11.2646,"500": 30.7781,"525": 30.6151,"550": 20.2948,"575": 24.1849,"600": 27.3183,"625": 32.1898,"650": 37.976,"675": 24.9795,"700": 16.2273,"725": 9.7078,"750": 6.025,"775": 1.6698,"800": 0.2754,"825": 0.1033,"850": 0.1721,"875": 0.0861,"900": 0.1033,"925": 0.0172,"950": 0.0516,"975": 0.0172,"1025": 0.0516}}}