{"type":"Feature","properties":{"GID_2":"DZA.34.24_1","GID_0":"DZA","country":"Algeria","GID_1":"DZA.34_1","province":"OumelBouaghi","NL_NAME_1":"ولايةأمالبواقي","county":"OuledHamla","VARNAME_2":"NA","NL_NAME_2":"NA","TYPE_2":"Commune","ENGTYPE_2":"Commune","CC_2":"410","HASC_2":"DZ.OB.OH","name":"Ouled_Hamla.county"},
"geometry":{"type": "MultiPolygon","coordinates": [[[[6.5218,36.166,931.7681],[6.5169,36.1682,928.0308],[6.4937,36.1674,892.9265],[6.4832,36.1653,888.3531],[6.4832,36.1588,868.4171],[6.473,36.1552,861.0074],[6.4681,36.1544,847.6485],[6.4551,36.1562,827.7592],[6.4497,36.1544,828.9396],[6.435,36.1426,880.9456],[6.4188,36.1406,845.9595],[6.4109,36.1299,779.7136],[6.4026,36.1137,756.5602],[6.4028,36.1065,766.6556],[6.4053,36.1021,772.3107],[6.4111,36.0767,900.6349],[6.4034,36.0683,1129.2983],[6.4017,36.0613,1190.8795],[6.4029,36.0432,883.8724],[6.4059,36.0334,874.8981],[6.4147,36.0224,899.7366],[6.4376,36.0083,920.4882],[6.4522,36.0012,905.4742],[6.4553,35.9966,1063.4504],[6.4616,35.9926,1019.7753],[6.4712,35.9978,993.2004],[6.4828,36.009,1178.9963],[6.4771,36.0221,925.5529],[6.4879,36.0294,856.8823],[6.4909,36.0357,847.8595],[6.4967,36.0424,849.6886],[6.504,36.0464,864.6333],[6.5062,36.0517,884.2917],[6.5046,36.0562,867.4055],[6.5091,36.0616,839.7222],[6.5102,36.0693,816.9788],[6.5153,36.0731,800.9519],[6.5137,36.0855,811.2466],[6.5167,36.0904,884.8309],[6.5415,36.1111,967.6143],[6.5412,36.1175,840.4461],[6.5434,36.122,832.7061],[6.5397,36.1297,908.8926],[6.5337,36.1349,1037.5374],[6.5306,36.1406,1030.3712],[6.5322,36.1475,1040.5928],[6.5179,36.1509,955.2278],[6.5142,36.1553,903.9034],[6.5218,36.166,931.7681]]]]}}