{"type":"Feature","properties":{"GID_2":"DZA.10.20_1","GID_0":"DZA","country":"Algeria","GID_1":"DZA.10_1","province":"Blida","NL_NAME_1":"البليدة","county":"OuedDjer","VARNAME_2":"NA","NL_NAME_2":"NA","TYPE_2":"Commune","ENGTYPE_2":"Commune","CC_2":"918","HASC_2":"DZ.BL.OD","name":"Oued_Djer.county"},
"geometry":{"type": "MultiPolygon","coordinates": [[[[2.5754,36.3762,252.7841],[2.5757,36.3821,493.3384],[2.586,36.388,532.3299],[2.5838,36.3947,656.0657],[2.5945,36.4131,577.2315],[2.5933,36.4189,527.2883],[2.5845,36.4263,420.6344],[2.5758,36.4283,267.5914],[2.5672,36.4355,129.3355],[2.5701,36.4392,135.6084],[2.5762,36.4383,124.7448],[2.5804,36.4396,134.0341],[2.5818,36.445,120.8043],[2.5951,36.4467,123.2832],[2.5975,36.4528,108.2216],[2.594,36.4556,105.7503],[2.5791,36.4601,210.607],[2.5712,36.4675,156.9909],[2.5655,36.4656,152.0313],[2.5637,36.4616,174.8781],[2.5584,36.4599,168.9007],[2.5429,36.4602,232.8285],[2.5384,36.4618,242.1283],[2.5299,36.4686,143.2999],[2.5158,36.4603,240.1281],[2.5142,36.453,342.4137],[2.5175,36.4475,511.4362],[2.5233,36.443,571.3052],[2.5138,36.4344,593.2756],[2.5092,36.426,552.6516],[2.4983,36.4256,541.5284],[2.4805,36.4137,534.2798],[2.4856,36.4107,564.5918],[2.4979,36.4103,609.2172],[2.5067,36.4118,570.6879],[2.5106,36.3917,206.3401],[2.5255,36.3821,498.7837],[2.535,36.3846,513.3374],[2.5404,36.3843,492.6286],[2.5754,36.3762,252.7841]]]]}}