{"type":"Feature","properties":{"GID_2":"DZA.17.16_1","GID_0":"DZA","country":"Algeria","GID_1":"DZA.17_1","province":"ElBayadh","NL_NAME_1":"ولايةالبيض","county":"Krakda","VARNAME_2":"NA","NL_NAME_2":"NA","TYPE_2":"Commune","ENGTYPE_2":"Commune","CC_2":"3215","HASC_2":"DZ.EB.KR","name":"Krakda.county"},
"geometry":{"type": "MultiPolygon","coordinates": [[[[0.806,33.2531,1211.4353],[0.798,33.2424,1176.9463],[0.8003,33.2377,1158.1704],[0.8179,33.2345,1135.833],[0.8232,33.2308,1129.7898],[0.8274,33.232,1124.1292],[0.8309,33.2287,1117.0253],[0.8368,33.2267,1111.1364],[0.821,33.1473,1035.5106],[0.8199,33.1284,1021.8403],[0.8353,33.1328,1022.7685],[0.9293,33.1437,1024.4669],[0.9812,33.1729,1107.2405],[1.0018,33.1881,1037.2732],[1.0162,33.1889,1030.2191],[1.0219,33.1911,1025.2712],[1.0402,33.2045,1009.485],[1.0445,33.2036,1008.3694],[1.0504,33.2059,1004.8888],[1.0865,33.2351,1067.0961],[1.1189,33.2705,1154.6154],[1.1256,33.2801,1136.4998],[1.1264,33.2868,1128.6289],[1.1226,33.2963,1110.7969],[1.1222,33.3036,1095.6362],[1.1253,33.329,1116.3713],[1.1284,33.334,1121.5457],[1.1135,33.3347,1121.7109],[1.0912,33.3326,1105.5881],[1.1775,33.4238,1206.0457],[1.1661,33.4366,1242.4514],[1.182,33.4607,1258.36],[1.1891,33.4991,1305.1466],[1.1555,33.5693,1444.7983],[1.1265,33.5958,1358.9479],[1.1184,33.6004,1365.302],[1.1098,33.5986,1377.0316],[1.0959,33.5907,1409.4124],[1.0908,33.5829,1454.1305],[1.0894,33.5693,1448.3821],[1.0906,33.5625,1482.5664],[1.0982,33.5472,1522.899],[1.0921,33.5422,1542.7815],[1.0596,33.5287,1625.2467],[1.0311,33.5127,1555.7865],[1.0104,33.4995,1572.3885],[0.997,33.4886,1593.252],[1.0042,33.4828,1453.964],[0.9986,33.4606,1320.6721],[0.9893,33.4459,1267.9871],[0.9872,33.4305,1222.9568],[0.9825,33.4255,1211.6213],[0.98,33.4138,1192.1599],[0.9859,33.4042,1183.4103],[0.9852,33.3922,1172.8083],[0.9765,33.371,1166.0488],[0.969,33.3675,1160.178],[0.9458,33.3504,1145.0664],[0.941,33.3309,1113.1753],[0.9345,33.3266,1127.3076],[0.9018,33.3145,1165.0853],[0.853,33.2904,1236.2239],[0.8476,33.2867,1229.9402],[0.8338,33.272,1239.4495],[0.8195,33.265,1218.073],[0.806,33.2531,1211.4353]]]]}}