{"type":"Feature","properties":{"GID_1":"DZA.15_1","GID_0":"DZA","country":"Algeria","province":"Constantine","VARNAME_1":"Constantina|Costatina|Qoussantin","NL_NAME_1":"قسنطينة","TYPE_1":"Wilaya","ENGTYPE_1":"Province","CC_1":"25","HASC_1":"DZ.CO","ISO_1":"DZ-25","name":"Constantine.province"},
"geometry":{"type": "MultiPolygon","coordinates": [[[[6.8153,36.1685,891.5793],[6.8183,36.1636,930.6186],[6.8194,36.1571,922.8727],[6.8243,36.1531,945.2514],[6.8337,36.1495,998.386],[6.8479,36.1487,1049.3301],[6.8596,36.1458,1044.754],[6.8779,36.149,1119.5363],[6.8931,36.1477,1050.4622],[6.8985,36.1449,1062.2351],[6.8993,36.1384,1118.8467],[6.9037,36.1369,1087.6268],[6.9076,36.1407,1132.0518],[6.9077,36.145,1088.2443],[6.9116,36.142,1137.9187],[6.937,36.1401,1114.3204],[6.9471,36.146,1042.3333],[6.9628,36.1444,1002.5776],[6.9656,36.138,1064.1982],[6.971,36.1371,1072.1648],[6.978,36.1388,1053.4818],[6.983,36.1427,1044.6639],[6.9992,36.1409,1055.1948],[6.999,36.1469,1045.9849],[7.0033,36.1517,1031.5193],[7.0037,36.1569,987.5037],[7.0005,36.1627,959.7863],[7.0047,36.1669,965.3693],[7.0235,36.1776,983.2585],[7.0397,36.1807,1010.3166],[7.0403,36.1946,907.8861],[7.0387,36.2046,876.7883],[7.0433,36.2061,870.7669],[7.0462,36.2179,856.0881],[7.0498,36.2235,846.8809],[7.0446,36.2411,733.4029],[7.0466,36.2471,770.9767],[7.0424,36.2552,848.3353],[7.0412,36.2655,862.156],[7.0332,36.2802,908.8212],[7.0263,36.3,979.4261],[7.0199,36.3021,998.0961],[7.0116,36.3,1013.8564],[6.9906,36.3013,977.6364],[6.9757999999999996,36.3082,1035.6774],[6.9672,36.315,1062.6279],[6.9771,36.3171,1030.9854],[6.9808,36.3201,975.702],[6.985,36.3253,921.8874],[6.9842,36.3301,845.6478],[6.9871,36.3355,869.2031],[6.9949,36.3404,858.4777],[6.9852,36.3445,744.0709],[6.9716,36.3554,711.6779],[6.9631,36.3559,729.8947],[6.9499,36.3625,808.4403],[6.9686,36.3806,919.1211],[6.9738,36.3832,866.9218],[6.9716,36.3869,844.1134],[6.955,36.4002,843.1625],[6.9531,36.405,858.5109],[6.9556,36.4175,620.0836],[6.9412,36.4246,690.7745],[6.9307,36.4221,693.2044],[6.9251,36.4239,742.5338],[6.9205,36.4299,769.9142],[6.9154,36.4289,759.9348],[6.905,36.4299,747.2408],[6.8945,36.4272,764.7681],[6.8897,36.4283,797.4296],[6.8846,36.4342,839.9798],[6.8795,36.4369,883.6529],[6.8692,36.453,930.0179],[6.8553,36.4535,980.0023],[6.8438,36.4505,983.9021],[6.8324,36.4517,1015.8531],[6.8283,36.4492,1001.8832],[6.8207,36.448,1034.2432],[6.8171,36.4583,913.0164],[6.8337,36.4698,722.2761],[6.8355,36.4811,593.942],[6.838,36.4855,522.2263],[6.8385,36.4968,475.8399],[6.8346,36.501,481.3627],[6.8307,36.5205,401.5738],[6.8338,36.527,349.1815],[6.8392,36.5297,303.506],[6.8495,36.5307,294.8071],[6.8538,36.5335,322.1478],[6.8564,36.5383,443.2101],[6.8644,36.5453,559.6367],[6.8736,36.5498,664.3351],[6.8786,36.5618,699.6796],[6.864,36.5627,633.0197],[6.8524,36.5662,739.2401],[6.8309,36.5622,801.6736],[6.8264,36.5589,815.5874],[6.8105,36.5544,746.6786],[6.8005,36.555,791.0377],[6.7872,36.5526,755.0646],[6.7695,36.5564,626.899],[6.7601,36.5641,587.653],[6.7485,36.5641,575.3728],[6.7398,36.5662,655.309],[6.7384,36.5742,551.6678],[6.7272,36.5751,720.6199],[6.7224,36.5782,789.987],[6.7033,36.5736,785.4221],[6.6837,36.5738,748.8193],[6.6798,36.5836,667.6132],[6.6881,36.5969,448.7707],[6.6874,36.6011,370.3034],[6.6818,36.6035,470.8493],[6.6833,36.617,391.4802],[6.6731,36.6229,416.8184],[6.6614,36.6228,439.0541],[6.6444,36.6179,337.8687],[6.6378,36.6014,491.8398],[6.6303,36.5958,540.5962],[6.6283,36.5895,721.3983],[6.6226,36.5874,689.059],[6.6207,36.5753,767.9209],[6.6159,36.5721,744.0402],[6.5954,36.5738,784.6099],[6.5918,36.5706,788.4363],[6.5721,36.5861,1048.5824],[6.5573,36.5877,1186.9109],[6.5393,36.5832,1208.3008],[6.5281,36.5766,1263.876],[6.5119,36.5808,1304.6931],[6.5063,36.5781,1265.447],[6.4997,36.5635,874.3041],[6.5042,36.5494,648.1866],[6.5019,36.5394,523.4847],[6.5041,36.5286,341.6418],[6.507,36.5226,284.369],[6.5029,36.5181,252.2833],[6.4972,36.5168,250.7677],[6.4923,36.5175,246.2044],[6.4865,36.5152,244.0831],[6.4791,36.5106,268.4161],[6.4722,36.5021,240.835],[6.4621,36.4952,232.2944],[6.458,36.4971,215.6469],[6.4277,36.4963,327.1528],[6.4166,36.5004,303.1307],[6.4038,36.4968,237.4977],[6.397,36.4986,267.5724],[6.3877,36.4937,197.0],[6.3848,36.4873,197.0],[6.3785,36.4874,197.0],[6.3785,36.4925,197.0],[6.3743,36.4938,197.0],[6.3652,36.4909,197.0],[6.361,36.4921,197.0],[6.352,36.4897,197.0],[6.3545,36.4657,212.8104],[6.3459,36.4522,245.9231],[6.3457,36.4463,257.6366],[6.3471,36.4406,270.3921],[6.3549,36.4263,311.7511],[6.3577,36.4162,405.3374],[6.3514,36.4036,425.0303],[6.3447,36.3975,454.5192],[6.3386,36.3945,502.3802],[6.3221,36.3782,607.4987],[6.3186,36.3709,689.471],[6.3171,36.359,778.1097],[6.3107,36.3451,891.433],[6.3103,36.3392,950.1649],[6.3282,36.343,890.8112],[6.3357,36.3504,951.927],[6.3452,36.3544,1070.7074],[6.3592,36.3543,1063.2954],[6.3747,36.3576,997.206],[6.3815,36.3549,923.8969],[6.3795,36.3451,989.5597],[6.3822,36.3359,993.478],[6.3859,36.3335,1021.145],[6.396,36.331,979.0919],[6.4067,36.3305,957.4359],[6.4258,36.3232,999.6924],[6.4249,36.3186,1083.7654],[6.4267,36.314,1100.0472],[6.4364,36.3115,1221.7349],[6.4344,36.3075,1179.543],[6.4273,36.3003,1083.2388],[6.4199,36.2942,1154.2891],[6.4102,36.2897,1110.5756],[6.4072,36.2854,920.6523],[6.4087,36.2707,781.9907],[6.4113,36.2662,733.1787],[6.4165,36.2632,703.3434],[6.419,36.2579,679.9613],[6.4238,36.2557,666.703],[6.424,36.2506,649.6177],[6.4488,36.2457,628.4474],[6.4613,36.248,627.8773],[6.4786,36.2546,617.0297],[6.4958,36.2551,620.8118],[6.5027,36.239,753.5921],[6.507,36.2349,748.7006],[6.538,36.2228,747.4799],[6.5375,36.2185,719.4966],[6.5423,36.2131,737.0449],[6.5402,36.2092,752.3342],[6.5295,36.206,765.962],[6.5316,36.2017,795.5906],[6.5426,36.1948,815.5098],[6.5451,36.1833,855.0688],[6.5435,36.1776,885.3881],[6.5378,36.1708,940.6033],[6.5317,36.17,955.5853],[6.5218,36.166,931.7681],[6.5142,36.1553,903.9034],[6.5179,36.1509,955.2278],[6.5322,36.1475,1040.5928],[6.5306,36.1406,1030.3712],[6.5337,36.1349,1037.5374],[6.5397,36.1297,908.8926],[6.5434,36.122,832.7061],[6.5412,36.1175,840.4461],[6.5415,36.1111,967.6143],[6.5489,36.1111,853.6304],[6.5578,36.1036,811.8826],[6.565,36.1031,808.5182],[6.5685,36.1068,803.3565],[6.5753,36.0988,792.6558],[6.5854,36.0942,783.2898],[6.5863,36.1009,773.8166],[6.5821,36.1063,778.0104],[6.5766,36.1107,789.4276],[6.5699,36.1121,789.3691],[6.566,36.1153,795.6201],[6.5682,36.1227,805.7383],[6.589,36.1171,776.291],[6.5969,36.1066,756.6114],[6.6018,36.1046,756.0811],[6.6066,36.103,769.2163],[6.6183,36.1049,949.5015],[6.6216,36.1009,997.3812],[6.6298,36.1037,964.5509],[6.6346,36.1072,932.7073],[6.6397,36.1157,986.6382],[6.6387,36.1215,942.2845],[6.6329,36.1345,811.8615],[6.64,36.14,763.7101],[6.6563,36.1436,751.0385],[6.6605,36.1427,762.8342],[6.6738,36.1445,754.5664],[6.6939,36.1435,785.387],[6.712,36.139,804.6906],[6.7178,36.142,790.4634],[6.7361,36.1445,779.7159],[6.7406,36.1423,759.5903],[6.7462,36.143,744.3512],[6.7497,36.1495,791.1143],[6.7509,36.1632,843.2964],[6.7541,36.1692,817.1125],[6.7538,36.1771,847.8815],[6.7485,36.1871,823.2366],[6.7524,36.1916,805.5949],[6.7626,36.197,756.9575],[6.7669,36.1891,830.2162],[6.7719,36.1883,812.8577],[6.7821,36.1908,825.3185],[6.7875,36.1961,824.2828],[6.7928,36.1938,819.1133],[6.7877,36.1833,836.9866],[6.7901,36.1769,860.9255],[6.7962,36.1738,892.1687],[6.8073,36.1722,881.9518],[6.8117,36.1741,893.5907],[6.8153,36.1685,891.5793]]]]}}