{"type":"Feature","properties":{"GID_2":"DZA.39.4_1","GID_0":"DZA","country":"Algeria","GID_1":"DZA.39_1","province":"Skikda","NL_NAME_1":"سكيكدة","county":"AinZouit","VARNAME_2":"NA","NL_NAME_2":"NA","TYPE_2":"Commune-Cotiere","ENGTYPE_2":"Commune-Cotiere","CC_2":"2102","HASC_2":"DZ.SK.AZ","name":"Ain_Zouit.county"},
"geometry":{"type": "MultiPolygon","coordinates": [[[[6.8834,36.9162,26.8734],[6.8855,36.92,42.7559],[6.8823,36.9248,0.0],[6.8815,36.9306,55.2903],[6.8662,36.9334,19.113],[6.86,36.9319,4.9591],[6.848,36.9358,0.0],[6.8458,36.9469,16.3385],[6.8465,36.9542,26.4037],[6.8409,36.9559,0.4302],[6.8367,36.9555,0.0],[6.8325,36.9523,0.0],[6.8265,36.9505,0.0],[6.8144,36.9484,22.3709],[6.803,36.9557,14.7346],[6.7918,36.956,0.0],[6.787,36.9592,0.3289],[6.7811,36.9478,0.0],[6.7752,36.9456,0.0],[6.7683,36.9459,0.0],[6.7578,36.949,3.8387],[6.7524,36.9524,0.0],[6.7527,36.9607,0.0],[6.7481,36.9598,0.0],[6.7473,36.9539,0.0],[6.7443,36.9504,26.3938],[6.7319,36.9466,2.0035],[6.7351,36.9306,153.0883],[6.7304,36.9092,220.8599],[6.7373,36.8973,238.8465],[6.7372,36.8912,280.1395],[6.7422,36.8887,296.8101],[6.7505,36.8747,338.8662],[6.7619,36.877,207.3548],[6.7676,36.8807,163.5946],[6.7716,36.8775,311.0675],[6.7771,36.8685,221.2146],[6.7821,36.8678,296.6786],[6.7868,36.8622,282.2896],[6.7997,36.8523,469.6205],[6.8185,36.8575,352.5187],[6.8229,36.8563,282.4673],[6.8339,36.8463,152.4009],[6.8354,36.8381,150.4258],[6.845,36.8486,205.6847],[6.8608,36.8527,129.9784],[6.867,36.856,247.5083],[6.8678,36.8609,287.1064],[6.8601,36.8647,319.545],[6.8576,36.8702,363.5507],[6.8496,36.8757,359.0113],[6.8459,36.8805,368.6273],[6.8544,36.8867,360.6812],[6.8556,36.8963,267.0311],[6.8544,36.9014,252.6807],[6.8612,36.9023,222.9941],[6.8671,36.9061,112.3749],[6.87,36.911,97.4156],[6.8781,36.9168,36.5097],[6.8834,36.9162,26.8734]]]]}}