{"type": "Feature","bbox": [1.3024,35.9546,1.4894,36.054],"geometry": {"type": "MultiPolygon","coordinates": [[[[1.4565,35.9546,361.8007],[1.4774,35.9586,451.9398],[1.482,35.9609,458.3674],[1.4855,35.9642,506.9222],[1.4856,35.9708,648.1213],[1.4894,35.9749,779.2826],[1.4853,35.9777,828.8449],[1.4798,35.9783,761.873],[1.4724,35.9859,743.8628],[1.4675,35.9876,707.4089],[1.464,35.991,609.9408],[1.4504,35.9922,472.2498],[1.454,36.0015,514.6121],[1.419,36.0154,579.9933],[1.4018,36.018,542.9629],[1.3963,36.0274,506.0995],[1.3864,36.0339,459.7112],[1.3832,36.0437,580.2194],[1.378,36.0461,523.5599],[1.3717,36.0463,552.6404],[1.3554,36.0538,493.859],[1.3333,36.054,442.5659],[1.3201,36.05,394.9046],[1.3089,36.0341,319.6724],[1.3072,36.0271,333.0746],[1.3077,36.0212,296.315],[1.3024,36.013,273.2506],[1.307,35.9909,178.649],[1.311,35.9868,180.0485],[1.3194,35.9852,188.3118],[1.324,35.9871,219.565],[1.3334,35.9827,210.3642],[1.3391,35.9823,248.9503],[1.3513,35.9722,224.8896],[1.367,35.9688,236.8262],[1.3713,35.9656,237.7905],[1.3751,35.9677,242.0745],[1.3926,35.968,272.0602],[1.3968,35.9729,261.829],[1.4168,35.971,278.7295],[1.4202,35.9681,291.1571],[1.4347,35.9706,318.0851],[1.4364,35.966,351.386],[1.4434,35.958,328.6628],[1.4565,35.9546,361.8007]]]]}
,"properties": {"GID_2": "DZA.14.13_1","GID_0": "DZA","country": "Algeria","GID_1": "DZA.14_1","province": "Chlef","NL_NAME_1": "ولايةالشلف","county": "ElHadjadj","VARNAME_2": "NA","NL_NAME_2": "NA","TYPE_2": "Commune","ENGTYPE_2": "Commune","CC_2": "227","HASC_2": "DZ.CH.EH","name": "El_Hadjadj.county","area_km2": 98.83268,"hist_schema_id": "Elevation0-9000","hist_area_km2": {"175": 0.10293,"200": 0.77195,"225": 1.52674,"250": 3.51682,"275": 4.15144,"300": 5.74656,"325": 6.22647,"350": 7.6844,"375": 8.81609,"400": 9.12457,"425": 8.696,"450": 8.9189,"475": 7.42655,"500": 6.58596,"525": 5.90003,"550": 4.52796,"575": 2.69287,"600": 1.92123,"625": 1.1152,"650": 1.06378,"675": 0.90933,"700": 0.65197,"725": 0.51471,"750": 0.08579,"775": 0.10295,"800": 0.03431,"825": 0.01716}}}