{"type":"Feature","properties":{"GID_2":"DZA.12.25_1","GID_0":"DZA","country":"Algeria","GID_1":"DZA.12_1","province":"Bouira","NL_NAME_1":"ولايةالبويرة","county":"ElKhabouzia","VARNAME_2":"NA","NL_NAME_2":"NA","TYPE_2":"Commune","ENGTYPE_2":"Commune","CC_2":"1021","HASC_2":"DZ.BU.EK","name":"El_Khabouzia.county"},
"geometry":{"type": "MultiPolygon","coordinates": [[[[3.6308,36.345,742.4875],[3.6231,36.3448,775.3272],[3.6077,36.35,682.2725],[3.592,36.3503,646.6052],[3.5851,36.3474,609.8965],[3.58,36.3404,689.8119],[3.5754,36.3381,682.1648],[3.5676,36.336,682.8961],[3.5581,36.3359,704.6311],[3.5478,36.3304,776.7904],[3.5388,36.3243,730.989],[3.538,36.3196,668.9763],[3.5482,36.318,650.5337],[3.555,36.3193,648.6721],[3.5598,36.3164,641.0547],[3.5567,36.3061,636.9334],[3.5649,36.2964,710.6218],[3.575,36.2947,717.6584],[3.5844,36.2872,730.9922],[3.5889,36.2883,726.0508],[3.6028,36.281,664.623],[3.6216,36.2767,679.796],[3.632,36.2701,663.5443],[3.6432,36.273,683.4174],[3.6475,36.2743,682.6981],[3.6517,36.2781,687.2741],[3.6465,36.2826,702.968],[3.6298,36.289,735.9794],[3.6281,36.2937,740.9907],[3.6384,36.3035,751.998],[3.6408,36.3092,732.0383],[3.6371,36.3185,709.5762],[3.6455,36.3216,745.7925],[3.6308,36.345,742.4875]]]]}}