{"type": "Feature","bbox": [4.564,36.6182,4.6533,36.6959],"geometry": {"type": "MultiPolygon","coordinates": [[[[4.5999,36.6874,1394.2751],[4.603,36.6711,1348.056],[4.601,36.6663,1366.8297],[4.5971,36.6625,1311.9103],[4.5905,36.6597,1180.361],[4.5791,36.6576,1326.3838],[4.5749,36.6543,1365.1165],[4.5687,36.6432,1422.0247],[4.564,36.6385,1490.2069],[4.5681,36.636,1531.7809],[4.5744,36.6262,1593.1145],[4.5794,36.6219,1502.239],[4.6012,36.6216,1210.8185],[4.6155,36.6185,1077.7704],[4.6335,36.6182,1073.0946],[4.6384,36.6188,1064.6604],[4.646,36.6247,856.3156],[4.6533,36.6277,804.8254],[4.6489,36.6315,687.7406],[4.6514,36.6376,462.8721],[4.6469,36.6398,423.3807],[4.6277,36.6433,597.7902],[4.642,36.6652,956.7546],[4.6432,36.6703,873.3531],[4.6404,36.6852,1142.0767],[4.6325,36.6959,1393.2566],[4.6155,36.6902,1502.8282],[4.5999,36.6874,1394.2751]]]]}
,"properties": {"GID_2": "DZA.8.5_1","GID_0": "DZA","country": "Algeria","GID_1": "DZA.8_1","province": "Béjaïa","NL_NAME_1": "بجاية","county": "Akfadou","VARNAME_2": "NA","NL_NAME_2": "NA","TYPE_2": "Commune","ENGTYPE_2": "Commune","CC_2": "642","HASC_2": "DZ.BJ.AF","name": "Akfadou.county","area_km2": 39.63412,"hist_schema_id": "Elevation0-9000","hist_area_km2": {"425": 0.03403,"450": 0.05104,"475": 0.10208,"500": 0.11909,"525": 0.22117,"550": 0.2552,"575": 0.20416,"600": 0.25519,"625": 0.22117,"650": 0.35727,"675": 0.44234,"700": 0.47636,"725": 0.57845,"750": 0.71457,"775": 0.74858,"800": 0.74859,"825": 1.0548,"850": 0.83363,"875": 1.13982,"900": 1.24191,"925": 0.76552,"950": 1.463,"975": 1.2419,"1000": 1.19083,"1025": 1.15677,"1050": 1.42895,"1075": 1.46295,"1100": 1.20771,"1125": 1.17364,"1150": 1.20765,"1175": 1.12258,"1200": 1.17364,"1225": 0.95252,"1250": 0.9525,"1275": 1.37768,"1300": 1.17355,"1325": 1.41164,"1350": 1.15651,"1375": 1.34355,"1400": 1.24153,"1425": 1.46261,"1450": 1.10543,"1475": 0.91846,"1500": 0.76547,"1525": 0.56139,"1550": 0.51042,"1575": 0.27223,"1600": 0.03403}}}