{"type":"Feature","properties":{"GID_2":"DZA.9.4_1","GID_0":"DZA","country":"Algeria","GID_1":"DZA.9_1","province":"Biskra","NL_NAME_1":"ولايةبسكرة","county":"Biskra","VARNAME_2":"Biskrah","NL_NAME_2":"NA","TYPE_2":"Chef-Lieu-Wilaya","ENGTYPE_2":"Chef-Lieu-Wilaya","CC_2":"701","HASC_2":"DZ.BS.BI","name":"Biskra.county"},
"geometry":{"type": "MultiPolygon","coordinates": [[[[5.7771,34.8974,208.9242],[5.769,34.9023,179.9799],[5.7411,34.9139,236.1343],[5.7319,34.9169,338.3368],[5.7261,34.9171,367.1816],[5.693,34.9145,282.0146],[5.6552,34.8937,259.1185],[5.6727,34.8782,127.0165],[5.6784,34.8704,116.929],[5.6779,34.865,111.2461],[5.6827,34.8495,106.4788],[5.6934,34.8237,87.1559],[5.6884,34.8132,80.7127],[5.6897,34.8084,79.9756],[5.7021,34.797,76.0249],[5.6978,34.7945,75.4893],[5.7064,34.7873,73.3219],[5.7829,34.7838,66.1472],[5.7937,34.808,70.2458],[5.7941,34.831,76.827],[5.7928,34.8354,80.9255],[5.7836,34.8433,86.0382],[5.778,34.8456,90.3182],[5.7775,34.8587,111.2786],[5.7715,34.8629,115.6461],[5.7734,34.869,126.4603],[5.7733,34.8758,151.3033],[5.7757,34.8805,157.4902],[5.7747,34.8929,189.5853],[5.7771,34.8974,208.9242]]]]}}