{"type":"Feature","properties":{"GID_2":"DZA.18.3_1","GID_0":"DZA","country":"Algeria","GID_1":"DZA.18_1","province":"ElOued","NL_NAME_1":"ولايةالوادي","county":"Debila","VARNAME_2":"Djebila|Dabilah","NL_NAME_2":"NA","TYPE_2":"Commune","ENGTYPE_2":"Commune","CC_2":"3911","HASC_2":"DZ.EO.DE","name":"Debila.county"},
"geometry":{"type": "MultiPolygon","coordinates": [[[[6.9943,33.5838,50.1492],[6.9586,33.5844,46.3926],[6.9528,33.5815,45.0807],[6.9284,33.582,44.8104],[6.9278,33.5019,59.4127],[6.9498,33.4678,63.635],[7.0396,33.5526,49.3809],[7.0192,33.5571,48.9222],[6.9984,33.5644,48.0259],[6.9943,33.5838,50.1492]]]]}}