{"type":"Feature","properties":{"GID_2":"DZA.14.3_1","GID_0":"DZA","country":"Algeria","GID_1":"DZA.14_1","province":"Chlef","NL_NAME_1":"ولايةالشلف","county":"Benairia","VARNAME_2":"NA","NL_NAME_2":"NA","TYPE_2":"Commune","ENGTYPE_2":"Commune","CC_2":"203","HASC_2":"DZ.CH.BN","name":"Benairia.county"},
"geometry":{"type": "MultiPolygon","coordinates": [[[[1.3791,36.3305,415.7237],[1.3817,36.3419,326.6314],[1.3997,36.343,364.6773],[1.4042,36.3524,564.7851],[1.4043,36.3633,744.8681],[1.4006,36.3674,838.9203],[1.4031,36.3719,846.6688],[1.4138,36.3791,786.4929],[1.4167,36.3844,746.9297],[1.4262,36.3929,635.3529],[1.4293,36.402,548.9296],[1.4391,36.4128,654.8568],[1.441,36.4189,642.4145],[1.44,36.4255,673.4662],[1.4415,36.4315,713.5646],[1.4403,36.4386,791.8029],[1.4354,36.4426,892.7719],[1.4299,36.4401,921.8198],[1.4266,36.4305,732.0435],[1.4143,36.4158,467.7264],[1.4088,36.4141,468.3511],[1.3949,36.4167,409.8078],[1.3824,36.4154,353.3972],[1.3753,36.4184,317.6782],[1.3703,36.4152,325.1531],[1.3601,36.4164,285.0161],[1.3557,36.4155,249.3532],[1.3579,36.4093,273.817],[1.3576,36.4034,286.2439],[1.3466,36.3954,420.2902],[1.3367,36.3841,395.4838],[1.3321,36.3827,377.4873],[1.3344,36.3744,409.637],[1.3423,36.3644,359.4355],[1.3514,36.3576,323.109],[1.3521,36.3505,321.044],[1.3436,36.3403,287.6561],[1.3466,36.3358,324.0714],[1.3479,36.3292,357.5495],[1.3724,36.3287,403.7623],[1.3791,36.3305,415.7237]]]]}}