{"type": "Feature","bbox": [1.4639,36.2326,1.6006,36.3572],"geometry": {"type": "MultiPolygon","coordinates": [[[[1.5912,36.2957,268.5686],[1.581,36.2948,288.6913],[1.5767,36.2977,306.2723],[1.5671,36.2997,362.461],[1.5579,36.3165,399.026],[1.5498,36.3225,360.5822],[1.5403,36.3335,346.7919],[1.5376,36.3465,313.0673],[1.5324,36.3473,333.6329],[1.535,36.352,290.4197],[1.5321,36.3572,315.3973],[1.4946,36.3523,868.4703],[1.485,36.3466,962.562],[1.4831,36.3361,729.7595],[1.4738,36.331,669.6681],[1.4708,36.3191,507.5632],[1.4651,36.3144,466.5728],[1.4639,36.3077,439.5748],[1.4841,36.3035,372.8234],[1.483,36.2991,391.8531],[1.4765,36.2947,437.3045],[1.4681,36.2849,578.0034],[1.4647,36.2739,532.5013],[1.4671,36.256,301.2298],[1.4698,36.2504,234.265],[1.4709,36.2397,207.0841],[1.4733,36.2326,133.5362],[1.4781,36.2345,125.7805],[1.4825,36.241,129.8134],[1.4879,36.2416,133.576],[1.4945,36.2393,150.1866],[1.5001,36.241,132.6666],[1.5045,36.2466,140.7085],[1.5092,36.2444,157.9933],[1.5034,36.2377,138.4621],[1.5132,36.2362,136.7692],[1.5191,36.2376,135.2903],[1.517,36.242,149.8837],[1.5226,36.2446,179.7408],[1.5364,36.2464,170.6619],[1.5462,36.2412,203.6878],[1.5553,36.2492,348.6279],[1.5788,36.2537,203.9905],[1.5813,36.2576,293.3023],[1.5827,36.2675,413.0971],[1.5931,36.2744,330.0626],[1.597,36.2847,255.9073],[1.6006,36.2874,313.3631],[1.5904,36.291,322.0381],[1.5912,36.2957,268.5686]]]]}
,"properties": {"GID_2": "DZA.14.6_1","GID_0": "DZA","country": "Algeria","GID_1": "DZA.14_1","province": "Chlef","NL_NAME_1": "ولايةالشلف","county": "BeniRached","VARNAME_2": "NA","NL_NAME_2": "NA","TYPE_2": "Commune","ENGTYPE_2": "Commune","CC_2": "213","HASC_2": "DZ.CH.BR","name": "Beni_Rached.county","area_km2": 104.26273,"hist_schema_id": "Elevation0-9000","hist_area_km2": {"125": 0.56432,"150": 1.28253,"175": 1.16277,"200": 1.6415,"225": 2.41087,"250": 3.07742,"275": 4.25662,"300": 6.35778,"325": 8.13429,"350": 8.54418,"375": 9.09069,"400": 10.88505,"425": 9.99662,"450": 8.18569,"475": 7.17734,"500": 5.21223,"525": 3.1613,"550": 3.19554,"575": 3.34934,"600": 2.15296,"625": 1.19587,"650": 0.73447,"675": 0.35865,"700": 0.40987,"725": 0.44402,"750": 0.35863,"775": 0.20493,"800": 0.17077,"825": 0.1537,"850": 0.08539,"875": 0.13662,"900": 0.08538,"925": 0.05123,"950": 0.01708,"975": 0.01708}}}