{"type":"Feature","properties":{"GID_2":"DZA.37.42_1","GID_0":"DZA","country":"Algeria","GID_1":"DZA.37_1","province":"Sétif","NL_NAME_1":"ولايةسطيف","county":"Harbil","VARNAME_2":"NA","NL_NAME_2":"NA","TYPE_2":"Commune","ENGTYPE_2":"Commune","CC_2":"1936","HASC_2":"DZ.SF.HR","name":"Harbil.county"},
"geometry":{"type": "MultiPolygon","coordinates": [[[[4.9446,36.2996,1237.7899],[4.9655,36.3047,1163.8705],[4.9755,36.3092,1227.5897],[4.9793,36.3145,1227.6993],[4.9793,36.3189,1418.2764],[4.9833,36.3224,1422.2986],[4.9826,36.3344,971.0773],[4.9793,36.344,767.0323],[4.9904,36.3468,742.231],[4.9945,36.35,732.3223],[4.9972,36.3628,916.8427],[4.9715,36.3678,920.96],[4.9509,36.3649,706.6506],[4.9313,36.3695,955.7459],[4.9409,36.3871,892.8403],[4.939,36.3987,720.9719],[4.9282,36.3978,737.1785],[4.9266,36.393,833.6962],[4.9269,36.3864,972.5264],[4.9232,36.3823,1074.1294],[4.9002,36.3692,1236.3938],[4.8863,36.3644,1334.9485],[4.8817,36.364,1135.2007],[4.8726,36.367,1111.3923],[4.8511,36.3766,625.5005],[4.8449,36.3758,576.1974],[4.844,36.3697,681.9468],[4.8489,36.3586,738.7175],[4.8537,36.3527,728.9754],[4.8703,36.339,884.7032],[4.8707,36.325,1203.8066],[4.8755,36.3136,1439.8643],[4.8731,36.306399999999996,1306.8163],[4.8732,36.2971,1330.6787],[4.8791,36.2952,1393.6937],[4.8972,36.2964,1464.8027],[4.9068,36.3018,1324.1472],[4.9197,36.303,1284.3368],[4.9446,36.2996,1237.7899]]]]}}