{"type": "Feature","bbox": [-0.4149,30.7009,2.3612,34.4476],"geometry": {"type": "MultiPolygon","coordinates": [[[[2.0036,31.6294,589.4478],[2.0587,31.658,500.176],[2.2736,31.8597,546.5479],[2.2677,31.9316,566.4481],[2.2652,31.9999,570.632],[2.247,32.1475,594.829],[2.2432,32.1968,618.4855],[2.2968,32.2286,585.1886],[2.3612,32.2611,555.5214],[2.2978,32.4776,624.7111],[2.2748,32.5617,644.2689],[2.2421,32.8043,717.7264],[2.233,32.8096,724.5915],[2.2368,32.8206,728.8057],[2.2297,32.8321,729.1421],[2.2296,32.8383,733.9197],[2.2237,32.8505,726.8118],[2.2237,32.8654,743.4584],[2.2216,32.8732,734.3597],[2.213,32.8832,737.9869],[2.1822,32.9086,745.3649],[2.177,32.9164,751.7072],[2.1787,32.9246,765.6506],[2.1774,32.9342,752.3701],[2.1676,32.9421,752.3953],[2.1642,32.9481,756.454],[2.1667,32.9545,768.2825],[2.1656,32.9608,760.5808],[2.1569,32.9678,757.9078],[2.152,32.9861,764.0276],[2.1435,33.0073,769.2854],[2.1276,33.0327,772.8181],[2.1075,33.0598,779.7427],[2.1048,33.0683,781.1819],[2.1045,33.0872,785.7094],[2.111,33.0984,788.9034],[2.1123,33.1143,790.1717],[2.1145,33.1195,791.2618],[2.1087,33.1305,793.8171],[2.0977,33.1378,796.2422],[2.0853,33.1522,799.5229],[2.0879,33.159,800.7736],[2.0937,33.1629,801.5725],[2.0995,33.1631,802.4357],[2.2704,33.1586,805.696],[2.2804,33.2886,921.2417],[2.2808,33.3107,927.6667],[2.1844,33.2935,893.0024],[2.092,33.3202,865.663],[2.0231,33.3382,915.6935],[2.015,33.3682,917.7122],[2.0309,33.4036,926.9055],[1.959,33.4119,938.9034],[1.9198,33.4151,951.6896],[1.8963,33.4142,960.3013],[1.8866,33.4167,967.8517],[1.9101,33.4669,988.4105],[1.8945,33.5078,996.8496],[1.8993,33.5264,1000.7188],[1.9115,33.565,1038.4633],[1.937,33.5834,997.3433],[1.9332,33.591,995.7516],[1.9202,33.6017,1007.6608],[1.9173,33.606,1012.0211],[1.9128,33.6064,1026.2231],[1.9015,33.6028,1082.3308],[1.8983,33.6122,1019.4022],[1.8899,33.6166,1055.4087],[1.8862,33.6212,1031.0994],[1.8826,33.6278,1084.0325],[1.8926,33.635,1032.822],[1.8842,33.6433,1090.3407],[1.8848,33.6496,1057.6104],[1.8789,33.6603,1091.9995],[1.8739,33.6633,1065.312],[1.868,33.6608,1081.2109],[1.8634,33.6505,1135.802],[1.8582,33.6513,1202.9226],[1.8542,33.6528,1208.5291],[1.8518,33.6606,1091.8274],[1.8444,33.6645,1094.9165],[1.8401,33.6733,1152.5833],[1.827,33.6699,1105.1914],[1.823,33.6734,1102.2422],[1.8183,33.6734,1106.0458],[1.8125,33.6758,1114.5613],[1.8182,33.6834,1094.5239],[1.8093,33.7006,1116.6523],[1.8124,33.706,1120.4125],[1.8129,33.7112,1123.5447],[1.8201,33.7187,1134.5294],[1.82,33.7231,1133.4767],[1.8225,33.7268,1140.9021],[1.8202,33.7316,1143.772],[1.8095,33.7439,1162.4501],[1.8081,33.7558,1183.3594],[1.8162,33.7598,1198.6436],[1.8204,33.7741,1246.0215],[1.8241,33.7798,1410.7461],[1.8172,33.7889,1295.6968],[1.7964,33.8403,1462.7653],[1.7889,33.8456,1508.5763],[1.7731,33.848,1511.1064],[1.7666,33.8508,1495.1012],[1.7624,33.8559,1419.899],[1.76,33.862,1386.6722],[1.7523,33.8697,1403.1992],[1.7456,33.8797,1401.6245],[1.741,33.8832,1413.9857],[1.7224,33.8901,1471.6194],[1.7118,33.901,1522.0229],[1.6932,33.9001,1470.5867],[1.6512,33.8937,1456.1963],[1.5765,33.8655,1411.012],[1.5691,33.8645,1405.2136],[1.561,33.8659,1409.4364],[1.5478,33.8702,1381.4493],[1.4969,33.9092,1277.8339],[1.486,33.9268,1263.9465],[1.4734,33.9392,1244.4893],[1.4537,33.945,1230.4033],[1.4471,33.9449,1228.0795],[1.4411,33.9477,1220.4739],[1.4341,33.9482,1215.2523],[1.4238,33.9537,1211.2651],[1.4105,33.9647,1203.7559],[1.3972,33.9663,1193.874],[1.3881,33.9724,1188.2985],[1.3731,33.9752,1183.1877],[1.3685,33.9785,1178.8221],[1.3672,33.9882,1175.8416],[1.3635,33.9959,1170.8286],[1.3691,34.0003,1178.6836],[1.3695,34.0129,1173.1649],[1.3747,34.0172,1176.1072],[1.3683,34.0204,1160.027],[1.3677,34.0269,1177.1206],[1.352,34.0446,1144.8723],[1.3442,34.0653,1139.7966],[1.3378,34.0652,1151.3408],[1.3343,34.0786,1135.3828],[1.3225,34.0864,1134.024],[1.3134,34.0972,1125.7284],[1.312,34.1112,1128.374],[1.306,34.1137,1118.2631],[1.2972,34.1223,1116.2594],[1.291,34.1317,1110.6403],[1.2855,34.1336,1109.0234],[1.2837,34.1469,1105.3716],[1.2792,34.1568,1105.4166],[1.2749,34.1613,1103.0732],[1.2737,34.1712,1099.5109],[1.2697,34.1761,1096.0842],[1.2739,34.1812,1094.9637],[1.2713,34.1849,1092.2855],[1.277,34.1952,1106.2881],[1.276,34.2016,1091.248],[1.2731,34.2061,1088.448],[1.214,34.2023,1088.1217],[1.1766,34.2019,1104.8384],[1.1398,34.1966,1100.7645],[1.1018,34.1982,1055.9163],[1.0136,34.1932,1032.8496],[1.0282,34.2918,1039.9746],[1.0376,34.3393,995.4771],[1.0441,34.3838,987.9623],[0.901,34.4082,988.4459],[0.7488,34.4307,987.7148],[0.7246,34.4419,986.4164],[0.714,34.4375,987.8351],[0.7008,34.4277,986.0],[0.6708,34.4114,986.5612],[0.6631,34.4031,986.3557],[0.6326,34.3806,989.5807],[0.6095,34.3711,988.1996],[0.5887,34.3566,986.2783],[0.5834,34.355,987.2272],[0.5786,34.3496,987.8212],[0.5709,34.3479,986.6484],[0.5563,34.3403,986.381],[0.5342,34.3326,986.849],[0.5227,34.3269,986.9725],[0.5179,34.3219,986.2879],[0.5132,34.3199,988.3033],[0.5088,34.3201,989.0877],[0.5034,34.3389,1010.918],[0.4998,34.344,1024.8743],[0.4268,34.4088,1049.926],[0.4242,34.4045,1039.6609],[0.292,34.3287,1042.4944],[0.1882,34.3398,1041.3362],[0.18,34.3548,1044.5392],[0.1707,34.3626,1045.769],[0.1345,34.3877,1049.5179],[0.1194,34.403,1052.6058],[0.0904,34.4194,1060.0753],[0.0848,34.4207,1061.7781],[0.0831,34.4151,1061.6548],[0.0685,34.4173,1065.9108],[0.0184,34.4314,1081.6016],[0.007,34.4395,1086.485],[-0.012,34.4425,1077.1884],[-0.0186,34.4476,1074.4003],[-0.0198,34.4423,1064.6559],[-0.0171,34.4296,1058.8447],[-0.0154,34.424,1057.2556],[-0.0119,34.4203,1055.4141],[-0.0076,34.4023,1051.8149],[-0.0042,34.3959,1049.2577],[-0.0001,34.3928,1048.6349],[0.0091,34.3691,1041.786],[0.0195,34.357,1045.5848],[0.0183,34.3329,1054.5674],[0.0202,34.3256,1055.7666],[0.0264,34.3174,1048.8589],[0.0301,34.3033,1048.1555],[0.0264,34.2836,1034.697],[0.0267,34.2761,1026.3959],[0.0374,34.2534,1032.6277],[0.0406,34.242,1029.4512],[0.0414,34.2323,1029.0197],[0.0326,34.2142,1023.0212],[0.0242,34.2105,1022.1388],[0.0038,34.2111,1025.1184],[-0.001,34.2076,1018.8754],[-0.0119,34.1804,982.0811],[-0.0706,34.0863,989.6036],[-0.0557,34.0688,984.511],[-0.0504,34.059,981.8621],[-0.0508,34.052,983.3985],[-0.0596,34.028,989.7802],[-0.0599,34.0185,984.4565],[-0.0581,34.0127,983.3344],[-0.0538,34.0105,981.5],[-0.0493,34.012,982.7158],[-0.0464,34.0056,984.1527],[-0.0472,34.0001,982.0377],[-0.0585,33.9912,986.0666],[-0.0549,33.9884,986.2183],[-0.0365,33.9974,985.8807],[0.0139,34.017,991.9608],[0.024,34.0237,992.7675],[0.0361,34.015,1034.1912],[0.0728,33.9942,1039.9252],[0.0691,33.9789,1042.1448],[0.0683,33.9617,1044.707],[0.0634,33.9349,1047.8353],[0.0648,33.8911,1057.1748],[0.071,33.8899,1059.7588],[0.0878,33.8809,1065.2181],[0.0985,33.8806,1067.8076],[0.1125,33.855,1079.2968],[0.1258,33.8236,1092.5507],[0.1351,33.8112,1100.4094],[0.1469,33.8103,1105.5815],[0.1644,33.8053,1114.8101],[0.083,33.7676,1097.1868],[0.0741,33.7613,1101.925],[0.0889,33.7178,1103.9341],[0.0927,33.7014,1107.7363],[0.1003,33.6819,1112.1873],[0.1026,33.6696,1114.5653],[0.1111,33.6472,1146.5461],[0.1039,33.6193,1153.7161],[0.0163,33.3341,1214.0973],[0.0203,33.3319,1221.9041],[0.0252,33.3259,1214.3601],[0.0246,33.3175,1222.5364],[0.0089,33.253,1196.1169],[0.0059,33.2239,1204.7416],[0.0079,33.211,1196.3778],[0.007,33.201,1204.3546],[0.0,33.1701,1201.3042],[-0.0112,33.1473,1198.1873],[-0.015,33.1358,1206.672],[-0.0163,33.1163,1210.5645],[-0.015,33.11,1174.5474],[-0.0077,33.096,1161.4038],[-0.0043,33.0918,1162.0034],[0.0006,33.0915,1172.4783],[0.002,33.087,1161.4277],[0.0127,33.0822,1142.1748],[0.0234,33.0743,1152.4974],[0.025,33.039,1120.697],[-0.0013,33.0111,1101.4902],[-0.0043,33.0056,1096.7722],[-0.0146,32.9995,1068.7395],[-0.0054,32.9935,1084.236],[0.0006,32.9943,1139.8884],[0.0115,32.9882,1382.0891],[0.0153,32.9844,1482.5056],[0.0144,32.9781,1473.6008],[0.0,32.9484,1105.7513],[-0.0087,32.9229,1096.7018],[-0.0361,32.9075,1068.7642],[-0.0821,32.8868,1433.2538],[-0.0937,32.8148,1850.1536],[-0.0552,32.7969,1097.4999],[-0.0669,32.7526,976.3058],[-0.0233,32.7135,876.2297],[-0.0199,32.7083,870.102],[-0.0265,32.6756,872.1403],[-0.0383,32.6502,890.9625],[-0.017,32.5571,826.7967],[-0.0672,32.453,827.7522],[-0.0778,32.4353,845.8625],[-0.1505,32.3319,917.0865],[-0.1511,32.313,930.215],[-0.1479,32.2951,924.3185],[-0.149,32.2704,912.3491],[-0.1601,32.2584,899.0326],[-0.1682,32.2449,906.1685],[-0.1684,32.2317,888.9563],[-0.1713,32.2178,884.9688],[-0.1869,32.2058,887.7422],[-0.1951,32.1941,889.671],[-0.2001,32.1799,875.6462],[-0.1991,32.1702,876.0154],[-0.1916,32.1588,869.7161],[-0.2086,32.1687,876.8937],[-0.2275,32.1768,881.151],[-0.2472,32.1829,893.3945],[-0.2684,32.1832,904.5059],[-0.2875,32.1759,907.9415],[-0.3376,32.1433,890.8171],[-0.3351,32.1287,889.4462],[-0.3507,32.1016,889.2048],[-0.3664,32.0907,868.2382],[-0.3738,32.08,875.1573],[-0.3666,32.0651,877.9871],[-0.384,32.0559,864.244],[-0.3875,32.0388,859.3893],[-0.3874,32.0208,850.8277],[-0.3976,32.0001,839.2355],[-0.3872,31.8927,800.727],[-0.3738,31.8835,799.1545],[-0.3627,31.8446,794.3113],[-0.363,31.8304,807.0139],[-0.3562,31.817,797.5447],[-0.3544,31.804,802.9272],[-0.3702,31.8013,801.864],[-0.3856,31.8009,797.0168],[-0.3881,31.7902,782.0117],[-0.3778,31.7776,789.1174],[-0.3767,31.7633,793.5306],[-0.3963,31.7623,789.4146],[-0.3973,31.7498,785.6368],[-0.3916,31.7377,791.4274],[-0.4036,31.7298,789.2524],[-0.371,31.7114,785.1333],[-0.3707,31.6969,765.3058],[-0.359,31.6843,778.3236],[-0.3699,31.6713,777.4542],[-0.3794,31.6681,759.829],[-0.3844,31.6578,746.8441],[-0.3959,31.6546,750.0676],[-0.4089,31.6626,750.2173],[-0.4139,31.6481,751.2639],[-0.4149,31.6362,718.04],[-0.4055,31.6213,746.2216],[-0.4012,31.6052,743.759],[-0.3949,31.5991,735.9986],[-0.3867,31.5837,734.2258],[-0.3764,31.572,733.301],[-0.3564,31.5583,737.1686],[-0.3649,31.5481,734.7645],[-0.3786,31.5213,730.8495],[-0.3888,31.5195,733.8043],[-0.4017,31.5106,720.8425],[-0.3991,31.495,731.0017],[-0.4084,31.4848,730.6312],[-0.4001,31.4662,727.9513],[-0.3911,31.453,725.2538],[-0.3987,31.4377,722.3704],[-0.3757,31.4203,722.3369],[-0.379,31.4058,718.0535],[-0.3734,31.3921,713.8187],[-0.3584,31.367,712.167],[-0.3427,31.3563,710.9078],[-0.3244,31.3511,711.2322],[-0.2961,31.3363,701.1478],[-0.2869,31.3266,686.1727],[-0.267,31.3148,697.7328],[-0.2571,31.3067,686.9423],[-0.2469,31.2931,670.3103],[-0.2238,31.2768,672.1998],[-0.2565,31.1911,632.5616],[-0.2644,31.1739,630.2422],[-0.2589,31.1597,630.1417],[-0.1926,31.1144,633.7192],[-0.0319,30.999,603.8913],[0.034,30.9546,586.9095],[0.3071,30.7585,564.0756],[0.3846,30.7009,506.5568],[0.6444,30.8652,545.1599],[0.8552,30.9955,557.4128],[1.0987,31.1415,557.7985],[1.4945,31.3575,562.8212],[2.0036,31.6294,589.4478]]]]}
,"properties": {"GID_1": "DZA.17_1","GID_0": "DZA","country": "Algeria","province": "ElBayadh","VARNAME_1": "ElBayad|ElBeyyadh|Géryville","NL_NAME_1": "ولايةالبيض","TYPE_1": "Wilaya","ENGTYPE_1": "Province","CC_1": "32","HASC_1": "DZ.EB","ISO_1": "DZ-32","name": "El_Bayadh.province","area_km2": 71722.74,"hist_schema_id": "Elevation0-9000","hist_area_km2": {"500": 54.18,"525": 775.87,"550": 3711.99,"575": 4645.75,"600": 4121.05,"625": 3046.89,"650": 2632.62,"675": 2840.2,"700": 2804.5,"725": 3218.44,"750": 3520.63,"775": 3869.83,"800": 3479.16,"825": 2996.87,"850": 2667.62,"875": 2070.2,"900": 1324.58,"925": 1006.98,"950": 741.8,"975": 1792.44,"1000": 1758.65,"1025": 1397.03,"1050": 1477.46,"1075": 1098.73,"1100": 1201.91,"1125": 911.32,"1150": 1005.55,"1175": 1093.8,"1200": 1420.31,"1225": 1233.01,"1250": 1552.59,"1275": 1494.73,"1300": 1040.07,"1325": 751.8,"1350": 631.91,"1375": 607.71,"1400": 461.17,"1425": 350.25,"1450": 249.28,"1475": 168.48,"1500": 117.4,"1525": 77.12,"1550": 59.9,"1575": 51.03,"1600": 45.03,"1625": 35.43,"1650": 29.52,"1675": 19.42,"1700": 14.78,"1725": 12.52,"1750": 9.5,"1775": 6.86,"1800": 4.9,"1825": 3.4,"1850": 2.8,"1875": 1.82,"1900": 1.58,"1925": 1.17,"1950": 0.69}}}