{"type":"Feature","properties":{"GID_2":"DZA.3.24_1","GID_0":"DZA","country":"Algeria","GID_1":"DZA.3_1","province":"AïnTémouchent","NL_NAME_1":"ولايةعينتموشنت","county":"SidiBoumediene","VARNAME_2":"NA","NL_NAME_2":"NA","TYPE_2":"Commune","ENGTYPE_2":"Commune","CC_2":"4615","HASC_2":"DZ.AT.SB","name":"Sidi_Boumediene.county"},
"geometry":{"type": "MultiPolygon","coordinates": [[[[-0.9162,35.3568,236.3127],[-0.926,35.3467,234.916],[-0.924,35.3412,216.1507],[-0.9259,35.3373,220.7405],[-0.9261,35.3314,231.125],[-0.9024,35.3134,282.176],[-0.8834,35.3053,338.574],[-0.8769,35.3051,390.0467],[-0.8676,35.3077,403.6112],[-0.8619,35.306,452.2654],[-0.8584,35.3019,418.692],[-0.8571,35.2971,350.2809],[-0.8445,35.3034,357.6127],[-0.8374,35.3114,307.5233],[-0.8312,35.3145,360.3146],[-0.832,35.319,306.9],[-0.8353,35.3225,279.2774],[-0.8429,35.325,268.5562],[-0.8495,35.3293,265.3236],[-0.8458,35.3414,231.9135],[-0.853,35.3502,213.8625],[-0.858,35.3534,229.8519],[-0.8526,35.3663,219.4813],[-0.8425,35.3723,182.7065],[-0.8348,35.3792,149.2084],[-0.842,35.3868,148.0492],[-0.8458,35.3842,158.1449],[-0.8768,35.3789,267.2838],[-0.8886,35.3749,264.1908],[-0.895,35.371,289.4927],[-0.9055,35.3611,227.5418],[-0.9113,35.3576,250.8015],[-0.9162,35.3568,236.3127]]]]}}