{"type":"Feature","properties":{"GID_2":"DZA.6.37_1","GID_0":"DZA","country":"Algeria","GID_1":"DZA.6_1","province":"Batna","NL_NAME_1":"ولايةباتنة","county":"N'Gaous","VARNAME_2":"Ngaous","NL_NAME_2":"NA","TYPE_2":"Commune","ENGTYPE_2":"Commune","CC_2":"509","HASC_2":"DZ.BT.NG","name":"N'Gaous.county"},
"geometry":{"type": "MultiPolygon","coordinates": [[[[5.672,35.5045,1185.8358],[5.6706,35.5123,1118.5195],[5.6596,35.5359,907.7426],[5.6524,35.5448,878.9131],[5.6447,35.5504,810.6765],[5.6363,35.5656,762.8613],[5.6232,35.572,741.0991],[5.6203,35.5831,704.6594],[5.6168,35.587,707.8348],[5.6041,35.5994,749.1851],[5.5999,35.6011,767.1317],[5.5843,35.5997,741.4623],[5.571,35.593,718.424],[5.5655,35.5876,710.7414],[5.5525,35.5801,716.453],[5.5299,35.558,665.2319],[5.5094,35.5433,641.3723],[5.5126,35.5373,627.9948],[5.5121,35.5318,628.8773],[5.5232,35.5329,618.2057],[5.5332,35.54,631.7629],[5.5376,35.5413,632.0818],[5.5443,35.5387,633.6334],[5.5524,35.5396,646.0049],[5.5589,35.538,657.1261],[5.5628,35.5336,667.0114],[5.564,35.5214,686.1473],[5.5838,35.5135,717.1946],[5.6176,35.5148,785.0447],[5.6348,35.5099,893.2642],[5.6538,35.5089,1164.8844],[5.672,35.5045,1185.8358]]]]}}