{"type":"Feature","properties":{"GID_2":"DZA.47.18_1","GID_0":"DZA","country":"Algeria","GID_1":"DZA.47_1","province":"TiziOuzou","NL_NAME_1":"ولايةغليزان","county":"Akerrou","VARNAME_2":"NA","NL_NAME_2":"NA","TYPE_2":"Commune","ENGTYPE_2":"Commune","CC_2":"1544","HASC_2":"DZ.TO.AK","name":"Akerrou.county"},
"geometry":{"type": "MultiPolygon","coordinates": [[[[4.3843,36.7962,432.0659],[4.3924,36.7942,511.6481],[4.3977,36.7908,494.5661],[4.3984,36.7865,472.6029],[4.42,36.7707,754.9097],[4.4184,36.7793,723.7849],[4.433,36.783,477.5961],[4.4467,36.784,308.692],[4.4583,36.7815,230.7349],[4.4686,36.7873,229.7041],[4.4819,36.7981,196.9162],[4.4917,36.8122,101.6884],[4.4922,36.8193,81.5088],[4.4992,36.831,44.6385],[4.5001,36.8415,35.2333],[4.4957,36.8424,43.6314],[4.4912,36.8408,60.564],[4.489,36.8363,107.188],[4.4823,36.8344,90.5824],[4.4762,36.8367,140.2302],[4.4495,36.8364,326.842],[4.4291,36.8325,762.1683],[4.4167,36.8358,998.9821],[4.412,36.835,1068.8929],[4.4152,36.8187,1230.783],[4.3921,36.8044,514.325],[4.3843,36.7962,432.0659]]]]}}