{"type": "Feature","bbox": [0.0899,35.2173,0.1845,35.3389],"geometry": {"type": "MultiPolygon","coordinates": [[[[0.1636,35.3389,465.8106],[0.1594,35.3357,464.9731],[0.1522,35.3343,464.3155],[0.1258,35.3354,460.3897],[0.1111,35.3329,457.7677],[0.1119,35.319,459.4866],[0.1014,35.3106,458.6315],[0.1038,35.298,534.2098],[0.1074,35.2932,605.9718],[0.1095,35.2866,501.0518],[0.095,35.2791,564.5601],[0.0899,35.2746,534.9741],[0.0921,35.2671,494.0971],[0.0975,35.2635,554.9069],[0.0949,35.2579,572.202],[0.0977,35.2534,612.6092],[0.0941,35.2496,625.769],[0.0919,35.2403,642.5193],[0.102,35.2321,533.3979],[0.1062,35.2274,506.1408],[0.1068,35.2212,491.256],[0.1129,35.2173,487.8051],[0.1165,35.2238,496.3676],[0.1201,35.2388,544.2617],[0.1387,35.2551,509.5314],[0.1304,35.2605,497.0561],[0.1305,35.268,481.5158],[0.1579,35.2773,478.3365],[0.1624,35.2855,474.3373],[0.1845,35.2953,478.3727],[0.1737,35.3105,470.337],[0.1719,35.3195,468.1569],[0.1636,35.3389,465.8106]]]]}
,"properties": {"GID_2": "DZA.27.21_1","GID_0": "DZA","country": "Algeria","GID_1": "DZA.27_1","province": "Mascara","NL_NAME_1": "ولايةمعسكر","county": "Froha","VARNAME_2": "NA","NL_NAME_2": "NA","TYPE_2": "Commune","ENGTYPE_2": "Commune","CC_2": "2913","HASC_2": "DZ.MC.FR","name": "Froha.county","area_km2": 56.53956,"hist_schema_id": "Elevation0-9000","hist_area_km2": {"450": 6.69488,"475": 32.84269,"500": 4.95138,"525": 3.68771,"550": 2.8222,"575": 1.97384,"600": 1.31591,"625": 1.33324,"650": 0.74454,"675": 0.17315}}}