{"type": "Feature","bbox": [-0.4179,33.3341,0.1111,33.6472],"geometry": {"type": "MultiPolygon","coordinates": [[[[0.0692,33.5056,1196.9448],[0.1039,33.6193,1153.7161],[0.1111,33.6472,1146.5461],[0.1047,33.6418,1147.9681],[0.0143,33.6196,1134.1346],[0.0048,33.6164,1133.5825],[0.0016,33.6126,1127.7218],[-0.0424,33.6013,1134.4902],[-0.097,33.5899,1110.2612],[-0.1424,33.5776,1086.7761],[-0.1473,33.5823,1083.8549],[-0.148,33.5932,1082.5957],[-0.1528,33.6082,1078.1398],[-0.1569,33.612,1077.5034],[-0.2647,33.61,1206.2798],[-0.2779,33.5929,1468.2942],[-0.2942,33.5773,1545.653],[-0.3245,33.5386,1408.0466],[-0.3339,33.5315,1479.8119],[-0.3468,33.5275,1467.0164],[-0.3599,33.5257,1570.5179],[-0.3641,33.5211,1475.3738],[-0.402,33.5107,1409.2428],[-0.4179,33.5002,1126.2797],[-0.415,33.4969,1126.0258],[-0.393,33.4902,1142.7056],[-0.3677,33.4799,1143.3293],[-0.2891,33.4614,1123.4213],[-0.1834,33.4847,1101.8385],[-0.1625,33.4761,1112.9934],[-0.1523,33.4745,1115.7661],[-0.1299,33.4573,1157.0015],[-0.1062,33.4484,1162.6987],[-0.0977,33.4414,1181.7023],[-0.0789,33.4324,1186.7935],[-0.0453,33.4083,1184.6892],[-0.0447,33.3976,1184.0858],[-0.0523,33.3853,1173.397],[-0.0541,33.3685,1171.1526],[-0.0532,33.3629,1180.3247],[-0.0464,33.3542,1173.0312],[-0.004,33.3457,1210.0497],[0.0071,33.3373,1222.5938],[0.0163,33.3341,1214.0973],[0.0692,33.5056,1196.9448]]]]}
,"properties": {"GID_2": "DZA.31.8_1","GID_0": "DZA","country": "Algeria","GID_1": "DZA.31_1","province": "Naâma","NL_NAME_1": "ولايةالنعامة","county": "Mecheria","VARNAME_2": "Mechria|Mishrīyah","NL_NAME_2": "NA","TYPE_2": "Commune","ENGTYPE_2": "Commune","CC_2": "4502","HASC_2": "DZ.NA.ME","name": "Mecheria.county","area_km2": 732.2018,"hist_schema_id": "Elevation0-9000","hist_area_km2": {"1075": 21.4589,"1100": 155.0495,"1125": 95.7309,"1150": 125.89,"1175": 150.4307,"1200": 140.102,"1225": 24.5073,"1250": 3.9231,"1275": 2.7567,"1300": 1.9616,"1325": 1.8379,"1350": 1.5728,"1375": 1.5905,"1400": 1.3254,"1425": 1.2547,"1450": 1.0426,"1475": 0.7598,"1500": 0.5656,"1525": 0.2297,"1550": 0.1237,"1575": 0.053,"1600": 0.0353}}}