{"type": "Feature","bbox": [2.8179,36.5491,2.8959,36.6416],"geometry": {"type": "MultiPolygon","coordinates": [[[[2.8792,36.6344,30.3345],[2.8732,36.634,28.0913],[2.8356,36.6412,23.932],[2.8211,36.6416,13.4485],[2.8248,36.6331,12.1287],[2.8329,36.6231,12.2902],[2.8298,36.6139,13.3121],[2.8294,36.6069,12.8043],[2.8196,36.6002,12.8764],[2.8179,36.5954,13.3052],[2.8206,36.567,48.83],[2.837,36.5703,50.2135],[2.8441,36.5706,47.5754],[2.8502,36.5687,52.6384],[2.8513,36.5622,59.9362],[2.8555,36.5595,65.9966],[2.8575,36.5529,77.7276],[2.8636,36.5499,86.8218],[2.8705,36.5491,86.6403],[2.875,36.5619,66.0624],[2.8753,36.5749,47.0115],[2.8777,36.5803,39.3552],[2.8769,36.593,21.9103],[2.8815,36.5995,19.7687],[2.8959,36.5955,25.1012],[2.8931,36.6024,21.9954],[2.8834,36.6153,19.3358],[2.8829,36.6218,19.452],[2.8866,36.6327,28.5643],[2.8792,36.6344,30.3345]]]]}
,"properties": {"GID_2": "DZA.10.4_1","GID_0": "DZA","country": "Algeria","GID_1": "DZA.10_1","province": "Blida","NL_NAME_1": "البليدة","county": "Benkhelil","VARNAME_2": "BenKhelil|Bani-Khali-l","NL_NAME_2": "NA","TYPE_2": "Commune","ENGTYPE_2": "Commune","CC_2": "910","HASC_2": "DZ.BL.BE","name": "Benkhelil.county","area_km2": 43.60922,"hist_schema_id": "Elevation0-9000","hist_area_km2": {"0": 2.97775,"25": 31.79372,"50": 6.52156,"75": 2.31619}}}