{"type":"Feature","properties":{"GID_2":"DZA.19.24_1","GID_0":"DZA","country":"Algeria","GID_1":"DZA.19_1","province":"ElTarf","NL_NAME_1":"ولايةالطارف","county":"Zitouna","VARNAME_2":"NA","NL_NAME_2":"NA","TYPE_2":"Commune","ENGTYPE_2":"Commune","CC_2":"3620","HASC_2":"DZ.ET.ZI","name":"Zitouna.county"},
"geometry":{"type": "MultiPolygon","coordinates": [[[[8.2584,36.537,672.6995],[8.2674,36.5356,741.6617],[8.2914,36.5398,767.9532],[8.3017,36.5477,652.3483],[8.3077,36.5486,620.1309],[8.3135,36.5523,601.024],[8.3196,36.5581,579.4716],[8.3225,36.5625,537.1557],[8.3233,36.5688,547.941],[8.3265,36.5734,623.7285],[8.3384,36.5761,742.3942],[8.3492,36.583,948.0592],[8.3383,36.5925,677.924],[8.3211,36.6138,357.3613],[8.3099,36.6132,298.4314],[8.3115,36.6268,281.8561],[8.3138,36.6314,263.1604],[8.2944,36.643,327.1041],[8.2916,36.6536,445.9968],[8.2918,36.6718,593.0697],[8.2902,36.6775,588.3158],[8.2785,36.6821,518.1198],[8.274,36.6849,490.7702],[8.2703,36.6905,443.0359],[8.244,36.7036,357.1876],[8.2173,36.7254,259.185],[8.2109,36.7281,240.2449],[8.1881,36.716,240.9462],[8.1955,36.708,50.3787],[8.1975,36.7027,74.5938],[8.1955,36.6965,71.0215],[8.1922,36.6924,104.9949],[8.183,36.6869,152.2578],[8.1939,36.6784,346.4937],[8.1904,36.6734,389.3471],[8.1904,36.6629,431.1022],[8.1878,36.6527,467.4794],[8.1889,36.6483,397.0417],[8.1865,36.6431,403.3311],[8.1772,36.6342,377.6777],[8.1767,36.6272,373.6811],[8.1814,36.6215,379.4572],[8.1961,36.6114,160.2298],[8.2008,36.6117,165.2114],[8.2049,36.6153,147.6919],[8.2093,36.6118,157.2659],[8.2114,36.6017,179.8568],[8.2236,36.5988,238.6439],[8.2281,36.595,274.2793],[8.2372,36.5932,286.7315],[8.241,36.5833,368.1871],[8.2459,36.5793,418.9196],[8.2518,36.5674,589.0854],[8.2701,36.549,916.7552],[8.2606,36.5407,720.236],[8.2584,36.537,672.6995]]]]}}