{"type":"Feature","properties":{"GID_2":"DZA.47.60_1","GID_0":"DZA","country":"Algeria","GID_1":"DZA.47_1","province":"TiziOuzou","NL_NAME_1":"ولايةغليزان","county":"Tirmitine","VARNAME_2":"Tirmirtin","NL_NAME_2":"NA","TYPE_2":"Commune","ENGTYPE_2":"Commune","CC_2":"1543","HASC_2":"DZ.TO.TT","name":"Tirmitine.county"},
"geometry":{"type": "MultiPolygon","coordinates": [[[[3.9289,36.6338,148.831],[3.9577,36.6389,362.1523],[3.9735,36.6499,603.2769],[3.9806,36.6503,626.1831],[3.9861,36.6485,611.8251],[3.9918,36.6504,665.7811],[3.9941,36.6566,655.6089],[3.9923,36.6616,583.6357],[3.9947,36.6672,480.6122],[3.9939,36.6798,311.4467],[3.9984,36.6839,155.8679],[4.0007,36.6914,99.6161],[4.0013,36.6968,91.8956],[3.9994,36.7028,79.5976],[3.9861,36.6967,122.8119],[3.9847,36.6914,125.1787],[3.9754,36.693,91.1105],[3.9679,36.6923,75.6671],[3.9465,36.7006,50.8337],[3.9447,36.6944,55.4743],[3.9407,36.6885,60.6817],[3.935,36.6841,73.4506],[3.9309,36.6773,128.427],[3.9349,36.6728,87.3894],[3.9345,36.6652,126.7616],[3.9313,36.6583,95.2976],[3.9324,36.6517,119.0025],[3.9259,36.6418,140.2295],[3.9289,36.6338,148.831]]]]}}