{"type": "Feature","bbox": [3.7123,36.4469,3.8494,36.556],"geometry": {"type": "MultiPolygon","coordinates": [[[[3.8377,36.4529,335.4649],[3.8397,36.4597,363.7348],[3.848,36.4692,670.3606],[3.8494,36.4753,625.0227],[3.8447,36.4851,626.4271],[3.84,36.4876,488.1714],[3.8345,36.4864,406.9954],[3.8307,36.4886,440.9022],[3.8243,36.4986,631.2592],[3.8181,36.5021,645.2955],[3.8144,36.5074,687.0146],[3.8134,36.513,579.7555],[3.8157,36.5179,585.1119],[3.8085,36.527,610.7008],[3.8065,36.5326,637.7864],[3.795,36.5351,575.9642],[3.7902,36.5327,572.4043],[3.779,36.5335,669.3853],[3.7728,36.5322,614.599],[3.7668,36.5348,559.235],[3.7548,36.5508,767.2007],[3.7464,36.556,764.9773],[3.7417,36.5545,793.2025],[3.7322,36.5445,441.1856],[3.7315,36.5326,286.7974],[3.7268,36.5224,251.1616],[3.7257,36.5152,326.2792],[3.7217,36.5099,197.4266],[3.7123,36.5042,186.3299],[3.7177,36.5005,193.6446],[3.7239,36.4997,187.2831],[3.7314,36.4942,196.0044],[3.7579,36.4902,213.8668],[3.7629,36.4879,235.3279],[3.7657,36.4837,263.5387],[3.7694,36.47,407.5154],[3.7728,36.4657,444.3897],[3.7847,36.4574,544.7764],[3.8045,36.4475,664.5594],[3.8155,36.4469,636.3742],[3.8193,36.4527,692.246],[3.8259,36.4555,486.8501],[3.8323,36.4558,370.3855],[3.8377,36.4529,335.4649]]]]}
,"properties": {"GID_2": "DZA.12.9_1","GID_0": "DZA","country": "Algeria","GID_1": "DZA.12_1","province": "Bouira","NL_NAME_1": "ولايةالبويرة","county": "Aomar","VARNAME_2": "NA","NL_NAME_2": "NA","TYPE_2": "Commune","ENGTYPE_2": "Commune","CC_2": "1016","HASC_2": "DZ.BU.AO","name": "Aomar.county","area_km2": 71.00466,"hist_schema_id": "Elevation0-9000","hist_area_km2": {"175": 0.01704,"200": 0.56242,"225": 1.49991,"250": 3.3748,"275": 4.26104,"300": 5.47129,"325": 5.88033,"350": 6.15303,"375": 5.43705,"400": 5.26665,"425": 5.24989,"450": 4.09075,"475": 2.99993,"500": 2.62486,"525": 2.45429,"550": 2.70973,"575": 2.47106,"600": 2.52233,"625": 2.23245,"650": 2.04521,"675": 1.70421,"700": 0.88615,"725": 0.56221,"750": 0.18737,"775": 0.13626,"800": 0.13625,"825": 0.06813}}}