{"type": "Feature","bbox": [3.0676,33.5368,3.3442,33.8642],"geometry": {"type": "MultiPolygon","coordinates": [[[[3.1887,33.8642,722.1528],[3.1345,33.8373,708.0202],[3.1299,33.8426,708.572],[3.1233,33.8438,710.2557],[3.1121,33.8372,712.9471],[3.0983,33.8368,715.9513],[3.0918,33.8334,718.3321],[3.0859,33.833,718.5789],[3.077,33.8259,720.6267],[3.1164,33.7835,718.4261],[3.1173,33.7774,723.7538],[3.1266,33.768,726.8824],[3.133,33.7579,736.4534],[3.1342,33.7533,738.8983],[3.1326,33.7463,746.3706],[3.1389,33.7363,754.157],[3.1435,33.7336,755.3965],[3.1453,33.7289,758.9736],[3.1557,33.7201,766.6255],[3.1541,33.7111,784.8051],[3.1544,33.6887,793.557],[3.1436,33.6739,805.4221],[3.1412,33.6676,812.8909],[3.0676,33.6244,815.7735],[3.1609,33.6092,814.7986],[3.1576,33.5434,851.1288],[3.2065,33.5368,837.1765],[3.2557,33.5433,837.9133],[3.2796,33.5709,813.8389],[3.2805,33.5893,799.8198],[3.285,33.5864,805.6602],[3.2833,33.5935,798.4122],[3.2874,33.5948,795.9738],[3.2846,33.5994,785.845],[3.2903,33.5988,795.1321],[3.2946,33.5963,797.245],[3.299,33.6012,796.1088],[3.3017,33.5979,795.6373],[3.3051,33.6009,792.9169],[3.2856,33.6458,809.8097],[3.2861,33.6519,803.8494],[3.3005,33.6985,768.4764],[3.3032,33.7143,726.8951],[3.2953,33.7214,732.4513],[3.292,33.7384,719.72],[3.294,33.7441,711.9615],[3.305,33.7497,704.1606],[3.3167,33.7646,694.2329],[3.3268,33.771,689.3185],[3.3395,33.7909,682.2631],[3.3442,33.7919,677.2597],[3.3371,33.8035,674.3312],[3.3185,33.8082,677.3495],[3.2222,33.8216,686.6548],[3.2112,33.8455,708.9125],[3.2128,33.8547,698.9682],[3.1887,33.8642,722.1528]]]]}
,"properties": {"GID_2": "DZA.25.14_1","GID_0": "DZA","country": "Algeria","GID_1": "DZA.25_1","province": "Laghouat","NL_NAME_1": "ولايةالأغواط","county": "KsarHirane","VARNAME_2": "KsarElHirane","NL_NAME_2": "NA","TYPE_2": "Commune","ENGTYPE_2": "Commune","CC_2": "302","HASC_2": "DZ.LG.KH","name": "Ksar_Hirane.county","area_km2": 508.6786,"hist_schema_id": "Elevation0-9000","hist_area_km2": {"675": 27.432,"700": 92.5968,"725": 68.5758,"750": 60.9571,"775": 48.8034,"800": 97.2958,"825": 94.5011,"850": 18.5166}}}