{"type":"Feature","properties":{"GID_2":"DZA.30.15_1","GID_0":"DZA","country":"Algeria","GID_1":"DZA.30_1","province":"Mostaganem","NL_NAME_1":"ولايةمستغانم","county":"Mesra","VARNAME_2":"NA","NL_NAME_2":"NA","TYPE_2":"Commune","ENGTYPE_2":"Commune","CC_2":"2722","HASC_2":"DZ.MG.MS","name":"Mesra.county"},
"geometry":{"type": "MultiPolygon","coordinates": [[[[0.1742,35.8012,53.783],[0.1799,35.8015,54.0395],[0.1839,35.8067,58.3839],[0.1843,35.8118,63.499],[0.1909,35.8207,73.4605],[0.1926,35.8266,80.2381],[0.2034,35.8356,108.7628],[0.2086,35.836,116.776],[0.2143,35.8329,121.5366],[0.2205,35.8398,151.2419],[0.2187,35.8466,156.088],[0.2066,35.8464,138.7118],[0.2029,35.8506,176.4794],[0.1985,35.8637,181.0695],[0.1985,35.8688,185.779],[0.2022,35.872,185.066],[0.1998,35.8781,191.9128],[0.1954,35.8821,186.5609],[0.1962,35.8875,187.938],[0.1924,35.8898,188.1411],[0.182,35.8849,192.209],[0.175,35.8837,196.4654],[0.1724,35.8774,186.9196],[0.1654,35.8794,189.1315],[0.1546,35.8793,195.5393],[0.1483,35.8772,196.5748],[0.1478,35.8717,202.382],[0.1409,35.8686,206.4109],[0.1273,35.8668,223.9751],[0.1206,35.8537,256.4387],[0.1255,35.8499,248.2489],[0.1268,35.8448,227.5538],[0.1336,35.845,184.5259],[0.1408,35.8354,77.1107],[0.1465,35.831,61.8507],[0.1479,35.8254,53.5764],[0.1532,35.8176,53.5642],[0.1706,35.8163,59.6141],[0.1727,35.8122,58.6067],[0.1742,35.8012,53.783]]]]}}