{"type": "Feature","bbox": [5.7793,33.1564,6.1531,33.2685],"geometry": {"type": "MultiPolygon","coordinates": [[[[5.7793,33.1649,120.7759],[6.0022,33.1564,69.1258],[6.0503,33.1741,62.8661],[6.0665,33.1785,60.2165],[6.0755,33.1751,57.4323],[6.0952,33.1712,57.853],[6.1531,33.1689,78.0206],[6.1343,33.2685,66.1544],[6.0678,33.2263,57.2384],[5.9149,33.2261,81.222],[5.793,33.2672,78.8769],[5.7793,33.1649,120.7759]]]]}
,"properties": {"GID_2": "DZA.33.10_1","GID_0": "DZA","country": "Algeria","GID_1": "DZA.33_1","province": "Ouargla","NL_NAME_1": "ورقلة","county": "Megarine","VARNAME_2": "NA","NL_NAME_2": "NA","TYPE_2": "Commune","ENGTYPE_2": "Commune","CC_2": "3019","HASC_2": "DZ.OG.ME","name": "Megarine.county","area_km2": 276.5625,"hist_schema_id": "Elevation0-9000","hist_area_km2": {"50": 43.3012,"75": 229.6588,"100": 3.3008,"125": 0.3017}}}