{"type":"Feature","properties":{"GID_2":"DZA.27.2_1","GID_0":"DZA","country":"Algeria","GID_1":"DZA.27_1","province":"Mascara","NL_NAME_1":"ولايةمعسكر","county":"AinFekan","VARNAME_2":"NA","NL_NAME_2":"NA","TYPE_2":"Commune","ENGTYPE_2":"Commune","CC_2":"2918","HASC_2":"DZ.MC.AK","name":"Ain_Fekan.county"},
"geometry":{"type": "MultiPolygon","coordinates": [[[[0.0669,35.2409,542.4392],[0.0646,35.2529,492.0376],[0.0411,35.2546,467.7321],[0.0257,35.2508,450.5131],[0.0228,35.2564,440.0812],[0.0172,35.259,458.0775],[0.0053,35.2617,543.8441],[0.0008,35.2614,619.2737],[0.0031,35.2563,557.394],[0.0009,35.2513,664.5987],[-0.0059,35.2452,658.9877],[-0.0116,35.2438,691.2283],[-0.0165,35.2394,650.6697],[-0.0316,35.2351,589.6901],[-0.0359,35.2311,526.4631],[-0.0416,35.2305,518.453],[-0.0775,35.2184,316.3429],[-0.0886,35.2112,332.4854],[-0.0924,35.2037,312.7106],[-0.0871,35.1999,363.963],[-0.0896,35.1923,318.7635],[-0.0975,35.189,319.723],[-0.0929,35.1864,339.3599],[-0.092,35.1797,344.2534],[-0.0957,35.163,374.4066],[-0.0915,35.1594,411.8861],[-0.0862,35.1466,438.0906],[-0.0879,35.1415,439.3285],[-0.0845,35.1268,442.0654],[-0.0858,35.1195,453.3914],[-0.0835,35.1132,481.5789],[-0.0803,35.1097,506.707],[-0.0823,35.0976,626.1807],[-0.0776,35.0924,645.3059],[-0.0615,35.094,541.6827],[-0.0249,35.0914,491.0131],[-0.0282,35.1059,457.7367],[-0.0316,35.112,464.5478],[-0.0295,35.1166,424.5],[-0.023,35.116,438.711],[-0.0226,35.1247,425.9548],[-0.0163,35.1255,451.2297],[-0.0131,35.1219,443.4093],[-0.0179,35.1139,438.0576],[-0.0115,35.1118,432.0677],[-0.0061,35.1225,453.2785],[-0.0025,35.1254,463.5989],[-0.0003,35.1204,451.4858],[0.0051,35.1212,461.834],[0.0145,35.1285,497.6091],[0.0207,35.131,509.4595],[0.0315,35.1301,502.3691],[0.0443,35.1328,501.6808],[0.0608,35.1442,511.3175],[0.0603,35.1485,513.3987],[0.0553,35.157,531.9409],[0.0482,35.1773,540.5956],[0.0412,35.1881,528.1344],[0.0426,35.1921,506.6759],[0.0464,35.1949,504.2885],[0.0546,35.1876,502.7981],[0.0584,35.1929,497.0172],[0.0552,35.1988,486.9984],[0.0579,35.205,479.5374],[0.0677,35.2111,468.7163],[0.0695,35.2185,484.2731],[0.0694,35.2322,545.4126],[0.0669,35.2409,542.4392]]]]}}