{"type":"Feature","properties":{"GID_2":"DZA.48.10_1","GID_0":"DZA","country":"Algeria","GID_1":"DZA.48_1","province":"Tlemcen","NL_NAME_1":"تلمسان","county":"BabElAssa","VARNAME_2":"NA","NL_NAME_2":"NA","TYPE_2":"Commune","ENGTYPE_2":"Commune","CC_2":"1318","HASC_2":"DZ.TL.BA","name":"Bab_El_Assa.county"},
"geometry":{"type": "MultiPolygon","coordinates": [[[[-1.927,34.9897,439.9782],[-1.9365,34.99,376.9486],[-1.9439,34.9883,327.2909],[-1.9481,34.9857,336.5698],[-1.9547,34.974,403.1682],[-1.966,34.9785,311.4241],[-1.9929,34.9846,227.5637],[-2.0057,34.9901,177.1772],[-2.0177,34.9996,222.4177],[-2.0245,35.0087,228.1381],[-2.0219,35.017,170.3763],[-2.0285,35.0196,177.0658],[-2.0361,35.0159,198.5321],[-2.0425,35.0068,409.8363],[-2.0422,34.9908,452.0798],[-2.0437,34.9802,525.72],[-2.0461,34.976,594.7588],[-2.0591,34.9699,418.6807],[-2.0651,34.9703,358.006],[-2.0775,34.9672,303.4473],[-2.0883,34.9565,236.8009],[-2.0473,34.9297,449.3092],[-2.0379,34.9254,491.1929],[-2.0304,34.9254,526.9301],[-2.0138,34.9316,556.3641],[-2.0021,34.9297,505.2138],[-1.9851,34.9317,511.9762],[-1.9623,34.9392,539.5529],[-1.9549,34.9449,477.3478],[-1.939,34.9471,460.5691],[-1.9418,34.9509,435.0753],[-1.9402,34.955,418.5396],[-1.928,34.958,451.0534],[-1.9295,34.9639,473.4545],[-1.9281,34.9694,391.1389],[-1.9166,34.9763,367.9772],[-1.9189,34.9826,370.8689],[-1.9236,34.9853,435.9735],[-1.927,34.9897,439.9782]]]]}}