{"type": "Feature","bbox": [3.4187,36.692,3.4715,36.77],"geometry": {"type": "MultiPolygon","coordinates": [[[[3.4187,36.7433,23.7005],[3.4286,36.7283,79.9903],[3.4362,36.7201,47.0475],[3.4348,36.7142,84.3829],[3.4527,36.7067,120.5886],[3.4561,36.7003,118.2108],[3.4568,36.692,172.6839],[3.4643,36.6943,115.9743],[3.4696,36.6982,56.2008],[3.4715,36.71,38.523],[3.4708,36.7198,39.7037],[3.463,36.7224,30.2042],[3.4594,36.7258,25.1608],[3.4557,36.7329,21.5045],[3.4567,36.7426,51.5576],[3.4527,36.7466,15.5081],[3.4535,36.7555,12.8078],[3.4588,36.7666,17.3858],[3.4235,36.77,6.9212],[3.4193,36.7689,1.6322],[3.4213,36.7612,26.7647],[3.4187,36.7433,23.7005]]]]}
,"properties": {"GID_2": "DZA.13.12_1","GID_0": "DZA","country": "Algeria","GID_1": "DZA.13_1","province": "Boumerdès","NL_NAME_1": "ولايةبومرداس","county": "Corso","VARNAME_2": "NA","NL_NAME_2": "NA","TYPE_2": "Commune-Cotiere","ENGTYPE_2": "Commune-Cotiere","CC_2": "3516","HASC_2": "DZ.BM.CO","name": "Corso.county","area_km2": 21.85109,"hist_schema_id": "Elevation0-9000","hist_area_km2": {"0": 1.4778,"25": 9.20786,"50": 5.25074,"75": 3.04207,"100": 1.64868,"125": 0.74794,"150": 0.357,"175": 0.119}}}