{"type": "Feature","bbox": [0.1548,35.0112,0.3045,35.1553],"geometry": {"type": "MultiPolygon","coordinates": [[[[0.279,35.1393,887.5939],[0.2615,35.1374,792.6984],[0.2584,35.1411,766.7496],[0.2477,35.1395,743.7119],[0.2352,35.1353,703.2765],[0.2224,35.1371,652.5299],[0.2195,35.1402,646.249],[0.218,35.1472,629.3561],[0.2135,35.1521,625.2665],[0.2095,35.1553,619.9856],[0.2056,35.1536,607.2143],[0.202,35.1474,649.662],[0.2008,35.1408,725.2623],[0.1927,35.1337,677.2557],[0.1862,35.1119,860.0031],[0.1764,35.1025,748.5498],[0.1736,35.0966,592.5704],[0.1648,35.0912,536.924],[0.1655,35.0865,527.2994],[0.1697,35.0848,528.5759],[0.168,35.0803,573.9973],[0.1548,35.0702,1001.9734],[0.1658,35.0562,952.2112],[0.1754,35.0525,1020.0508],[0.1679,35.0363,928.2868],[0.1805,35.0324,944.1481],[0.1845,35.0272,1050.8234],[0.1933,35.0218,998.314],[0.2012,35.0142,923.3651],[0.2089,35.0149,886.8403],[0.2134,35.0117,929.1298],[0.2199,35.0112,938.648],[0.226,35.0137,862.9759],[0.238,35.0269,743.5103],[0.2488,35.0318,646.8052],[0.253,35.0285,661.0225],[0.2673,35.0353,750.902],[0.2732,35.0402,954.9885],[0.2799,35.0426,985.6492],[0.277,35.0483,946.8485],[0.2875,35.0591,801.6334],[0.2883,35.0646,875.5078],[0.2948,35.0755,877.1517],[0.2962,35.0812,769.3978],[0.2943,35.0861,783.7979],[0.2954,35.0924,638.9467],[0.2995,35.0988,602.9198],[0.3045,35.1132,621.844],[0.3029,35.1204,641.6525],[0.2971,35.126,692.0696],[0.2942,35.1321,834.9526],[0.279,35.1393,887.5939]]]]}
,"properties": {"GID_2": "DZA.27.7_1","GID_0": "DZA","country": "Algeria","GID_1": "DZA.27_1","province": "Mascara","NL_NAME_1": "ولايةمعسكر","county": "Benian","VARNAME_2": "NA","NL_NAME_2": "NA","TYPE_2": "Commune","ENGTYPE_2": "Commune","CC_2": "2919","HASC_2": "DZ.MC.BE","name": "Benian.county","area_km2": 136.4257,"hist_schema_id": "Elevation0-9000","hist_area_km2": {"525": 0.7807,"550": 6.8875,"575": 12.1089,"600": 14.3982,"625": 16.064,"650": 14.9895,"675": 11.8494,"700": 9.82,"725": 7.5819,"750": 5.8128,"775": 5.6047,"800": 5.6565,"825": 4.824,"850": 3.9917,"875": 3.7142,"900": 3.8877,"925": 3.5931,"950": 2.118,"975": 1.5103,"1000": 0.9027,"1025": 0.2604,"1050": 0.0694}}}