{"type": "Feature","bbox": [0.8199,31.658,2.3612,33.4231],"geometry": {"type": "MultiPolygon","coordinates": [[[[0.8306,33.0642,994.1125],[0.8258,33.0358,994.8279],[0.866,33.0072,958.1949],[0.8702,33.0006,950.5843],[0.8841,32.9907,946.5729],[0.8854,32.924,979.4229],[1.0195,32.8018,889.4521],[1.188,32.6641,841.0687],[1.2568,32.4338,751.7137],[1.6592,32.1508,606.7001],[1.7324,32.0196,609.9406],[1.8266,31.8366,505.5228],[1.9919,31.7071,559.7201],[2.0587,31.658,500.176],[2.2736,31.8597,546.5479],[2.2677,31.9316,566.4481],[2.2652,31.9999,570.632],[2.247,32.1475,594.829],[2.2432,32.1968,618.4855],[2.2968,32.2286,585.1886],[2.3612,32.2611,555.5214],[2.2978,32.4776,624.7111],[2.2748,32.5617,644.2689],[2.2421,32.8043,717.7264],[2.233,32.8096,724.5915],[2.2368,32.8206,728.8057],[2.2297,32.8321,729.1421],[2.2296,32.8383,733.9197],[2.2237,32.8505,726.8118],[2.2237,32.8654,743.4584],[2.2216,32.8732,734.3597],[2.213,32.8832,737.9869],[2.1822,32.9086,745.3649],[2.177,32.9164,751.7072],[2.1787,32.9246,765.6506],[2.1774,32.9342,752.3701],[2.1676,32.9421,752.3953],[2.1642,32.9481,756.454],[2.1667,32.9545,768.2825],[2.1656,32.9608,760.5808],[2.1569,32.9678,757.9078],[2.152,32.9861,764.0276],[2.1435,33.0073,769.2854],[2.1276,33.0327,772.8181],[2.1075,33.0598,779.7427],[2.1048,33.0683,781.1819],[2.1045,33.0872,785.7094],[2.111,33.0984,788.9034],[2.1123,33.1143,790.1717],[2.1145,33.1195,791.2618],[2.1087,33.1305,793.8171],[2.0977,33.1378,796.2422],[2.0853,33.1522,799.5229],[2.0879,33.159,800.7736],[2.0937,33.1629,801.5725],[2.0995,33.1631,802.4357],[2.2704,33.1586,805.696],[2.2804,33.2886,921.2417],[2.2808,33.3107,927.6667],[2.1844,33.2935,893.0024],[2.092,33.3202,865.663],[2.0231,33.3382,915.6935],[2.015,33.3682,917.7122],[2.0309,33.4036,926.9055],[1.9361,33.414,948.4194],[1.9198,33.4151,951.6896],[1.8963,33.4142,960.3013],[1.8866,33.4167,967.8517],[1.8795,33.4153,973.6467],[1.7902,33.4231,1014.5478],[1.7826,33.4227,1017.6636],[1.7658,33.4063,1052.2606],[1.7289,33.3802,1017.5374],[1.7294,33.3673,1005.0831],[1.7281,33.3601,998.5194],[1.7245,33.3523,995.1954],[1.7199,33.3526,997.1609],[1.6947,33.3477,1023.8789],[1.6622,33.3393,1019.2828],[1.6039,33.3198,1001.437],[1.5312,33.2825,1016.5085],[1.5137,33.2716,1016.7627],[1.4707,33.2397,988.1809],[1.4006,33.2447,1055.1112],[1.4078,33.3101,1182.3702],[1.361,33.3591,1403.3328],[1.2552,33.3173,1149.5015],[1.1991,33.3198,1227.973],[1.1284,33.334,1121.5457],[1.1253,33.329,1116.3713],[1.1222,33.3036,1095.6362],[1.1226,33.2963,1110.7969],[1.1264,33.2868,1128.6289],[1.1256,33.2801,1136.4998],[1.1189,33.2705,1154.6154],[1.0865,33.2351,1067.0961],[1.0504,33.2059,1004.8888],[1.0445,33.2036,1008.3694],[1.0402,33.2045,1009.485],[1.0219,33.1911,1025.2712],[1.0162,33.1889,1030.2191],[1.0018,33.1881,1037.2732],[0.9812,33.1729,1107.2405],[0.9293,33.1437,1024.4669],[0.8353,33.1328,1022.7685],[0.8199,33.1284,1021.8403],[0.8306,33.0642,994.1125]]]]}
,"properties": {"GID_2": "DZA.17.6_1","GID_0": "DZA","country": "Algeria","GID_1": "DZA.17_1","province": "ElBayadh","NL_NAME_1": "ولايةالبيض","county": "Brezina","VARNAME_2": "Brizyānah","NL_NAME_2": "NA","TYPE_2": "Commune","ENGTYPE_2": "Commune","CC_2": "3204","HASC_2": "DZ.EB.BR","name": "Brezina.county","area_km2": 15723.14,"hist_schema_id": "Elevation0-9000","hist_area_km2": {"500": 1.46,"525": 30.99,"550": 300.36,"575": 1023.73,"600": 1122.96,"625": 990.98,"650": 755.86,"675": 783.63,"700": 750.47,"725": 733.64,"750": 993.22,"775": 1513.55,"800": 1304.11,"825": 1081.91,"850": 879.17,"875": 619.55,"900": 455.01,"925": 374.8,"950": 420.49,"975": 597.24,"1000": 346.51,"1025": 177.56,"1050": 113.17,"1075": 90.44,"1100": 77.73,"1125": 53.04,"1150": 36.93,"1175": 31.91,"1200": 22.65,"1225": 14.87,"1250": 9.54,"1275": 6.97,"1300": 4.4,"1325": 2.3,"1350": 1.05,"1375": 0.44,"1400": 0.27,"1450": 0.16}}}