{"type":"Feature","properties":{"GID_2":"DZA.35.9_1","GID_0":"DZA","country":"Algeria","GID_1":"DZA.35_1","province":"Relizane","NL_NAME_1":"ولايةغليزان","county":"Djidiouia","VARNAME_2":"NA","NL_NAME_2":"NA","TYPE_2":"Commune","ENGTYPE_2":"Commune","CC_2":"4814","HASC_2":"DZ.RE.DJ","name":"Djidiouia.county"},
"geometry":{"type": "MultiPolygon","coordinates": [[[[0.854,35.8418,359.2012],[0.8615,35.8482,270.3332],[0.8664,35.8495,253.5346],[0.8693,35.8459,225.2205],[0.8949,35.8481,166.1553],[0.8989,35.8521,136.3182],[0.9004,35.8621,144.565],[0.8993,35.8687,137.6414],[0.8975,35.8745,126.2369],[0.891,35.8758,114.2588],[0.8921,35.8819,115.7226],[0.8968,35.8841,134.1793],[0.9064,35.8976,217.9905],[0.9096,35.9049,300.0765],[0.9093,35.9117,352.148],[0.9129,35.9211,468.9048],[0.8855,35.9269,367.2121],[0.8694,35.9268,272.0981],[0.8629,35.9401,80.9351],[0.8579,35.9396,73.0152],[0.8527,35.9426,64.0459],[0.8508,35.9517,60.3951],[0.847,35.955,58.4597],[0.8469,35.962,55.9587],[0.8444,35.9691,51.7371],[0.847,35.9756,51.7648],[0.8425,35.9737,45.9642],[0.8365,35.9755,45.795],[0.8394,35.9811,52.7059],[0.8316,35.9817,46.8616],[0.8292,35.9935,51.7782],[0.8147,36.0208,57.077],[0.811,36.0327,127.8453],[0.8114,36.0375,159.8769],[0.8059,36.0452,272.9119],[0.8041,36.0512,467.5444],[0.7881,36.0471,339.4841],[0.7828,36.0433,369.9043],[0.7769,36.0499,476.5835],[0.7747,36.0561,414.25],[0.7711,36.0512,380.0777],[0.7676,36.0332,162.1719],[0.7702,36.0245,95.2937],[0.7664,36.0206,63.0858],[0.7715,36.0153,53.8062],[0.7795,36.0143,51.2885],[0.7807,36.0026,49.2111],[0.7853,35.9877,47.8184],[0.7617,35.9984,46.301],[0.7356,36.0028,45.1995],[0.7266,36.0058,43.7942],[0.7195,36.0032,42.758],[0.7163,35.9968,40.9791],[0.7307,35.9866,44.436],[0.7348,35.9821,45.9247],[0.7365,35.9772,41.414],[0.7427,35.9788,45.926],[0.7482,35.9775,45.4996],[0.7467,35.9731,42.0927],[0.7405,35.9703,42.5689],[0.7446,35.9681,40.786],[0.7552,35.9703,39.1184],[0.7589,35.9674,41.8815],[0.7598,35.9623,44.0964],[0.7641,35.9619,43.6486],[0.7675,35.9656,43.6313],[0.7786,35.9604,44.6692],[0.7776,35.941,48.4661],[0.7789,35.9365,48.9658],[0.7803,35.9318,48.9068],[0.7894,35.9238,54.9892],[0.796,35.9225,62.7763],[0.8013,35.9179,78.9014],[0.8077,35.9189,81.9955],[0.8239,35.918,128.4992],[0.8272,35.9139,152.5251],[0.8358,35.918,152.4684],[0.8478,35.9075,84.2995],[0.8427,35.8967,150.0042],[0.8415,35.8712,214.6533],[0.8466,35.8703,249.6824],[0.8489,35.8639,277.6222],[0.8449,35.853,274.9305],[0.8448,35.8481,282.4242],[0.854,35.8418,359.2012]]]]}}