{"type": "Feature","bbox": [6.2073,36.6076,6.3521,36.6794],"geometry": {"type": "MultiPolygon","coordinates": [[[[6.2614,36.6771,249.4184],[6.2459,36.6684,772.6064],[6.2411,36.6689,887.5974],[6.2253,36.6643,983.4608],[6.2131,36.6634,1181.6235],[6.2089,36.6601,1219.6342],[6.2107,36.6516,1008.1794],[6.2103,36.6425,970.6315],[6.2073,36.6325,948.1027],[6.2129,36.6293,957.2686],[6.2288,36.6301,958.405],[6.2347,36.621,357.9152],[6.2389,36.6185,196.5281],[6.2433,36.6175,186.0352],[6.2549,36.62,113.2393],[6.2553,36.6076,390.352],[6.2593,36.611,266.3278],[6.2825,36.6159,127.7766],[6.2858,36.6203,267.5504],[6.2917,36.6209,306.9781],[6.298,36.617,386.5297],[6.3025,36.6168,440.316],[6.3121,36.6182,563.2201],[6.3151,36.6232,391.2897],[6.3276,36.6219,676.1618],[6.3431,36.6414,312.326],[6.3509,36.6488,334.42],[6.3521,36.6545,351.73],[6.3363,36.6683,771.4661],[6.3245,36.674,997.1027],[6.3085,36.671,940.7257],[6.2933,36.6702,488.656],[6.2889,36.6782,809.7912],[6.2689,36.6794,121.8511],[6.2614,36.6771,249.4184]]]]}
,"properties": {"GID_2": "DZA.23.25_1","GID_0": "DZA","country": "Algeria","GID_1": "DZA.23_1","province": "Jijel","NL_NAME_1": "ولايةجيجل","county": "SidiMarouf","VARNAME_2": "SidiMaarouf","NL_NAME_2": "NA","TYPE_2": "Commune","ENGTYPE_2": "Commune","CC_2": "1810","HASC_2": "DZ.JJ.SM","name": "Sidi_Marouf.county","area_km2": 67.38187,"hist_schema_id": "Elevation0-9000","hist_area_km2": {"50": 1.15663,"75": 3.38568,"100": 1.87133,"125": 2.34774,"150": 2.44981,"175": 2.82401,"200": 3.09623,"225": 2.97719,"250": 2.99406,"275": 2.96007,"300": 3.07912,"325": 2.92606,"350": 2.73891,"375": 2.55173,"400": 2.3476,"425": 2.36463,"450": 2.07542,"475": 1.99029,"500": 1.66707,"525": 1.47998,"550": 1.41194,"575": 1.34381,"600": 1.20779,"625": 1.07166,"650": 1.07164,"675": 0.88454,"700": 0.71439,"725": 0.96956,"750": 0.79946,"775": 0.81644,"800": 0.79942,"825": 0.90149,"850": 0.73144,"875": 0.6974,"900": 0.66335,"925": 0.76545,"950": 0.51026,"975": 0.51025,"1000": 0.54427,"1025": 0.39118,"1050": 0.35718,"1075": 0.20409,"1100": 0.2381,"1125": 0.32314,"1150": 0.10204,"1175": 0.05102,"1200": 0.01701}}}