{"type":"Feature","properties":{"GID_2":"DZA.3.2_1","GID_0":"DZA","country":"Algeria","GID_1":"DZA.3_1","province":"AïnTémouchent","NL_NAME_1":"ولايةعينتموشنت","county":"AinElArbaa","VARNAME_2":"NA","NL_NAME_2":"NA","TYPE_2":"Commune","ENGTYPE_2":"Commune","CC_2":"4609","HASC_2":"DZ.AT.AA","name":"Ain_El_Arbaa.county"},
"geometry":{"type": "MultiPolygon","coordinates": [[[[-0.842,35.3868,148.0492],[-0.8519,35.4359,102.0598],[-0.8575,35.4394,99.026],[-0.872,35.4413,95.8563],[-0.8755,35.4485,93.9348],[-0.8833,35.4502,92.6955],[-0.8878,35.4605,90.7557],[-0.894,35.4618,89.8711],[-0.8983,35.4664,87.8265],[-0.8944,35.4706,85.3979],[-0.9049,35.4765,83.3361],[-0.9154,35.4712,83.0516],[-0.932,35.47,84.2978],[-0.9283,35.4588,88.4297],[-0.932,35.4461,88.4311],[-0.9282,35.4423,89.0788],[-0.927,35.4374,90.2755],[-0.9301,35.4343,90.9069],[-0.9298,35.4298,94.4421],[-0.925,35.4268,100.0534],[-0.9275,35.4227,125.3007],[-0.941,35.4168,155.8095],[-0.9374,35.4136,156.1572],[-0.9366,35.408,132.6359],[-0.9323,35.4039,120.0941],[-0.9314,35.3973,135.4622],[-0.9272,35.3947,137.6689],[-0.9269,35.3883,169.9784],[-0.9295,35.382,185.9908],[-0.9287,35.3773,184.1483],[-0.9271,35.3717,177.3401],[-0.9227,35.3716,192.5686],[-0.9192,35.3688,191.9323],[-0.9162,35.3568,236.3127],[-0.9113,35.3576,250.8015],[-0.9055,35.3611,227.5418],[-0.895,35.371,289.4927],[-0.8886,35.3749,264.1908],[-0.8768,35.3789,267.2838],[-0.8458,35.3842,158.1449],[-0.842,35.3868,148.0492]]]]}}