{"type":"Feature","properties":{"GID_2":"DZA.42.8_1","GID_0":"DZA","country":"Algeria","GID_1":"DZA.42_1","province":"Tébessa","NL_NAME_1":"ولايةتبسة","county":"BoulhafDyr","VARNAME_2":"NA","NL_NAME_2":"NA","TYPE_2":"Commune","ENGTYPE_2":"Commune","CC_2":"1225","HASC_2":"DZ.TB.BL","name":"Boulhaf_Dyr.county"},
"geometry":{"type": "MultiPolygon","coordinates": [[[[8.1085,35.6224,1217.6974],[8.096,35.6118,1120.0115],[8.0853,35.6093,1175.7069],[8.0802,35.6103,1133.353],[8.0621,35.5961,792.8164],[8.0658,35.5898,805.8918],[8.0667,35.5849,801.6811],[8.0533,35.5847,778.1788],[8.0455,35.5868,764.9453],[8.0546,35.5478,759.4866],[8.0474,35.5442,751.3246],[8.0504,35.5387,752.6497],[8.0482,35.5319,756.4861],[8.049,35.5251,759.1862],[8.0432,35.5177,761.3526],[8.0466,35.5106,764.4315],[8.0453,35.5028,767.6166],[8.0463,35.4923,770.078],[8.0422,35.4826,771.9628],[8.0415,35.4744,774.434],[8.0481,35.4732,776.5544],[8.0575,35.4652,780.0615],[8.0805,35.4577,792.4671],[8.0927,35.4502,791.8138],[8.1047,35.4489,801.1715],[8.1109,35.4462,800.1116],[8.1166,35.4416,800.384],[8.1243,35.4387,802.8939],[8.1389,35.4246,809.1091],[8.1455,35.4218,812.5547],[8.145,35.4263,812.7493],[8.1503,35.436,830.3599],[8.1651,35.4532,896.7014],[8.1826,35.4772,987.2114],[8.1853,35.4876,1088.1793],[8.1929,35.4967,1086.443],[8.1896,35.5007,1118.2258],[8.1721,35.5136,1314.425],[8.1515,35.516,1440.421],[8.1476,35.5185,1448.3677],[8.1469,35.5235,1424.5352],[8.1499,35.5267,1345.395],[8.1477,35.5325,1210.9591],[8.1483,35.539,1146.9631],[8.1448,35.5421,1140.5547],[8.1316,35.5447,992.1227],[8.111,35.5396,913.6351],[8.1156,35.5453,1038.3267],[8.1212,35.5483,1072.7947],[8.1315,35.5577,1163.8917],[8.146,35.5732,1190.1577],[8.1471,35.5775,1174.8384],[8.1428,35.5786,1232.1025],[8.129,35.5749,1298.8817],[8.1287,35.5938,1191.8206],[8.1304,35.5979,1171.9916],[8.1302,35.6043,1199.7329],[8.1331,35.6094,1146.5161],[8.1136,35.6219,1288.8193],[8.1085,35.6224,1217.6974]]]]}}