{"type": "Feature","bbox": [-0.4401,34.8646,-0.2191,35.1217],"geometry": {"type": "MultiPolygon","coordinates": [[[[-0.2513,35.0801,508.0935],[-0.2531,35.1173,449.708],[-0.2564,35.1217,437.2062],[-0.2615,35.1216,429.4791],[-0.2671,35.1185,432.3021],[-0.2752,35.1215,434.3901],[-0.2846,35.1168,446.2971],[-0.2953,35.1154,450.0642],[-0.3091,35.1018,469.5507],[-0.3137,35.0994,464.1218],[-0.3197,35.1009,464.4602],[-0.3261,35.1,465.1534],[-0.3381,35.0919,479.5055],[-0.3502,35.0965,491.5395],[-0.3644,35.098,520.9831],[-0.3734,35.1007,548.8416],[-0.3792,35.0991,573.5858],[-0.3921,35.1003,671.8572],[-0.4023,35.0993,733.2009],[-0.4076,35.09,718.9921],[-0.4115,35.0779,686.6824],[-0.402,35.0648,584.8054],[-0.4059,35.061,572.7093],[-0.4115,35.0592,579.6767],[-0.4286,35.0571,568.6669],[-0.4245,35.0489,545.5371],[-0.4203,35.0447,542.8334],[-0.4277,35.0167,614.1479],[-0.4349,35.0107,651.6247],[-0.4366,35.0067,685.9276],[-0.4376,35.0012,701.8237],[-0.4359,34.9953,721.7204],[-0.4363,34.9885,794.5779],[-0.4401,34.983,940.2877],[-0.4382,34.977,1013.3579],[-0.427,34.9718,989.2007],[-0.4289,34.9678,1013.7602],[-0.4158,34.9588,907.5038],[-0.42,34.9519,907.3976],[-0.4227,34.9426,895.3405],[-0.4129,34.9414,925.7434],[-0.3972,34.9348,875.0179],[-0.3738,34.9206,841.1047],[-0.3655,34.9109,803.5889],[-0.3869,34.8854,804.2797],[-0.3888,34.8749,820.4879],[-0.3926,34.8699,831.0411],[-0.3935,34.8646,849.1431],[-0.3883,34.8658,840.8165],[-0.378,34.8719,816.5061],[-0.3725,34.8712,830.8456],[-0.364,34.8731,790.0659],[-0.3566,34.8799,764.7233],[-0.3474,34.8821,737.2261],[-0.343,34.8858,731.92],[-0.3313,34.8896,717.9343],[-0.3217,34.8901,703.1935],[-0.3127,34.894,686.6246],[-0.3034,34.9004,721.8455],[-0.2981,34.9013,709.0449],[-0.2931,34.907,696.2202],[-0.2929,34.9129,709.353],[-0.2965,34.9173,728.3186],[-0.3036,34.916,756.0465],[-0.3122,34.9243,755.8685],[-0.3126,34.9296,747.5593],[-0.3085,34.9342,741.6852],[-0.314,34.9354,768.9229],[-0.3092,34.942,749.1008],[-0.2985,34.945,716.7488],[-0.2984,34.9499,698.15],[-0.3044,34.9536,692.3569],[-0.3098,34.9519,713.6134],[-0.3128,34.9688,645.6719],[-0.3105,34.9798,620.0285],[-0.3113,34.9861,611.9576],[-0.2934,34.9885,650.528],[-0.2872,34.9931,694.4562],[-0.2796,34.9949,775.3398],[-0.2296,34.9947,739.8737],[-0.2284,34.9992,737.4531],[-0.2337,35.004,746.405],[-0.2362,35.0096,746.1035],[-0.2308,35.019,811.1837],[-0.2191,35.0295,737.0675],[-0.2279,35.0369,658.1912],[-0.2424,35.0431,621.6985],[-0.2413,35.0545,571.145],[-0.2507,35.0668,528.2542],[-0.2513,35.0801,508.0935]]]]}
,"properties": {"GID_2": "DZA.38.28_1","GID_0": "DZA","country": "Algeria","GID_1": "DZA.38_1","province": "SidiBelAbbès","NL_NAME_1": "ولايةسيديبلعباس","county": "OuedSefioune","VARNAME_2": "OuedSefioun","NL_NAME_2": "NA","TYPE_2": "Commune","ENGTYPE_2": "Commune","CC_2": "2243","HASC_2": "DZ.SB.OF","name": "Oued_Sefioune.county","area_km2": 311.7307,"hist_schema_id": "Elevation0-9000","hist_area_km2": {"425": 0.5896,"450": 6.7817,"475": 14.5722,"500": 22.5915,"525": 26.119,"550": 26.6089,"575": 24.2001,"600": 21.7732,"625": 21.7932,"650": 18.7732,"675": 16.517,"700": 16.103,"725": 19.1996,"750": 20.8878,"775": 19.953,"800": 16.1846,"825": 6.9707,"850": 3.302,"875": 2.1723,"900": 2.2243,"925": 2.0157,"950": 1.616,"975": 0.3996,"1000": 0.3475,"1025": 0.0347}}}