{"type": "Feature","bbox": [-2.4049,31.1827,-1.3527,32.048],"geometry": {"type": "MultiPolygon","coordinates": [[[[-2.2691,31.1827,633.3628],[-2.0616,31.1942,794.8784],[-2.0009,31.1942,796.8144],[-1.9938,31.1926,893.6927],[-1.9849,31.2109,852.3521],[-1.984,31.2161,871.7969],[-1.9881,31.2275,801.9484],[-2.0087,31.2342,714.228],[-2.0375,31.2261,728.8866],[-2.0465,31.226,772.5662],[-2.0505,31.2286,717.6553],[-2.0535,31.2476,826.8044],[-2.0575,31.2532,822.6135],[-2.07,31.2624,814.7922],[-2.0957,31.2754,913.4448],[-2.1011,31.2889,811.3041],[-2.1057,31.2917,881.3901],[-2.1073,31.2958,798.8259],[-2.1151,31.2999,859.4171],[-2.1073,31.3083,807.2646],[-2.0898,31.319,828.5884],[-2.0656,31.3402,878.811],[-2.051,31.3473,933.8062],[-2.0317,31.362,936.3959],[-2.0154,31.3823,909.4136],[-1.9808,31.3913,660.7401],[-1.8742,31.4419,658.6183],[-1.7057,31.3418,708.6733],[-1.5952,31.2948,788.8579],[-1.3527,31.4444,706.1923],[-1.5237,31.7145,716.2522],[-1.7194,31.8254,767.6072],[-1.8226,31.9436,973.3926],[-1.8182,31.9586,974.6847],[-1.8192,31.9661,978.286],[-1.8175,31.9725,984.0786],[-1.8188,31.9834,989.918],[-1.8265,31.9958,1003.0529],[-1.8271,32.002,1005.0264],[-1.8352,32.0133,1016.0952],[-1.8467,32.0214,1027.5682],[-1.8511,32.0264,1035.5732],[-1.9075,32.048,1578.4868],[-1.9821,32.0144,1049.7726],[-1.996,32.0063,1011.3245],[-2.017,32.0054,1000.499],[-2.0519,31.9911,1005.6082],[-2.0194,31.9007,962.1917],[-2.4049,31.6958,869.8556],[-2.3262,31.5638,765.1996],[-2.3,31.394,678.3373],[-2.3019,31.3809,660.2372],[-2.3003,31.3692,656.2878],[-2.2911,31.3434,662.4218],[-2.2869,31.3359,666.3142],[-2.2858,31.3198,672.0846],[-2.276,31.2857,675.6147],[-2.2781,31.2658,661.116],[-2.2815,31.2511,663.2792],[-2.2807,31.2343,660.4725],[-2.2768,31.2114,657.8273],[-2.2775,31.2066,646.9482],[-2.2723,31.1977,634.0964],[-2.272,31.1862,632.1685],[-2.2691,31.1827,633.3628]]]]}
,"properties": {"GID_2": "DZA.7.2_1","GID_0": "DZA","country": "Algeria","GID_1": "DZA.7_1","province": "Béchar","NL_NAME_1": "ولايةبشار","county": "Bechar","VARNAME_2": "Bashshar","NL_NAME_2": "NA","TYPE_2": "Chef-Lieu-Wilaya","ENGTYPE_2": "Chef-Lieu-Wilaya","CC_2": "801","HASC_2": "DZ.BC.BE","name": "Bechar.county","area_km2": 5028.2,"hist_schema_id": "Elevation0-9000","hist_area_km2": {"625": 1.941,"650": 59.067,"675": 408.069,"700": 619.034,"725": 650.394,"750": 506.216,"775": 387.847,"800": 302.736,"825": 390.336,"850": 375.747,"875": 197.37,"900": 148.607,"925": 124.169,"950": 122.981,"975": 108.065,"1000": 89.995,"1025": 74.404,"1050": 67.715,"1075": 61.352,"1100": 49.867,"1125": 44.13,"1150": 36.229,"1175": 31.345,"1200": 25.791,"1225": 20.052,"1250": 15.755,"1275": 13.101,"1300": 10.684,"1325": 9.728,"1350": 10.809,"1375": 9.205,"1400": 7.403,"1425": 4.809,"1450": 3.727,"1475": 2.376,"1500": 1.889,"1525": 1.781,"1550": 1.565,"1575": 1.601,"1600": 1.817,"1625": 1.691,"1650": 2.069,"1675": 1.925,"1700": 2.806,"1725": 3.346,"1750": 4.299,"1775": 3.472,"1800": 2.698,"1825": 2.267,"1850": 1.763,"1875": 1.295,"1900": 0.522,"1925": 0.234,"1950": 0.108}}}