{"type":"Feature","properties":{"GID_2":"DZA.30.16_1","GID_0":"DZA","country":"Algeria","GID_1":"DZA.30_1","province":"Mostaganem","NL_NAME_1":"ولايةمستغانم","county":"Mezghrane","VARNAME_2":"Mezaghrane|Mazaghran","NL_NAME_2":"NA","TYPE_2":"Commune-Cotiere","ENGTYPE_2":"Commune-Cotiere","CC_2":"2727","HASC_2":"DZ.MG.MZ","name":"Mezghrane.county"},
"geometry":{"type": "MultiPolygon","coordinates": [[[[0.0927,35.9133,136.4641],[0.086,35.9143,142.5227],[0.0802,35.9131,104.2664],[0.0732,35.9158,56.7239],[0.0552,35.9123,9.3473],[0.0515,35.9078,3.351],[0.0406,35.8799,11.312],[0.028,35.8618,24.3264],[0.0372,35.8561,165.795],[0.0453,35.8651,159.6306],[0.0481,35.8704,156.8178],[0.0534,35.8718,188.9706],[0.0647,35.869,204.2125],[0.07,35.873,189.4783],[0.0766,35.882,170.6926],[0.0869,35.8872,149.5716],[0.0928,35.8876,158.1234],[0.0955,35.8988,152.4562],[0.0935,35.9035,139.1262],[0.0927,35.9133,136.4641]]]]}}