{"type": "Feature","bbox": [-1.5841,35.0907,-0.5832,35.7262],"geometry": {"type": "MultiPolygon","coordinates": [[[[-1.423,35.2027,21.3355],[-1.4188,35.208,33.3195],[-1.4211,35.2134,18.9959],[-1.415,35.2123,24.5777],[-1.4124,35.2159,31.2494],[-1.4058,35.2086,29.8613],[-1.3989,35.2053,51.1239],[-1.3931,35.2084,49.2838],[-1.387,35.2074,71.7498],[-1.3767,35.2108,140.798],[-1.3649,35.2111,198.9039],[-1.3597,35.2044,152.6008],[-1.3537,35.2,131.787],[-1.3433,35.2021,217.9974],[-1.3361,35.2003,209.9836],[-1.3242,35.2014,251.6922],[-1.3081,35.198,314.6658],[-1.3025,35.1949,375.3505],[-1.2996,35.1988,318.9303],[-1.293,35.2013,283.1234],[-1.2872,35.2024,310.1269],[-1.2762,35.2006,314.4119],[-1.271,35.2055,303.6663],[-1.2645,35.2046,328.9794],[-1.2529,35.2063,445.7032],[-1.2471,35.2044,395.36],[-1.2524,35.2008,386.8315],[-1.245,35.1863,477.3732],[-1.2338,35.1787,570.0814],[-1.2216,35.1804,464.4897],[-1.2169,35.186,403.8202],[-1.2062,35.1792,444.5688],[-1.2023,35.1724,482.651],[-1.1966,35.1692,491.5312],[-1.1814,35.1722,558.4902],[-1.1712,35.1663,660.3033],[-1.1677,35.163,662.787],[-1.1668,35.1567,587.6462],[-1.1601,35.1561,633.993],[-1.1486,35.1586,581.1331],[-1.1282,35.1561,472.8197],[-1.1287,35.1473,470.6969],[-1.1189,35.1457,518.4396],[-1.1063,35.1345,578.5511],[-1.1003,35.1326,538.7388],[-1.0894,35.1341,437.4861],[-1.0781,35.1333,459.2749],[-1.0678,35.1276,387.6304],[-1.0676,35.1229,380.2517],[-1.049,35.1237,420.9624],[-1.045,35.1187,435.8839],[-1.0458,35.1078,465.2668],[-1.0414,35.0976,382.8633],[-1.0456,35.0936,418.3639],[-1.0358,35.0907,407.0222],[-1.0246,35.0934,427.0509],[-1.0134,35.091,435.3451],[-1.0074,35.0935,480.9983],[-1.0028,35.0935,487.5378],[-0.9865,35.1094,499.6975],[-0.9763,35.1127,544.6394],[-0.971,35.1122,545.5018],[-0.9654,35.1153,563.2983],[-0.9621,35.123,570.4338],[-0.9617,35.1392,675.2283],[-0.9528,35.1459,686.1074],[-0.9464,35.1599,633.8794],[-0.9475,35.1642,625.6338],[-0.9536,35.1692,589.0206],[-0.9361,35.1752,569.2037],[-0.9267,35.1797,530.1543],[-0.922,35.1842,524.1889],[-0.9027,35.1855,619.8391],[-0.8927,35.1892,597.9313],[-0.8955,35.1955,617.0529],[-0.8946,35.2015,617.8983],[-0.885,35.2042,649.7452],[-0.8847,35.2096,637.3208],[-0.8907,35.2206,651.2078],[-0.8917,35.2266,655.0377],[-0.8973,35.2299,576.9432],[-0.901,35.2345,475.4676],[-0.9011,35.2394,423.6425],[-0.9037,35.2441,435.6987],[-0.9042,35.2622,364.2303],[-0.9004,35.2659,374.8344],[-0.8885,35.2572,447.6875],[-0.8822,35.2553,523.0239],[-0.8741,35.2597,521.1628],[-0.8748,35.2706,484.4157],[-0.8731,35.2772,439.5059],[-0.8644,35.2853,373.8765],[-0.8621,35.2916,353.89],[-0.8571,35.2971,350.2809],[-0.8445,35.3034,357.6127],[-0.8374,35.3114,307.5233],[-0.8312,35.3145,360.3146],[-0.8224,35.3027,579.189],[-0.8168,35.298,743.578],[-0.806,35.2986,785.785],[-0.799,35.2916,740.8751],[-0.7947,35.2948,584.8031],[-0.7594,35.3052,402.9117],[-0.7489,35.3204,359.5072],[-0.7517,35.3293,339.1762],[-0.7511,35.3358,259.4398],[-0.7401,35.3405,341.9866],[-0.7276,35.3389,473.1469],[-0.7243,35.3432,535.7587],[-0.7113,35.341,391.7483],[-0.6932,35.3433,517.7441],[-0.6834,35.3484,642.9738],[-0.6762,35.3455,680.0667],[-0.6695,35.348,704.2554],[-0.6594,35.355,886.6951],[-0.6484,35.3573,826.3858],[-0.6436,35.36,818.3387],[-0.6375,35.3606,779.3365],[-0.6243,35.3576,851.4366],[-0.619,35.3586,837.8652],[-0.6153,35.3616,873.4103],[-0.6125,35.3701,757.409],[-0.6041,35.3797,514.6573],[-0.6027,35.3853,416.8431],[-0.6195,35.3952,297.0717],[-0.6181,35.3996,345.3043],[-0.6121,35.4103,408.1839],[-0.5964,35.4176,656.6528],[-0.5975,35.4221,681.063],[-0.5832,35.4238,697.5067],[-0.587,35.4445,454.4703],[-0.5916,35.4553,363.3369],[-0.6013,35.46,212.6493],[-0.6015,35.4661,127.2544],[-0.6056,35.4723,111.1577],[-0.6062,35.478,101.5173],[-0.6014,35.4887,100.6966],[-0.6053,35.4921,98.5365],[-0.6149,35.4926,96.0429],[-0.6215,35.5078,94.7431],[-0.625,35.5187,95.6915],[-0.6184,35.5293,88.9161],[-0.6193,35.5362,86.94],[-0.6242,35.5358,89.1909],[-0.6452,35.5268,90.4163],[-0.6811,35.5233,85.3874],[-0.6884,35.5209,86.8307],[-0.6952,35.5221,81.0],[-0.7188,35.5194,81.0],[-0.7361,35.5156,83.4955],[-0.7411,35.5164,85.3823],[-0.7514,35.5134,83.1118],[-0.7634,35.5074,83.5917],[-0.8035,35.4956,81.7716],[-0.8166,35.4861,85.5852],[-0.8349,35.4785,85.3403],[-0.8521,35.4732,84.3737],[-0.8616,35.472,83.5724],[-0.8714,35.4759,82.1314],[-0.8827,35.4758,81.0],[-0.887,35.4797,81.5054],[-0.893,35.4797,82.358],[-0.8976,35.4823,81.0],[-0.9017,35.4809,83.0762],[-0.9049,35.4765,83.3361],[-0.9154,35.4712,83.0516],[-0.932,35.47,84.2978],[-0.9362,35.4736,81.0],[-0.9369,35.4796,81.0],[-0.9476,35.4866,81.4444],[-0.9535,35.4924,81.0],[-0.9586,35.4954,93.4263],[-0.9704,35.4954,84.9708],[-0.9798,35.4923,85.1551],[-0.983,35.4879,86.8131],[-0.9801,35.4844,85.9335],[-0.969,35.4787,82.76],[-0.9644,35.4739,81.0],[-1.0052,35.4686,84.2172],[-1.0077,35.4639,85.7955],[-0.9985,35.4589,84.0048],[-0.9946,35.4478,85.078],[-1.0015,35.4474,83.851],[-1.0053,35.4445,85.784],[-1.01,35.4539,81.5388],[-1.0105,35.4594,81.5],[-1.0135,35.4643,81.0],[-1.0175,35.4667,81.0],[-1.0137,35.4828,81.0],[-1.018,35.4949,82.0025],[-1.0156,35.5067,85.4477],[-0.9965,35.5058,82.9323],[-0.9881,35.5072,81.0],[-0.9734,35.5172,81.0],[-0.9672,35.5353,81.0],[-0.9587,35.5408,81.8475],[-0.9565,35.5566,106.257],[-0.9632,35.5656,193.3044],[-0.9698,35.5657,221.8787],[-0.9967,35.5583,202.0668],[-1.002,35.5584,205.2953],[-0.9984,35.5651,196.9576],[-0.9948,35.5824,171.053],[-1.007,35.5878,166.3665],[-1.0132,35.5967,158.3333],[-1.0216,35.5995,140.998],[-1.0328,35.6131,132.8195],[-1.0486,35.6209,118.4592],[-1.0398,35.63,113.1959],[-1.0406,35.6348,91.5949],[-1.0456,35.6376,27.2227],[-1.0515,35.6365,13.7496],[-1.0648,35.6396,27.5847],[-1.071,35.6374,0.0],[-1.069,35.6325,0.0],[-1.0819,35.6335,0.0],[-1.0944,35.6286,24.6788],[-1.1144,35.6167,0.0],[-1.126,35.6052,29.6583],[-1.1352,35.6001,0.0],[-1.1497,35.5849,21.4777],[-1.1532,35.5773,0.0],[-1.1578,35.5733,3.2935],[-1.1632,35.5743,0.0],[-1.1753,35.5806,0.0],[-1.1815,35.5808,11.5331],[-1.1875,35.5773,11.689],[-1.1978,35.5746,21.5058],[-1.1974,35.5682,3.1034],[-1.1933,35.565,2.2072],[-1.1933,35.5597,18.4103],[-1.1969,35.5488,0.0],[-1.2044,35.5404,6.0466],[-1.2106,35.5212,4.9913],[-1.2142,35.5159,3.2352],[-1.2191,35.4967,112.6076],[-1.2247,35.4858,1.9222],[-1.2393,35.4369,11.7631],[-1.2598,35.3909,11.0493],[-1.2716,35.3745,9.9581],[-1.2739,35.3688,39.1004],[-1.286,35.3561,20.7995],[-1.2921,35.3551,14.2554],[-1.2959,35.3513,3.8647],[-1.301,35.3503,28.0435],[-1.3298,35.3486,58.6157],[-1.3388,35.3408,0.0],[-1.3516,35.3235,6.6388],[-1.3555,35.321,0.0],[-1.366,35.3226,0.0],[-1.3693,35.3195,0.0],[-1.3747,35.3174,0.0],[-1.3743,35.312,8.139],[-1.3853,35.3062,19.9996],[-1.3991,35.3021,0.0],[-1.4043,35.3025,0.0],[-1.4145,35.3004,95.1259],[-1.425,35.3037,53.7873],[-1.4375,35.3046,5.4452],[-1.4432,35.3075,0.0],[-1.4646,35.3078,0.0],[-1.4688,35.2985,3.4133],[-1.4758,35.2967,1.5985],[-1.4813,35.2977,8.4433],[-1.4861,35.2918,0.0],[-1.5068,35.2829,2.531],[-1.5087,35.2786,10.8139],[-1.5241,35.2732,12.1328],[-1.5533,35.2706,0.0],[-1.5607,35.2597,21.9566],[-1.5708,35.2522,6.3494],[-1.5743,35.2444,0.0],[-1.5789,35.2403,28.5171],[-1.5841,35.2383,17.3524],[-1.574,35.2231,220.4721],[-1.5504,35.2151,215.6998],[-1.5457,35.2118,331.7461],[-1.5469,35.2031,332.4224],[-1.5524,35.1952,352.2849],[-1.5547,35.1793,373.3305],[-1.5475,35.1763,279.077],[-1.5364,35.1768,196.5216],[-1.5303,35.1754,175.1007],[-1.5308,35.1709,177.7512],[-1.5096,35.1635,162.4662],[-1.5063,35.1584,142.9512],[-1.5057,35.154,100.1697],[-1.5012,35.1523,86.8407],[-1.4871,35.152,75.1173],[-1.4778,35.1536,47.7017],[-1.4706,35.1508,44.1863],[-1.4696,35.1564,40.0999],[-1.4647,35.1589,42.8779],[-1.4619,35.1631,38.4744],[-1.452,35.166,37.2905],[-1.4472,35.1701,42.5853],[-1.4506,35.1753,35.9902],[-1.4465,35.1788,25.7178],[-1.4422,35.18,39.9554],[-1.4344,35.1871,24.7413],[-1.4307,35.1932,23.9643],[-1.4239,35.1932,36.1769],[-1.4224,35.1981,48.2849],[-1.423,35.2027,21.3355]]],
[[[-1.4798,35.3251,26.2123],[-1.4816,35.3195,3.3547],[-1.4767,35.3202,36.5674],[-1.4798,35.3251,26.2123]]],
[[[-1.1363,35.7208,0.0],[-1.1311,35.7199,1.2789],[-1.1293,35.7262,22.0556],[-1.1339,35.7253,0.0],[-1.1363,35.7208,0.0]]]]}
,"properties": {"GID_1": "DZA.3_1","GID_0": "DZA","country": "Algeria","province": "AïnTémouchent","VARNAME_1": "AinTamouchent","NL_NAME_1": "ولايةعينتموشنت","TYPE_1": "Wilaya","ENGTYPE_1": "Province","CC_1": "46","HASC_1": "DZ.AT","ISO_1": "NA","name": "Aïn_Témouchent.province","area_km2": 2399.668,"hist_schema_id": "Elevation0-9000","hist_area_km2": {"0": 18.845,"25": 54.721,"50": 82.968,"75": 145.215,"100": 358.127,"125": 220.429,"150": 179.291,"175": 154.281,"200": 149.891,"225": 157.334,"250": 131.137,"275": 95.161,"300": 76.823,"325": 53.116,"350": 45.279,"375": 42.754,"400": 44.475,"425": 47.291,"450": 49.48,"475": 49.61,"500": 49.753,"525": 43.846,"550": 40.991,"575": 37.978,"600": 27.879,"625": 17.117,"650": 9.561,"675": 6.043,"700": 3.444,"725": 2.214,"750": 1.401,"775": 0.986,"800": 0.813,"825": 0.605,"850": 0.329,"875": 0.329,"900": 0.156}}}