{"type":"Feature","properties":{"GID_2":"DZA.27.38_1","GID_0":"DZA","country":"Algeria","GID_1":"DZA.27_1","province":"Mascara","NL_NAME_1":"ولايةمعسكر","county":"Sehailia","VARNAME_2":"NA","NL_NAME_2":"NA","TYPE_2":"Commune","ENGTYPE_2":"Commune","CC_2":"2947","HASC_2":"DZ.MC.SH","name":"Sehailia.county"},
"geometry":{"type": "MultiPolygon","coordinates": [[[[0.3494,35.458,598.7629],[0.3603,35.4548,553.5701],[0.3661,35.4496,536.6551],[0.3945,35.4324,502.2922],[0.3989,35.429,501.934],[0.3962,35.4254,502.8813],[0.4068,35.4191,509.1519],[0.4129,35.4179,485.662],[0.4396,35.4207,452.6769],[0.4439,35.4166,448.9412],[0.4489,35.415,447.4319],[0.4563,35.4154,449.6154],[0.4608,35.4212,440.6348],[0.4677,35.4236,445.0486],[0.4706,35.4279,421.9701],[0.4615,35.4324,444.2566],[0.4373,35.4402,465.052],[0.4324,35.4432,476.635],[0.4324,35.4564,511.76],[0.435,35.4618,525.5768],[0.4409,35.4634,473.4946],[0.4697,35.4624,406.0461],[0.4753,35.4662,430.767],[0.4791,35.4701,428.6411],[0.4755,35.4803,444.9447],[0.479,35.4848,453.418],[0.4805,35.49,426.5114],[0.4934,35.4972,463.4985],[0.4967,35.5027,456.9241],[0.4975,35.5079,555.3976],[0.4704,35.5007,423.0681],[0.4605,35.5046,356.8703],[0.4654,35.4932,389.6753],[0.4628,35.4854,448.4924],[0.4585,35.4794,449.3845],[0.4403,35.4768,519.9417],[0.4393,35.4832,517.3066],[0.4328,35.4882,421.9366],[0.4194,35.4844,439.2966],[0.4066,35.4766,468.2513],[0.392,35.4762,527.799],[0.3792,35.4825,585.7558],[0.3737,35.4796,598.0023],[0.3494,35.458,598.7629]]]]}}