{"type": "Feature","bbox": [5.4508,36.2207,5.6721,36.3383],"geometry": {"type": "MultiPolygon","coordinates": [[[[5.5161,36.327,1140.1628],[5.5096,36.3247,1128.8368],[5.4933,36.3238,1080.6705],[5.4918,36.3342,995.5699],[5.4875,36.3312,1003.0927],[5.482,36.3303,1005.9344],[5.4762,36.3321,1018.0229],[5.474,36.3268,1041.8501],[5.4764,36.3217,1094.3219],[5.4738,36.3155,1119.7488],[5.4649,36.3073,1133.3848],[5.4735,36.2942,1184.8142],[5.4735,36.2717,1260.7451],[5.4789,36.2614,1229.077],[5.4789,36.2566,1208.8271],[5.4736,36.2468,1182.6758],[5.4508,36.2238,1126.0398],[5.4726,36.2251,1170.526],[5.4776,36.2265,1173.991],[5.493,36.236,1233.0095],[5.5022,36.2361,1208.129],[5.5329,36.2487,1274.3303],[5.5419,36.2489,1256.7015],[5.5739,36.255,941.9951],[5.5706,36.251,979.6779],[5.5706,36.2447,1128.3638],[5.5673,36.2326,1252.5427],[5.58,36.2376,1257.5315],[5.5872,36.2352,1160.0398],[5.5994,36.2256,1010.4887],[5.612,36.221,986.8215],[5.629,36.2207,961.2],[5.6354,36.2445,857.7625],[5.6447,36.2518,936.5361],[5.6528,36.2552,972.7806],[5.6529,36.2626,908.0842],[5.6503,36.2687,884.2244],[5.6455,36.2711,837.446],[5.6378,36.2796,765.9303],[5.6557,36.2914,900.9106],[5.6589,36.3055,868.325],[5.6657,36.3035,936.5679],[5.6721,36.3051,1062.9343],[5.6652,36.3088,960.7286],[5.6625,36.3287,835.0995],[5.659,36.3331,811.0929],[5.6498,36.3383,691.8051],[5.64,36.3304,689.0295],[5.6376,36.3235,699.4681],[5.6332,36.3213,707.0292],[5.6274,36.3219,790.5884],[5.6097,36.3169,1049.4089],[5.6029,36.3172,1067.7244],[5.5781,36.3289,945.9772],[5.5721,36.3298,975.0589],[5.5594,36.3291,1165.0099],[5.5537,36.3312,1112.688],[5.5359,36.3298,1243.7004],[5.5261,36.3266,1200.3462],[5.5161,36.327,1140.1628]]]]}
,"properties": {"GID_2": "DZA.37.21_1","GID_0": "DZA","country": "Algeria","GID_1": "DZA.37_1","province": "Sétif","NL_NAME_1": "ولايةسطيف","county": "BeniFouda","VARNAME_2": "NA","NL_NAME_2": "NA","TYPE_2": "Commune","ENGTYPE_2": "Commune","CC_2": "1944","HASC_2": "DZ.SF.BF","name": "Beni_Fouda.county","area_km2": 162.539,"hist_schema_id": "Elevation0-9000","hist_area_km2": {"675": 0.1196,"700": 1.0249,"725": 2.221,"750": 3.0074,"775": 4.5114,"800": 6.2555,"825": 7.435,"850": 6.4099,"875": 6.6496,"900": 5.8634,"925": 5.6074,"950": 3.8804,"975": 3.2479,"1000": 3.5213,"1025": 3.4357,"1050": 4.1015,"1075": 4.8193,"1100": 5.007,"1125": 6.0843,"1150": 7.315,"1175": 10.2388,"1200": 13.9319,"1225": 12.5294,"1250": 9.2117,"1275": 6.4934,"1300": 6.1004,"1325": 4.3744,"1350": 2.9047,"1375": 2.751,"1400": 2.0846,"1425": 1.0765,"1450": 0.3247}}}