{"type":"Feature","properties":{"GID_2":"DZA.48.49_1","GID_0":"DZA","country":"Algeria","GID_1":"DZA.48_1","province":"Tlemcen","NL_NAME_1":"تلمسان","county":"SoukTleta","VARNAME_2":"SoukThlata","NL_NAME_2":"NA","TYPE_2":"Commune-Cotiere","ENGTYPE_2":"Commune-Cotiere","CC_2":"1333","HASC_2":"DZ.TL.ST","name":"Souk_Tleta.county"},
"geometry":{"type": "MultiPolygon","coordinates": [[[[-1.927,34.9897,439.9782],[-1.9265,35.0074,261.9977],[-1.928,35.0186,301.5469],[-1.9316,35.0236,321.8839],[-1.9312,35.0301,370.0684],[-1.934,35.0333,406.2435],[-1.9469,35.041,530.645],[-1.9521,35.0545,338.5252],[-1.9584,35.0587,230.9501],[-1.9655,35.0675,110.4289],[-1.9623,35.0731,63.033],[-1.9922,35.0743,0.0],[-2.0082,35.0711,0.0],[-2.0143,35.0716,3.9501],[-2.0201,35.0783,28.5189],[-2.0259,35.0776,0.0],[-2.0307,35.0734,44.2724],[-2.039,35.0572,112.0467],[-2.0364,35.0522,181.0389],[-2.0374,35.0478,235.887],[-2.0316,35.0368,292.6668],[-2.04,35.0339,279.1914],[-2.0408,35.0279,261.3878],[-2.0359,35.0232,228.6462],[-2.0219,35.017,170.3763],[-2.0245,35.0087,228.1381],[-2.0211,35.0032,168.6846],[-2.0123,34.995,187.3832],[-1.9987,34.9864,231.5475],[-1.9756,34.9796,332.0633],[-1.966,34.9785,311.4241],[-1.9547,34.974,403.1682],[-1.9481,34.9857,336.5698],[-1.9439,34.9883,327.2909],[-1.9365,34.99,376.9486],[-1.927,34.9897,439.9782]]]]}}