{"type":"Feature","properties":{"GID_2":"DZA.47.21_1","GID_0":"DZA","country":"Algeria","GID_1":"DZA.47_1","province":"TiziOuzou","NL_NAME_1":"ولايةغليزان","county":"Azzefoun","VARNAME_2":"Azeffoun","NL_NAME_2":"NA","TYPE_2":"Commune-Cotiere","ENGTYPE_2":"Commune-Cotiere","CC_2":"1537","HASC_2":"DZ.TO.AF","name":"Azzefoun.county"},
"geometry":{"type": "MultiPolygon","coordinates": [[[[4.412,36.835,1068.8929],[4.4167,36.8358,998.9821],[4.4291,36.8325,762.1683],[4.4495,36.8364,326.842],[4.4762,36.8367,140.2302],[4.4823,36.8344,90.5824],[4.489,36.8363,107.188],[4.4912,36.8408,60.564],[4.4957,36.8424,43.6314],[4.5001,36.8415,35.2333],[4.5044,36.8603,20.6855],[4.5009,36.8641,15.9222],[4.51,36.8741,6.0618],[4.5108,36.8794,4.6489],[4.5146,36.884,1.2509],[4.5082,36.8858,0.8954],[4.4904,36.8963,18.0796],[4.4776,36.9011,10.0435],[4.4595,36.9024,5.1241],[4.4431,36.9094,21.5223],[4.4351,36.9102,33.4663],[4.4213,36.9088,8.7089],[4.4203,36.8991,9.6799],[4.4173,36.8945,23.0824],[4.4006,36.8909,0.0],[4.3863,36.8905,0.0],[4.3623,36.8933,0.0],[4.3286,36.9005,0.0],[4.3146,36.896,3.9797],[4.3069,36.8969,7.9864],[4.2991,36.9062,11.5402],[4.2928,36.908,9.2161],[4.2816,36.9057,2.1142],[4.2712,36.9013,11.4559],[4.2644,36.8901,245.7068],[4.2754,36.8856,319.4182],[4.2834,36.8769,475.4923],[4.2878,36.8747,437.7305],[4.2887,36.8691,424.825],[4.2949,36.866,517.4069],[4.3108,36.8628,690.0848],[4.3163,36.8532,495.4081],[4.3249,36.8455,415.1621],[4.3301,36.8437,340.2358],[4.3398,36.8442,365.3705],[4.3607,36.8415,209.1772],[4.3652,36.8374,246.6361],[4.3805,36.8294,485.2488],[4.3854,36.8302,637.1663],[4.3924,36.8375,837.3276],[4.3987,36.8393,852.1541],[4.406,36.8389,931.4725],[4.412,36.835,1068.8929]]]]}}