{"type":"Feature","properties":{"GID_2":"DZA.40.22_1","GID_0":"DZA","country":"Algeria","GID_1":"DZA.40_1","province":"SoukAhras","NL_NAME_1":"ولايةسوقأهراس","county":"Taoura","VARNAME_2":"Tawrah","NL_NAME_2":"NA","TYPE_2":"Commune","ENGTYPE_2":"Commune","CC_2":"4108","HASC_2":"DZ.SA.TA","name":"Taoura.county"},
"geometry":{"type": "MultiPolygon","coordinates": [[[[8.114,35.9882,507.0698],[8.1212,35.9929,504.008],[8.1246,35.9884,499.6203],[8.1393,35.9945,499.6151],[8.1459,35.9952,506.0603],[8.1546,35.9888,486.0817],[8.1596,35.9902,490.32],[8.1685,35.9874,482.513],[8.1782,35.9909,480.7705],[8.1896,35.9909,513.3732],[8.1865,35.9958,478.8138],[8.1878,36.0013,482.0261],[8.1944,36.0026,477.0461],[8.1999,36.0065,469.5958],[8.2001,36.011,501.3687],[8.1963,36.0151,476.829],[8.1894,36.017,484.9675],[8.1781,36.0168,487.6451],[8.1735,36.019,493.1059],[8.1709,36.0237,494.9925],[8.1719,36.0279,500.2454],[8.1697,36.0338,501.7968],[8.1647,36.0391,507.9245],[8.1627,36.0453,516.8736],[8.1663,36.0512,515.5391],[8.1652,36.0562,521.8764],[8.1578,36.0663,533.7248],[8.1436,36.0768,550.9227],[8.1383,36.0781,559.4674],[8.1351,36.082,564.6158],[8.1296,36.0921,590.0771],[8.1273,36.1019,614.9779],[8.1283,36.1061,617.0767],[8.1241,36.1087,632.2935],[8.119,36.1189,646.0469],[8.1099,36.1263,719.772],[8.1005,36.1401,771.0098],[8.0963,36.1437,789.9584],[8.0947,36.1497,781.6105],[8.0982,36.1582,695.9303],[8.0878,36.1654,733.2042],[8.0804,36.1682,734.8411],[8.0737,36.1687,751.0034],[8.0698,36.1735,812.9594],[8.0683,36.1846,873.8137],[8.0653,36.1898,864.4502],[8.0552,36.1974,793.7723],[8.0487,36.1971,761.8969],[8.0426,36.1851,816.8553],[8.0285,36.1791,849.6426],[8.0251,36.1749,870.907],[8.0055,36.1709,916.5234],[8.0032,36.1663,910.608],[7.9879,36.1627,898.3306],[7.9804,36.1548,836.5675],[7.9676,36.1559,839.0325],[7.9592,36.1512,804.8334],[7.962,36.1405,851.3132],[7.9747,36.1408,864.272],[7.9707,36.1353,870.7601],[7.9618,36.1316,831.61],[7.961,36.1264,836.4586],[7.9579,36.1222,846.9567],[7.9407,36.1144,878.7614],[7.943,36.1102,849.6291],[7.9504,36.1054,856.3373],[7.9538,36.101,862.6091],[7.9614,36.0819,938.2676],[7.9692,36.0704,903.4288],[7.9893,36.0623,786.9512],[7.9957,36.0617,774.9878],[8.0081,36.055,726.6096],[8.027,36.052,680.6487],[8.034,36.0488,666.0639],[8.0462,36.041,636.3684],[8.0556,36.0298,609.6456],[8.0758,36.0165,583.2314],[8.0817,36.0136,587.1846],[8.0867,36.0131,567.4138],[8.0988,35.9993,543.1732],[8.114,35.9882,507.0698]]]]}}