{"type": "Feature","bbox": [-0.5672,34.4578,-0.1957,34.7632],"geometry": {"type": "MultiPolygon","coordinates": [[[[-0.2417,34.6013,1245.8833],[-0.2464,34.6044,1244.5426],[-0.2526,34.6119,1257.3844],[-0.2681,34.6209,1297.4769],[-0.2701,34.6262,1312.5164],[-0.2964,34.6313,1219.5063],[-0.3085,34.6418,1106.1327],[-0.3037,34.6466,1128.176],[-0.3066,34.6507,1123.9575],[-0.3221,34.6536,1062.1556],[-0.3249,34.6595,1043.5474],[-0.3261,34.6795,998.96],[-0.3322,34.6907,959.6912],[-0.3337,34.6969,938.9735],[-0.334,34.7024,912.9729],[-0.328,34.7107,880.485],[-0.328,34.7175,865.1119],[-0.3316,34.7207,847.0124],[-0.3374,34.7198,848.8078],[-0.3457,34.714,854.0256],[-0.3501,34.714,856.7656],[-0.3535,34.7106,862.6221],[-0.3532,34.7051,873.8538],[-0.3646,34.7051,905.888],[-0.3796,34.7224,991.175],[-0.3803,34.7337,1024.1617],[-0.3879,34.7377,1045.343],[-0.4099,34.7443,1129.6881],[-0.4146,34.748,1135.8315],[-0.422,34.7496,1096.3848],[-0.4262,34.7532,1071.1028],[-0.4404,34.7596,1096.7373],[-0.4589,34.7632,1046.9971],[-0.4987,34.7573,1033.4362],[-0.5095,34.7534,1036.7615],[-0.516,34.7479,1031.8357],[-0.5257,34.7426,1042.0995],[-0.5438,34.7367,1036.1128],[-0.5516,34.7389,993.6398],[-0.5508,34.7325,1034.582],[-0.546,34.7262,1119.6807],[-0.5367,34.72,1206.4857],[-0.5351,34.7045,1265.3945],[-0.5235,34.6836,1196.6859],[-0.5464,34.6708,1187.6204],[-0.5509,34.6676,1228.1284],[-0.5536,34.6627,1190.6851],[-0.5672,34.6661,1246.1217],[-0.5663,34.6571,1220.8427],[-0.5592,34.6468,1174.1993],[-0.5476,34.6418,1158.0665],[-0.5304,34.6428,1122.1],[-0.5252,34.6393,1112.7212],[-0.5129,34.6402,1082.3987],[-0.4854,34.6223,1035.6857],[-0.4768,34.614,1104.1289],[-0.4487,34.6095,1050.3118],[-0.4335,34.6123,1063.9421],[-0.416,34.6235,1087.7454],[-0.4003,34.6225,1010.5863],[-0.3958,34.6243,1027.7974],[-0.3745,34.624,1071.4315],[-0.35,34.6217,1085.6091],[-0.3391,34.6148,1095.2953],[-0.3354,34.5964,1146.3997],[-0.3152,34.5861,1199.6863],[-0.3099,34.5756,1212.9296],[-0.2933,34.5581,1238.8701],[-0.2882,34.5451,1234.0427],[-0.2933,34.5265,1233.3629],[-0.2929,34.5191,1239.3567],[-0.2907,34.5141,1227.7742],[-0.2772,34.5056,1215.1302],[-0.2602,34.4998,1187.785],[-0.2499,34.4821,1157.5631],[-0.2352,34.4828,1147.4166],[-0.2202,34.4789,1138.1696],[-0.2006,34.4578,1121.8693],[-0.1957,34.4594,1128.5206],[-0.1962,34.4723,1142.7468],[-0.2005,34.4842,1138.814],[-0.2034,34.5164,1159.6289],[-0.2011,34.5363,1172.542],[-0.2088,34.5452,1180.9734],[-0.2145,34.5474,1189.0082],[-0.2218,34.5581,1202.2534],[-0.2335,34.5631,1228.739],[-0.2454,34.5774,1262.6287],[-0.2484,34.5824,1266.5723],[-0.2491,34.5941,1255.1373],[-0.2447,34.5961,1239.1001],[-0.2417,34.6013,1245.8833]]]]}
,"properties": {"GID_2": "DZA.38.29_1","GID_0": "DZA","country": "Algeria","GID_1": "DZA.38_1","province": "SidiBelAbbès","NL_NAME_1": "ولايةسيديبلعباس","county": "OuedTaourira","VARNAME_2": "NA","NL_NAME_2": "NA","TYPE_2": "Commune","ENGTYPE_2": "Commune","CC_2": "2231","HASC_2": "DZ.SB.OT","name": "Oued_Taourira.county","area_km2": 380.9937,"hist_schema_id": "Elevation0-9000","hist_area_km2": {"850": 0.3137,"875": 1.1329,"900": 3.6779,"925": 8.0891,"950": 12.5357,"975": 19.5286,"1000": 22.2676,"1025": 27.485,"1050": 28.9143,"1075": 25.4424,"1100": 19.6515,"1125": 19.2698,"1150": 29.3683,"1175": 35.6544,"1200": 39.266,"1225": 33.7989,"1250": 25.8209,"1275": 18.053,"1300": 7.7599,"1325": 2.3015,"1350": 0.5402,"1375": 0.122}}}