{"type": "Feature","id": "2216","bbox": [4.777,34.76449,6.78727,35.91579],"geometry": {"type": "Polygon","coordinates": [[[6.06803,35.8928,873.0386],[6.02773,35.90096,908.4951],[6.0162,35.90566,927.9847],[5.97667,35.91579,918.9928],[5.94685,35.89897,889.2973],[5.94546,35.89497,891.1297],[5.94592,35.88641,906.2095],[5.94995,35.87797,952.6069],[5.9498,35.86546,918.3686],[5.94019,35.86213,946.8558],[5.92158,35.86623,1045.2185],[5.87967,35.89401,885.0812],[5.85611,35.90649,874.0],[5.82288,35.91473,874.0],[5.80009,35.91347,874.0],[5.77833,35.90709,874.0],[5.74562,35.89021,910.4484],[5.73146,35.88117,931.8439],[5.72108,35.87166,931.151],[5.71379,35.86042,950.812],[5.71162,35.84967,1049.1533],[5.71627,35.84045,1198.5527],[5.72619,35.83443,1234.4517],[5.74221,35.82993,1294.9398],[5.75539,35.8221,1295.4843],[5.7619,35.81092,1281.4121],[5.74686,35.78291,1317.7012],[5.73643,35.77105,1491.0289],[5.72278,35.76862,1325.0284],[5.68273,35.7826,1162.5645],[5.67064,35.7896,1134.3879],[5.66025,35.79738,1057.3673],[5.64987,35.80324,1032.4481],[5.62362,35.81123,998.8428],[5.60687,35.8189,966.1541],[5.58889,35.82309,968.1349],[5.57509,35.81828,981.2144],[5.56713,35.80784,995.2831],[5.56109,35.79389,1104.7427],[5.55349,35.78143,1028.9087],[5.53551,35.77376,1019.0948],[5.48476,35.74387,1158.4537],[5.47685,35.73609,1254.3741],[5.4722,35.72681,1255.2485],[5.46988,35.71555,1094.151],[5.46647,35.68614,1119.7543],[5.46135,35.66992,1166.0034],[5.45355,35.65653,965.019],[5.4382,35.64186,863.6744],[5.42347,35.63565,838.802],[5.40952,35.6324,821.3132],[5.3797,35.63292,799.3976],[5.26441,35.55003,569.6332],[5.23522,35.53535,547.359],[5.21041,35.52874,533.4725],[5.17377,35.51034,480.6311],[5.15594,35.50734,472.7037],[5.13936,35.51204,468.0496],[5.12365,35.5184,462.5656],[5.10582,35.52222,457.4382],[5.04608,35.52295,453.41],[5.02298,35.52067,445.8337],[5.00681,35.51473,436.4387],[4.99859,35.51047,432.1302],[4.99022,35.5014,424.4427],[4.9865,35.4983,422.6385],[4.96324,35.48879,412.0703],[4.94846,35.49081,405.3274],[4.93637,35.49577,405.5547],[4.93203,35.49882,405.9164],[4.91358,35.51675,405.1448],[4.90521,35.52259,401.6484],[4.89663,35.52657,404.0456],[4.88702,35.52817,402.3067],[4.8802,35.5254,395.8528],[4.87648,35.51915,392.0],[4.87679,35.51093,392.0],[4.89617,35.45153,392.0],[4.90149,35.41554,392.0],[4.90335,35.37975,392.0],[4.90056,35.35355,392.5],[4.88888,35.29986,419.9443],[4.88175,35.28343,474.1125],[4.86547,35.2626,456.9775],[4.83612,35.23395,446.0222],[4.79814,35.20705,508.0318],[4.78274,35.1917,522.3559],[4.777,35.18064,635.6495],[4.77902,35.17284,560.4439],[4.78243,35.16687,559.077],[4.78899,35.16173,574.0207],[4.79876,35.15811,616.6857],[4.87338,35.1532,575.0525],[4.89989,35.14902,580.3449],[4.92505,35.1422,623.6016],[4.9466,35.13351,667.3991],[4.9682,35.12158,744.2715],[4.97627,35.11501,656.3786],[4.98355,35.10783,606.9819],[4.99533,35.09127,600.0512],[4.99983,35.08747,678.8804],[5.00433,35.08546,650.1224],[5.01368,35.08308,573.8692],[5.02918,35.08192,604.9897],[5.03864,35.08331,612.8753],[5.07419,35.08106,555.5741],[5.14292,35.05313,429.4446],[5.18483,35.03104,332.4533],[5.23491,35.02138,416.6411],[5.27247,35.01843,346.6552],[5.30601,35.02143,380.7077],[5.33144,35.03058,333.2372],[5.3566,35.0444,446.4561],[5.37784,35.05331,538.9763],[5.39831,35.0584,585.213],[5.51468,35.06339,282.4567],[5.53675,35.06636,309.0232],[5.55132,35.07194,322.5353],[5.56651,35.08075,326.8857],[5.57633,35.08515,322.0147],[5.59664,35.09176,353.3908],[5.60873,35.0984,370.7708],[5.61354,35.10644,394.8654],[5.61307,35.1192,389.6474],[5.61075,35.12638,387.2342],[5.60455,35.13654,388.4576],[5.59881,35.14261,390.3717],[5.5583,35.1739,451.0757],[5.5507,35.18504,508.2593],[5.55489,35.19139,487.6809],[5.62656,35.20622,522.7178],[5.71286,35.25129,612.147],[5.75896,35.26948,670.7395],[5.82086,35.28792,811.9922],[5.83063,35.28844,757.5701],[5.84226,35.28482,712.8571],[5.87735,35.25857,1040.3624],[5.96266,35.23129,1399.6401],[5.98365,35.23139,1425.906],[5.99806,35.22968,1521.6475],[6.00535,35.22627,1616.5117],[6.00628,35.2148,1129.7788],[5.99977,35.20364,1254.7462],[5.98907,35.19263,1249.6517],[5.94902,35.16393,1062.0823],[5.93677,35.15238,997.766],[5.93228,35.14357,885.3428],[5.94484,35.10773,946.8973],[5.9436,35.09145,1073.1807],[5.92701,35.06168,1073.0759],[5.92716,35.04523,1196.6233],[5.93988,35.02954,688.2838],[5.96375,35.01254,516.2058],[5.97465,35.00259,453.4628],[5.9931,34.98936,425.7957],[6.01155,34.98859,474.6062],[6.02431,34.99528,509.9347],[6.03052,34.9996,511.1989],[6.04524,35.03587,536.3516],[6.053,35.0491,610.7335],[6.06152,35.05662,749.0904],[6.07222,35.05858,778.4897],[6.08467,35.05652,724.2377],[6.09723,35.05176,671.9092],[6.10638,35.04225,658.2333],[6.11211,35.03114,688.4631],[6.11614,35.01848,685.2687],[6.12188,35.00662,763.3059],[6.1256,35.00091,838.3987],[6.13258,34.99696,957.1479],[6.14736,34.99223,1187.2322],[6.16658,34.99208,1619.6672],[6.18968,35.00068,1761.446],[6.1933,35.00127,1798.1016],[6.2119,34.99913,1720.2007],[6.21485,35.00022,1713.9585],[6.21717,35.00319,1727.6593],[6.22508,35.02127,1785.1345],[6.23391,35.03045,1567.0583],[6.26389,35.04484,1568.2753],[6.27908,35.04926,1660.563],[6.29551,35.0514,1702.1683],[6.32052,35.05143,1649.4385],[6.37127,35.05931,1505.4434],[6.39375,35.06621,1478.4398],[6.41266,35.06876,1386.667],[6.4293,35.06479,1296.7174],[6.44775,35.04585,1203.468],[6.45783,35.03228,1115.5652],[6.45953,35.01698,979.7085],[6.45736,35.00928,1005.7344],[6.44884,34.99231,1029.9467],[6.44574,34.98184,1103.0802],[6.44403,34.96665,1016.8293],[6.44357,34.92508,591.5239],[6.43132,34.87167,307.6124],[6.43209,34.85539,289.1339],[6.43985,34.83826,283.3911],[6.45271,34.82485,185.9503],[6.46899,34.81211,186.4047],[6.49881,34.78224,95.3574],[6.50873,34.7755,85.5115],[6.52346,34.7692,85.3391],[6.54041,34.76568,85.4145],[6.55855,34.76449,88.6636],[6.57436,34.76762,91.3352],[6.58103,34.76966,89.2918],[6.5879,34.77855,95.7599],[6.58227,34.78904,107.7659],[6.57374,34.81211,226.4121],[6.57033,34.82542,203.688],[6.57048,34.83901,244.1799],[6.57513,34.85637,407.9161],[6.5958,34.89213,771.2079],[6.5986,34.90035,953.8409],[6.59022,34.91678,991.0414],[6.5848,34.93213,750.8542],[6.54723,34.99882,942.2982],[6.51912,35.03781,875.6704],[6.51214,35.05238,1199.6311],[6.5109,35.06918,1121.9994],[6.51307,35.10775,1182.7881],[6.51493,35.11972,1227.1089],[6.51958,35.13233,1321.5433],[6.55731,35.18653,1404.8583],[6.56971,35.25346,1454.1093],[6.58227,35.2703,1712.3318],[6.61968,35.30296,1786.3394],[6.62836,35.31686,2055.666],[6.62836,35.32787,1807.9592],[6.62278,35.33167,1806.3129],[6.61301,35.33151,1725.8162],[6.59968,35.32782,1586.4385],[6.58821,35.33355,1523.2129],[6.58402,35.34332,1657.3536],[6.5848,35.35937,1506.5054],[6.58976,35.39185,1473.7997],[6.58743,35.42221,1288.428],[6.5927,35.43696,1105.5269],[6.611,35.45804,1063.2397],[6.62852,35.47143,1044.2173],[6.6481,35.48285,1034.6073],[6.66763,35.49099,986.4745],[6.72117,35.50522,929.962],[6.74226,35.51468,917.2762],[6.75657,35.52509,907.6049],[6.7668,35.53664,891.5483],[6.78168,35.56256,876.8462],[6.78587,35.57561,872.7424],[6.78727,35.59101,866.7765],[6.77424,35.63511,859.7246],[6.76913,35.68392,846.1588],[6.69807,35.76549,836.3419],[6.6495,35.79668,874.0879],[6.62542,35.80223,993.692],[6.60309,35.80363,1001.6731],[6.58087,35.80128,914.5425],[6.52051,35.78205,906.4695],[6.50191,35.77895,906.4911],[6.48703,35.78143,902.7867],[6.47989,35.79394,926.3703],[6.47896,35.80611,871.9895],[6.48098,35.81854,847.9528],[6.48082,35.82882,917.6051],[6.47695,35.8404,836.4962],[6.46682,35.84639,795.1583],[6.45845,35.84923,796.85],[6.40786,35.85352,798.3766],[6.39189,35.85688,796.2375],[6.37856,35.86368,803.3494],[6.35106,35.88474,1035.0648],[6.33944,35.8868,890.0912],[6.33045,35.88344,852.8558],[6.31618,35.86913,857.9619],[6.29412,35.86654,842.3101],[6.27551,35.86608,826.7434],[6.14922,35.90039,850.9611],[6.06803,35.8928,873.0386]]]}
,"properties": {"ISO3166-1-Alpha-3": "DZA","country": "Algeria","fill": "#F0F","name": "Batna","area_km2": 12054.945,"hist_schema_id": "Elevation0-9000","hist_area_km2": {"75": 1.707,"100": 21.576,"125": 9.384,"150": 3.934,"175": 9.33,"200": 14.203,"225": 13.626,"250": 15.921,"275": 19.994,"300": 25.731,"325": 28.6,"350": 33.486,"375": 44.601,"400": 677.318,"425": 453.958,"450": 419.137,"475": 346.075,"500": 269.367,"525": 221.198,"550": 192.53,"575": 159.981,"600": 139.804,"625": 130.988,"650": 123.522,"675": 120.207,"700": 130.841,"725": 122.524,"750": 114.123,"775": 116.243,"800": 278.618,"825": 439.623,"850": 453.986,"875": 490.702,"900": 391.719,"925": 356.561,"950": 310.84,"975": 282.946,"1000": 285.356,"1025": 275.903,"1050": 272.809,"1075": 272.16,"1100": 255.647,"1125": 232.64,"1150": 216.627,"1175": 202.227,"1200": 183.544,"1225": 169.696,"1250": 162.72,"1275": 154.352,"1300": 147.865,"1325": 143.507,"1350": 146.19,"1375": 142.979,"1400": 145.941,"1425": 145.979,"1450": 134.789,"1475": 128.07,"1500": 122.395,"1525": 119.556,"1550": 116.412,"1575": 105.435,"1600": 98.46,"1625": 88.048,"1650": 81.274,"1675": 78.838,"1700": 70.581,"1725": 61.041,"1750": 53.748,"1775": 49.075,"1800": 41.799,"1825": 35.85,"1850": 28.639,"1875": 20.839,"1900": 16.792,"1925": 13.245,"1950": 9.561,"1975": 7.848,"2000": 6.033,"2025": 5.152,"2050": 4.409,"2075": 3.666,"2100": 2.628,"2125": 2.144,"2150": 2.525,"2175": 2.317,"2200": 1.418,"2225": 0.553,"2250": 0.415,"2275": 0.225,"2300": 0.121}}}