{"type":"Feature","properties":{"GID_2":"DZA.10.12_1","GID_0":"DZA","country":"Algeria","GID_1":"DZA.10_1","province":"Blida","NL_NAME_1":"البليدة","county":"Chrea","VARNAME_2":"NA","NL_NAME_2":"NA","TYPE_2":"Commune","ENGTYPE_2":"Commune","CC_2":"906","HASC_2":"DZ.BL.CR","name":"Chrea.county"},
"geometry":{"type": "MultiPolygon","coordinates": [[[[2.8428,36.445,432.7585],[2.8424,36.4405,435.7241],[2.8338,36.4265,702.4493],[2.8299,36.4168,930.7152],[2.8238,36.4114,1198.7196],[2.8254,36.4043,1412.2449],[2.8246,36.3988,1194.2577],[2.8298,36.3895,787.475],[2.8266,36.3843,673.4391],[2.8304,36.3808,627.6771],[2.8497,36.3729,963.9595],[2.8604,36.3878,1387.6196],[2.8692,36.3938,1351.0566],[2.8805,36.3972,1143.868],[2.9012,36.4071,764.7631],[2.9077,36.4085,598.253],[2.9228,36.4072,531.9421],[2.9295,36.4158,562.794],[2.9291,36.4225,527.6143],[2.9535,36.4364,421.4274],[2.9524,36.4408,502.542],[2.9558,36.4452,463.1949],[2.9725,36.4481,346.4172],[2.9759,36.4508,435.7119],[2.9764,36.4607,292.5115],[2.9795,36.4647,281.312],[2.9745,36.4725,627.3008],[2.9623,36.4804,887.1596],[2.9576,36.4814,1006.5039],[2.9329,36.4759,942.2278],[2.9239,36.4694,993.0771],[2.9167,36.4692,890.0566],[2.9146,36.4747,905.0009],[2.91,36.4752,957.3229],[2.9021,36.4633,1129.8555],[2.8942,36.4572,1100.3733],[2.8876,36.4461,1132.0205],[2.8824,36.4494,825.1419],[2.864,36.4718,438.5251],[2.8552,36.4612,577.5125],[2.8554,36.4535,814.9542],[2.8694,36.4471,967.1616],[2.8608,36.4443,663.0789],[2.8495,36.4464,534.7446],[2.8428,36.445,432.7585]]]]}}