{"type":"Feature","properties":{"GID_2":"DZA.37.25_1","GID_0":"DZA","country":"Algeria","GID_1":"DZA.37_1","province":"Sétif","NL_NAME_1":"ولايةسطيف","county":"Bouandas","VARNAME_2":"NA","NL_NAME_2":"NA","TYPE_2":"Commune","ENGTYPE_2":"Commune","CC_2":"1930","HASC_2":"DZ.SF.BD","name":"Bouandas.county"},
"geometry":{"type": "MultiPolygon","coordinates": [[[[5.1285,36.536,1271.1439],[5.1236,36.5337,1384.7333],[5.1168,36.5343,1493.4329],[5.0786,36.5161,1257.2681],[5.0609,36.5135,1200.2866],[5.053,36.517,1245.3423],[5.0617,36.4992,913.174],[5.0655,36.4956,985.85],[5.0781,36.4908,922.9426],[5.0843,36.4768,733.4495],[5.0895,36.4769,806.6126],[5.0978,36.4739,1021.189],[5.1222,36.4761,961.8683],[5.1451,36.4888,756.9971],[5.1561,36.4922,1009.2469],[5.1626,36.4923,912.946],[5.1521,36.5021,912.3755],[5.1489,36.5094,1064.7368],[5.1494,36.5163,1075.9885],[5.1395,36.5224,1159.3843],[5.1379,36.5285,1300.4271],[5.1285,36.536,1271.1439]]]]}}