{"type": "Feature","bbox": [4.777,36.7004,4.9504,36.8757],"geometry": {"type": "MultiPolygon","coordinates": [[[[4.934,36.8334,17.2589],[4.9297,36.8435,0.6447],[4.923,36.8498,27.6697],[4.9121,36.8478,4.8417],[4.8979,36.8509,6.3079],[4.8862,36.8515,0.0],[4.8768,36.8563,0.0],[4.8655,36.8593,9.2888],[4.8582,36.8648,4.1714],[4.8454,36.8689,0.0],[4.8132,36.8721,0.0],[4.8073,36.8757,5.1265],[4.8031,36.8694,156.1324],[4.8012,36.8526,117.6581],[4.7991,36.8476,66.7844],[4.7952,36.8438,58.8276],[4.7863,36.8391,63.2583],[4.7852,36.8348,83.2256],[4.7893,36.8192,95.116],[4.7846,36.8195,99.9787],[4.7817,36.8139,143.7492],[4.777,36.812,124.9084],[4.7811,36.8056,160.3665],[4.7815,36.7981,237.0335],[4.7781,36.7905,192.4084],[4.7811,36.7858,246.4079],[4.7965,36.779,301.9129],[4.8004,36.7747,312.9126],[4.8159,36.7714,393.4286],[4.8308,36.7575,821.9348],[4.8529,36.7471,1293.8809],[4.8615,36.7341,660.9019],[4.8766,36.7309,615.2129],[4.8791,36.727,650.2785],[4.8703,36.7198,510.3464],[4.8783,36.7121,329.5625],[4.88,36.7082,258.3414],[4.8894,36.7004,112.8668],[4.8943,36.7016,241.6984],[4.9027,36.7119,474.5836],[4.9079,36.7127,458.5631],[4.9189,36.7076,246.4238],[4.9224,36.7122,377.7661],[4.9194,36.7158,372.8012],[4.9175,36.7216,293.5234],[4.917,36.7329,203.323],[4.9189,36.7373,120.4588],[4.9293,36.7401,83.8371],[4.9351,36.7455,100.8943],[4.948,36.7488,205.2404],[4.9504,36.7592,320.4333],[4.9488,36.77,557.16],[4.9437,36.7722,419.2416],[4.9393,36.7717,428.2382],[4.9303,36.7765,288.5767],[4.9241,36.7776,259.9221],[4.92,36.7819,308.2603],[4.9155,36.795,139.7758],[4.9112,36.7987,286.6321],[4.911,36.8044,339.2491],[4.9155,36.8235,478.6913],[4.9285,36.8291,135.9552],[4.934,36.8334,17.2589]]]]}
,"properties": {"GID_2": "DZA.8.48_1","GID_0": "DZA","country": "Algeria","GID_1": "DZA.8_1","province": "Béjaïa","NL_NAME_1": "بجاية","county": "Toudja","VARNAME_2": "NA","NL_NAME_2": "NA","TYPE_2": "Commune-Cotiere","ENGTYPE_2": "Commune-Cotiere","CC_2": "619","HASC_2": "DZ.BJ.TO","name": "Toudja.county","area_km2": 166.6914,"hist_schema_id": "Elevation0-9000","hist_area_km2": {"0": 1.3401,"25": 1.7643,"50": 2.1715,"75": 2.7487,"100": 3.632,"125": 4.3962,"150": 4.3623,"175": 5.0754,"200": 5.3473,"225": 6.8243,"250": 6.5869,"275": 7.4194,"300": 8.1329,"325": 7.7254,"350": 8.0485,"375": 8.8634,"400": 8.5241,"425": 7.8961,"450": 7.1147,"475": 6.1637,"500": 6.1467,"525": 5.3995,"550": 5.0258,"575": 4.6354,"600": 5.2297,"625": 5.2299,"650": 4.3809,"675": 3.8714,"700": 2.5978,"725": 2.0544,"750": 1.2564,"775": 1.2396,"800": 0.8152,"825": 0.7302,"850": 0.5265,"875": 0.6285,"900": 0.4587,"925": 0.2548,"950": 0.1869,"975": 0.1699,"1000": 0.2378,"1025": 0.1699,"1050": 0.2039,"1075": 0.1699,"1100": 0.1359,"1125": 0.1359,"1150": 0.1019,"1175": 0.0849,"1200": 0.1189,"1225": 0.1189,"1250": 0.0849,"1275": 0.1019,"1300": 0.051}}}