{"type": "Feature","bbox": [3.7637,35.852,3.9025,36.0422],"geometry": {"type": "MultiPolygon","coordinates": [[[[3.7735,35.902,673.9559],[3.7751,35.898,671.6666],[3.7974,35.8903,682.8185],[3.7992,35.8829,678.587],[3.792,35.873,653.4019],[3.7936,35.868899999999996,646.8226],[3.8155,35.8546,631.0118],[3.822,35.8634,641.9259],[3.8325,35.8653,662.9572],[3.8391,35.8628,653.951],[3.8431,35.8552,634.8433],[3.8504,35.852,628.4539],[3.8536,35.8572,638.3674],[3.8584,35.861,646.5613],[3.8917,35.8728,809.2262],[3.8938,35.8788,859.2192],[3.9025,35.8898,772.8123],[3.8963,35.8921,760.645],[3.8883,35.8986,761.5544],[3.8869,35.9124,749.0984],[3.8814,35.9211,755.0478],[3.8735,35.9203,754.9799],[3.8694,35.936,747.3207],[3.8754,35.9521,780.7039],[3.8746,35.9623,827.7695],[3.8726,35.9678,843.0847],[3.8725,35.9749,858.1093],[3.8603,35.997,975.3206],[3.863,36.0029,1013.973],[3.8598,36.0113,1024.9521],[3.8575,36.016,1023.4446],[3.8443,36.0256,1250.9015],[3.8325,36.0308,1130.3402],[3.8329,36.0375,1083.0048],[3.8285,36.0422,1038.2732],[3.824,36.0388,1043.4143],[3.819,36.0411,1149.3457],[3.8116,36.0388,993.4894],[3.8018,36.0412,990.7277],[3.8019,36.0358,985.5496],[3.7966,36.0307,1067.0121],[3.7977,36.024,1197.5073],[3.8144,36.0077,991.0432],[3.8085,36.001,935.4086],[3.8047,35.9856,1154.8472],[3.788,35.9761,1051.7866],[3.7921,35.9713,1041.4028],[3.7884,35.967,864.7613],[3.7848,35.9551,783.5878],[3.7751,35.9481,755.3043],[3.7704,35.9466,737.0247],[3.7662,35.9415,722.2111],[3.7637,35.9351,708.2348],[3.7639,35.9296,701.6707],[3.7727,35.9131,684.4852],[3.7745,35.9065,678.9072],[3.7735,35.902,673.9559]]]]}
,"properties": {"GID_2": "DZA.12.28_1","GID_0": "DZA","country": "Algeria","GID_1": "DZA.12_1","province": "Bouira","NL_NAME_1": "ولايةالبويرة","county": "HadjeraZerga","VARNAME_2": "NA","NL_NAME_2": "NA","TYPE_2": "Commune","ENGTYPE_2": "Commune","CC_2": "1042","HASC_2": "DZ.BU.HZ","name": "Hadjera_Zerga.county","area_km2": 148.1652,"hist_schema_id": "Elevation0-9000","hist_area_km2": {"625": 1.1169,"650": 10.5492,"675": 15.1678,"700": 20.5741,"725": 18.4074,"750": 14.1302,"775": 9.665,"800": 7.9126,"825": 4.6511,"850": 4.0843,"875": 3.3803,"900": 3.4144,"925": 3.6028,"950": 4.4088,"975": 4.4428,"1000": 4.0309,"1025": 3.1046,"1050": 2.3326,"1075": 2.2984,"1100": 1.9208,"1125": 2.3153,"1150": 1.9896,"1175": 1.7151,"1200": 1.4921,"1225": 0.8061,"1250": 0.4289,"1275": 0.1201,"1300": 0.1029}}}