{"type": "Feature","bbox": [0.1093,35.6729,0.2222,35.7931],"geometry": {"type": "MultiPolygon","coordinates": [[[[0.1971,35.7106,50.7384],[0.2031,35.7153,53.15],[0.2023,35.7441,119.5727],[0.2144,35.7614,75.3512],[0.2059,35.7641,104.8596],[0.2066,35.7688,142.8687],[0.2194,35.7819,234.1236],[0.2222,35.7867,221.4541],[0.2064,35.7884,76.7904],[0.2001,35.7914,61.4198],[0.1753,35.7931,50.4632],[0.1709,35.7895,48.9248],[0.1584,35.7867,46.8874],[0.1363,35.7851,41.2169],[0.1104,35.7866,31.3183],[0.1093,35.7814,28.0999],[0.1113,35.7771,27.4604],[0.1333,35.7737,33.8859],[0.1356,35.7688,32.6656],[0.14,35.7481,24.501],[0.1475,35.7308,23.4969],[0.1477,35.7204,24.5217],[0.1548,35.7016,32.0162],[0.1566,35.6783,49.21],[0.1587,35.6729,55.3899],[0.1633,35.681399999999996,47.8759],[0.1673,35.6938,38.2859],[0.1818,35.7069,42.6644],[0.1858,35.709,45.5729],[0.1971,35.7106,50.7384]]]]}
,"properties": {"GID_2": "DZA.30.27_1","GID_0": "DZA","country": "Algeria","GID_1": "DZA.30_1","province": "Mostaganem","NL_NAME_1": "ولايةمستغانم","county": "Sirat","VARNAME_2": "NA","NL_NAME_2": "NA","TYPE_2": "Commune","ENGTYPE_2": "Commune","CC_2": "2720","HASC_2": "DZ.MG.SI","name": "Sirat.county","area_km2": 60.27682,"hist_schema_id": "Elevation0-9000","hist_area_km2": {"25": 24.26332,"50": 24.77747,"75": 5.64415,"100": 2.85637,"125": 1.68621,"150": 0.46447,"175": 0.30962,"200": 0.13761,"225": 0.086,"250": 0.0516}}}