{"type": "Feature","bbox": [7.7333,34.4062,8.2977,34.9646],"geometry": {"type": "MultiPolygon","coordinates": [[[[8.0827,34.9598,1090.2688],[8.0762,34.9615,1099.5886],[8.0652,34.9614,1136.4855],[8.0302,34.9516,1356.5026],[8.0118,34.9492,1451.3068],[7.9722,34.9646,1133.7748],[7.9483,34.9257,981.4928],[7.9417,34.9243,1006.4855],[7.9364,34.9199,1035.6943],[7.9339,34.9081,1000.9229],[7.9231,34.8844,949.8779],[7.9002,34.86,897.6044],[7.8946,34.852,885.8077],[7.8829,34.8343,884.2686],[7.8596,34.7903,924.8572],[7.8595,34.7845,930.6779],[7.855,34.7753,937.1771],[7.8497,34.7551,968.5601],[7.848,34.7367,997.4545],[7.8433,34.7267,878.7122],[7.8405,34.713,893.6658],[7.8258,34.6933,792.489],[7.8181,34.6775,660.8622],[7.8175,34.6716,643.4181],[7.7463,34.6028,483.6159],[7.7344,34.5843,463.7032],[7.7557,34.5726,490.7335],[7.7663,34.5349,537.4186],[7.7333,34.4619,522.5392],[7.7669,34.463,561.8052],[7.7725,34.4612,566.4078],[7.7777,34.4563,580.5264],[7.7871,34.4406,564.2224],[7.7921,34.4371,552.856],[7.8063,34.4316,635.0145],[7.8163,34.4306,610.6431],[7.8218,34.4269,662.8946],[7.83,34.4173,689.2316],[7.8568,34.4062,509.5934],[7.8769,34.4071,440.4428],[7.8873,34.4119,464.0083],[7.8905,34.4149,460.8047],[7.897,34.4163,516.3404],[7.9072,34.4145,437.8815],[7.9199,34.4157,394.5141],[7.9324,34.4211,494.654],[7.9326,34.426,494.7403],[7.9351,34.4298,452.8062],[7.9423,34.4377,450.9355],[7.9495,34.4388,509.311],[7.9535,34.442,491.3926],[7.9548,34.4466,485.1286],[7.9738,34.447,462.3035],[7.9878,34.4525,474.7805],[8.0118,34.4581,482.3211],[8.0195,34.471,471.3878],[8.0372,34.4866,495.8624],[8.0452,34.4925,540.4423],[8.0676,34.4945,561.4285],[8.0727,34.4969,626.2017],[8.0735,34.5018,688.4036],[8.0823,34.5095,743.2683],[8.085,34.5143,715.2231],[8.1018,34.5111,666.5551],[8.1171,34.5138,755.5829],[8.1196,34.5195,774.0941],[8.1237,34.5235,783.9376],[8.1356,34.53,795.5269],[8.1489,34.5332,792.7877],[8.1504,34.5397,764.224],[8.1541,34.545,751.4896],[8.1671,34.5538,810.0297],[8.1637,34.5615,807.3035],[8.1637,34.5659,817.6331],[8.1707,34.5652,832.3684],[8.1736,34.5735,801.112],[8.1908,34.5713,804.4039],[8.2149,34.5754,804.8257],[8.2216,34.5784,858.6431],[8.2085,34.5874,843.6992],[8.2119,34.5912,820.3067],[8.2149,34.6023,815.1119],[8.2297,34.6093,861.5891],[8.2342,34.6141,887.8474],[8.2437,34.6128,888.5534],[8.2501,34.6144,903.7998],[8.246,34.6214,805.1689],[8.2452,34.6305,825.2585],[8.2498,34.6349,822.3685],[8.2565,34.638,850.1721],[8.267,34.6425,814.749],[8.2743,34.6434,783.5165],[8.2828,34.6531,864.5497],[8.2832,34.6576,877.8302],[8.2799,34.6607,871.5939],[8.2632,34.659,1020.6256],[8.2529,34.6632,1073.1953],[8.2431,34.6706,950.3732],[8.2399,34.6763,936.0297],[8.2414,34.6828,880.0065],[8.2465,34.6888,847.256],[8.2682,34.6912,801.9214],[8.2922,34.7209,711.2662],[8.2977,34.7313,682.7198],[8.2877,34.7396,686.0685],[8.2811,34.7411,688.9129],[8.2681,34.74,695.4212],[8.2573,34.7458,703.3088],[8.2459,34.7463,707.4267],[8.2399,34.7487,711.5793],[8.237,34.7542,723.0797],[8.2291,34.7603,719.6234],[8.2263,34.7648,722.5933],[8.2221,34.7677,725.4528],[8.2171,34.7767,731.3813],[8.2109,34.7802,732.1971],[8.2072,34.7858,737.0862],[8.1897,34.7899,742.427],[8.1711,34.7816,753.3447],[8.1597,34.7843,760.8489],[8.1448,34.7851,766.1084],[8.1337,34.7888,775.605],[8.1205,34.7909,777.9018],[8.109,34.7992,791.0212],[8.1019,34.7992,787.8345],[8.0893,34.8038,797.1663],[8.0818,34.8124,804.8544],[8.0749,34.815,805.298],[8.0703,34.8191,812.1517],[8.0659,34.8252,816.7276],[8.0634,34.8321,827.1953],[8.0648,34.8389,834.1237],[8.0753,34.8728,875.9892],[8.0807,34.9083,939.8912],[8.0896,34.9312,990.7515],[8.0897,34.9366,1002.8692],[8.0828,34.9529,1093.9431],[8.0827,34.9598,1090.2688]]]]}
,"properties": {"GID_2": "DZA.42.5_1","GID_0": "DZA","country": "Algeria","GID_1": "DZA.42_1","province": "Tébessa","NL_NAME_1": "ولايةتبسة","county": "BirElAter","VARNAME_2": "Bir-El-Ater","NL_NAME_2": "NA","TYPE_2": "Commune","ENGTYPE_2": "Commune","CC_2": "1202","HASC_2": "DZ.TB.BA","name": "Bir_El_Ater.county","area_km2": 1724.734,"hist_schema_id": "Elevation0-9000","hist_area_km2": {"375": 0.682,"400": 4.459,"425": 9.25,"450": 15.894,"475": 42.945,"500": 56.295,"525": 67.146,"550": 84.521,"575": 76.54,"600": 76.441,"625": 77.441,"650": 77.187,"675": 80.092,"700": 81.71,"725": 92.851,"750": 95.656,"775": 101.39,"800": 89.756,"825": 81.758,"850": 80.188,"875": 66.759,"900": 66.554,"925": 54.154,"950": 56.215,"975": 43.944,"1000": 29.26,"1025": 22.614,"1050": 18.02,"1075": 16.019,"1100": 14.82,"1125": 12.19,"1150": 9.509,"1175": 6.286,"1200": 3.969,"1225": 3.133,"1250": 2.715,"1275": 2.158,"1300": 1.41,"1325": 1.079,"1350": 0.556,"1375": 0.4,"1400": 0.313,"1425": 0.104,"1450": 0.122,"1475": 0.226}}}