{"type":"Feature","properties":{"GID_2":"DZA.48.46_1","GID_0":"DZA","country":"Algeria","GID_1":"DZA.48_1","province":"Tlemcen","NL_NAME_1":"تلمسان","county":"SidiMedjahed","VARNAME_2":"NA","NL_NAME_2":"NA","TYPE_2":"Commune","ENGTYPE_2":"Commune","CC_2":"1337","HASC_2":"DZ.TL.SM","name":"Sidi_Medjahed.county"},
"geometry":{"type": "MultiPolygon","coordinates": [[[[-1.5033,34.7479,1177.673],[-1.5153,34.7536,1171.7229],[-1.5255,34.754,1023.7689],[-1.5336,34.7583,1014.2936],[-1.5397,34.7518,1121.2421],[-1.5457,34.7491,1067.08],[-1.5623,34.7549,889.4773],[-1.5831,34.7651,691.0183],[-1.6036,34.7715,466.5442],[-1.6215,34.7938,466.7611],[-1.6231,34.798,465.6114],[-1.629,34.7988,433.9897],[-1.6369,34.8061,401.7696],[-1.653,34.8116,319.7382],[-1.668,34.812,433.571],[-1.678,34.8103,426.2687],[-1.6927,34.7976,448.0625],[-1.7183,34.7801,461.7723],[-1.7241,34.7777,463.6081],[-1.726,34.7704,463.0477],[-1.6999,34.7766,486.9921],[-1.6868,34.7608,520.7982],[-1.6856,34.7551,543.9786],[-1.6815,34.7495,518.21],[-1.6705,34.7455,501.0726],[-1.6668,34.7422,527.2734],[-1.6641,34.7363,582.8991],[-1.6591,34.7342,616.6751],[-1.6407,34.7331,537.5111],[-1.6366,34.7308,549.3008],[-1.6305,34.7266,595.2207],[-1.6299,34.7197,623.252],[-1.6082,34.7032,692.5541],[-1.5999,34.7046,821.3321],[-1.582,34.698,844.3505],[-1.5719,34.6965,928.8979],[-1.5554,34.6957,859.8162],[-1.5559,34.708,762.9259],[-1.5515,34.7148,625.1332],[-1.5398,34.7183,562.7876],[-1.5211,34.7358,1052.4268],[-1.5033,34.7479,1177.673]]]]}}