{"type":"Feature","properties":{"GID_2":"DZA.33.15_1","GID_0":"DZA","country":"Algeria","GID_1":"DZA.33_1","province":"Ouargla","NL_NAME_1":"ورقلة","county":"SidiKhouiled","VARNAME_2":"NA","NL_NAME_2":"NA","TYPE_2":"Commune","ENGTYPE_2":"Commune","CC_2":"3011","HASC_2":"DZ.OG.SK","name":"Sidi_Khouiled.county"},
"geometry":{"type": "MultiPolygon","coordinates": [[[[5.4623,31.9361,163.4263],[5.4469,31.9918,152.013],[5.45,32.0095,148.1464],[5.448,32.0157,137.6808],[5.4484,32.0214,145.4937],[5.4507,32.0266,143.9939],[5.4485,32.0409,156.4308],[5.4484,32.0566,150.9741],[5.4356,32.105,145.8778],[5.322,32.0789,122.5356],[5.3503,32.001,129.1035],[5.393,31.9869,131.3779],[5.3973,31.9806,129.2448],[5.4108,31.9409,144.6864],[5.4623,31.9361,163.4263]]]]}}