{"type":"Feature","properties":{"GID_2":"DZA.13.4_1","GID_0":"DZA","country":"Algeria","GID_1":"DZA.13_1","province":"Boumerdès","NL_NAME_1":"ولايةبومرداس","county":"BenChoud","VARNAME_2":"NA","NL_NAME_2":"NA","TYPE_2":"Commune","ENGTYPE_2":"Commune","CC_2":"3522","HASC_2":"DZ.BM.BC","name":"Ben_Choud.county"},
"geometry":{"type": "MultiPolygon","coordinates": [[[[3.9421,36.8297,452.9552],[3.941,36.8341,482.3822],[3.943,36.8394,500.0695],[3.9364,36.8428,473.0799],[3.9328,36.8469,413.3347],[3.9312,36.8599,334.7904],[3.9289,36.8651,328.625],[3.9183,36.8739,282.6855],[3.9181,36.8689,238.3035],[3.9023,36.8689,112.1264],[3.897,36.8676,68.415],[3.885,36.8694,45.161],[3.875,36.8674,8.6187],[3.8725,36.8616,2.3671],[3.8767,36.84,14.9846],[3.8856,36.8356,37.8427],[3.8982,36.8379,123.5403],[3.9208,36.8375,298.575],[3.9374,36.8291,486.3848],[3.9421,36.8297,452.9552]]]]}}