{"type": "Feature","bbox": [3.3828,36.5498,3.4665,36.6704],"geometry": {"type": "MultiPolygon","coordinates": [[[[3.4632,36.576,473.052],[3.4584,36.5813,429.0985],[3.4665,36.6095,291.4482],[3.4613,36.613,230.6055],[3.4615,36.6175,192.5602],[3.4581,36.6216,159.5153],[3.4534,36.6344,137.0],[3.4631,36.6421,309.0744],[3.4624,36.6556,206.6977],[3.4585,36.6643,225.5562],[3.4519,36.6638,367.562],[3.4307,36.6703,222.0673],[3.4151,36.6692,77.3109],[3.4085,36.6704,44.1225],[3.4021,36.6683,48.7409],[3.3987,36.6635,137.7676],[3.3995,36.6589,97.832],[3.3902,36.6525,155.1512],[3.3962,36.6485,94.5785],[3.4034,36.6502,95.5226],[3.4132,36.6458,180.6143],[3.4157,36.6424,137.0],[3.4117,36.6372,137.0],[3.3976,36.6334,137.0],[3.3869,36.6273,141.3416],[3.3828,36.617,254.5042],[3.3923,36.5943,353.6081],[3.3931,36.5877,428.2098],[3.3923,36.5812,363.1749],[3.3894,36.5775,466.8353],[3.3885,36.5728,592.8306],[3.3899,36.5651,777.4763],[3.3871,36.5574,825.3552],[3.4034,36.5542,899.9245],[3.4081,36.5498,933.77],[3.4184,36.5652,605.6064],[3.424,36.5665,590.6865],[3.4502,36.5665,513.3851],[3.4624,36.5718,543.612],[3.4632,36.576,473.052]]]]}
,"properties": {"GID_2": "DZA.13.15_1","GID_0": "DZA","country": "Algeria","GID_1": "DZA.13_1","province": "Boumerdès","NL_NAME_1": "ولايةبومرداس","county": "ElKharrouba","VARNAME_2": "NA","NL_NAME_2": "NA","TYPE_2": "Commune","ENGTYPE_2": "Commune","CC_2": "3532","HASC_2": "DZ.BM.EK","name": "El_Kharrouba.county","area_km2": 70.44041,"hist_schema_id": "Elevation0-9000","hist_area_km2": {"50": 1.10548,"75": 1.19061,"100": 1.02053,"125": 4.64423,"150": 2.31361,"175": 2.79015,"200": 2.58605,"225": 2.48398,"250": 2.9433,"275": 2.77325,"300": 3.16463,"325": 2.46726,"350": 2.36533,"375": 2.29736,"400": 2.55293,"425": 2.62112,"450": 2.34893,"475": 2.05981,"500": 2.19605,"525": 2.17911,"550": 2.28128,"575": 2.05995,"600": 2.33238,"625": 1.97485,"650": 2.0771,"675": 2.00898,"700": 1.97496,"725": 1.68549,"750": 1.37904,"775": 1.15765,"800": 0.88528,"825": 0.57886,"850": 0.5278,"875": 0.37458,"900": 0.44265,"925": 0.23837,"950": 0.2213,"975": 0.11915,"1000": 0.01702}}}