{"type": "Feature","bbox": [4.7178,36.4328,4.866,36.5442],"geometry": {"type": "MultiPolygon","coordinates": [[[[4.7178,36.48,716.8462],[4.7215,36.4769,708.364],[4.7278,36.4766,592.1054],[4.732,36.4743,559.9694],[4.7266,36.4541,479.2195],[4.7313,36.4512,496.7844],[4.7318,36.4467,513.0256],[4.7368,36.4438,388.0728],[4.732,36.4376,336.0005],[4.7343,36.4328,303.9406],[4.7399,36.4341,312.7449],[4.745,36.4386,317.3024],[4.7505,36.4375,371.883],[4.7534,36.4434,317.3238],[4.7627,36.4471,322.8979],[4.7745,36.4606,377.8672],[4.7872,36.4638,390.2092],[4.7911,36.467,485.863],[4.8053,36.4715,465.3128],[4.8132,36.4723,400.227],[4.8192,36.4762,405.6672],[4.8267,36.4767,425.9216],[4.8299,36.4721,403.6203],[4.8409,36.4808,504.1518],[4.8464,36.4811,425.8354],[4.8529,36.4838,429.3048],[4.8611,36.4942,446.057],[4.8592,36.5012,520.8939],[4.847,36.5053,818.1925],[4.8546,36.5146,899.4952],[4.861,36.5146,697.371],[4.866,36.5174,655.9102],[4.8583,36.5338,972.875],[4.8465,36.5333,1011.1176],[4.8262,36.5442,897.9252],[4.7874,36.5431,933.0806],[4.7788,36.5349,958.8405],[4.7725,36.5329,874.4048],[4.7603,36.5306,631.4832],[4.7468,36.5309,535.5211],[4.7483,36.5185,935.5161],[4.7339,36.5156,865.1973],[4.7341,36.5103,1099.1144],[4.7298,36.5038,1142.9541],[4.7225,36.5026,1080.9417],[4.7208,36.4955,883.8877],[4.7227,36.4861,682.413],[4.7178,36.48,716.8462]]]]}
,"properties": {"GID_2": "DZA.8.13_1","GID_0": "DZA","country": "Algeria","GID_1": "DZA.8_1","province": "Béjaïa","NL_NAME_1": "بجاية","county": "Benimaouche","VARNAME_2": "BeniMaouche","NL_NAME_2": "NA","TYPE_2": "Commune","ENGTYPE_2": "Commune","CC_2": "650","HASC_2": "DZ.BJ.BE","name": "Benimaouche.county","area_km2": 93.82746,"hist_schema_id": "Elevation0-9000","hist_area_km2": {"300": 0.20469,"325": 1.09155,"350": 0.56281,"375": 0.78448,"400": 1.09136,"425": 1.72203,"450": 1.77317,"475": 2.26753,"500": 2.43791,"525": 2.86387,"550": 3.27294,"575": 4.22741,"600": 4.41484,"625": 4.3124,"650": 4.24394,"675": 4.85728,"700": 4.77193,"725": 4.75498,"750": 4.94213,"775": 4.95918,"800": 4.87394,"825": 4.63537,"850": 4.31147,"875": 4.00484,"900": 3.44255,"925": 2.89717,"950": 2.48814,"975": 1.94267,"1000": 1.55068,"1025": 1.17587,"1050": 0.6987,"1075": 0.44311,"1100": 0.2386,"1125": 0.3238,"1150": 0.20451,"1175": 0.27268,"1200": 0.22155,"1225": 0.08521,"1250": 0.10226,"1275": 0.08522,"1300": 0.06817,"1325": 0.10226,"1350": 0.08522,"1375": 0.01704}}}