{"type": "Feature","bbox": [3.5028,33.6805,4.0454,34.3878],"geometry": {"type": "MultiPolygon","coordinates": [[[[3.7739,34.3057,1211.3647],[3.7422,34.3243,1165.28],[3.738,34.3285,1188.7074],[3.741,34.3402,1155.8057],[3.7373,34.3445,1118.512],[3.7283,34.3496,1114.7744],[3.7171,34.3515,1107.5648],[3.6937,34.3642,1079.4368],[3.687,34.3745,1065.3229],[3.6785,34.3803,1055.5406],[3.6743,34.3861,1056.943],[3.6672,34.3878,1042.5312],[3.6626,34.3838,1043.5704],[3.6432,34.3607,1119.417],[3.641,34.3409,1060.6313],[3.6338,34.3275,1041.9749],[3.6114,34.307,965.2657],[3.6047,34.3082,952.4146],[3.5966,34.3028,928.8231],[3.5612,34.2583,840.2214],[3.5521,34.2382,818.876],[3.5392,34.218,800.6082],[3.5366,34.2114,803.0573],[3.5474,34.1987,773.0847],[3.5566,34.1841,746.0704],[3.5676,34.1246,850.4747],[3.5677,34.1171,779.5196],[3.5461,34.1082,806.2122],[3.5344,34.1016,826.7596],[3.5256,34.0898,793.991],[3.5102,34.0807,777.9882],[3.5041,34.07,815.3553],[3.5028,34.0641,785.2969],[3.5252,34.0253,680.9159],[3.5376,33.9829,654.4135],[3.5647,33.929,622.8452],[3.5789,33.9341,628.2871],[3.6019,33.9029,653.1769],[3.6351,33.8795,646.6515],[3.6195,33.8705,676.3489],[3.9612,33.6805,745.2258],[4.0454,33.7698,728.3337],[3.9551,33.8836,669.3374],[3.8807,33.9714,639.8776],[3.8977,33.9919,638.1568],[3.9388,34.0359,601.1546],[3.9249,34.0409,593.021],[3.9147,34.0829,556.4788],[3.9109,34.0905,563.0123],[3.89,34.1151,612.3288],[3.8847,34.1544,658.1721],[3.865,34.1792,704.1086],[3.8424,34.1854,713.6802],[3.815,34.2431,870.0809],[3.8163,34.2481,870.2599],[3.7756,34.2889,1041.8713],[3.7739,34.3057,1211.3647]]]]}
,"properties": {"GID_2": "DZA.16.31_1","GID_0": "DZA","country": "Algeria","GID_1": "DZA.16_1","province": "Djelfa","NL_NAME_1": "ولايةالجلفة","county": "Selmana","VARNAME_2": "NA","NL_NAME_2": "NA","TYPE_2": "Commune","ENGTYPE_2": "Commune","CC_2": "1722","HASC_2": "DZ.DJ.SE","name": "Selmana.county","area_km2": 1939.128,"hist_schema_id": "Elevation0-9000","hist_area_km2": {"550": 5.673,"575": 63.397,"600": 133.805,"625": 212.12,"650": 243.642,"675": 277.347,"700": 296.018,"725": 176.691,"750": 141.616,"775": 66.777,"800": 60.024,"825": 36.748,"850": 29.186,"875": 21.277,"900": 13.424,"925": 8.061,"950": 5.257,"975": 4.626,"1000": 6.71,"1025": 7.744,"1050": 9.896,"1075": 13.011,"1100": 11.067,"1125": 10.488,"1150": 10.996,"1175": 14.236,"1200": 13.433,"1225": 11.49,"1250": 8.793,"1275": 10.16,"1300": 7.182,"1325": 4.992,"1350": 2.137,"1375": 0.893,"1400": 0.21}}}