{"type":"Feature","properties":{"GID_2":"DZA.18.25_1","GID_0":"DZA","country":"Algeria","GID_1":"DZA.18_1","province":"ElOued","NL_NAME_1":"ولايةالوادي","county":"SidiKhelil","VARNAME_2":"SidiKhellil","NL_NAME_2":"NA","TYPE_2":"Commune","ENGTYPE_2":"Commune","CC_2":"3923","HASC_2":"DZ.EO.SK","name":"Sidi_Khelil.county"},
"geometry":{"type": "MultiPolygon","coordinates": [[[[5.3916,33.8239,235.0852],[5.604,33.7396,172.4603],[5.814,33.7498,62.9142],[5.9772,33.7747,26.4211],[6.0539,33.7753,6.7391],[6.048,33.7805,9.4852],[6.0443,33.7863,7.9618],[6.0438,33.796,4.5585],[6.0402,33.8055,3.9193],[6.0237,33.8186,2.2278],[6.0191,33.8276,3.1351],[6.0208,33.8415,1.8624],[6.0278,33.8609,-10.2719],[6.0241,33.8825,-18.5674],[6.027,33.8874,-19.6022],[6.0358,33.8953,-19.3424],[6.0488,33.9026,-23.4112],[5.9544,33.9114,-4.4103],[5.703,33.8466,132.4664],[5.3916,33.8239,235.0852]]]]}}