{"type":"Feature","properties":{"GID_2":"DZA.27.22_1","GID_0":"DZA","country":"Algeria","GID_1":"DZA.27_1","province":"Mascara","NL_NAME_1":"ولايةمعسكر","county":"Gharrous","VARNAME_2":"NA","NL_NAME_2":"NA","TYPE_2":"Commune","ENGTYPE_2":"Commune","CC_2":"2941","HASC_2":"DZ.MC.GA","name":"Gharrous.county"},
"geometry":{"type": "MultiPolygon","coordinates": [[[[0.4659,35.0718,787.0189],[0.4724,35.0711,795.1392],[0.4842,35.0818,846.2881],[0.4916,35.1094,864.4089],[0.5033,35.1166,924.3083],[0.51,35.1281,983.7463],[0.5381,35.1652,613.5762],[0.5521,35.1727,593.1559],[0.5516,35.1798,590.5681],[0.5462,35.185,605.0001],[0.5417,35.1879,605.6987],[0.5302,35.1872,624.3441],[0.526,35.1898,633.6987],[0.5278,35.1962,637.7809],[0.5347,35.2057,615.6025],[0.5125,35.2102,647.9394],[0.505,35.2099,661.5601],[0.4699,35.1963,760.4594],[0.4628,35.1977,816.0814],[0.4533,35.1928,903.5303],[0.4464,35.1913,948.0443],[0.4342,35.1933,1017.4337],[0.4276,35.1913,989.3183],[0.4269,35.1846,1057.7499],[0.3952,35.1739,1039.1565],[0.4125,35.1533,1055.5828],[0.4227,35.1325,787.8773],[0.4203,35.1279,789.6619],[0.4216,35.1219,761.7897],[0.4165,35.116,733.848],[0.4097,35.1016,693.4603],[0.413,35.0966,710.7264],[0.4398,35.0844,730.9622],[0.4486,35.0826,740.3288],[0.4603,35.0776,767.6215],[0.4659,35.0718,787.0189]]]]}}