{"type": "Feature","bbox": [6.9664,35.3782,7.1514,35.5647],"geometry": {"type": "MultiPolygon","coordinates": [[[[7.0872,35.5461,860.4674],[7.0824,35.5457,861.0443],[7.07,35.5486,861.2531],[7.019,35.5647,854.9565],[7.0166,35.5593,855.0179],[7.0081,35.5515,859.2448],[6.999,35.5489,862.7393],[6.9909,35.5419,867.4962],[6.989,35.5365,869.097],[6.9883,35.5251,876.2568],[6.9899,35.5202,880.6707],[7.0077,35.5221,877.0953],[7.0061,35.5176,884.8913],[7.0088,35.513,891.2704],[7.0057,35.507,894.3516],[7.0013,35.5031,903.5599],[6.9952,35.5016,906.2791],[6.9924,35.4964,914.4094],[6.9859,35.4934,919.0219],[6.9817,35.4889,928.3606],[6.9664,35.4794,960.1904],[6.9705,35.4743,1008.8894],[6.9798,35.4745,976.1586],[6.9864,35.4775,944.3758],[7.0012,35.4779,972.1326],[7.0277,35.4686,1107.6605],[7.0359,35.4598,1047.7399],[7.0353,35.4455,1171.7418],[7.0322,35.4423,1238.6816],[7.0222,35.4424,1152.7173],[7.0172,35.4398,1192.1095],[7.0267,35.4047,1553.9767],[7.0234,35.4004,1613.4268],[7.0105,35.3939,1727.2543],[7.0079,35.3888,1691.4095],[7.0134,35.386,1821.0615],[7.0311,35.3855,1786.8831],[7.0364,35.3831,1773.6149],[7.0401,35.3783,1697.902],[7.0464,35.3782,1667.6393],[7.0869,35.3944,1332.8246],[7.0924,35.3886,1251.7651],[7.1071,35.3872,1202.3359],[7.1166,35.3938,1192.5347],[7.1266,35.3957,1165.1318],[7.1346,35.4062,1145.4116],[7.1191,35.4133,1213.4781],[7.1062,35.4237,1636.0457],[7.1075,35.4342,1233.4083],[7.1048,35.4394,1170.6855],[7.1048,35.4459,1088.634],[7.1077,35.4495,1069.5857],[7.1087,35.4545,1045.6116],[7.1463,35.4644,1017.3469],[7.1514,35.4666,1018.6222],[7.1509,35.4714,1045.6038],[7.14,35.4926,944.172],[7.1332,35.495,949.9824],[7.1227,35.5027,930.1694],[7.1086,35.5186,887.9321],[7.1084,35.53,873.1275],[7.1112,35.5387,868.5657],[7.0924,35.5434,861.8629],[7.0872,35.5461,860.4674]]]]}
,"properties": {"GID_2": "DZA.24.8_1","GID_0": "DZA","country": "Algeria","GID_1": "DZA.24_1","province": "Khenchela","NL_NAME_1": "ولايةخنشلة","county": "ElHamma","VARNAME_2": "NA","NL_NAME_2": "NA","TYPE_2": "Commune","ENGTYPE_2": "Commune","CC_2": "4005","HASC_2": "DZ.KH.EH","name": "El_Hamma.county","area_km2": 185.9283,"hist_schema_id": "Elevation0-9000","hist_area_km2": {"850": 9.4532,"875": 38.1859,"900": 17.8993,"925": 15.5368,"950": 13.1904,"975": 11.0161,"1000": 8.1677,"1025": 4.8698,"1050": 3.4021,"1075": 2.7288,"1100": 2.7116,"1125": 2.349,"1150": 2.5048,"1175": 3.4899,"1200": 4.0258,"1225": 3.6457,"1250": 3.0236,"1275": 2.8854,"1300": 2.5917,"1325": 2.1425,"1350": 2.3154,"1375": 1.8661,"1400": 2.2118,"1425": 1.8835,"1450": 2.039,"1475": 1.8663,"1500": 2.1947,"1525": 2.7823,"1550": 2.6613,"1575": 2.2812,"1600": 1.9528,"1625": 1.8665,"1650": 1.7282,"1675": 1.6072,"1700": 0.8123,"1725": 0.4321,"1750": 0.4148,"1775": 0.3975,"1800": 0.3111,"1825": 0.121,"1850": 0.0864,"1875": 0.1729,"1900": 0.0864,"1925": 0.0173}}}