{"type": "Feature","bbox": [7.2988,36.4737,7.4266,36.5704],"geometry": {"type": "MultiPolygon","coordinates": [[[[7.2988,36.5548,827.1928],[7.3079,36.5344,595.5251],[7.3167,36.5296,711.2581],[7.3238,36.5304,813.5908],[7.3314,36.5286,763.0042],[7.3407,36.5304,788.5311],[7.3462,36.5239,535.9202],[7.3573,36.5045,376.8394],[7.3492,36.5011,463.077],[7.3384,36.5013,437.2043],[7.3306,36.4996,338.086],[7.3296,36.4942,321.2272],[7.3434,36.4835,270.8004],[7.354,36.4791,220.5151],[7.3745,36.4778,214.0151],[7.3783,36.474,212.8486],[7.3847,36.4737,209.2562],[7.3909,36.4755,207.5618],[7.3949,36.4805,207.2233],[7.4016,36.4799,202.5524],[7.4103,36.4851,199.0589],[7.4157,36.4858,206.6892],[7.4184,36.482,195.4298],[7.4241,36.4811,195.0893],[7.4266,36.4861,193.3995],[7.4182,36.4926,223.6764],[7.4156,36.4978,213.8102],[7.41,36.4983,219.5138],[7.4075,36.5053,238.9316],[7.4123,36.5128,294.7429],[7.4113,36.5204,330.2537],[7.414,36.5247,344.227],[7.4178,36.5272,343.5516],[7.4124,36.5384,392.4997],[7.4021,36.5462,451.9116],[7.39,36.55,370.991],[7.3806,36.5503,323.9306],[7.3671,36.5606,283.1044],[7.3685,36.5654,243.8367],[7.3557,36.5662,199.9531],[7.3358,36.5704,183.2479],[7.3319,36.565,287.4973],[7.3197,36.558,533.818],[7.2988,36.5548,827.1928]]]]}
,"properties": {"GID_2": "DZA.21.17_1","GID_0": "DZA","country": "Algeria","GID_1": "DZA.21_1","province": "Guelma","NL_NAME_1": "ولايةقالمة","county": "ElFedjoudj","VARNAME_2": "NA","NL_NAME_2": "NA","TYPE_2": "Commune","ENGTYPE_2": "Commune","CC_2": "2420","HASC_2": "DZ.GL.EF","name": "El_Fedjoudj.county","area_km2": 65.66684,"hist_schema_id": "Elevation0-9000","hist_area_km2": {"175": 0.05108,"200": 3.52823,"225": 5.60766,"250": 5.5387,"275": 6.66286,"300": 6.88369,"325": 6.25291,"350": 6.26956,"375": 6.09898,"400": 5.07676,"425": 3.52642,"450": 2.60645,"475": 1.87395,"500": 1.1584,"525": 0.90284,"550": 0.51103,"575": 0.57918,"600": 0.3407,"625": 0.47695,"650": 0.40882,"675": 0.28958,"700": 0.28958,"725": 0.27255,"750": 0.11924,"775": 0.17035,"800": 0.10222,"825": 0.06814}}}