{"type": "Feature","bbox": [3.4527,36.7358,3.5338,36.7783],"geometry": {"type": "MultiPolygon","coordinates": [[[[3.5322,36.7568,308.958],[3.5338,36.7734,197.0732],[3.526,36.7777,92.9893],[3.5181,36.7783,32.7812],[3.4986,36.7695,7.4244],[3.4588,36.7666,17.3858],[3.4535,36.7555,12.8078],[3.4527,36.7466,15.5081],[3.4672,36.7358,79.3939],[3.4732,36.7362,48.36],[3.4862,36.7387,92.887],[3.4948,36.7481,34.904],[3.4997,36.7503,55.8937],[3.5035,36.7561,135.1845],[3.5322,36.7568,308.958]]]]}
,"properties": {"GID_2": "DZA.13.9_1","GID_0": "DZA","country": "Algeria","GID_1": "DZA.13_1","province": "Boumerdès","NL_NAME_1": "ولايةبومرداس","county": "Boumerdes","VARNAME_2": "Bumardas","NL_NAME_2": "NA","TYPE_2": "Chef-Lieu-Wilaya","ENGTYPE_2": "Chef-Lieu-Wilaya","CC_2": "3501","HASC_2": "DZ.BM.BO","name": "Boumerdes.county","area_km2": 18.60033,"hist_schema_id": "Elevation0-9000","hist_area_km2": {"0": 1.05305,"25": 4.1957,"50": 5.52081,"75": 3.07476,"100": 1.44384,"125": 0.76434,"150": 0.56052,"175": 0.66243,"200": 0.6964,"225": 0.25478,"250": 0.27178,"275": 0.10192}}}