{"type":"Feature","properties":{"GID_2":"DZA.23.13_1","GID_0":"DZA","country":"Algeria","GID_1":"DZA.23_1","province":"Jijel","NL_NAME_1":"ولايةجيجل","county":"EmirAbdelkader","VARNAME_2":"NA","NL_NAME_2":"NA","TYPE_2":"Commune-Cotiere","ENGTYPE_2":"Commune-Cotiere","CC_2":"1806","HASC_2":"DZ.JJ.ED","name":"Emir_Abdelkader.county"},
"geometry":{"type": "MultiPolygon","coordinates": [[[[5.8766,36.7328,68.1022],[5.8738,36.7362,115.1397],[5.8668,36.7366,61.2904],[5.8641,36.7413,27.6661],[5.8672,36.7508,31.3861],[5.867,36.7565,25.4381],[5.8857,36.7683,56.1609],[5.8869,36.7802,41.8361],[5.8822,36.7844,30.2916],[5.8817,36.7932,7.1302],[5.8764,36.8053,4.7571],[5.8711,36.8058,3.5099],[5.8628,36.8141,1.8246],[5.8168,36.8066,1.9419],[5.8101,36.7969,6.799],[5.8171,36.7957,98.2838],[5.824,36.7874,36.1725],[5.8279,36.7774,24.6134],[5.8218,36.7657,34.873],[5.828,36.753,59.2452],[5.8288,36.7463,92.4905],[5.8338,36.7418,126.2442],[5.8297,36.7293,203.5509],[5.8345,36.728,251.2017],[5.8406,36.7289,439.2812],[5.8454,36.7257,524.9376],[5.8476,36.72,434.2169],[5.8426,36.7102,580.4604],[5.8453,36.6985,359.7715],[5.851,36.6984,211.0725],[5.8554,36.7016,219.9584],[5.8608,36.7123,114.7475],[5.8659,36.7132,180.6131],[5.8696,36.7182,176.0003],[5.8666,36.723,56.2785],[5.874,36.7269,64.1276],[5.8766,36.7328,68.1022]]]]}}