{"type":"Feature","properties":{"GID_2":"DZA.28.60_1","GID_0":"DZA","country":"Algeria","GID_1":"DZA.28_1","province":"Médéa","NL_NAME_1":"ولايةالمدية","county":"Tafraout","VARNAME_2":"NA","NL_NAME_2":"NA","TYPE_2":"Commune","ENGTYPE_2":"Commune","CC_2":"2623","HASC_2":"DZ.MD.TF","name":"Tafraout.county"},
"geometry":{"type": "MultiPolygon","coordinates": [[[[3.4042,36.0441,938.3703],[3.3745,36.0327,1018.6986],[3.3704,36.029,1097.3116],[3.3691,36.0235,1258.4777],[3.3629,36.0209,1201.5532],[3.3447,36.0253,1242.2345],[3.3335,36.0232,1045.2878],[3.3352,36.0289,1082.2727],[3.3232,36.0356,1209.4724],[3.2958,36.0424,1167.8572],[3.2897,36.041,1251.4457],[3.2846,36.0387,1215.9167],[3.288,36.0288,1067.8873],[3.2858,36.0228,1004.9681],[3.2863,36.018,964.3779],[3.2783,36.007,911.4529],[3.2783,36.001,896.2951],[3.2706,35.9938,858.9099],[3.2706,35.9886,895.0394],[3.2765,35.9771,922.3502],[3.2867,35.9702,996.611],[3.293,35.9586,1170.2952],[3.2974,35.9537,1326.7332],[3.3043,35.9516,1416.8145],[3.3314,35.9475,1220.046],[3.3585,35.9479,1249.9702],[3.3788,35.9572,1062.0452],[3.3956,35.9583,955.4694],[3.4002,35.96,949.3359],[3.414,35.9755,888.3357],[3.4146,35.9804,908.6691],[3.4097,35.991,970.3137],[3.4095,36.0037,1038.1763],[3.4128,36.0079,1015.7901],[3.4183,36.0259,929.0055],[3.4249,36.0327,1042.8104],[3.4042,36.0441,938.3703]]]]}}