{"type": "Feature","bbox": [4.1308,36.4939,4.2031,36.5692],"geometry": {"type": "MultiPolygon","coordinates": [[[[4.1631,36.4939,787.2946],[4.1764,36.4945,596.0776],[4.1918,36.502,494.5844],[4.1975,36.5131,411.126],[4.2026,36.5145,417.6479],[4.2031,36.5217,360.1042],[4.199,36.5262,427.7029],[4.1988,36.5438,301.5543],[4.1944,36.5552,314.6328],[4.1846,36.5511,446.7971],[4.1746,36.5543,440.599],[4.1646,36.5614,455.6639],[4.1605,36.5692,466.4277],[4.1495,36.5625,345.086],[4.1512,36.5575,448.8785],[4.1472,36.5443,367.6234],[4.1412,36.5404,368.5843],[4.1362,36.5411,302.3924],[4.1316,36.5448,258.5667],[4.1308,36.5389,272.3784],[4.1349,36.533,298.9398],[4.1359,36.5192,448.8828],[4.1406,36.5146,669.6913],[4.1368,36.5115,695.0932],[4.1413,36.5002,1420.5048],[4.1506,36.5022,1495.2542],[4.1606,36.4984,975.4957],[4.1631,36.4939,787.2946]]]]}
,"properties": {"GID_2": "DZA.47.15_1","GID_0": "DZA","country": "Algeria","GID_1": "DZA.47_1","province": "TiziOuzou","NL_NAME_1": "ولايةغليزان","county": "AitToudert","VARNAME_2": "NA","NL_NAME_2": "NA","TYPE_2": "Commune","ENGTYPE_2": "Commune","CC_2": "1567","HASC_2": "DZ.TO.AT","name": "Ait_Toudert.county","area_km2": 34.62016,"hist_schema_id": "Elevation0-9000","hist_area_km2": {"250": 0.10219,"275": 0.45987,"300": 1.22638,"325": 1.7034,"350": 2.02712,"375": 2.50412,"400": 2.62342,"425": 2.26571,"450": 2.26576,"475": 2.21468,"500": 1.56737,"525": 1.03927,"550": 1.24373,"575": 0.74972,"600": 0.76677,"625": 0.80085,"650": 0.7157,"675": 0.66457,"700": 0.69867,"725": 0.68162,"750": 0.39194,"775": 0.64757,"800": 0.44306,"825": 0.52828,"850": 0.44307,"875": 0.42604,"900": 0.40898,"925": 0.42604,"950": 0.35787,"975": 0.25562,"1000": 0.37492,"1025": 0.34083,"1050": 0.30675,"1075": 0.34084,"1100": 0.28971,"1125": 0.25563,"1150": 0.15338,"1175": 0.22154,"1200": 0.11929,"1225": 0.13634,"1250": 0.13634,"1275": 0.11929,"1300": 0.18746,"1325": 0.13634,"1350": 0.13634,"1375": 0.18747,"1400": 0.13634,"1425": 0.13634,"1450": 0.06817,"1475": 0.10226,"1500": 0.08521}}}