{"type":"Feature","properties":{"GID_2":"DZA.48.39_1","GID_0":"DZA","country":"Algeria","GID_1":"DZA.48_1","province":"Tlemcen","NL_NAME_1":"تلمسان","county":"OuledRiyah","VARNAME_2":"OuledRiah","NL_NAME_2":"NA","TYPE_2":"Commune","ENGTYPE_2":"Commune","CC_2":"1346","HASC_2":"DZ.TL.OR","name":"Ouled_Riyah.county"},
"geometry":{"type": "MultiPolygon","coordinates": [[[[-1.5925,34.9448,208.8507],[-1.5848,34.9455,276.925],[-1.5803,34.9421,290.3673],[-1.5836,34.9366,304.8674],[-1.5835,34.9296,314.3912],[-1.5786,34.9298,324.275],[-1.5747,34.9323,342.4371],[-1.5704,34.9309,342.5675],[-1.5687,34.9194,365.947],[-1.5635,34.9068,413.6672],[-1.5513,34.9117,385.4021],[-1.5487,34.9071,399.2892],[-1.5452,34.9045,443.9948],[-1.5377,34.9056,443.7367],[-1.526,34.9029,446.498],[-1.4904,34.9025,354.1941],[-1.4704,34.8952,420.7522],[-1.4664,34.8906,369.566],[-1.4554,34.8987,440.2651],[-1.453,34.9043,436.3584],[-1.4503,34.9352,334.7021],[-1.4568,34.9366,383.1817],[-1.4742,34.9478,346.3014],[-1.4866,34.9483,269.2039],[-1.4887,34.9525,243.0327],[-1.4881,34.9731,211.1983],[-1.4929,34.9864,185.5051],[-1.5,34.9874,258.0328],[-1.506,34.9905,239.6372],[-1.5114,34.9979,235.621],[-1.5156,35.0098,157.4784],[-1.52,35.0098,167.9035],[-1.5317,34.9899,218.158],[-1.5634,34.9702,295.9789],[-1.5694,34.9643,293.8486],[-1.5757,34.963,242.9057],[-1.5948,34.9629,201.0676],[-1.6042,34.9602,208.2492],[-1.601,34.9561,207.2586],[-1.5948,34.9523,211.5663],[-1.5925,34.9448,208.8507]]]]}}