{"type":"Feature","properties":{"GID_2":"DZA.35.10_1","GID_0":"DZA","country":"Algeria","GID_1":"DZA.35_1","province":"Relizane","NL_NAME_1":"ولايةغليزان","county":"ElGuettar","VARNAME_2":"NA","NL_NAME_2":"NA","TYPE_2":"Commune","ENGTYPE_2":"Commune","CC_2":"4815","HASC_2":"DZ.RE.EG","name":"El_Guettar.county"},
"geometry":{"type": "MultiPolygon","coordinates": [[[[0.7962,36.0485,472.9017],[0.8041,36.0512,467.5444],[0.8178,36.0455,215.6289],[0.8232,36.0489,261.2126],[0.8284,36.0478,207.9585],[0.8326,36.0488,225.4004],[0.8355,36.0548,251.8852],[0.8334,36.0609,432.0543],[0.8376,36.0659,506.7386],[0.8479,36.0643,337.9597],[0.8564,36.0565,199.4242],[0.8749,36.0549,166.4188],[0.8759,36.0493,153.7797],[0.8806,36.0528,192.8028],[0.8854,36.0601,200.2988],[0.8882,36.0764,284.8892],[0.8878,36.0817,309.8798],[0.8777,36.0844,343.834],[0.8719,36.0961,547.1812],[0.8679,36.0976,493.2944],[0.8722,36.1022,497.845],[0.8677,36.1028,479.2507],[0.8573,36.1082,473.4619],[0.8498,36.1159,503.6789],[0.8491,36.1206,520.2462],[0.8423,36.1201,520.9773],[0.8308,36.1119,535.8828],[0.8284,36.1077,562.9934],[0.8228,36.1036,564.7257],[0.8167,36.1005,571.7075],[0.8077,36.1013,463.0117],[0.7904,36.096,386.7856],[0.7698,36.0833,325.7654],[0.7816,36.0751,403.6032],[0.7819,36.0649,517.123],[0.7773,36.061,501.3582],[0.7747,36.0561,414.25],[0.7769,36.0499,476.5835],[0.7828,36.0433,369.9043],[0.7881,36.0471,339.4841],[0.7962,36.0485,472.9017]]],
[[[0.7638,36.0801,285.6905],[0.7698,36.0833,325.7654],[0.7634,36.0851,283.5978],[0.7587,36.0816,281.02],[0.7638,36.0801,285.6905]]]]}}