{"type":"Feature","properties":{"GID_2":"DZA.18.8_1","GID_0":"DZA","country":"Algeria","GID_1":"DZA.18_1","province":"ElOued","NL_NAME_1":"ولايةالوادي","county":"ElOued","VARNAME_2":"al-Wād","NL_NAME_2":"NA","TYPE_2":"Chef-Lieu-Wilaya","ENGTYPE_2":"Chef-Lieu-Wilaya","CC_2":"3901","HASC_2":"DZ.EO.EO","name":"El_Oued.county"},
"geometry":{"type": "MultiPolygon","coordinates": [[[[6.9412,33.357,80.1343],[6.8946,33.4374,66.6128],[6.8738,33.4125,78.0043],[6.8086,33.3701,78.9135],[6.8417,33.2905,100.3975],[6.8535,33.3331,86.6569],[6.8919,33.3459,78.7489],[6.8951,33.3579,93.5673],[6.9412,33.357,80.1343]]]]}}