{"type":"Feature","properties":{"GID_2":"DZA.21.15_1","GID_0":"DZA","country":"Algeria","GID_1":"DZA.21_1","province":"Guelma","NL_NAME_1":"ولايةقالمة","county":"Dahouara","VARNAME_2":"NA","NL_NAME_2":"NA","TYPE_2":"Commune","ENGTYPE_2":"Commune","CC_2":"2409","HASC_2":"DZ.GL.DA","name":"Dahouara.county"},
"geometry":{"type": "MultiPolygon","coordinates": [[[[7.7213,36.3722,369.7063],[7.7132,36.3726,284.9544],[7.7091,36.3578,311.7089],[7.7052,36.3531,306.4177],[7.6926,36.3463,325.111],[7.6825,36.3447,341.0974],[7.6712,36.3357,399.4778],[7.6625,36.3222,511.2149],[7.6621,36.3152,532.1214],[7.6672,36.307,546.3755],[7.6674,36.2965,524.1753],[7.6612,36.2828,569.8807],[7.6649,36.2625,674.2328],[7.6753,36.2597,824.5875],[7.6792,36.2568,849.4876],[7.6835,36.2603,1042.0541],[7.6952,36.2598,1179.2345],[7.7154,36.27,1098.4213],[7.7257999999999996,36.2797,979.1128],[7.7263,36.2861,886.8623],[7.724,36.2899,955.5208],[7.7389,36.3083,1039.6028],[7.7525,36.335,818.4319],[7.7546,36.3582,469.6232],[7.7472,36.3622,513.3687],[7.7362,36.3713,532.174],[7.7213,36.3722,369.7063]]]]}}