{"type":"Feature","properties":{"GID_2":"DZA.30.23_1","GID_0":"DZA","country":"Algeria","GID_1":"DZA.30_1","province":"Mostaganem","NL_NAME_1":"ولايةمستغانم","county":"Sayada","VARNAME_2":"NA","NL_NAME_2":"NA","TYPE_2":"Commune","ENGTYPE_2":"Commune","CC_2":"2702","HASC_2":"DZ.MG.SY","name":"Sayada.county"},
"geometry":{"type": "MultiPolygon","coordinates": [[[[0.1483,35.8772,196.5748],[0.1603,35.8799,193.3352],[0.1724,35.8774,186.9196],[0.175,35.8837,196.4654],[0.182,35.8849,192.209],[0.1924,35.8898,188.1411],[0.1962,35.8875,187.938],[0.2039,35.889,188.5737],[0.2089,35.8996,188.7523],[0.1891,35.9031,189.5948],[0.1723,35.9026,184.4861],[0.1607,35.9046,203.2406],[0.1583,35.91,206.561],[0.1507,35.9133,217.9297],[0.1563,35.926,207.1426],[0.1545,35.9301,189.4305],[0.1579,35.9423,206.6322],[0.1568,35.947,195.1478],[0.159,35.9514,192.9111],[0.1552,35.9542,179.2893],[0.1453,35.9556,159.4128],[0.1489,35.9659,160.7945],[0.1453,35.978,182.2924],[0.1492,35.9816,192.9163],[0.1513,35.9865,231.8863],[0.1447,35.9918,355.6024],[0.1215,35.9782,262.6016],[0.116,35.9678,227.4954],[0.1152,35.9628,195.3642],[0.1031,35.9481,139.7775],[0.1038,35.9438,162.1699],[0.1069,35.9407,175.1338],[0.1149,35.9408,144.9429],[0.12,35.9369,148.0704],[0.1216,35.9314,153.1994],[0.1202,35.9237,140.9284],[0.1137,35.9172,140.6699],[0.1152,35.9118,136.6147],[0.1429,35.8806,200.2781],[0.1483,35.8772,196.5748]]]]}}