{"type":"Feature","properties":{"GID_2":"DZA.27.41_1","GID_0":"DZA","country":"Algeria","GID_1":"DZA.27_1","province":"Mascara","NL_NAME_1":"ولايةمعسكر","county":"SidiBoussaid","VARNAME_2":"NA","NL_NAME_2":"NA","TYPE_2":"Commune","ENGTYPE_2":"Commune","CC_2":"2916","HASC_2":"DZ.MC.SB","name":"Sidi_Boussaid.county"},
"geometry":{"type": "MultiPolygon","coordinates": [[[[0.252,35.2462,664.2559],[0.2539,35.241,676.5117],[0.2679,35.2368,770.7791],[0.2737,35.2329,822.6515],[0.2789,35.2323,759.185],[0.2845,35.2277,668.056],[0.31,35.2243,781.5788],[0.3161,35.2246,770.539],[0.3243,35.2287,793.1979],[0.3468,35.225,852.812],[0.3528,35.2275,877.3495],[0.3553,35.2341,987.3934],[0.3605,35.2383,981.6085],[0.3616,35.2436,956.2849],[0.3525,35.2538,886.1852],[0.3519,35.2585,879.974],[0.3487,35.2629,862.2465],[0.3438,35.2665,853.3248],[0.337,35.276,835.9298],[0.3297,35.2772,823.1273],[0.3304,35.2823,816.8027],[0.3284,35.2863,788.4412],[0.3157,35.296,751.7779],[0.317,35.3013,720.0195],[0.3113,35.3038,710.517],[0.3058,35.3089,642.0628],[0.3144,35.3175,589.1398],[0.3105,35.3215,556.3624],[0.3027,35.3218,525.9891],[0.2736,35.3151,509.7302],[0.2586,35.3195,487.7349],[0.239,35.312,501.0262],[0.2286,35.2868,545.5914],[0.2381,35.2852,582.6203],[0.2621,35.2751,705.6345],[0.2633,35.2688,726.2026],[0.2609,35.2628,673.9847],[0.2565,35.2594,646.6791],[0.2571,35.2478,710.9182],[0.252,35.2462,664.2559]]]]}}