{"type": "Feature","bbox": [4.3526,36.2464,4.4861,36.3987],"geometry": {"type": "MultiPolygon","coordinates": [[[[4.4667,36.3987,206.0233],[4.4382,36.3783,222.1023],[4.4316,36.3752,225.1028],[4.4064,36.3671,242.5966],[4.3949,36.3647,245.6553],[4.3875,36.365,251.9495],[4.3686,36.3549,260.6886],[4.3552,36.3539,267.2002],[4.3526,36.3444,279.8648],[4.3567,36.3323,286.754],[4.3607,36.3266,289.143],[4.3668,36.3243,306.1521],[4.3673,36.3181,301.9587],[4.3741,36.3163,330.8364],[4.3745,36.3095,335.5785],[4.3796,36.3074,320.7297],[4.3714,36.2966,334.2227],[4.3756,36.2869,341.0627],[4.3721,36.2795,346.501],[4.375,36.2751,375.4514],[4.3785,36.2568,373.9478],[4.3814,36.2501,376.003],[4.3876,36.2464,376.3163],[4.3923,36.2472,423.3631],[4.4014,36.2526,407.758],[4.4129,36.251,432.9627],[4.4322,36.2618,529.5779],[4.4329,36.2752,769.0565],[4.4438,36.2808,746.6944],[4.4387,36.2876,722.6704],[4.4423,36.2951,587.5912],[4.4546,36.2996,887.3506],[4.458,36.3052,1027.3458],[4.4544,36.3097,1010.9618],[4.4548,36.3189,780.4983],[4.4576,36.3234,997.9579],[4.447,36.3372,693.1008],[4.4577,36.3468,525.9312],[4.4805,36.3493,630.6769],[4.4841,36.3553,531.8003],[4.4861,36.3628,461.31],[4.4824,36.3689,348.9633],[4.4676,36.3798,254.97],[4.4684,36.3848,238.2478],[4.4644,36.3885,218.4686],[4.4699,36.3939,209.0552],[4.4667,36.3987,206.0233]]]]}
,"properties": {"GID_2": "DZA.8.15_1","GID_0": "DZA","country": "Algeria","GID_1": "DZA.8_1","province": "Béjaïa","NL_NAME_1": "بجاية","county": "Boudjellil","VARNAME_2": "NA","NL_NAME_2": "NA","TYPE_2": "Commune","ENGTYPE_2": "Commune","CC_2": "652","HASC_2": "DZ.BJ.BL","name": "Boudjellil.county","area_km2": 102.27301,"hist_schema_id": "Elevation0-9000","hist_area_km2": {"200": 0.4096,"225": 3.34571,"250": 5.97551,"275": 5.46378,"300": 5.65228,"325": 6.88277,"350": 7.03712,"375": 6.42307,"400": 6.62907,"425": 7.5354,"450": 6.83481,"475": 6.11686,"500": 4.22029,"525": 3.58796,"550": 3.45145,"575": 3.22956,"600": 2.78499,"625": 2.78498,"650": 2.81907,"675": 2.1698,"700": 2.01609,"725": 1.69158,"750": 1.38404,"775": 0.76885,"800": 0.52971,"825": 0.49551,"850": 0.34173,"875": 0.34169,"900": 0.30753,"925": 0.20502,"950": 0.20503,"975": 0.15377,"1000": 0.23919,"1025": 0.1196,"1050": 0.10251,"1075": 0.01709}}}