{"type":"Feature","properties":{"GID_2":"DZA.10.8_1","GID_0":"DZA","country":"Algeria","GID_1":"DZA.10_1","province":"Blida","NL_NAME_1":"البليدة","county":"Bougara","VARNAME_2":"Bouguerra|Bu-qara","NL_NAME_2":"NA","TYPE_2":"Commune","ENGTYPE_2":"Commune","CC_2":"922","HASC_2":"DZ.BL.BG","name":"Bougara.county"},
"geometry":{"type": "MultiPolygon","coordinates": [[[[3.0617,36.582,62.8356],[3.0609,36.5763,65.2484],[3.0629,36.5654,75.4521],[3.06,36.5493,87.1707],[3.0613,36.5437,93.4708],[3.0694,36.5227,116.1176],[3.0759,36.5227,128.8395],[3.0844,36.5158,222.6677],[3.0775,36.5073,178.6333],[3.0836,36.4836,697.0626],[3.0832,36.4788,814.407],[3.0764,36.4788,724.9586],[3.0793,36.4724,858.9521],[3.0796,36.4655,1142.9634],[3.0743,36.4569,1074.6133],[3.0721,36.4365,614.4757],[3.0693,36.4311,491.0104],[3.0655,36.4281,367.1858],[3.0674,36.4124,770.3264],[3.0666,36.4049,781.2215],[3.0767,36.4098,602.5718],[3.0835,36.4152,462.7534],[3.0861,36.4202,455.439],[3.1018,36.4246,465.9475],[3.117,36.4198,551.7319],[3.1226,36.4156,640.2742],[3.1305,36.4011,717.8066],[3.1356,36.3986,684.7175],[3.1454,36.4067,962.9531],[3.1627,36.4109,1060.1921],[3.1704,36.4242,1223.6887],[3.1687,36.4293,1156.1361],[3.1645,36.4336,1231.2151],[3.1511,36.4332,1161.5298],[3.1416,36.4384,1118.7759],[3.1447,36.4512,744.5654],[3.1444,36.4564,695.395],[3.1369,36.4653,542.9222],[3.1353,36.4756,572.2783],[3.13,36.4795,641.9547],[3.1174,36.4842,867.8043],[3.1142,36.4871,921.5894],[3.1095,36.502,575.7369],[3.1104,36.5106,470.5605],[3.1064,36.5191,278.0074],[3.1082,36.5305,164.9562],[3.1069,36.5356,149.8164],[3.0978,36.5507,113.5285],[3.0973,36.5628,89.2945],[3.0914,36.5757,71.5716],[3.0909,36.5914,57.7811],[3.0693,36.5834,61.1285],[3.0617,36.582,62.8356]]]]}}