{"type":"Feature","properties":{"GID_2":"DZA.11.25_1","GID_0":"DZA","country":"Algeria","GID_1":"DZA.11_1","province":"BordjBouArréridj","NL_NAME_1":"ولايةبرجبوعريريج","county":"OuledDahmane","VARNAME_2":"NA","NL_NAME_2":"NA","TYPE_2":"Commune","ENGTYPE_2":"Commune","CC_2":"3418","HASC_2":"DZ.BB.OD","name":"Ouled_Dahmane.county"},
"geometry":{"type": "MultiPolygon","coordinates": [[[[4.8392,36.231,892.3936],[4.8345,36.2294,869.4332],[4.822,36.2325,689.5704],[4.8244,36.2369,705.3094],[4.8282,36.2396,669.913],[4.8269,36.2437,670.3071],[4.8202,36.2448,810.3162],[4.8152,36.2477,896.7097],[4.8003,36.2432,996.6885],[4.7955,36.2433,1017.8104],[4.7852,36.2472,899.3644],[4.7822,36.2505,788.8793],[4.7827,36.2598,657.9644],[4.7805,36.2646,608.3564],[4.7763,36.2672,630.0505],[4.7665,36.2686,584.9213],[4.7588,36.2747,597.4738],[4.7517,36.2663,586.2084],[4.7611,36.2552,890.8239],[4.7494,36.2438,731.6596],[4.7441,36.2428,677.9035],[4.7428,36.2384,750.7505],[4.7385,36.2373,742.3257],[4.7346,36.2322,830.6268],[4.7348,36.2217,1089.3257],[4.7163,36.2163,935.568],[4.7222,36.2131,1017.9039],[4.7326,36.2109,1010.4639],[4.7461,36.2096,872.1458],[4.7523,36.2107,817.2599],[4.7611,36.2004,923.8367],[4.7709,36.1963,951.6122],[4.7735,36.192,1002.7236],[4.788,36.1906,887.0569],[4.798,36.193,844.0222],[4.8031,36.2014,784.822],[4.8071,36.2051,772.5621],[4.8221,36.2059,743.4046],[4.8271,36.208,743.6476],[4.8258,36.2135,737.4287],[4.8371,36.2203,829.7883],[4.8506,36.2228,951.0303],[4.85,36.2286,922.0757],[4.845,36.2312,900.4537],[4.8392,36.231,892.3936]]]]}}