{"type":"Feature","properties":{"GID_2":"DZA.38.1_1","GID_0":"DZA","country":"Algeria","GID_1":"DZA.38_1","province":"SidiBelAbbès","NL_NAME_1":"ولايةسيديبلعباس","county":"AinAdden","VARNAME_2":"NA","NL_NAME_2":"NA","TYPE_2":"Commune","ENGTYPE_2":"Commune","CC_2":"2230","HASC_2":"DZ.SB.AA","name":"Ain_Adden.county"},
"geometry":{"type": "MultiPolygon","coordinates": [[[[-0.1704,35.3431,670.3095],[-0.1761,35.3503,670.8335],[-0.2037,35.3503,556.082],[-0.2157,35.3547,441.9001],[-0.2341,35.3528,381.621],[-0.2433,35.3573,343.3688],[-0.2514,35.3641,313.7424],[-0.2847,35.3707,227.6931],[-0.2898,35.3692,222.0988],[-0.2954,35.3716,231.7373],[-0.3013,35.3705,229.7077],[-0.3137,35.3663,236.2972],[-0.3174,35.3633,240.8755],[-0.315,35.3596,245.3495],[-0.3084,35.359,277.8299],[-0.3022,35.3548,327.5302],[-0.3025,35.3474,331.5141],[-0.3001,35.3362,368.0462],[-0.3044,35.3357,328.2799],[-0.3049,35.3292,378.7535],[-0.3021,35.3176,384.3172],[-0.2935,35.3076,447.5969],[-0.2876,35.3037,481.4707],[-0.2821,35.2941,545.7026],[-0.2712,35.2921,617.1401],[-0.2675,35.2863,598.5825],[-0.2579,35.2923,572.6753],[-0.2468,35.2909,636.5571],[-0.2433,35.2873,671.8298],[-0.2309,35.2871,695.174],[-0.2096,35.2836,723.7152],[-0.1946,35.2867,693.0325],[-0.1841,35.2969,681.3174],[-0.1784,35.3001,688.3833],[-0.177,35.3122,672.9373],[-0.1735,35.32,687.4926],[-0.1629,35.3301,733.4076],[-0.1631,35.3369,791.0777],[-0.1694,35.3384,752.9398],[-0.1704,35.3431,670.3095]]]]}}