{"type": "Feature","bbox": [-1.8466,34.4938,-1.6275,34.7766],"geometry": {"type": "MultiPolygon","coordinates": [[[[-1.6752,34.7462,488.7979],[-1.6815,34.7495,518.21],[-1.6856,34.7551,543.9786],[-1.6868,34.7608,520.7982],[-1.6999,34.7766,486.9921],[-1.726,34.7704,463.0477],[-1.7253,34.7641,479.9049],[-1.7266,34.7595,481.2889],[-1.7331,34.7581,493.4442],[-1.7567,34.7597,496.5569],[-1.7624,34.7573,488.7059],[-1.7391,34.745,515.9545],[-1.7685,34.7258,520.9376],[-1.7709,34.7192,523.7251],[-1.7725,34.7046,548.4094],[-1.7762,34.6971,567.1217],[-1.7902,34.6855,585.4692],[-1.8012,34.6705,603.1482],[-1.8207,34.6495,595.2418],[-1.8333,34.6302,657.5898],[-1.8414,34.6244,662.2115],[-1.8466,34.6177,697.707],[-1.8359,34.6179,707.5096],[-1.831,34.6139,738.9424],[-1.814,34.6058,784.8235],[-1.8093,34.5966,827.6244],[-1.8027,34.5885,896.6101],[-1.7978,34.5861,954.8519],[-1.7951,34.5799,1120.3427],[-1.7876,34.5718,1472.4709],[-1.7866,34.5626,1557.2083],[-1.7748,34.5508,1497.3177],[-1.7655,34.545,1477.4276],[-1.761,34.5316,1451.1697],[-1.7518,34.5282,1452.6892],[-1.7507,34.52,1488.6848],[-1.7443,34.5147,1513.6433],[-1.7323,34.5074,1506.6295],[-1.7213,34.5075,1484.387],[-1.7086,34.5006,1464.9392],[-1.6865,34.4938,1503.6233],[-1.6763,34.5049,1423.6324],[-1.6655,34.509,1425.6252],[-1.6603,34.513,1436.6952],[-1.6563,34.5181,1424.5011],[-1.648,34.545,1298.2402],[-1.6385,34.5514,1241.6692],[-1.6405,34.5675,1184.134],[-1.645,34.5839,1293.4695],[-1.6345,34.5936,1303.8347],[-1.6318,34.5998,1253.2629],[-1.6369,34.6048,1265.038],[-1.6376,34.6143,1311.5436],[-1.6342,34.6196,1349.9299],[-1.6283,34.622,1368.1853],[-1.6275,34.6299,1148.4689],[-1.6296,34.6361,1112.8761],[-1.6338,34.6418,1157.0824],[-1.6291,34.6455,1147.3201],[-1.6286,34.6508,1181.979],[-1.6529,34.6567,871.646],[-1.6664,34.6664,865.6725],[-1.6744,34.6744,795.5147],[-1.676,34.681,801.1094],[-1.6695,34.6841,721.9796],[-1.6779,34.702,647.9752],[-1.6824,34.7051,668.9992],[-1.6895,34.7141,585.7102],[-1.6907,34.7198,651.5399],[-1.6867,34.7288,579.243],[-1.6802,34.7362,529.4509],[-1.6752,34.7462,488.7979]]]]}
,"properties": {"GID_2": "DZA.48.12_1","GID_0": "DZA","country": "Algeria","GID_1": "DZA.48_1","province": "Tlemcen","NL_NAME_1": "تلمسان","county": "BeniBoussaid","VARNAME_2": "NA","NL_NAME_2": "NA","TYPE_2": "Commune","ENGTYPE_2": "Commune","CC_2": "1338","HASC_2": "DZ.TL.BB","name": "Beni_Boussaid.county","area_km2": 343.5459,"hist_schema_id": "Elevation0-9000","hist_area_km2": {"475": 2.4558,"500": 6.7239,"525": 12.7009,"550": 12.4249,"575": 10.1262,"600": 14.1037,"625": 14.3496,"650": 12.2064,"675": 12.7661,"700": 14.3888,"725": 13.7965,"750": 12.1582,"775": 10.92,"800": 10.1878,"825": 8.1296,"850": 7.345,"875": 5.9146,"900": 5.1296,"925": 4.7807,"950": 4.0828,"975": 3.2106,"1000": 2.7744,"1025": 2.9665,"1050": 2.6,"1075": 2.949,"1100": 2.7397,"1125": 3.1237,"1150": 2.7574,"1175": 3.3858,"1200": 3.5257,"1225": 4.1542,"1250": 5.1671,"1275": 6.6334,"1300": 9.7406,"1325": 11.3128,"1350": 9.4108,"1375": 10.1283,"1400": 10.8971,"1425": 13.7454,"1450": 9.92,"1475": 8.1033,"1500": 7.3867,"1525": 7.6306,"1550": 4.3827,"1575": 0.2095}}}