{"type":"Feature","properties":{"GID_2":"DZA.31.2_1","GID_0":"DZA","country":"Algeria","GID_1":"DZA.31_1","province":"Naâma","NL_NAME_1":"ولايةالنعامة","county":"AinSafra","VARNAME_2":"AinSefra|`AynSafrā","NL_NAME_2":"NA","TYPE_2":"Commune","ENGTYPE_2":"Commune","CC_2":"4503","HASC_2":"DZ.NA.AS","name":"Ain_Safra.county"},
"geometry":{"type": "MultiPolygon","coordinates": [[[[-0.3867,33.0175,1385.0806],[-0.434,33.0043,1363.5135],[-0.4435,33.0039,1343.0131],[-0.4614,33.0083,1319.2979],[-0.4786,33.0037,1308.6083],[-0.4998,33.0109,1281.7405],[-0.5046,33.0149,1276.2458],[-0.5256,33.0139,1266.0964],[-0.5824,33.018,1259.1849],[-0.5947,33.019,1269.4994],[-0.609,33.0232,1294.3479],[-0.6701,33.0292,1424.4329],[-0.7018,33.0131,1306.2361],[-0.7125,33.0097,1298.4562],[-0.721,33.0013,1297.2854],[-0.7703,32.9337,1341.8068],[-0.7679,32.8933,1371.085],[-0.7689,32.8822,1387.6497],[-0.7481,32.8498,2087.7983],[-0.7232,32.7441,1204.2325],[-0.7306,32.7184,1168.3708],[-0.7222,32.6887,1139.6632],[-0.7228,32.6621,1129.8171],[-0.7248,32.6556,1130.9004],[-0.7331,32.6477,1133.782],[-0.7361,32.6387,1138.1343],[-0.7272,32.6229,1146.4133],[-0.7229,32.6189,1148.2081],[-0.7207,32.6126,1152.5063],[-0.7067,32.597,1179.3851],[-0.7012,32.5878,1195.8108],[-0.698,32.5763,1272.3696],[-0.6936,32.5718,1378.8964],[-0.6866,32.5721,1369.6167],[-0.6156,32.6268,1953.4958],[-0.61,32.6296,2001.0878],[-0.6027,32.6384,1858.006],[-0.5917,32.6442,1874.4298],[-0.5767,32.672,1779.5007],[-0.5572,32.6847,1998.1232],[-0.531,32.6939,1969.0647],[-0.5045,32.6925,1474.707],[-0.4991,32.6943,1392.0986],[-0.4937,32.6988,1374.4197],[-0.4948,32.71,1276.1779],[-0.4895,32.7166,1214.735],[-0.4882,32.7228,1158.7698],[-0.4919,32.7398,1069.0491],[-0.4878,32.7695,1052.1458],[-0.4955,32.8285,1272.1519],[-0.4942,32.8436,1523.099],[-0.4971,32.8529,1796.9004],[-0.4963,32.8627,2111.2798],[-0.4669,32.8905,2056.8137],[-0.455,32.9343,1571.7125],[-0.3867,33.0175,1385.0806]]]]}}