{"type": "Feature","bbox": [7.7281,35.8784,7.9952,36.069],"geometry": {"type": "MultiPolygon","coordinates": [[[[7.927,36.069,955.0271],[7.8849,36.0565,963.6357],[7.8655,36.0382,796.6895],[7.846,36.0281,780.3843],[7.807,36.0178,773.6132],[7.7869,36.0158,783.3811],[7.7777,36.013,791.4829],[7.7281,36.0049,856.2515],[7.7483,35.9841,770.6205],[7.7743,35.9447,716.1099],[7.8004,35.9104,670.1826],[7.8049,35.9017,676.3333],[7.8279,35.8893,745.8349],[7.8308,35.8949,758.9421],[7.8412,35.8912,740.1384],[7.8647,35.8784,695.867],[7.8844,35.8938,674.9578],[7.8894,35.89,658.2307],[7.896,35.888,643.386],[7.9072,35.8884,626.7134],[7.9103,35.9003,622.8748],[7.9202,35.9097,608.6142],[7.9314,35.913,609.9341],[7.9386,35.9227,605.6241],[7.9449,35.9261,623.266],[7.9456,35.9328,596.7206],[7.952,35.9301,588.8154],[7.9799,35.9327,575.3544],[7.9834,35.9366,575.1246],[7.9807,35.9407,571.4877],[7.9799,35.9473,568.9543],[7.9869,35.9516,561.5155],[7.988,35.956,560.8979],[7.9939,35.9583,558.9229],[7.9952,35.9627,562.8372],[7.9906,35.9684,582.9916],[7.9707,35.9682,601.4877],[7.9665,35.9695,592.3025],[7.9483,35.982,612.3215],[7.9407,35.9834,621.1251],[7.9356,35.9931,636.6025],[7.9261,35.9975,654.5087],[7.9233,36.0013,660.2422],[7.9224,36.0058,674.0441],[7.9279,36.0187,711.0801],[7.9225,36.0308,741.025],[7.9347,36.0457,840.6945],[7.9337,36.0545,965.9099],[7.9302,36.0582,947.6824],[7.927,36.069,955.0271]]]]}
,"properties": {"GID_2": "DZA.40.12_1","GID_0": "DZA","country": "Algeria","GID_1": "DZA.40_1","province": "SoukAhras","NL_NAME_1": "ولايةسوقأهراس","county": "OuedKebrit","VARNAME_2": "OuedKeberit","NL_NAME_2": "NA","TYPE_2": "Commune","ENGTYPE_2": "Commune","CC_2": "4124","HASC_2": "DZ.SA.OK","name": "Oued_Kebrit.county","area_km2": 256.1122,"hist_schema_id": "Elevation0-9000","hist_area_km2": {"550": 0.5149,"575": 4.8917,"600": 11.6208,"625": 21.2168,"650": 31.2044,"675": 46.8721,"700": 41.9761,"725": 36.2229,"750": 26.4223,"775": 13.344,"800": 7.254,"825": 3.7382,"850": 2.1432,"875": 1.4402,"900": 1.1315,"925": 1.0285,"950": 0.9256,"975": 0.8056,"1000": 0.857,"1025": 1.1484,"1050": 1.2341,"1075": 0.12}}}