{"type": "Feature","bbox": [3.2602,36.7524,3.3407,36.8048],"geometry": {"type": "MultiPolygon","coordinates": [[[[3.2737,36.778,53.7488],[3.2896,36.7708,31.6164],[3.2918,36.7568,13.9524],[3.3272,36.7555,13.957],[3.3318,36.7524,14.0627],[3.3363,36.7627,2.2605],[3.3337,36.7733,1.0],[3.335,36.779,2.1131],[3.3407,36.7831,2.0936],[3.3202,36.787,18.123],[3.3109,36.79,6.9541],[3.3072,36.7932,0.0],[3.2912,36.7951,15.2712],[3.2804,36.8003,11.2094],[3.2612,36.8048,26.5773],[3.2602,36.7987,33.465],[3.2613,36.7941,33.6994],[3.2693,36.7914,33.5119],[3.2737,36.778,53.7488]]]]}
,"properties": {"GID_2": "DZA.4.12_1","GID_0": "DZA","country": "Algeria","GID_1": "DZA.4_1","province": "Alger","NL_NAME_1": "ولايةالجزائر","county": "Haraoua","VARNAME_2": "NA","NL_NAME_2": "NA","TYPE_2": "Commune-Cotiere","ENGTYPE_2": "Commune-Cotiere","CC_2": "1641","HASC_2": "DZ.AL.HA","name": "Haraoua.county","area_km2": 20.97302,"hist_schema_id": "Elevation0-9000","hist_area_km2": {"0": 1.98701,"25": 9.59514,"50": 9.39087}}}