{"type": "Feature","bbox": [1.5462,36.2288,1.729,36.3322],"geometry": {"type": "MultiPolygon","coordinates": [[[[1.705,36.3322,331.2597],[1.6947,36.3271,326.6026],[1.6909,36.3222,357.7539],[1.6853,36.3198,308.8393],[1.6725,36.3177,317.4893],[1.6599,36.3189,457.2429],[1.6488,36.3147,387.3717],[1.6307,36.3112,345.5885],[1.6186,36.307,344.2774],[1.6101,36.3001,262.9023],[1.6121,36.2961,246.5],[1.5957,36.2969,268.6879],[1.5912,36.2957,268.5686],[1.5904,36.291,322.0381],[1.6006,36.2874,313.3631],[1.597,36.2847,255.9073],[1.5931,36.2744,330.0626],[1.5827,36.2675,413.0971],[1.5813,36.2576,293.3023],[1.5788,36.2537,203.9905],[1.5553,36.2492,348.6279],[1.5462,36.2412,203.6878],[1.5488,36.2378,153.4162],[1.5566,36.2361,178.6007],[1.5629,36.2323,144.2426],[1.5677,36.2352,144.6578],[1.5704,36.2397,144.3429],[1.5767,36.2419,144.7844],[1.5849,36.2353,144.9217],[1.5897,36.2384,145.1983],[1.5944,36.2361,145.7203],[1.6007,36.2359,145.6104],[1.6032,36.231,145.8145],[1.6079,36.2295,145.7395],[1.6062,36.2354,145.9772],[1.6068,36.2401,146.2366],[1.6225,36.2357,147.2795],[1.6328,36.2357,152.2385],[1.6393,36.2306,148.4936],[1.6452,36.2288,148.9001],[1.6495,36.2393,153.8006],[1.6547,36.2374,150.4494],[1.6608,36.2373,150.6099],[1.6644,36.241,150.9856],[1.6686,36.2375,152.451],[1.6699,36.2322,154.465],[1.6757,36.2315,155.7919],[1.6765,36.2439,157.841],[1.6807,36.2415,160.0404],[1.7025,36.2413,162.3029],[1.709,36.2395,165.2204],[1.7148,36.241,162.527],[1.7181,36.2449,164.4038],[1.7226,36.2444,165.0674],[1.7272,36.2564,172.2364],[1.7259,36.2621,195.197],[1.7276,36.2754,219.1647],[1.7262,36.2803,235.825],[1.729,36.2861,262.964],[1.7256,36.2895,299.933],[1.7249,36.2944,401.5422],[1.704,36.2966,291.9037],[1.7043,36.3011,245.6281],[1.708,36.3101,253.4662],[1.7145,36.3171,275.7937],[1.7143,36.3238,305.0869],[1.7104,36.3287,290.8372],[1.705,36.3322,331.2597]]]]}
,"properties": {"GID_2": "DZA.2.19_1","GID_0": "DZA","country": "Algeria","GID_1": "DZA.2_1","province": "AïnDefla","NL_NAME_1": "ولايةعينالدفلى","county": "ElAbadia","VARNAME_2": "ElAbbadia|al-Ab`a-di-yah","NL_NAME_2": "NA","TYPE_2": "Commune","ENGTYPE_2": "Commune","CC_2": "4411","HASC_2": "DZ.AD.EB","name": "El_Abadia.county","area_km2": 106.14918,"hist_schema_id": "Elevation0-9000","hist_area_km2": {"150": 18.87797,"175": 25.37105,"200": 9.23066,"225": 7.21302,"250": 7.09292,"275": 7.50253,"300": 6.83586,"325": 4.85326,"350": 4.52832,"375": 3.93005,"400": 3.50285,"425": 2.37503,"450": 1.58908,"475": 0.76892,"500": 0.78603,"525": 0.64932,"550": 0.63222,"575": 0.22213,"600": 0.17087,"625": 0.01709}}}