{"type":"Feature","properties":{"GID_2":"DZA.14.29_1","GID_0":"DZA","country":"Algeria","GID_1":"DZA.14_1","province":"Chlef","NL_NAME_1":"ولايةالشلف","county":"SidiAkkacha","VARNAME_2":"SīdīUkāskah","NL_NAME_2":"NA","TYPE_2":"Commune","ENGTYPE_2":"Commune","CC_2":"211","HASC_2":"DZ.CH.SK","name":"Sidi_Akkacha.county"},
"geometry":{"type": "MultiPolygon","coordinates": [[[[1.2562,36.416,135.9796],[1.2606,36.4141,173.1322],[1.2659,36.4158,197.6106],[1.2716,36.4239,140.4735],[1.285,36.4252,150.8774],[1.2913,36.4238,152.4395],[1.2957,36.4252,168.2725],[1.2984,36.4216,167.8584],[1.2954,36.4111,212.911],[1.2957,36.4067,221.4836],[1.3037,36.402,216.2752],[1.307,36.3974,251.268],[1.3234,36.3859,313.6763],[1.3321,36.3827,377.4873],[1.3367,36.3841,395.4838],[1.3466,36.3954,420.2902],[1.3576,36.4034,286.2439],[1.3579,36.4093,273.817],[1.3557,36.4155,249.3532],[1.3601,36.4164,285.0161],[1.3703,36.4152,325.1531],[1.3753,36.4184,317.6782],[1.3824,36.4154,353.3972],[1.3949,36.4167,409.8078],[1.4088,36.4141,468.3511],[1.4143,36.4158,467.7264],[1.4266,36.4305,732.0435],[1.4299,36.4401,921.8198],[1.4354,36.4426,892.7719],[1.4377,36.4468,945.6403],[1.4345,36.4558,709.6881],[1.4278,36.4557,604.6047],[1.4242,36.4596,480.9811],[1.4222,36.4658,352.1565],[1.4239,36.476,281.8553],[1.4205,36.4814,211.6419],[1.4154,36.4766,249.0827],[1.4096,36.4745,284.9768],[1.4039,36.476,366.3714],[1.3992,36.4794,504.8419],[1.3948,36.4771,533.5386],[1.3872,36.4762,641.4164],[1.3722,36.4781,625.1575],[1.3528,36.4759,363.1383],[1.3326,36.4775,177.6779],[1.3288,36.4826,173.8445],[1.3238,36.4856,135.1387],[1.3184,36.4861,165.1084],[1.3085,36.4827,152.8453],[1.3002,36.4887,341.9889],[1.2943,36.4895,380.148],[1.2563,36.4729,379.3774],[1.2442,36.4711,402.9508],[1.2342,36.4724,464.8073],[1.2276,36.4701,445.9362],[1.2231,36.4651,314.1419],[1.2165,36.4611,236.4012],[1.224,36.4573,216.5096],[1.2316,36.4485,321.9532],[1.2295,36.4375,426.2146],[1.2366,36.4378,312.5507],[1.242,36.4313,177.9397],[1.2472,36.4322,162.753],[1.2522,36.4357,151.8173],[1.259,36.4364,141.1318],[1.2649,36.4299,124.8607],[1.2569,36.4219,135.7633],[1.2562,36.416,135.9796]]]]}}