{"type": "Feature","bbox": [2.896,36.7791,3.0,36.8154],"geometry": {"type": "MultiPolygon","coordinates": [[[[2.9545,36.7791,107.3033],[2.9594,36.7831,142.1908],[2.9622,36.7885,168.8865],[2.9668,36.7913,185.5257],[2.9774,36.7947,229.3217],[2.9818,36.798,269.2873],[2.9947,36.7983,262.1324],[3.0,36.8013,284.5765],[2.996,36.8068,238.6047],[2.9942,36.8154,16.469],[2.9876,36.814,0.0],[2.97,36.8153,16.1861],[2.9512,36.8118,0.0],[2.9458,36.8091,10.0346],[2.9305,36.8057,0.0],[2.9169,36.805,4.876],[2.9049,36.8064,0.5612],[2.897,36.803,8.5285],[2.8989,36.7946,3.8864],[2.896,36.7852,2.3451],[2.8975,36.781,11.0717],[2.927,36.7835,79.2746],[2.9545,36.7791,107.3033]]]]}
,"properties": {"GID_2": "DZA.4.1_1","GID_0": "DZA","country": "Algeria","GID_1": "DZA.4_1","province": "Alger","NL_NAME_1": "ولايةالجزائر","county": "AinBenian","VARNAME_2": "NA","NL_NAME_2": "NA","TYPE_2": "Commune-Cotiere","ENGTYPE_2": "Commune-Cotiere","CC_2": "1644","HASC_2": "DZ.AL.AB","name": "Ain_Benian.county","area_km2": 23.03889,"hist_schema_id": "Elevation0-9000","hist_area_km2": {"0": 1.30726,"25": 3.81978,"50": 2.03728,"75": 1.81661,"100": 2.76752,"125": 3.56555,"150": 2.71655,"175": 1.13747,"200": 1.15449,"225": 0.86585,"250": 0.83189,"275": 0.84886,"300": 0.16977}}}