{"type":"Feature","properties":{"GID_2":"DZA.1.25_1","GID_0":"DZA","country":"Algeria","GID_1":"DZA.1_1","province":"Adrar","NL_NAME_1":"ولايةأدرا","county":"Tinerkouk","VARNAME_2":"NA","NL_NAME_2":"NA","TYPE_2":"Commune","ENGTYPE_2":"Commune","CC_2":"116","HASC_2":"DZ.AR.TK","name":"Tinerkouk.county"},
"geometry":{"type": "MultiPolygon","coordinates": [[[[0.6014,29.2825,321.9563],[0.6092,29.2823,320.151],[0.6274,29.2854,319.7741],[0.6355,29.2871,319.9313],[0.6396,29.2902,319.9784],[0.6625,29.2944,321.051],[0.6894,29.2918,323.1383],[0.7064,29.2955,325.1179],[0.7253,29.2972,327.7384],[0.7559,29.2961,326.5462],[0.7708,29.2973,328.9685],[0.7802,29.3006,329.7143],[0.7919,29.3172,332.9396],[0.8194,29.3504,337.7976],[0.8415,29.3668,342.2874],[0.861,29.3892,344.5939],[0.8677,29.3941,346.7409],[1.1106,29.6525,361.0418],[1.2654,29.8475,378.2538],[1.4005,30.0207,395.6182],[1.594,30.2161,422.5716],[2.0039,30.383,428.4958],[2.0245,30.5397,489.4477],[2.0342,30.9909,537.9921],[2.0365,30.9999,493.6975],[2.0419,31.0988,507.6422],[2.0587,31.658,500.176],[1.4945,31.3575,562.8212],[1.0987,31.1415,557.7985],[1.0927,31.0215,522.403],[1.0411,30.9503,551.554],[1.0016,30.9074,536.3322],[0.841,30.7021,499.4568],[0.6003,30.2639,457.7923],[0.4836,29.917,416.3234],[0.5577,29.5793,340.7692],[0.6014,29.2825,321.9563]]]]}}