{"type":"Feature","properties":{"GID_2":"DZA.4.5_1","GID_0":"DZA","country":"Algeria","GID_1":"DZA.4_1","province":"Alger","NL_NAME_1":"ولايةالجزائر","county":"Bouzareah","VARNAME_2":"NA","NL_NAME_2":"NA","TYPE_2":"Commune","ENGTYPE_2":"Commune","CC_2":"1611","HASC_2":"DZ.AL.BZ","name":"Bouzareah.county"},
"geometry":{"type": "MultiPolygon","coordinates": [[[[2.9545,36.7791,107.3033],[2.958,36.7745,133.7487],[2.9629,36.7724,167.4843],[2.9797,36.7689,242.7768],[2.9914,36.7695,259.5555],[2.9984,36.7717,256.2065],[3.0181,36.7661,253.0173],[3.0245,36.7592,219.6167],[3.0426,36.7506,205.3322],[3.0475,36.7457,162.6525],[3.0498,36.7403,140.5124],[3.0549,36.7402,117.1953],[3.0594,36.7447,155.1566],[3.0577,36.7498,147.3288],[3.0658,36.7558,7.7829],[3.0762,36.7535,5.4259],[3.0751,36.7614,0.8505],[3.0657,36.7641,2.7497],[3.0631,36.7687,0.838],[3.0675,36.7862,3.6644],[3.0604,36.7926,7.1629],[3.0546,36.7949,1.8293],[3.048,36.8028,13.014],[3.0399,36.809,12.1176],[3.023,36.8133,11.5117],[3.0138,36.8188,0.0],[2.9942,36.8154,16.469],[2.996,36.8068,238.6047],[3.0,36.8013,284.5765],[2.9947,36.7983,262.1324],[2.9818,36.798,269.2873],[2.9774,36.7947,229.3217],[2.9668,36.7913,185.5257],[2.9622,36.7885,168.8865],[2.9594,36.7831,142.1908],[2.9545,36.7791,107.3033]]]]}}