{"type":"Feature","properties":{"GID_2":"DZA.18.6_1","GID_0":"DZA","country":"Algeria","GID_1":"DZA.18_1","province":"ElOued","NL_NAME_1":"ولايةالوادي","county":"ElM'Ghair","VARNAME_2":"ElMghair|al-Mighāīr","NL_NAME_2":"NA","TYPE_2":"Commune","ENGTYPE_2":"Commune","CC_2":"3927","HASC_2":"DZ.EO.EM","name":"El_M'Ghair.county"},
"geometry":{"type": "MultiPolygon","coordinates": [[[[5.2359,33.8608,275.2526],[5.3916,33.8239,235.0852],[5.703,33.8466,132.4664],[5.9544,33.9114,-4.4103],[6.0488,33.9026,-23.4112],[6.054,33.904,-23.5182],[6.0601,33.9019,-25.523],[6.0635,33.8993,-26.403],[6.0648,33.8938,-26.5525],[6.0638,33.882,-27.3577],[6.0661,33.8671,-26.5163],[6.0701,33.863,-27.2017],[6.0752,33.8618,-27.2478],[6.0945,33.8662,-26.4156],[6.1198,33.8766,-26.808],[6.1443,33.9072,-26.2772],[6.1585,33.92,-26.3772],[6.1572,33.9352,-28.4872],[6.1496,33.9584,-29.2114],[6.1224,34.0617,-22.9175],[5.8713,34.0891,-3.6439],[5.7327,34.0152,36.0309],[5.432,33.9957,153.0198],[5.2711,33.9762,193.5649],[5.2684,33.9653,203.8983],[5.2677,33.933,241.2551],[5.2607,33.8964,264.6369],[5.2359,33.8608,275.2526]]]]}}