{"type":"Feature","properties":{"ISO3166-1-Alpha-3":"DZA","country":"Algeria","fill":"#F0F","id":"2188","name":"Illizi"},
"geometry":{"type": "Polygon","coordinates": [[[9.82728,28.61865,703.2661],[9.85126,28.786,697.3701],[9.84827,28.97573,658.6649],[9.82615,29.12853,619.6885],[9.74693,29.36843,528.9152],[9.66771,29.60832,477.1041],[9.54968,29.80232,406.9058],[9.42173,29.96871,344.3333],[9.36949,30.02279,334.3941],[9.36949,30.02279,334.3941],[7.14637,28.83938,311.4608],[6.93718,28.86837,310.0751],[6.78742,28.86826,322.0603],[6.42093,28.73127,329.0226],[5.95274,28.49079,352.9325],[6.45023,28.14172,389.6942],[6.5109,28.08986,367.9323],[6.54444,28.0094,377.7189],[6.56661,27.88809,406.1202],[6.52661,27.85809,381.592],[6.25784,27.76551,407.0276],[6.01,27.55421,438.5032],[5.93538,27.50618,447.339],[5.87239,27.4568,455.7263],[5.83745,27.40629,462.2905],[5.81575,27.32136,473.6779],[5.8404,27.20271,486.1547],[5.95042,26.86182,785.7055],[5.95336,26.85461,745.9984],[5.95832,26.84611,740.667],[5.96783,26.83412,764.5203],[6.01,26.79503,621.4811],[6.20632,26.65974,523.4218],[6.24291,26.62752,516.3585],[6.26187,26.59851,557.8228],[6.27133,26.5705,612.5063],[6.27489,26.55109,587.2183],[6.27536,26.53804,748.1942],[6.27443,26.52851,761.6566],[6.26993,26.51265,858.2355],[6.18704,26.33532,675.077],[6.17945,26.31209,738.2708],[6.17526,26.29064,650.5144],[6.17309,26.25866,620.892],[6.17511,26.24277,950.8989],[6.17883,26.23155,957.1981],[6.18348,26.22566,989.2955],[6.18875,26.22111,1010.8105],[6.19531,26.21688,1009.0555],[6.29954,26.17083,850.3234],[6.30735,26.1653,965.3283],[6.5185,25.91144,1055.4296],[6.5308,25.90018,1097.0179],[6.53777,25.89491,1118.7911],[6.54676,25.88963,1094.0759],[6.6543,25.84855,1052.9022],[6.68035,25.83478,1082.594],[6.71187,25.82171,1134.7927],[6.95857,25.75982,1069.5671],[6.9733,25.73365,1000.8379],[6.98436,25.68972,1139.2931],[6.99552,25.50157,1224.1466],[7.10895,25.37303,1220.3035],[7.13841,25.34657,1253.3617],[7.15365,25.3259,1197.7322],[7.16373,25.30851,1246.6047],[7.16807,25.29789,1176.9868],[7.1707,25.28639,1178.9733],[7.17055,25.27533,1177.9691],[7.16977,25.26634,1178.6813],[7.16791,25.25774,1177.25],[7.16404,25.24833,1181.5464],[7.15923,25.23996,1187.8359],[7.11453,25.18208,1183.6292],[7.10926,25.1735,1229.9905],[7.09019,25.12666,1133.8503],[7.08818,25.12012,1133.3112],[7.0858,25.10919,1129.4453],[7.08611,25.00155,1127.6649],[7.10694,24.92259,1280.6901],[7.11376,24.90905,1289.6382],[7.12538,24.8951,1280.3206],[7.14357,24.88057,1237.6775],[7.20812,24.84096,1237.9413],[7.2244,24.82603,1228.2734],[7.23819,24.81045,1225.0028],[7.26584,24.7649,1189.3744],[7.29576,24.73053,1163.2191],[7.30708,24.71493,1169.111],[7.31411,24.70764,1160.6443],[7.32015,24.70276,1157.8815],[7.33845,24.69177,1144.7148],[7.35643,24.67692,1134.0281],[7.36217,24.67304,1132.3822],[7.36811,24.67004,1130.3074],[7.41291,24.65493,1119.8069],[7.45188,24.64966,1116.0602],[7.4927,24.65255,1107.906],[7.49952,24.65232,1106.7854],[7.50572,24.65113,1105.4728],[7.51099,24.64922,1104.9949],[7.52014,24.64379,1114.3097],[7.53771,24.62896,1112.6487],[7.5436,24.62524,1108.8491],[7.54996,24.62276,1114.365],[7.56174,24.61958,1112.0334],[7.56717,24.61752,1116.5103],[7.5729,24.61454,1099.1855],[7.58701,24.60398,1087.9135],[7.59311,24.60031,1087.4784],[7.59931,24.59814,1087.0612],[7.60551,24.59809,1086.2814],[7.61853,24.59909,1090.3748],[7.62504,24.59876,1082.2346],[7.63063,24.59716,1081.7938],[7.64882,24.58664,1077.084],[7.65564,24.58181,1075.3027],[7.68153,24.55778,1068.042],[7.69098,24.54656,1068.3857],[7.70261,24.53625,1066.6823],[7.74545,24.51266,1055.9126],[7.75026,24.51078,1055.1848],[7.77341,24.50445,1050.8491],[7.78038,24.50104,1049.8451],[7.78147,24.50034,1053.0884],[7.84291,24.44262,1035.6512],[7.85454,24.43388,1033.5721],[7.87505,24.42438,1027.3511],[7.88405,24.41877,1029.1367],[7.90653,24.39675,1021.8816],[7.918,24.38792,1017.0723],[7.9489,24.36991,1013.1712],[7.95371,24.36766,1011.5884],[7.95665,24.36668,1010.9224],[8.02182,24.35588,1002.5735],[8.07148,24.35402,1003.6858],[8.09757,24.35012,991.0057],[8.1725,24.32859,979.0437],[8.20899,24.30707,974.8081],[8.22496,24.30082,972.3934],[8.23116,24.29963,971.7371],[8.2524,24.29839,968.6236],[8.25844,24.29689,968.0957],[8.2634,24.29449,967.0121],[8.294,24.26909,961.638],[8.30035,24.26544,960.9567],[8.39239,24.23971,952.9916],[8.47367,24.23134,937.2805],[8.49931,24.23196,934.0883],[8.50938,24.23111,933.099],[8.52132,24.22862,931.9209],[8.52814,24.22467,931.5114],[8.53589,24.21824,929.5013],[8.54788,24.20516,926.5129],[8.55951,24.18852,923.6153],[8.60266,24.10321,911.0981],[8.62653,24.06993,906.0742],[8.6532,24.0397,901.1714],[8.68162,24.01313,896.1992],[8.6917,24.006,895.403],[8.69867,24.00347,894.176],[8.71247,24.00138,893.116],[11.70986,24.00014,1066.3179],[11.71014,24.00014,1066.3179],[11.70862,24.00298,1070.135],[11.63648,24.13765,1064.2531],[11.56713,24.26684,1065.5809],[11.54139,24.29751,1068.3568],[11.50863,24.31381,1148.1886],[11.46724,24.32634,1128.892],[11.15,24.42233,755.7506],[10.91135,24.4945,774.9893],[10.72067,24.5523,890.8468],[10.69907,24.55612,929.1562],[10.67736,24.55385,954.7675],[10.56678,24.51646,1022.3715],[10.45019,24.47693,827.2942],[10.41051,24.47329,832.3244],[10.3918,24.47998,836.364],[10.26033,24.57664,808.0947],[10.24225,24.59511,848.3693],[10.22974,24.62994,733.4631],[10.21217,24.72286,760.7764],[10.19336,24.74994,695.4882],[10.04453,24.82962,834.5041],[10.03203,24.85634,824.2029],[10.02996,24.99506,795.588],[10.02552,25.1364,859.54],[10.02138,25.26802,738.0604],[10.00795,25.33143,707.6057],[9.9695,25.3954,686.8907],[9.81674,25.58847,674.4576],[9.69396,25.74349,848.0375],[9.54131,25.93635,793.4579],[9.40116,26.11339,620.1285],[9.3778,26.16895,601.7754],[9.40251,26.21618,595.6031],[9.41646,26.23225,594.586],[9.43475,26.27199,635.3059],[9.46886,26.30103,627.3428],[9.47764,26.31555,623.7264],[9.48136,26.33261,627.1921],[9.4826,26.35255,627.1994],[9.83576,26.50422,590.445],[9.85457,26.52438,568.749],[9.89633,26.65279,552.5994],[9.89405,26.67398,549.4377],[9.88258,26.70178,577.7554],[9.88547,26.73661,571.2344],[9.91059,26.84312,580.2097],[9.90666,26.85748,590.6624],[9.89085,26.86958,581.4169],[9.8461,26.89195,635.2998],[9.83514,26.90099,668.6973],[9.82553,26.92058,664.4075],[9.8061,27.02512,553.2061],[9.72135,27.29188,503.0413],[9.72187,27.30846,501.4563],[9.72652,27.32469,504.9944],[9.74305,27.36412,502.0704],[9.75628,27.42303,535.8397],[9.77055,27.44422,541.4958],[9.81364,27.48649,509.5942],[9.8216,27.50569,503.8058],[9.81168,27.52654,526.2028],[9.79711,27.54891,527.8762],[9.7939,27.56974,492.7346],[9.8185,27.58573,510.9941],[9.84661,27.5993,476.4082],[9.86336,27.61925,499.5614],[9.93127,27.81864,472.4364],[9.93426,27.8274,474.6402],[9.93591,27.86672,527.3652],[9.78987,28.20944,577.4465],[9.77695,28.26758,614.0321],[9.82728,28.61865,703.2661]]]}}