{"type": "Feature","bbox": [5.6392,22.5182,11.9874,30.5585],"geometry": {"type": "MultiPolygon","coordinates": [[[[10.0354,25.0235,699.5891],[10.0363,25.1534,836.1374],[10.0327,25.3587,675.5118],[9.5382,26.0019,790.5593],[9.3996,26.1948,597.7553],[9.4488,26.2434,598.6878],[9.4567,26.253,603.3865],[9.4653,26.2882,626.4993],[9.4773,26.3068,620.5005],[9.513,26.3843,607.4514],[9.8639,26.5191,564.3367],[9.9139,26.6461,555.0084],[9.9027,26.7425,580.2574],[9.9245,26.861,572.2188],[9.9084,26.8733,575.4589],[9.9042,26.879,579.1041],[9.8974,26.8893,586.2472],[9.8961,26.8969,601.736],[9.889,26.9037,598.4709],[9.8707,26.9295,600.8174],[9.8629,26.9416,601.0399],[9.8591,26.9514,595.4203],[9.8548,26.9792,576.5239],[9.851,26.9878,579.1866],[9.849,27.0024,568.1257],[9.8384,27.046,547.702],[9.8374,27.0588,547.6344],[9.8323,27.0718,544.3506],[9.8339,27.0799,542.2341],[9.8328,27.0943,537.2568],[9.8233,27.1218,532.689],[9.823,27.1279,530.7097],[9.8178,27.1371,530.5289],[9.8185,27.1477,528.597],[9.8014,27.1682,519.5737],[9.7984,27.1751,521.6436],[9.7929,27.2285,509.8893],[9.785,27.2495,506.4964],[9.7826,27.2652,509.6065],[9.7859,27.3058,489.2791],[9.7905,27.3215,514.0936],[9.7953,27.3539,503.7837],[9.7845,27.3529,508.7426],[9.7873,27.3692,548.9878],[9.792,27.3809,544.4024],[9.7951,27.3944,519.9556],[9.7996,27.4041,507.0494],[9.8108,27.4207,509.8242],[9.8103,27.437,533.8983],[9.8171,27.4495,602.2155],[9.8141,27.4575,504.4317],[9.8141,27.4621,497.7502],[9.8241,27.4753,495.9117],[9.8307,27.4886,497.6577],[9.8465,27.4977,505.4568],[9.8625,27.5033,519.1971],[9.8684,27.516,513.186],[9.8664,27.5385,523.9226],[9.8675,27.5429,546.3246],[9.8786,27.5617,536.7284],[9.8246,27.561,522.3582],[9.8176,27.5649,545.2838],[9.8167,27.5684,544.5339],[9.8179,27.574,505.6284],[9.8227,27.5786,552.1853],[9.8655,27.5854,519.1279],[9.8717,27.5953,519.2972],[9.8883,27.6073,512.6583],[9.9013,27.636,497.829],[9.9242,27.6781,491.0097],[9.9258,27.6977,497.8171],[9.943,27.7317,493.9678],[9.9401,27.7744,489.6711],[9.9463,27.8,478.6519],[9.9434,27.8355,479.0037],[9.944,27.8438,533.2398],[9.9495,27.8542,541.0966],[9.9616,27.8646,552.3838],[9.9629,27.875,559.4105],[9.9622,27.8866,565.2012],[9.8335,28.2853,611.3823],[9.8472,28.3895,620.1592],[9.9028,28.7598,705.4044],[9.8723,29.027,649.3394],[9.7806,29.4241,543.0739],[9.5393,29.9006,386.9136],[9.4541,29.9999,367.7702],[9.4155,30.0421,364.0033],[9.4082,30.0653,348.5453],[9.392,30.1458,321.7108],[9.3917,30.1667,320.2937],[9.3996,30.1781,309.8218],[9.416,30.187,316.5787],[9.4309,30.1836,347.0634],[9.437,30.1854,328.2249],[9.4662,30.1973,298.5234],[9.4928,30.2115,292.097],[9.559,30.23,300.689],[9.4745,30.5585,324.9282],[9.0236,30.4847,262.0002],[9.0042,30.4809,266.8348],[8.9953,30.4768,251.8171],[8.9833,30.4746,253.1334],[8.5419,30.4006,226.8453],[8.0656,30.3176,222.4801],[8.0002,30.3075,253.505],[7.995,30.3092,221.558],[7.9902,30.3084,242.3544],[7.8043,30.2729,231.3257],[7.5713,30.2321,233.8452],[7.2331,30.1701,223.0956],[6.5746,30.0448,230.9802],[6.4505,30.0839,228.9219],[6.259,30.0002,233.7867],[6.0011,29.8821,239.6833],[5.9915,29.8757,252.1769],[5.7234,29.7583,251.9058],[5.7227,29.6676,258.6888],[5.7271,29.0127,377.8029],[5.7241,28.9999,351.9039],[5.7299,28.4321,347.5112],[5.6392,28.1071,390.1404],[5.6603,27.9992,408.7581],[5.6768,27.9254,431.2411],[5.7778,27.4129,519.5211],[5.7757,27.1728,491.2082],[5.7665,27.072,628.6777],[6.003,26.8712,470.3934],[6.0126,26.8658,474.749],[6.0317,26.8499,482.3155],[6.2308,26.6749,504.3173],[6.2536,26.6594,493.9046],[6.2912,26.6244,491.3494],[6.3047,26.6146,483.3018],[6.2973,26.605,485.5076],[6.296,26.5986,487.9896],[6.2976,26.5919,486.8452],[6.3096,26.5789,501.8937],[6.3084,26.5617,502.0165],[6.3177,26.5485,492.1197],[6.3185,26.5408,492.5451],[6.314,26.5355,496.7162],[6.3,26.5314,495.2969],[6.2912,26.5144,496.6759],[6.2867,26.5088,518.9925],[6.27,26.5012,504.1552],[6.2578,26.4915,502.0273],[6.2531,26.4869,502.9252],[6.2419,26.4696,505.6516],[6.2372,26.4658,506.4204],[6.225,26.4596,508.9412],[6.2046,26.4594,512.4213],[6.1939,26.4541,514.7997],[6.1909,26.4502,516.001],[6.1861,26.4364,519.0457],[6.1854,26.4253,522.7456],[6.1834,26.4214,522.706],[6.1661,26.4154,528.1385],[6.1646,26.4101,532.1794],[6.1725,26.4028,636.2863],[6.1785,26.3879,624.6112],[6.1784,26.3826,561.165],[6.167,26.3683,540.0652],[6.1584,26.3651,547.4368],[6.1499,26.3439,558.8073],[6.1461,26.3415,560.1796],[6.1417,26.3325,647.8162],[6.1441,26.3251,589.9293],[6.1541,26.3126,628.4421],[6.1603,26.3084,585.3102],[6.1677,26.306,614.2775],[6.1732,26.2985,849.4454],[6.18,26.2806,746.4688],[6.1853,26.2734,848.0627],[6.1952,26.2674,705.6607],[6.2017,26.2655,742.88],[6.2109,26.258,661.3936],[6.2307,26.2553,606.501],[6.238,26.2464,639.7112],[6.2443,26.2425,681.7399],[6.2561,26.2538,645.9241],[6.2608,26.2564,679.3698],[6.2705,26.2466,681.7109],[6.2744,26.2446,678.0283],[6.2843,26.2441,704.3774],[6.2889,26.2404,624.4181],[6.2897,26.2349,654.2024],[6.2873,26.2275,628.1736],[6.2893,26.206,642.2812],[6.2988,26.2022,748.0299],[6.3108,26.203,668.513],[6.3137,26.1994,727.5272],[6.3125,26.1945,746.769],[6.3165,26.1773,740.1117],[6.3237,26.1747,718.2138],[6.3303,26.1746,730.502],[6.3358,26.1642,744.2859],[6.3547,26.1577,712.3402],[6.4106,26.0111,1057.6436],[6.4129,26.0,1060.1031],[6.5854,25.5524,1149.1118],[6.5836,25.5167,1036.7936],[6.6149,25.4903,1060.896],[6.6354,25.4661,1082.636],[6.6432,25.4632,1089.08],[6.6525,25.4571,1081.7798],[6.657,25.452,1082.1453],[6.6884,25.4023,1083.5685],[6.7067,25.3793,1082.3469],[6.7326,25.3397,1093.9037],[6.7482,25.328,1093.9716],[6.7907,25.2681,1089.3873],[6.8062,25.2419,1081.2571],[6.8145,25.2238,1085.4341],[6.8249,25.196,1091.2219],[6.8415,25.1329,1061.9797],[6.8527,25.1034,1059.9497],[6.8664,25.0842,1054.5955],[6.8801,25.0694,1053.17],[6.8947,25.0399,1063.2804],[6.8989,25.035,1064.905],[6.9097,25.0077,1064.1266],[6.9167,24.9983,1064.7903],[6.923,24.9944,1065.5839],[6.9316,24.9777,1067.442],[6.9471,24.957,1071.7976],[6.9874,24.8848,1098.7827],[6.9981,24.8548,1096.5834],[7.0006,24.8511,1097.8357],[7.0052,24.8486,1099.5151],[7.0152,24.8315,1107.1743],[7.0384,24.8085,1116.7115],[7.1182,24.7616,1148.0885],[7.1636,24.7523,1180.5271],[7.1939,24.7491,1182.4672],[7.2159,24.7567,1181.5458],[7.2564,24.7598,1188.6837],[7.2734,24.758,1175.8105],[7.3088,24.7477,1162.9816],[7.5315,24.424,1260.2958],[7.5284,24.408,1207.061],[7.514,24.2785,1097.3284],[7.5272,24.0426,1169.0449],[7.5353,23.8471,1510.3596],[7.7465,23.3533,1458.3418],[7.6579,23.2702,1054.6633],[7.9121,23.0865,1161.3469],[8.0513,23.109,1256.0348],[8.4453,23.1849,1033.9299],[8.6466,23.2124,1036.4376],[9.0026,23.4299,869.2218],[9.2158,23.5575,811.5645],[9.8069,23.5538,767.176],[9.818,23.5421,764.9485],[9.8356,23.5291,762.0698],[9.8559,23.5176,758.3318],[9.8738,23.5106,755.0696],[9.8855,23.5079,756.1234],[9.9659,23.507,763.6795],[9.9745,23.5019,761.5339],[9.9959,23.4791,747.806],[10.0184,23.464,745.387],[10.0359,23.4477,749.4573],[10.0501,23.4417,753.8378],[10.0898,23.4341,759.9167],[10.127,23.412,758.3319],[10.1562,23.3917,750.3389],[10.186,23.3798,745.0128],[10.203,23.3705,741.7879],[10.2223,23.3571,737.4043],[10.2536,23.3238,732.4456],[10.2622,23.3213,730.4034],[10.2711,23.3213,730.394],[10.2579,23.0059,686.4024],[10.2596,23.0002,690.1376],[10.2598,22.9645,715.8263],[10.2402,22.5182,660.2852],[10.4223,22.6249,678.491],[10.4517,22.6445,697.4758],[10.5777,22.7166,689.8281],[11.1201,23.0346,885.2346],[11.432,23.2148,1002.8425],[11.9257,23.4952,825.7439],[11.9589,23.5128,1031.3699],[11.9796,23.525,1007.4957],[11.9776,23.5288,1013.297],[11.9811,23.5283,1006.9125],[11.9874,23.5321,1014.8057],[11.8465,23.8048,1007.5292],[11.6146,24.2451,1072.5906],[11.6034,24.2638,968.8219],[11.5824,24.2521,933.2309],[11.5662,24.2515,897.0858],[11.5467,24.2464,872.8582],[11.5254,24.238,834.9457],[11.5031,24.2257,800.9306],[11.4851,24.22,796.7953],[11.4515,24.2131,770.8958],[11.423,24.1996,745.8886],[11.1376,24.391,788.9099],[11.1249,24.3971,789.8129],[11.097,24.4067,827.6136],[11.0782,24.4101,863.5681],[11.0661,24.4217,864.1588],[11.0522,24.4242,840.6079],[11.047,24.4277,865.8415],[11.0403,24.4333,850.5064],[11.0315,24.4502,895.0553],[11.0249,24.4571,861.3735],[11.0111,24.4694,828.3754],[10.9916,24.4816,784.7927],[10.9821,24.4903,770.9062],[10.9565,24.5255,759.1447],[10.9502,24.5318,749.7231],[10.8988,24.5545,776.7593],[10.8817,24.5543,777.2795],[10.8478,24.568,769.6103],[10.8339,24.5697,808.9431],[10.8273,24.5688,789.5778],[10.8174,24.5639,793.0984],[10.7936,24.5433,866.5948],[10.795,24.5318,836.9451],[10.7996,24.5262,899.5277],[10.7675,24.5096,875.5696],[10.7593,24.5238,843.543],[10.7407,24.5373,874.1183],[10.7328,24.5483,888.7153],[10.7297,24.5551,932.2974],[10.7285,24.563,907.0529],[10.7242,24.5675,894.2769],[10.7192,24.5702,898.8185],[10.7066,24.5721,910.3721],[10.6693,24.5707,947.6996],[10.6525,24.5682,961.2189],[10.6438,24.5697,986.7097],[10.6333,24.5662,1066.8549],[10.621,24.572,1110.0913],[10.6153,24.5727,1117.3488],[10.6031,24.5606,1147.9084],[10.5916,24.5554,1177.3119],[10.5877,24.5502,1121.7078],[10.5886,24.5404,1007.0903],[10.5829,24.5382,1073.7045],[10.5758,24.542,1038.9154],[10.5443,24.533,1079.3618],[10.5276,24.5375,992.8506],[10.5092,24.538,928.3696],[10.4851,24.5426,986.6462],[10.4576,24.533,907.9779],[10.451599999999999,24.5324,893.9283],[10.4146,24.531,997.064],[10.4008,24.5358,902.0699],[10.3574,24.5369,859.6139],[10.3454,24.5546,870.2906],[10.3274,24.5686,874.9047],[10.3031,24.5982,845.0549],[10.2941,24.5984,837.9392],[10.2884,24.6004,829.3445],[10.28,24.6118,786.4282],[10.2703,24.6188,768.8228],[10.2654,24.6244,771.9705],[10.2526,24.6288,751.9209],[10.2384,24.6367,739.6023],[10.2274,24.6453,728.3681],[10.2169,24.6497,719.793],[10.2142,24.6534,718.209],[10.2079,24.6687,712.4622],[10.198,24.6815,743.2021],[10.1967,24.6866,712.7317],[10.1985,24.7,704.727],[10.1877,24.7144,701.5013],[10.1814,24.7188,700.538],[10.1777,24.7254,700.3054],[10.1726,24.7427,695.3394],[10.1537,24.7832,692.364],[10.1374,24.8111,726.0438],[10.1064,24.845,711.6912],[10.1008,24.872,705.028],[10.0947,24.8879,700.6199],[10.0845,24.903,698.6956],[10.0686,24.9219,691.9689],[10.0608,24.9378,718.7051],[10.0376,24.9624,793.7682],[10.0336,24.9763,800.3148],[10.0323,24.9961,788.7177],[10.0348,25.0029,724.3162],[10.0354,25.0235,699.5891]]]]}
,"properties": {"GID_1": "DZA.22_1","GID_0": "DZA","country": "Algeria","province": "Illizi","VARNAME_1": "Polignac|FortPolignac|Ilizi","NL_NAME_1": "ولايةاليزي","TYPE_1": "Wilaya","ENGTYPE_1": "Province","CC_1": "33","HASC_1": "DZ.IL","ISO_1": "DZ-33","name": "Illizi.province","area_km2": 294040.12,"hist_schema_id": "Elevation0-9000","hist_area_km2": {"200": 53.87,"225": 2425.79,"250": 7139.16,"275": 8399.97,"300": 11071.17,"325": 11530.51,"350": 8265.23,"375": 8596.36,"400": 8231.86,"425": 9649.67,"450": 14621.09,"475": 16771.79,"500": 15409.81,"525": 12153.95,"550": 10956.7,"575": 8281.99,"600": 5617.89,"625": 3611.71,"650": 2672.28,"675": 3100.93,"700": 2846.59,"725": 3081.72,"750": 3139.48,"775": 3127.43,"800": 3432.55,"825": 4000.45,"850": 5074.28,"875": 4882.47,"900": 5230.07,"925": 5363.63,"950": 5179.42,"975": 5494.84,"1000": 5813.5,"1025": 5521.26,"1050": 5531.85,"1075": 5483.96,"1100": 5295.7,"1125": 4784.88,"1150": 4105.16,"1175": 3631.31,"1200": 3511.91,"1225": 3622.24,"1250": 3535.95,"1275": 3144.69,"1300": 2693.37,"1325": 2356.62,"1350": 2016.76,"1375": 1724.1,"1400": 1532.8,"1425": 1399.85,"1450": 1318.66,"1475": 1171.26,"1500": 977.08,"1525": 803.89,"1550": 738.68,"1575": 652.2,"1600": 539.67,"1625": 507.6,"1650": 450.25,"1675": 420.93,"1700": 358.97,"1725": 294.64,"1750": 190.85,"1775": 136.0,"1800": 96.58,"1825": 77.41,"1850": 46.91,"1875": 34.45,"1900": 33.07,"1925": 30.11,"1950": 19.72,"1975": 10.89,"2000": 5.84}}}