{"type": "Feature","id": "2213","bbox": [2.15819,35.43908,3.63387,36.49018],"geometry": {"type": "Polygon","coordinates": [[[3.43429,36.40579,313.454],[3.42266,36.40786,373.2935],[3.40515,36.41806,571.3013],[3.38153,36.44336,848.0415],[3.36262,36.45881,887.3447],[3.34184,36.46958,1043.512],[3.28304,36.49018,559.7723],[3.24516,36.48258,553.325],[3.22004,36.48124,565.3994],[3.20325,36.47491,733.8185],[3.19488,36.46765,783.6622],[3.18991,36.45622,879.9838],[3.18263,36.44455,667.4389],[3.16232,36.42909,1119.0791],[3.13715,36.41866,802.9631],[3.10191,36.40791,820.7042],[3.05323,36.38228,545.0895],[3.02496,36.36396,597.2787],[3.00806,36.35644,767.6348],[2.99628,36.35329,695.3959],[2.98305,36.35473,787.7037],[2.96709,36.36067,731.7576],[2.95096,36.37233,976.8404],[2.94058,36.38786,973.9495],[2.93231,36.40313,805.008],[2.92378,36.41307,524.2025],[2.90983,36.41525,931.4928],[2.89867,36.40848,891.6209],[2.87567,36.38757,904.5011],[2.8611,36.37768,1264.3998],[2.84528,36.36923,893.6821],[2.82446,36.36517,947.5132],[2.80523,36.36527,861.9949],[2.78276,36.36791,728.9044],[2.68374,36.36088,1200.6927],[2.66111,36.3631,792.0244],[2.66018,36.35073,849.0165],[2.65641,36.34354,805.7875],[2.64788,36.33251,529.6901],[2.63098,36.31856,382.0348],[2.61408,36.30967,442.927],[2.59667,36.3045,566.4714],[2.53554,36.30337,574.8806],[2.52685,36.30001,640.6277],[2.52034,36.29474,580.1173],[2.51058,36.28404,560.8367],[2.49771,36.27355,424.0997],[2.49135,36.26699,414.9166],[2.48758,36.25794,351.5838],[2.48649,36.24197,404.276],[2.48898,36.23417,334.3824],[2.49166,36.22934,361.2119],[2.50794,36.21763,346.235],[2.51399,36.20962,358.6002],[2.51879,36.20102,353.6482],[2.52639,36.19278,361.0902],[2.52933,36.19058,365.3533],[2.53166,36.18957,384.9351],[2.53554,36.18999,406.9925],[2.54174,36.19231,412.9995],[2.56334,36.20818,543.2299],[2.57062,36.21154,615.4178],[2.57745,36.2118,564.4152],[2.59434,36.20443,687.5236],[2.6285,36.20435,775.7501],[2.63641,36.20265,709.7594],[2.6423,36.19893,693.2064],[2.64369,36.19154,659.0442],[2.63904,36.18156,744.3],[2.60649,36.15686,536.3988],[2.59403,36.13836,443.2429],[2.58101,36.11221,488.67],[2.57155,36.09909,524.2164],[2.46758,36.04442,871.3278],[2.45936,36.037,916.5478],[2.45223,36.02819,1120.1235],[2.44712,36.01537,1125.9291],[2.43983,35.9915,764.6086],[2.43172,35.97811,901.9073],[2.4187,35.9638,1028.8959],[2.35477,35.91466,1309.5167],[2.31178,35.86696,1489.9253],[2.24196,35.74412,843.5009],[2.22584,35.73291,808.2291],[2.20765,35.72614,799.24],[2.18982,35.72361,813.951],[2.17385,35.71852,828.0306],[2.16269,35.70898,870.2286],[2.15819,35.69823,850.4039],[2.16036,35.68408,847.6253],[2.16951,35.66682,857.1318],[2.18951,35.64713,790.2755],[2.20672,35.63767,760.5881],[2.24243,35.62576,732.4916],[2.25452,35.61519,758.2626],[2.26103,35.60558,787.6848],[2.24971,35.55961,828.3197],[2.28573,35.43908,788.2201],[2.47766,35.49303,707.0158],[2.52701,35.50119,680.0516],[2.52933,35.50034,676.8781],[2.6054,35.45184,726.0526],[2.61982,35.44569,709.3278],[2.63687,35.44184,707.3667],[2.65377,35.44238,722.1682],[2.67103,35.44657,706.6552],[2.68715,35.4537,706.4628],[2.70204,35.46523,712.5233],[2.71403,35.47807,696.6884],[2.73092,35.5029,686.0067],[2.73573,35.50894,672.9452],[2.74705,35.52021,649.1046],[2.76488,35.53486,647.5012],[2.88316,35.61111,629.0726],[2.8937,35.62082,635.8425],[2.89882,35.62997,632.5144],[2.9013,35.64175,633.3037],[2.90146,35.6556,645.0074],[2.89727,35.68472,651.7888],[2.89696,35.69327,655.4562],[2.89851,35.71322,667.955],[2.89727,35.72309,674.0626],[2.88797,35.75089,690.8167],[2.88425,35.76593,699.0999],[2.88425,35.7805,711.1061],[2.89076,35.79167,740.0513],[2.89944,35.79549,749.0838],[2.91231,35.79769,776.2405],[2.92998,35.7989,770.7059],[2.96026,35.80474,802.3419],[2.98135,35.80092,803.5698],[2.99442,35.79125,779.1498],[2.99969,35.7805,758.8464],[3.00698,35.75684,728.0339],[3.01241,35.7456,717.6554],[3.01985,35.73663,728.0354],[3.03907,35.72542,711.9386],[3.04496,35.71953,706.8184],[3.04915,35.71002,703.5206],[3.05633,35.68304,694.8212],[3.06563,35.67576,688.8687],[3.08191,35.67188,682.2613],[3.17813,35.68594,708.2247],[3.19643,35.69446,706.3817],[3.20712,35.70289,712.8979],[3.2158,35.71704,721.5649],[3.23012,35.77007,798.4703],[3.24097,35.78632,836.8508],[3.25508,35.7974,830.2294],[3.26547,35.79931,821.6589],[3.27389,35.79518,812.7645],[3.28676,35.7736,776.0391],[3.29482,35.7633,772.1886],[3.30598,35.75459,746.2797],[3.32179,35.74955,736.9493],[3.33673,35.74753,726.1717],[3.37952,35.7512,703.2289],[3.39429,35.79384,715.3069],[3.40096,35.80019,716.2975],[3.41104,35.80593,721.9398],[3.42065,35.8035,708.4332],[3.43228,35.7966,707.0664],[3.48023,35.74433,712.7863],[3.49279,35.72609,676.1329],[3.50261,35.70873,646.3356],[3.51207,35.69596,643.3132],[3.52369,35.68516,648.2419],[3.54323,35.6724,647.9462],[3.55144,35.6787,646.2321],[3.55599,35.69175,647.587],[3.55739,35.72459,635.9513],[3.55552,35.73999,642.5615],[3.55098,35.75381,637.0015],[3.53935,35.77795,655.1298],[3.53671,35.79223,684.8148],[3.5409,35.80394,667.9531],[3.56359,35.81947,666.2883],[3.60265,35.8321,665.9465],[3.6087,35.83737,662.2779],[3.61185,35.85543,670.9025],[3.62549,35.87112,672.0435],[3.63092,35.88039,669.4363],[3.63387,35.88954,668.4359],[3.62906,35.91068,704.8859],[3.62844,35.92279,712.6764],[3.57893,35.99935,774.0001],[3.56436,36.05098,933.7969],[3.56173,36.0794,1334.2902],[3.56235,36.10576,1037.8945],[3.57397,36.19319,916.2099],[3.5732,36.22123,709.0242],[3.56932,36.24024,632.3949],[3.55377,36.28063,666.853],[3.55175,36.2983,648.3146],[3.55222,36.30828,622.2984],[3.55692,36.31417,633.1022],[3.57599,36.32869,718.9817],[3.58312,36.33866,671.7384],[3.58095,36.34915,630.9939],[3.56374,36.37447,841.2991],[3.56095,36.39204,865.3788],[3.56049,36.41204,829.4821],[3.55552,36.42295,684.6669],[3.54555,36.42873,791.9094],[3.53315,36.43098,665.0696],[3.50896,36.43881,378.7883],[3.50013,36.43896,601.715],[3.49077,36.4369,559.1282],[3.45822,36.42555,328.4489],[3.44861,36.41935,299.335],[3.43429,36.40579,313.454]]]}
,"properties": {"ISO3166-1-Alpha-3": "DZA","country": "Algeria","fill": "#000","name": "Médéa","area_km2": 9048.757,"hist_schema_id": "Elevation0-9000","hist_area_km2": {"300": 0.87,"325": 3.381,"350": 11.21,"375": 16.59,"400": 23.862,"425": 38.952,"450": 49.323,"475": 60.538,"500": 71.59,"525": 88.347,"550": 116.539,"575": 156.48,"600": 178.689,"625": 363.852,"650": 615.294,"675": 598.804,"700": 555.412,"725": 571.083,"750": 544.696,"775": 491.936,"800": 441.004,"825": 432.818,"850": 402.305,"875": 378.883,"900": 357.569,"925": 337.986,"950": 303.939,"975": 274.135,"1000": 239.677,"1025": 218.661,"1050": 195.716,"1075": 166.522,"1100": 143.931,"1125": 121.322,"1150": 103.508,"1175": 86.824,"1200": 71.195,"1225": 54.291,"1250": 39.42,"1275": 28.855,"1300": 21.428,"1325": 16.334,"1350": 14.036,"1375": 10.415,"1400": 7.772,"1425": 5.868,"1450": 3.879,"1475": 3.125,"1500": 2.353,"1525": 1.631,"1550": 1.529,"1575": 1.202,"1600": 1.322,"1625": 1.082,"1650": 0.344,"1675": 0.275,"1700": 0.12}}}