{"type":"Feature","properties":{"GID_1":"DZA.28_1","GID_0":"DZA","country":"Algeria","province":"Médéa","VARNAME_1":"ElMediyya|Lemdiyya","NL_NAME_1":"ولايةالمدية","TYPE_1":"Wilaya","ENGTYPE_1":"Province","CC_1":"26","HASC_1":"DZ.MD","ISO_1":"NA","name":"Médéa.province"},
"geometry":{"type": "MultiPolygon","coordinates": [[[[2.6975,35.4672,708.39],[2.7034,35.4697,700.6219],[2.7072,35.4741,704.722],[2.7455,35.5359,644.1296],[2.7555,35.5415,645.2829],[2.7726,35.5561,643.3247],[2.782,35.5686,634.6207],[2.7888,35.5713,629.2784],[2.7967,35.5697,633.1495],[2.802,35.5747,630.0077],[2.8069,35.5758,628.5935],[2.8107,35.5732,630.3091],[2.8129,35.5772,631.5156],[2.8205,35.5813,630.7858],[2.822,35.5862,629.6393],[2.8268,35.5843,629.8022],[2.8434,35.601,630.4235],[2.8462,35.607,629.8533],[2.8556,35.6117,628.9141],[2.8597,35.6095,630.3305],[2.8603,35.614,631.3936],[2.864,35.6183,631.7596],[2.8695,35.6212,629.4269],[2.8756,35.6211,628.8373],[2.8787,35.6169,629.7063],[2.8832,35.6175,629.3525],[2.8848,35.6133,629.1096],[2.8934,35.6078,633.5103],[2.8965,35.6116,634.7799],[2.8881,35.6219,633.7374],[2.887,35.6264,632.7318],[2.8925,35.6343,630.8111],[2.8983,35.6358,633.6018],[2.9042,35.6395,633.2914],[2.8901,35.6548,641.9301],[2.8974,35.6683,646.8666],[2.9,35.6768,650.1097],[2.9018,35.6841,652.5064],[2.9012,35.6995,660.8972],[2.8991,35.7048,663.9954],[2.8894,35.7047,660.4253],[2.8845,35.7087,659.7026],[2.882,35.714,663.7891],[2.8827,35.7194,666.6291],[2.8866,35.7283,676.4036],[2.8827,35.7549,691.3807],[2.884,35.7621,694.6597],[2.8831,35.7673,704.3856],[2.8804,35.7715,705.1274],[2.881,35.7762,715.8097],[2.8688,35.7885,698.2251],[2.8743,35.7988,735.1003],[2.8735,35.8043,718.1589],[2.8832,35.8099,738.2719],[2.8999,35.814,720.169],[2.9019,35.8089,772.8531],[2.9102,35.8069,765.5389],[2.9215,35.8069,765.4238],[2.9262,35.8053,764.7274],[2.9321,35.8066,762.7167],[2.9388,35.8048,788.7346],[2.9423,35.8083,796.1782],[2.953,35.8132,849.9847],[2.9612,35.8136,884.705],[2.9718,35.821,880.6895],[2.9753,35.8274,918.9478],[2.9806,35.8261,907.2777],[2.9845,35.8295,936.1627],[2.9901,35.8315,937.7617],[3.0017,35.8215,953.9706],[3.0124,35.8068,844.7299],[3.0165,35.7553,725.3784],[3.0207,35.7454,721.3363],[3.0259,35.7404,720.1984],[3.0345,35.7402,725.9946],[3.0551,35.7456,748.1368],[3.0471,35.7118,704.6927],[3.052,35.6792,692.1938],[3.0603,35.6735,688.0544],[3.0631,35.662,681.6191],[3.1407,35.6762,702.8423],[3.1331,35.6862,690.4818],[3.1831,35.6783,727.8378],[3.1967,35.6869,722.4192],[3.2302,35.7411,750.9351],[3.2307,35.7602,775.2092],[3.2275,35.7644,789.5093],[3.2313,35.7764,827.4155],[3.2296,35.7851,890.4711],[3.2315,35.7896,860.86],[3.2435,35.8011,845.7432],[3.2492,35.8024,851.1277],[3.2554,35.813,854.7793],[3.2649,35.8206,863.4963],[3.279,35.8244,849.3189],[3.2809,35.8195,849.8398],[3.2804,35.7998,807.8871],[3.2861,35.7884,789.7125],[3.2996,35.782,773.9078],[3.3169,35.7599,745.2479],[3.3306,35.7539,731.4896],[3.3365,35.7535,728.3673],[3.3708,35.759,708.4286],[3.3825,35.7713,708.1475],[3.389,35.7755,710.2044],[3.3921,35.7797,711.4922],[3.3874,35.7841,715.0717],[3.3759,35.8076,738.7479],[3.3981,35.817,742.3763],[3.4022,35.8136,740.0204],[3.4177,35.8136,713.7227],[3.4238,35.8037,710.7385],[3.4239,35.7984,707.9659],[3.4406,35.7953,699.1754],[3.4478,35.7891,692.0416],[3.4538,35.7748,681.7287],[3.4534,35.768,683.9161],[3.4574,35.7644,676.5134],[3.467,35.7617,675.1053],[3.4615,35.7474,697.8293],[3.4705,35.7376,710.5389],[3.5128,35.6775,652.536],[3.5439,35.6513,665.0669],[3.5364,35.7317,658.0033],[3.5328,35.7495,673.5551],[3.5361,35.7623,647.7139],[3.5425,35.7655,643.209],[3.5392,35.769,646.4547],[3.5283,35.7708,649.3459],[3.5132,35.7827,664.9647],[3.5145,35.7912,666.2515],[3.5205,35.805,681.3147],[3.5176,35.8087,689.1783],[3.5063,35.814,708.8887],[3.5122,35.8152,698.644],[3.5279,35.8138,696.0451],[3.5357,35.8158,695.1484],[3.5426,35.8205,698.5938],[3.5529,35.832,693.7415],[3.5663,35.8418,708.7538],[3.5785,35.8395,691.5987],[3.6002,35.8412,669.7687],[3.6001,35.85,672.0291],[3.575,35.8562,704.1761],[3.5804,35.868899999999996,738.6601],[3.5978,35.8806,737.9057],[3.63,35.8821,666.0293],[3.6211,35.8996,682.7609],[3.6087,35.9123,714.5577],[3.6196,35.915,687.2883],[3.6169,35.9211,697.7981],[3.609,35.9308,709.0774],[3.5893,35.9476,759.2071],[3.5869,35.9554,775.3583],[3.5894,35.9626,831.8234],[3.5749,35.9685,738.9345],[3.5674,35.9758,795.8865],[3.5684,35.98,840.5248],[3.5654,35.9882,867.6058],[3.5651,35.994,868.2595],[3.5533,36.016,872.5081],[3.528,36.0239,1181.5067],[3.5121,36.0227,1156.615],[3.4971,36.0303,1210.8219],[3.4833,36.0336,1168.2484],[3.4657,36.0333,1189.4529],[3.4595,36.0404,1200.5972],[3.4549,36.0413,1192.3943],[3.4433,36.039,970.0854],[3.4395,36.0345,1028.1094],[3.4249,36.0327,1042.8104],[3.4042,36.0441,938.3703],[3.4032,36.0495,922.9839],[3.4042,36.0547,991.254],[3.3985,36.0654,913.2502],[3.4047,36.0668,920.585],[3.4094,36.066,940.8742],[3.4117,36.0623,1010.4154],[3.4278,36.0596,1068.6925],[3.4464,36.0654,1118.7766],[3.4536,36.08,1311.8687],[3.4621,36.0833,1271.6094],[3.4727,36.0939,1263.1681],[3.4837,36.1007,1259.7482],[3.4907,36.1024,1288.425],[3.4996,36.112,1284.6316],[3.5082,36.1185,1199.0941],[3.4991,36.1344,1070.9773],[3.499,36.1446,1119.7671],[3.4966,36.1482,1168.6011],[3.4873,36.1493,1164.2451],[3.4802,36.1582,1172.5228],[3.4837,36.1724,1108.4099],[3.488,36.1779,1091.3812],[3.4898,36.19,879.752],[3.5026,36.1979,827.8097],[3.5127,36.2008,817.3726],[3.5266,36.1999,742.3393],[3.5373,36.2022,825.1105],[3.5408,36.2051,902.7853],[3.546,36.2066,881.5043],[3.5594,36.2052,709.4913],[3.557,36.2119,690.0131],[3.5573,36.2182,653.1317],[3.5673,36.2263,646.6385],[3.568,36.2383,626.139],[3.5557,36.2529,602.8917],[3.5473,36.2697,568.2524],[3.541,36.2727,586.6986],[3.535,36.2727,557.4586],[3.5203,36.2767,556.2578],[3.5344,36.2813,590.6628],[3.5386,36.296,596.3793],[3.5455,36.307,608.271],[3.5482,36.318,650.5337],[3.538,36.3196,668.9763],[3.5388,36.3243,730.989],[3.5581,36.3359,704.6311],[3.5676,36.336,682.8961],[3.5754,36.3381,682.1648],[3.58,36.3404,689.8119],[3.5851,36.3474,609.8965],[3.592,36.3503,646.6052],[3.5887,36.3557,616.4375],[3.5758,36.3629,673.6146],[3.5673,36.3697,861.1268],[3.5505,36.3893,940.8679],[3.551,36.3947,956.8373],[3.5466,36.4046,912.9068],[3.5626,36.4129,793.5215],[3.5649,36.4187,626.2449],[3.5635,36.4227,557.1141],[3.5661,36.4334,472.7558],[3.5616,36.4305,507.0364],[3.5428,36.4297,835.7089],[3.535,36.4374,697.0095],[3.5265,36.4427,575.4063],[3.5202,36.4453,553.7505],[3.5119,36.445,342.4895],[3.5053,36.4498,298.5],[3.5028,36.4562,298.5],[3.4977,36.4561,298.5],[3.4843,36.4492,298.5],[3.4792,36.4499,298.5],[3.477,36.4457,298.5],[3.4833,36.4431,312.5535],[3.4843,36.4375,298.5],[3.4793,36.4333,348.4],[3.4712,36.4352,298.5],[3.4655,36.4339,303.8938],[3.4518,36.4229,298.5],[3.4466,36.4122,299.4212],[3.4348,36.4142,305.9061],[3.4287,36.4122,310.2876],[3.4333,36.4095,310.0153],[3.4339,36.4053,315.8809],[3.4307,36.4024,315.0352],[3.4244,36.4035,319.6336],[3.4184,36.4071,325.8364],[3.4159,36.4123,385.7304],[3.4115,36.416,454.4792],[3.4062,36.417,580.4298],[3.4009,36.4205,687.7251],[3.3945,36.4306,938.1069],[3.3888,36.4334,1094.8685],[3.3787,36.4335,1035.0696],[3.3714,36.4534,685.0774],[3.3612,36.4561,900.1013],[3.3678,36.4629,912.3591],[3.3638,36.4656,1035.989],[3.3605,36.4707,1068.4624],[3.3558,36.4725,1053.1185],[3.3456,36.472,1044.6877],[3.3397,36.4747,957.1436],[3.33,36.4797,660.2554],[3.3109,36.4954,439.9956],[3.301,36.495,464.1644],[3.2968,36.5024,739.7759],[3.2826,36.4994,722.3885],[3.284,36.4918,532.7384],[3.2749,36.4851,769.8041],[3.2641,36.4858,549.7614],[3.2582,36.4838,537.0554],[3.2391,36.489,473.8651],[3.2284,36.4907,494.0123],[3.217,36.4901,389.2575],[3.2115,36.4924,493.7294],[3.1957,36.4944,370.7038],[3.19,36.4831,372.1406],[3.182,36.4764,457.5299],[3.1789,36.4701,477.866],[3.1785,36.4652,601.837],[3.1875,36.4488,593.7095],[3.1883,36.4414,694.051],[3.1769,36.4398,1033.3679],[3.1645,36.4336,1231.2151],[3.1687,36.4293,1156.1361],[3.1704,36.4242,1223.6887],[3.1627,36.4109,1060.1921],[3.1454,36.4067,962.9531],[3.1356,36.3986,684.7175],[3.1305,36.4011,717.8066],[3.1226,36.4156,640.2742],[3.117,36.4198,551.7319],[3.1018,36.4246,465.9475],[3.0861,36.4202,455.439],[3.0835,36.4152,462.7534],[3.0767,36.4098,602.5718],[3.0666,36.4049,781.2215],[3.0674,36.4124,770.3264],[3.0655,36.4281,367.1858],[3.0486,36.4391,355.0081],[3.0452,36.4362,367.8002],[3.0548,36.4276,418.1628],[3.0519,36.4039,456.2917],[3.0526,36.3871,458.0969],[3.0498,36.3819,436.3878],[3.0403,36.375,455.7656],[3.0245,36.3577,564.6327],[3.0099,36.3499,577.5998],[3.0055,36.3512,633.2474],[2.9903,36.3507,647.0686],[2.972,36.3568,656.2338],[2.9561,36.3496,741.563],[2.9483,36.3486,779.1957],[2.9394,36.3522,890.1082],[2.9372,36.3574,944.9666],[2.9293,36.3655,1142.917],[2.9379,36.3789,1324.5254],[2.9347,36.3833,1212.2639],[2.9229,36.3915,831.0773],[2.9285,36.3956,1056.3152],[2.9285,36.4053,765.1262],[2.9262,36.4106,533.2014],[2.9228,36.4072,531.9421],[2.9077,36.4085,598.253],[2.9012,36.4071,764.7631],[2.8805,36.3972,1143.868],[2.8692,36.3938,1351.0566],[2.8604,36.3878,1387.6196],[2.8497,36.3729,963.9595],[2.8438,36.3746,933.0461],[2.834,36.3652,859.5599],[2.8272,36.3641,909.5396],[2.8154,36.3689,805.4212],[2.7851,36.3704,650.2961],[2.7742,36.3769,321.9297],[2.7683,36.3746,645.5402],[2.7441,36.3771,1225.9857],[2.7003,36.3737,1288.9619],[2.6948,36.3715,1232.1011],[2.6841,36.3606,1200.6927],[2.6739,36.3586,1019.2562],[2.6582,36.3504,865.5914],[2.6478,36.3477,797.1183],[2.6323,36.3348,425.3661],[2.6271,36.3361,384.4842],[2.6224,36.3324,484.6858],[2.6151,36.3296,707.2003],[2.6056,36.3239,804.7563],[2.5999,36.317,713.9468],[2.592,36.3109,711.1592],[2.5862,36.3085,794.3925],[2.5807,36.3082,739.66],[2.57,36.3125,675.9587],[2.5503999999999998,36.3149,696.7652],[2.5206,36.3096,717.0499],[2.5212,36.3024,701.2352],[2.5273,36.2963,581.6012],[2.5265,36.2882,608.0703],[2.5212,36.2838,537.8217],[2.5231,36.2781,432.5103],[2.5171,36.2623,399.2302],[2.5052,36.2464,347.5842],[2.4958,36.2448,344.2122],[2.4924,36.2406,333.3863],[2.4914,36.2359,343.324],[2.4971,36.2344,335.8992],[2.504,36.2362,343.647],[2.5137,36.2297,339.0417],[2.5209,36.228,341.6654],[2.5144,36.2252,343.6422],[2.5124,36.2205,345.9133],[2.508,36.2184,346.235],[2.508,36.2106,348.4659],[2.51,36.2054,349.5225],[2.5142,36.2008,354.123],[2.52,36.201,354.4443],[2.5219,36.187,364.8794],[2.5269,36.1762,394.7689],[2.5464,36.1752,373.3358],[2.5489,36.1792,372.9188],[2.5518,36.1744,411.782],[2.5648,36.1664,445.7812],[2.5849,36.1585,423.0],[2.5812,36.1562,445.7609],[2.5802,36.15,466.8639],[2.5911,36.145,435.1401],[2.5894,36.1382,465.2108],[2.5962,36.1386,448.3971],[2.6017,36.1333,463.3624],[2.6024,36.1277,429.5533],[2.5969,36.1271,423.0],[2.593,36.125,423.8591],[2.5902,36.1203,425.1954],[2.5901,36.1152,427.5894],[2.5919,36.1099,425.3943],[2.587,36.0992,524.8424],[2.5874,36.0929,567.8208],[2.5731,36.0936,486.9078],[2.5677,36.096,473.6582],[2.5345,36.0804,550.9053],[2.5288,36.0717,569.5017],[2.5282,36.0665,581.2905],[2.5222,36.0644,616.7342],[2.516,36.0668,636.3063],[2.5019,36.0502,662.9994],[2.4977,36.049,666.7873],[2.4804,36.052,723.4907],[2.4695,36.0571,812.9056],[2.4597,36.0582,836.9867],[2.4545,36.0557,763.991],[2.4599,36.0538,823.5574],[2.4611,36.0427,884.1335],[2.461,36.0365,938.8038],[2.4542,36.0235,1267.2161],[2.4617,36.0161,1095.1794],[2.4607,36.0097,988.9943],[2.4527,35.9916,821.2798],[2.4526,35.9857,781.4808],[2.4592,35.9763,837.9464],[2.456,35.9711,834.8556],[2.4474,35.9657,880.2366],[2.4447,35.9621,944.0955],[2.4431,35.9519,976.0331],[2.4394,35.9487,1005.3645],[2.4294,35.9453,1112.121],[2.4043,35.9456,1301.7223],[2.3951,35.943,1240.7239],[2.3905,35.9515,1440.7653],[2.385,35.9534,1479.2971],[2.3777,35.9528,1481.0587],[2.3727,35.9492,1363.8212],[2.3558,35.9544,1264.5298],[2.3491,35.953,1223.3167],[2.3477,35.9473,1133.7572],[2.3538,35.9421,1133.968],[2.3664,35.9371,1119.1532],[2.3617,35.9256,1168.2031],[2.3635,35.9205,1212.3857],[2.3527,35.9143,1315.0609],[2.351,35.9096,1440.8011],[2.3535,35.9051,1330.6947],[2.3489,35.9015,1365.2734],[2.3193,35.8933,1674.7079],[2.3177,35.8809,1766.0472],[2.3134,35.8775,1772.4419],[2.315,35.8519,1205.9879],[2.3099,35.8341,1247.0322],[2.3026,35.8172,1284.7195],[2.2961,35.8095,1259.1387],[2.2954,35.8037,1259.626],[2.2929,35.7998,1209.8723],[2.2835,35.7961,1229.865],[2.2797,35.7925,1267.2561],[2.2796,35.7881,1192.132],[2.2844,35.7753,1017.0323],[2.2866,35.7563,943.1689],[2.269,35.7264,890.7867],[2.2569,35.7254,874.2826],[2.241,35.7179,908.1953],[2.2239,35.7198,788.5345],[2.2183,35.7219,784.0076],[2.2173,35.7271,818.6736],[2.2138,35.7306,809.4509],[2.2013,35.7367,810.6853],[2.1933,35.738,849.0735],[2.1749,35.7349,848.3447],[2.1615,35.7349,879.1346],[2.1562,35.733,850.6531],[2.1459,35.7172,841.5665],[2.1434,35.7107,831.9106],[2.1507,35.695,821.6298],[2.1499,35.6882,812.1788],[2.1459,35.6781,806.8052],[2.1562,35.6588,864.1016],[2.1727,35.6541,831.7413],[2.1876,35.6518,814.2825],[2.2278,35.6388,760.3799],[2.2653,35.6342,733.2621],[2.2789,35.6291,728.7867],[2.2888,35.6299,736.65],[2.2889,35.6241,749.9747],[2.2864,35.6192,757.2606],[2.2817,35.6148,757.1034],[2.2686,35.6048,817.8156],[2.2572,35.6002,826.8325],[2.2551,35.5552,828.5483],[2.2689,35.51,788.1121],[2.2772,35.4761,773.759],[2.2854,35.4623,789.3443],[2.3146,35.4614,772.2903],[2.388,35.4677,741.8566],[2.4074,35.4742,729.6683],[2.4279,35.4844,721.6537],[2.4925,35.5102,683.844],[2.4979,35.5068,678.7953],[2.5015,35.5011,672.2752],[2.5061,35.4991,671.6079],[2.5144,35.5056,669.8157],[2.5141,35.512,670.8513],[2.5158,35.5173,671.0422],[2.5355,35.4936,673.5483],[2.559,35.4862,676.7643],[2.5695,35.48,680.6823],[2.5923,35.4657,700.5536],[2.6075,35.451,723.9514],[2.6418,35.4457,713.7711],[2.6788,35.4586,715.1595],[2.6975,35.4672,708.39]],
[[2.5924,36.156,484.5511],[2.5849,36.1585,423.0],[2.5906,36.1611,451.995],[2.5924,36.156,484.5511]]]]}}