{"type":"Feature","properties":{"GID_2":"DZA.29.7_1","GID_0":"DZA","country":"Algeria","GID_1":"DZA.29_1","province":"Mila","NL_NAME_1":"ولايةميلة","county":"Bouhatem","VARNAME_2":"NA","NL_NAME_2":"NA","TYPE_2":"Commune","ENGTYPE_2":"Commune","CC_2":"4314","HASC_2":"DZ.ML.BO","name":"Bouhatem.county"},
"geometry":{"type": "MultiPolygon","coordinates": [[[[6.0967,36.3808,491.9173],[6.0724,36.3698,730.7097],[6.0524,36.3662,748.5175],[6.0384,36.3586,691.7904],[6.0321,36.3586,593.5369],[6.0303,36.3641,510.9386],[6.0029,36.3535,688.4354],[5.9959,36.3531,676.3274],[5.9838,36.356,646.6074],[5.9807,36.3412,850.899],[5.9972,36.3326,779.2994],[6.0025,36.3229,844.8388],[6.0033,36.3153,897.9219],[6.0027,36.3041,1030.2786],[5.994,36.2958,1129.0151],[5.9862,36.2825,1094.1515],[5.9839,36.2719,1018.9014],[5.9912,36.2668,978.7089],[5.9985,36.2662,953.8081],[6.0148,36.2674,951.0595],[6.0251,36.2718,941.223],[6.0313,36.2726,941.051],[6.0396,36.2631,899.5988],[6.0538,36.2524,865.2218],[6.0752,36.2475,848.6278],[6.0838,36.2504,836.8557],[6.0915,36.2478,834.6628],[6.0857,36.2653,903.204],[6.0916,36.2919,956.7803],[6.1032,36.2963,979.6877],[6.1165,36.2968,1017.799],[6.1023,36.3117,1076.7156],[6.104,36.3183,1079.9285],[6.104,36.3302,1063.626],[6.095,36.3474,888.2154],[6.0984,36.3748,558.1772],[6.0967,36.3808,491.9173]]]]}}