{"type":"Feature","properties":{"GID_2":"DZA.17.3_1","GID_0":"DZA","country":"Algeria","GID_1":"DZA.17_1","province":"ElBayadh","NL_NAME_1":"ولايةالبيض","county":"Boualem","VARNAME_2":"HadjMechriBoualem","NL_NAME_2":"NA","TYPE_2":"Commune","ENGTYPE_2":"Commune","CC_2":"3206","HASC_2":"DZ.EB.BL","name":"Boualem.county"},
"geometry":{"type": "MultiPolygon","coordinates": [[[[1.5019,33.4968,1218.8246],[1.514,33.5105,1239.8816],[1.5479,33.5395,1292.5795],[1.6102,33.6864,1531.7618],[1.6192,33.7148,1247.1848],[1.6091,33.7183,1254.1719],[1.6106,33.7298,1269.7959],[1.6076,33.7373,1273.875],[1.6057,33.7554,1305.7559],[1.5948,33.7642,1315.7278],[1.5885,33.7743,1328.5101],[1.5885,33.7793,1337.1694],[1.5864,33.7837,1343.7809],[1.5872,33.7978,1383.5143],[1.5853,33.8088,1402.6978],[1.6089,33.8286,1492.2096],[1.6394,33.877,1452.2065],[1.6471,33.8919,1436.0394],[1.5765,33.8655,1411.012],[1.5691,33.8645,1405.2136],[1.5478,33.8702,1381.4493],[1.5345,33.8813,1414.213],[1.527,33.8799,1328.4347],[1.5225,33.8624,1375.8813],[1.5145,33.8483,1401.3602],[1.5098,33.8271,1405.3353],[1.5124,33.8222,1394.8962],[1.5162,33.8191,1397.9563],[1.5269,33.8139,1383.3496],[1.522,33.8104,1395.2373],[1.5004,33.8066,1381.379],[1.4936,33.8039,1373.0752],[1.4556,33.7379,1494.0101],[1.4435,33.72,1509.6515],[1.4302,33.6942,1516.4092],[1.4193,33.6808,1524.8347],[1.4132,33.6494,1475.7124],[1.4078,33.5992,1476.9187],[1.4104,33.5812,1425.7264],[1.4218,33.5566,1335.0073],[1.4205,33.5451,1303.1486],[1.4229,33.5302,1292.0088],[1.4424,33.5276,1306.9513],[1.4463,33.5251,1339.0582],[1.4515,33.5117,1244.6981],[1.4551,33.5085,1258.2766],[1.4831,33.4991,1224.2581],[1.4943,33.4967,1220.1763],[1.5019,33.4968,1218.8246]]]]}}