{"type":"Feature","properties":{"GID_2":"DZA.1.4_1","GID_0":"DZA","country":"Algeria","GID_1":"DZA.1_1","province":"Adrar","NL_NAME_1":"ولايةأدرا","county":"Aoulef","VARNAME_2":"Awla-f","NL_NAME_2":"NA","TYPE_2":"Commune","ENGTYPE_2":"Commune","CC_2":"112","HASC_2":"DZ.AR.AL","name":"Aoulef.county"},
"geometry":{"type": "MultiPolygon","coordinates": [[[[1.2807,26.789,240.1339],[1.2941,26.9979,317.7733],[1.2933,27.0402,316.4126],[1.1185,26.9997,291.3685],[1.0925,26.9917,287.6619],[1.0123,26.9893,265.946],[0.9617,26.986,280.0052],[0.518,26.9229,293.1468],[0.9048,26.2977,188.6291],[1.1327,26.7457,222.4879],[1.2807,26.789,240.1339]]]]}}