{"type": "Feature","bbox": [1.6451,36.3571,2.8329,36.6986],"geometry": {"type": "MultiPolygon","coordinates": [[[[1.7809,36.4234,807.2125],[1.7798,36.4288,575.8829],[1.7815,36.4341,497.7942],[1.7869,36.4355,552.4761],[1.7913,36.4389,604.0824],[1.7972,36.4399,609.6949],[1.801,36.4366,670.1715],[1.8116,36.4338,757.558],[1.814,36.4276,740.0532],[1.8189,36.4284,775.2983],[1.8222,36.4313,821.6255],[1.8484,36.4317,990.6067],[1.8592,36.4333,915.8257],[1.8934,36.4302,964.9203],[1.9075,36.4323,995.1478],[1.9199,36.4297,968.0385],[1.9512,36.4286,1018.058],[1.9566,36.4189,943.3692],[1.9747,36.4138,989.8048],[1.9785,36.4109,942.8212],[1.9998,36.4134,978.7772],[2.0096,36.4171,936.3984],[2.0209,36.4158,910.1207],[2.028,36.4188,935.8489],[2.0326,36.4251,1026.5065],[2.038,36.4255,985.8589],[2.0476,36.4202,1063.5258],[2.0571,36.4173,961.9839],[2.0686,36.4196,1012.784],[2.0734,36.4242,983.0132],[2.0786,36.423,1038.6],[2.0848,36.4241,1108.6599],[2.0886,36.4293,1275.5327],[2.0971,36.4333,1223.9619],[2.1083,36.4428,1119.4087],[2.1148,36.4422,1180.4282],[2.1243,36.4467,1276.1263],[2.1291,36.447,1293.9913],[2.1347,36.4451,1304.2428],[2.1387,36.4403,1173.5631],[2.1445,36.4386,1213.5356],[2.1551,36.4416,1379.0671],[2.1622,36.4397,1328.5135],[2.1753,36.441,1252.205],[2.1853,36.4357,1166.5522],[2.2032,36.4333,1178.9468],[2.2146,36.4335,1147.6594],[2.2159,36.4284,1058.4285],[2.2213,36.4274,1124.16],[2.2263,36.4287,998.3549],[2.2292,36.4324,1115.566],[2.237,36.4333,1146.5232],[2.2508,36.4274,1084.4833],[2.2555,36.4237,999.229],[2.2534,36.4194,897.7283],[2.2551,36.4152,1033.033],[2.2669,36.4193,842.9529],[2.2771,36.4151,974.5975],[2.288,36.4155,933.3929],[2.2984,36.4214,964.9653],[2.3101,36.4229,929.0303],[2.3379,36.4214,774.6906],[2.3425,36.4184,823.4429],[2.3547,36.4235,827.3112],[2.3707,36.4263,822.2589],[2.3818,36.4219,615.7664],[2.4048,36.4273,504.9818],[2.4193,36.426,393.4609],[2.4363,36.4203,304.5743],[2.4505,36.4212,274.3979],[2.455,36.4188,392.6108],[2.4694,36.4173,486.3588],[2.4805,36.4137,534.2798],[2.4983,36.4256,541.5284],[2.5092,36.426,552.6516],[2.5138,36.4344,593.2756],[2.5233,36.443,571.3052],[2.5175,36.4475,511.4362],[2.5142,36.453,342.4137],[2.5158,36.4603,240.1281],[2.5299,36.4686,143.2999],[2.5384,36.4618,242.1283],[2.5429,36.4602,232.8285],[2.5584,36.4599,168.9007],[2.5637,36.4616,174.8781],[2.5655,36.4656,152.0313],[2.5712,36.4675,156.9909],[2.5791,36.4601,210.607],[2.5877,36.4574,129.6992],[2.594,36.4556,105.7503],[2.6024,36.4579,140.2831],[2.6033,36.4634,149.9094],[2.6203,36.4717,92.5767],[2.6217,36.4796,85.7156],[2.625,36.485,84.4296],[2.6234,36.4902,81.1175],[2.6167,36.4987,77.8032],[2.618,36.5029,76.0266],[2.6066,36.5082,71.3114],[2.6066,36.5128,69.1823],[2.6289,36.5148,68.1951],[2.637,36.5138,68.3328],[2.6542,36.5186,64.5361],[2.6605,36.5306,55.2586],[2.6657,36.5325,56.8596],[2.6672,36.5379,51.4665],[2.6723,36.5415,50.7374],[2.6795,36.5505,45.2251],[2.6861,36.5521,43.3941],[2.6887,36.5578,41.8301],[2.6998,36.559,45.1744],[2.7037,36.565,39.829],[2.727,36.5806,29.744],[2.7327,36.5836,29.8251],[2.7346,36.5757,31.2522],[2.7488,36.5758,27.2823],[2.7641,36.5791,22.7972],[2.7821,36.5888,16.3578],[2.7821,36.5951,15.6671],[2.7855,36.5989,15.1599],[2.8196,36.6002,12.8764],[2.8294,36.6069,12.8043],[2.8298,36.6139,13.3121],[2.8329,36.6231,12.2902],[2.8248,36.6331,12.1287],[2.8211,36.6416,13.4485],[2.8162,36.6433,13.4021],[2.8109,36.6487,13.2459],[2.8036,36.6512,12.2262],[2.8071,36.6598,10.5212],[2.8134,36.6592,9.7201],[2.8267,36.6612,44.4421],[2.8261,36.6657,25.6327],[2.8063,36.6765,6.2062],[2.81,36.6856,62.8787],[2.8077,36.6986,2.3459],[2.8027,36.6977,0.0],[2.7951,36.6917,3.2285],[2.7756,36.681,17.1785],[2.7701,36.6819,11.339],[2.7642,36.6806,0.0],[2.7347,36.671,2.7186],[2.7261,36.6645,18.1648],[2.721,36.6639,0.0],[2.688,36.6478,0.0],[2.6701,36.6367,0.8165],[2.6671,36.6321,0.688],[2.6543,36.6269,0.6759],[2.6503,36.6216,20.4037],[2.6433,36.6183,18.7665],[2.6032,36.6016,8.9327],[2.5976,36.6017,7.7137],[2.5587,36.5932,2.8597],[2.5356,36.5912,2.5684],[2.5025,36.5927,1.2046],[2.4955,36.5911,0.0],[2.484,36.5941,0.8218],[2.4776,36.593,0.0],[2.4384,36.5961,5.3858],[2.4319,36.5943,0.1581],[2.4269,36.5949,4.1094],[2.4099,36.6043,0.0],[2.4055,36.6146,0.0],[2.4076,36.6191,30.1211],[2.4065,36.6251,12.4513],[2.4016,36.6345,1.1431],[2.379,36.6401,10.0064],[2.3486,36.6439,3.0638],[2.3389,36.6405,2.7167],[2.3135,36.6383,2.6594],[2.3089,36.6373,0.0],[2.3046,36.634,76.8244],[2.2901,36.633,11.1507],[2.2716,36.6273,0.0],[2.2662,36.6267,8.384],[2.262,36.628,1.3006],[2.2572,36.6206,0.7727],[2.2517,36.6187,1.2642],[2.2388,36.6187,15.1934],[2.2269,36.6136,4.7271],[2.2102,36.6113,7.4637],[2.1959,36.6112,0.0],[2.1809,36.6055,0.0],[2.1735,36.6001,8.9069],[2.1646,36.5986,16.8178],[2.1607,36.6002,13.2306],[2.1534,36.5925,6.4714],[2.1467,36.5926,0.0],[2.1297,36.5869,13.4317],[2.1144,36.5838,0.0],[2.1082,36.5848,3.7898],[2.0932,36.5802,5.4936],[2.0545,36.5757,0.0],[2.0427,36.5714,21.8672],[2.0231,36.5682,7.454],[1.9989,36.5659,2.1558],[1.9523,36.5676,2.6345],[1.9124,36.5766,14.0729],[1.9082,36.5742,1.6998],[1.9029,36.574,1.2743],[1.8793,36.5675,1.9986],[1.8526,36.5698,39.6369],[1.8145,36.5608,6.4458],[1.8024,36.5605,0.0],[1.7867,36.5576,0.0],[1.7633,36.559,0.0],[1.7581,36.5612,26.299],[1.7374,36.556,3.2135],[1.6939,36.5519,1.1734],[1.6955,36.5417,6.6933],[1.6907,36.5384,9.7597],[1.6901,36.533,13.926],[1.6876,36.5294,14.0455],[1.6817,36.5261,15.24],[1.6803,36.5213,22.4411],[1.6722,36.5119,57.2629],[1.675,36.5009,60.3194],[1.6742,36.4963,91.0362],[1.6694,36.4926,37.7214],[1.6744,36.4899,71.6213],[1.667,36.4848,44.8778],[1.6565,36.4807,73.5219],[1.6523,36.4752,61.6967],[1.6461,36.4732,84.3563],[1.6482,36.4681,94.4453],[1.6451,36.4558,89.0985],[1.6494,36.451,133.0822],[1.6548,36.448,118.6933],[1.6579,36.4422,365.4564],[1.6695,36.4408,363.5346],[1.6699,36.4288,707.3497],[1.6751,36.4237,762.8202],[1.6823,36.4232,653.5926],[1.686,36.4187,522.6735],[1.6869,36.4074,405.1311],[1.6916,36.4016,346.7955],[1.698,36.3991,290.7578],[1.6953,36.3819,285.4355],[1.7029,36.37,408.8735],[1.7048,36.365,508.7808],[1.7043,36.3588,615.4935],[1.7084,36.3571,726.9158],[1.7125,36.3584,695.7002],[1.7151,36.363,731.4287],[1.7359,36.3757,518.8987],[1.7384,36.381,446.2844],[1.7419,36.3838,420.2458],[1.7552,36.3886,451.0092],[1.7582,36.3924,442.513],[1.7646,36.3953,553.6624],[1.7757,36.3961,680.2308],[1.7811,36.3987,674.5977],[1.7837,36.4184,843.1109],[1.7809,36.4234,807.2125]]]]}
,"properties": {"GID_1": "DZA.45_1","GID_0": "DZA","country": "Algeria","province": "Tipaza","VARNAME_1": "Tibaza|Tefessedt","NL_NAME_1": "ولايةتيبازة","TYPE_1": "Wilaya","ENGTYPE_1": "Province","CC_1": "42","HASC_1": "DZ.TP","ISO_1": "DZ-42","name": "Tipaza.province","area_km2": 1732.893,"hist_schema_id": "Elevation0-9000","hist_area_km2": {"0": 22.431,"25": 85.261,"50": 125.193,"75": 134.887,"100": 95.377,"125": 86.944,"150": 86.233,"175": 90.64,"200": 78.135,"225": 65.572,"250": 58.014,"275": 52.857,"300": 51.276,"325": 47.395,"350": 45.626,"375": 44.178,"400": 44.932,"425": 42.617,"450": 40.283,"475": 37.336,"500": 35.256,"525": 32.257,"550": 28.729,"575": 28.27,"600": 26.463,"625": 25.063,"650": 23.411,"675": 21.638,"700": 20.598,"725": 20.308,"750": 19.576,"775": 17.052,"800": 15.432,"825": 13.438,"850": 12.585,"875": 9.823,"900": 8.971,"925": 6.873,"950": 6.038,"975": 4.571,"1000": 3.752,"1025": 3.462,"1050": 2.166,"1075": 2.03,"1100": 1.74,"1125": 1.654,"1150": 1.467,"1175": 1.347,"1200": 1.228,"1225": 0.887,"1250": 0.819,"1275": 0.341,"1300": 0.239,"1325": 0.085,"1350": 0.085,"1375": 0.034,"1400": 0.017}}}