{"type":"Feature","properties":{"GID_2":"DZA.48.22_1","GID_0":"DZA","country":"Algeria","GID_1":"DZA.48_1","province":"Tlemcen","NL_NAME_1":"تلمسان","county":"DarYaghmouracene","VARNAME_2":"DarYaghmourassene","NL_NAME_2":"NA","TYPE_2":"Commune-Cotiere","ENGTYPE_2":"Commune-Cotiere","CC_2":"1319","HASC_2":"DZ.TL.DY","name":"Dar_Yaghmouracene.county"},
"geometry":{"type": "MultiPolygon","coordinates": [[[[-1.7033,35.1135,272.3536],[-1.7058,35.1186,304.6041],[-1.7137,35.1247,235.6537],[-1.7162,35.1293,275.7522],[-1.7205,35.1402,245.5159],[-1.718,35.1454,132.1924],[-1.7232,35.1498,167.8141],[-1.7256,35.1552,0.0],[-1.7312,35.1534,0.0],[-1.7323,35.1476,0.0],[-1.7367,35.1434,12.1038],[-1.7542,35.1308,0.0],[-1.7728,35.1203,0.0],[-1.7794,35.1188,0.0],[-1.784,35.1226,2.7693],[-1.791,35.1206,0.0],[-1.7976,35.1225,0.0],[-1.8015,35.1252,4.4847],[-1.8053,35.1309,23.6553],[-1.8091,35.128,29.5674],[-1.815,35.127,64.7907],[-1.8256,35.1143,109.9316],[-1.8278,35.1085,135.2305],[-1.827,35.1037,90.3672],[-1.8162,35.0791,185.9639],[-1.8114,35.0752,189.9332],[-1.8086,35.0698,223.7965],[-1.8055,35.0587,84.9885],[-1.7991,35.0629,98.5012],[-1.7887,35.0621,121.1651],[-1.7718,35.0581,109.6373],[-1.7633,35.063,130.2179],[-1.7681,35.0711,248.3301],[-1.7731,35.0743,245.8892],[-1.764,35.0806,188.184],[-1.7636,35.0853,156.039],[-1.7483,35.0893,268.7896],[-1.7477,35.0954,195.5601],[-1.735,35.0943,306.764],[-1.7196,35.098,382.3177],[-1.7168,35.104,437.7982],[-1.7068,35.1095,316.3138],[-1.7033,35.1135,272.3536]]]]}}