{"type":"Feature","properties":{"GID_2":"DZA.24.5_1","GID_0":"DZA","country":"Algeria","GID_1":"DZA.24_1","province":"Khenchela","NL_NAME_1":"ولايةخنشلة","county":"Chechar","VARNAME_2":"Cherchar","NL_NAME_2":"NA","TYPE_2":"Commune","ENGTYPE_2":"Commune","CC_2":"4011","HASC_2":"DZ.KH.CC","name":"Chechar.county"},
"geometry":{"type": "MultiPolygon","coordinates": [[[[7.1653,35.1201,1216.6626],[7.1637,35.1151,1252.5708],[7.1575,35.1102,1199.7463],[7.1548,35.1046,1201.6948],[7.1513,35.1022,1185.4137],[7.1449,35.101,1181.3682],[7.1393,35.1024,1201.5281],[7.1271,35.0963,1213.6464],[7.1092,35.0911,1221.8743],[7.1035,35.0906,1220.0846],[7.0975,35.0929,1218.2332],[7.0878,35.0933,1197.702],[7.0989,35.114,1219.7223],[7.0887,35.1215,1273.986],[7.0802,35.1228,1370.2761],[7.0545,35.1111,1406.1516],[7.0379,35.1084,1363.7437],[7.0188,35.1016,1312.3643],[7.0045,35.0984,1224.8375],[7.0062,35.0938,1270.6987],[7.0046,35.0879,1267.8633],[6.9978,35.0837,1308.7327],[7.0033,35.0752,1206.0426],[7.0042,35.0699,1184.4348],[6.9943,35.0596,1208.6732],[6.9856,35.0443,1194.7382],[6.9846,35.0399,1175.738],[6.9781,35.0323,1190.9348],[6.9667,35.0282,1222.7036],[6.9684,35.0237,1239.2852],[6.9585,35.0214,1246.3105],[6.9557,35.0147,1273.4822],[6.9621,35.0155,1293.1104],[6.9566,35.0088,1306.6976],[6.9441,35.0009,1383.1432],[6.937,34.9996,1418.3495],[6.9319,34.9946,1441.8812],[6.9333,34.9896,1376.0673],[6.9209,34.9917,1490.6353],[6.9173,34.9869,1510.3469],[6.9039,34.9838,1517.1956],[6.8985,34.9809,1621.4021],[6.8948,34.9758,1622.6035],[6.8949,34.9689,1618.9403],[6.9014,34.9689,1616.0149],[6.9056,34.9643,1615.892],[6.9128,34.965,1612.9678],[6.9169,34.961,1549.6808],[6.9189,34.9544,1469.0365],[6.9321,34.9349,1297.1948],[6.9359,34.917,1202.9948],[6.9488,34.8994,1095.7349],[6.9504,34.8953,1061.941],[6.9493,34.8901,994.6405],[6.9503,34.884,908.5051],[6.9613,34.8722,917.5328],[6.9634,34.8673,809.9673],[6.9632,34.8628,687.1576],[6.9607,34.8541,538.8076],[6.9507,34.8365,434.8777],[6.9391,34.8265,384.9643],[6.9265,34.8118,367.2502],[6.9293,34.8053,581.2638],[6.9263,34.8019,585.4362],[6.879,34.7766,228.0026],[6.8768,34.7687,206.453],[6.8817,34.7662,192.8686],[6.9666,34.7566,226.8684],[7.0065,34.7337,205.1244],[7.0343,34.7272,218.8049],[7.1009,34.7153,291.7225],[7.1211,34.7097,302.1911],[7.1394,34.7009,283.8569],[7.1518,34.7068,305.6387],[7.1683,34.7083,318.1893],[7.181,34.7049,299.9209],[7.1936,34.6988,277.1523],[7.2016,34.6966,244.2545],[7.2065,34.7026,253.0108],[7.2013,34.7056,259.8949],[7.2023,34.7109,276.6774],[7.2001,34.7224,281.6277],[7.2011,34.728,314.6542],[7.1988,34.7334,289.89],[7.2012,34.7389,310.0017],[7.1922,34.7584,339.7908],[7.1914,34.773,364.0377],[7.1791,34.7786,365.8643],[7.1792,34.7839,381.9101],[7.1741,34.7929,392.7968],[7.1699,34.7934,396.4661],[7.1625,34.8007,429.5048],[7.1489,34.8061,437.5786],[7.141,34.8129,456.6399],[7.1402,34.8278,511.4429],[7.1421,34.8341,511.0183],[7.1452,34.8382,509.9481],[7.1536,34.8434,533.9373],[7.1549,34.8553,610.8198],[7.161,34.8614,623.5295],[7.1604,34.8725,711.1469],[7.1618,34.8795,704.0468],[7.1674,34.8855,732.7764],[7.1773,34.8897,804.1349],[7.1813,34.8976,837.2367],[7.181,34.9077,861.878],[7.1853,34.9132,889.361],[7.1975,34.9199,915.3018],[7.1961,34.9244,929.5521],[7.197,34.929,1005.0436],[7.1947,34.9333,923.0653],[7.1989,34.937,934.1959],[7.1992,34.9448,1007.3422],[7.1957,34.9492,981.2813],[7.1924,34.9575,986.151],[7.1922,34.9707,991.1345],[7.2036,34.9886,1017.5211],[7.2082,34.9936,1029.5493],[7.2144,34.9971,1037.3342],[7.2194,35.0037,1049.6089],[7.2187,35.0166,1096.5574],[7.2093,35.0345,1216.403],[7.2106,35.0403,1256.1962],[7.2077,35.0466,1397.978],[7.2017,35.0529,1471.377],[7.1975,35.0602,1439.0302],[7.1993,35.0664,1371.7812],[7.2055,35.0746,1327.6084],[7.2056,35.0861,1307.4764],[7.2027,35.0948,1308.2218],[7.2002,35.0987,1289.7139],[7.19,35.1036,1287.3215],[7.1801,35.1135,1243.9707],[7.1653,35.1201,1216.6626]]]]}}