{"type":"Feature","properties":{"GID_2":"DZA.28.57_1","GID_0":"DZA","country":"Algeria","GID_1":"DZA.28_1","province":"Médéa","NL_NAME_1":"ولايةالمدية","county":"SidiZiane","VARNAME_2":"NA","NL_NAME_2":"NA","TYPE_2":"Commune","ENGTYPE_2":"Commune","CC_2":"2614","HASC_2":"DZ.MD.SZ","name":"Sidi_Ziane.county"},
"geometry":{"type": "MultiPolygon","coordinates": [[[[3.2342,35.9717,951.6825],[3.255,35.975,992.1481],[3.2709,35.9804,909.8403],[3.2742,35.9834,906.6227],[3.2706,35.9886,895.0394],[3.2706,35.9938,858.9099],[3.2783,36.001,896.2951],[3.2783,36.007,911.4529],[3.2863,36.018,964.3779],[3.2858,36.0228,1004.9681],[3.288,36.0288,1067.8873],[3.2846,36.0387,1215.9167],[3.2958,36.0424,1167.8572],[3.2962,36.047,1066.9281],[3.2952,36.056,914.8243],[3.2736,36.0635,872.0343],[3.2707,36.0699,833.0482],[3.2564,36.0741,825.9769],[3.2432,36.0814,789.6668],[3.2362,36.0831,782.5654],[3.2303,36.0826,761.4633],[3.2292,36.0762,801.4085],[3.2266,36.0715,859.3771],[3.2216,36.0692,844.4392],[3.2141,36.0684,891.7531],[3.2088,36.0716,819.6899],[3.2025,36.0713,789.3572],[3.1944,36.0737,732.571],[3.191,36.0695,728.0856],[3.193,36.0584,745.5901],[3.2027,36.0421,755.7048],[3.207,36.0381,785.2911],[3.2148,36.0253,783.2328],[3.2193,36.0209,803.2533],[3.2242,36.0187,806.3402],[3.2231,36.012,830.0807],[3.2264,36.0066,819.6042],[3.2515,35.9931,846.909],[3.253,35.9869,870.3634],[3.2297,35.9812,1019.3207],[3.2303,35.9753,1021.4885],[3.2342,35.9717,951.6825]]]]}}