{"type":"Feature","properties":{"GID_2":"DZA.39.1_1","GID_0":"DZA","country":"Algeria","GID_1":"DZA.39_1","province":"Skikda","NL_NAME_1":"سكيكدة","county":"AinBouziane","VARNAME_2":"NA","NL_NAME_2":"NA","TYPE_2":"Commune","ENGTYPE_2":"Commune","CC_2":"2122","HASC_2":"DZ.SK.AB","name":"Ain_Bouziane.county"},
"geometry":{"type": "MultiPolygon","coordinates": [[[[6.8309,36.5622,801.6736],[6.8244,36.5663,720.233],[6.8136,36.5682,620.2362],[6.8095,36.5723,505.3605],[6.8052,36.5741,544.9603],[6.7901,36.5778,455.0665],[6.7842,36.5869,274.7652],[6.786,36.5984,220.7393],[6.7913,36.6018,206.8892],[6.7766,36.6122,284.4232],[6.7658,36.6123,388.7787],[6.7504,36.6165,456.5249],[6.7359,36.6162,300.3212],[6.7313,36.6448,224.4738],[6.7243,36.649,240.4122],[6.7206,36.6584,204.9022],[6.714,36.6546,228.2517],[6.6887,36.6501,286.3782],[6.6729,36.6332,287.1065],[6.6651,36.629,323.9933],[6.6614,36.6228,439.0541],[6.6731,36.6229,416.8184],[6.6833,36.617,391.4802],[6.6818,36.6035,470.8493],[6.6874,36.6011,370.3034],[6.6881,36.5969,448.7707],[6.6798,36.5836,667.6132],[6.6837,36.5738,748.8193],[6.7033,36.5736,785.4221],[6.7224,36.5782,789.987],[6.7272,36.5751,720.6199],[6.7384,36.5742,551.6678],[6.7398,36.5662,655.309],[6.7485,36.5641,575.3728],[6.7601,36.5641,587.653],[6.7695,36.5564,626.899],[6.7872,36.5526,755.0646],[6.8005,36.555,791.0377],[6.8105,36.5544,746.6786],[6.8264,36.5589,815.5874],[6.8309,36.5622,801.6736]]]]}}