{"type":"Feature","properties":{"GID_2":"DZA.37.36_1","GID_0":"DZA","country":"Algeria","GID_1":"DZA.37_1","province":"Sétif","NL_NAME_1":"ولايةسطيف","county":"GueltaZerka","VARNAME_2":"GueltaZerga","NL_NAME_2":"NA","TYPE_2":"Commune","ENGTYPE_2":"Commune","CC_2":"1956","HASC_2":"DZ.SF.GZ","name":"Guelta_Zerka.county"},
"geometry":{"type": "MultiPolygon","coordinates": [[[[5.7961,36.2438,1225.5283],[5.7904,36.2423,1210.6201],[5.7846,36.2384,1166.1531],[5.781,36.2336,1136.9698],[5.7744,36.2322,1139.7334],[5.7645,36.2338,1160.2538],[5.7543,36.2322,1177.2971],[5.7497,36.2388,1116.4998],[5.7446,36.2428,1081.8947],[5.7367,36.2413,1088.4277],[5.7254,36.2441,1112.5198],[5.7164,36.2444,1109.7966],[5.7065,36.2484,1054.2302],[5.6926,36.2478,1030.8058],[5.6683,36.2516,938.1093],[5.663,36.251,942.042],[5.6528,36.2552,972.7806],[5.6447,36.2518,936.5361],[5.6354,36.2445,857.7625],[5.629,36.2207,961.2],[5.612,36.221,986.8215],[5.5994,36.2256,1010.4887],[5.5872,36.2352,1160.0398],[5.58,36.2376,1257.5315],[5.5508,36.2255,1261.4326],[5.5473,36.2186,1228.4783],[5.5534,36.2058,1226.2317],[5.5586,36.2027,1216.2278],[5.5648,36.2027,1224.7736],[5.5781,36.2093,1197.5681],[5.5858,36.1969,1144.0454],[5.6043,36.1928,1100.9634],[5.6084,36.1877,1057.3921],[5.5915,36.1869,1084.9547],[5.5862,36.1843,1099.4807],[5.5948,36.1688,1043.2404],[5.593,36.1639,1043.1171],[5.5986,36.1557,995.5031],[5.6042,36.1567,978.871],[5.6372,36.1756,961.5621],[5.6651,36.1879,975.6736],[5.6716,36.1894,978.9789],[5.6781,36.1896,987.5794],[5.6815,36.1851,985.3527],[5.7201,36.1724,980.1957],[5.7234,36.1677,983.8247],[5.7339,36.1674,1023.7858],[5.7393,36.1853,1024.9315],[5.7458,36.1891,1056.3845],[5.7577,36.1874,1049.0093],[5.7724,36.2028,1053.0686],[5.7983,36.2077,1119.1696],[5.795,36.2216,1151.1899],[5.7975,36.2356,1203.4337],[5.7961,36.2438,1225.5283]]]]}}