{"type": "Feature","bbox": [4.6051,36.4943,4.7483,36.5764],"geometry": {"type": "MultiPolygon","coordinates": [[[[4.7225,36.5026,1080.9417],[4.7298,36.5038,1142.9541],[4.7341,36.5103,1099.1144],[4.7339,36.5156,865.1973],[4.7483,36.5185,935.5161],[4.7468,36.5309,535.5211],[4.7349,36.5373,462.9192],[4.7248,36.54,392.8928],[4.7093,36.5381,327.6472],[4.7101,36.5429,396.2102],[4.7049,36.5432,375.6869],[4.7028,36.5519,425.6834],[4.6983,36.5561,527.9451],[4.6949,36.5629,542.8077],[4.6984,36.5688,547.7457],[4.6967,36.5756,315.7953],[4.6889,36.5762,357.3635],[4.6868,36.5712,333.8052],[4.6765,36.5764,147.8879],[4.6726,36.5746,128.7355],[4.6629,36.5745,103.1117],[4.6516,36.556,140.149],[4.6466,36.5555,111.8448],[4.6427,36.5489,113.6189],[4.6405,36.5381,154.1189],[4.6378,36.5334,163.1119],[4.6338,36.5303,118.9414],[4.6229,36.5287,122.1762],[4.6051,36.5051,130.5439],[4.6244,36.4943,198.0612],[4.6304,36.4954,252.8531],[4.6537,36.5093,256.0728],[4.6636,36.5068,297.1517],[4.6687,36.5092,315.6614],[4.6696,36.5134,281.2868],[4.6773,36.5066,321.9654],[4.6909,36.5063,527.3646],[4.7014,36.5023,847.3163],[4.7225,36.5026,1080.9417]]]]}
,"properties": {"GID_2": "DZA.8.32_1","GID_0": "DZA","country": "Algeria","GID_1": "DZA.8_1","province": "Béjaïa","NL_NAME_1": "بجاية","county": "Seddouk","VARNAME_2": "Sadduk","NL_NAME_2": "NA","TYPE_2": "Commune","ENGTYPE_2": "Commune","CC_2": "626","HASC_2": "DZ.BJ.SE","name": "Seddouk.county","area_km2": 60.12304,"hist_schema_id": "Elevation0-9000","hist_area_km2": {"100": 0.06812,"125": 3.20321,"150": 2.77727,"175": 2.53852,"200": 2.82814,"225": 2.8623,"250": 3.1859,"275": 3.6799,"300": 3.64579,"325": 4.39522,"350": 4.70179,"375": 3.81583,"400": 2.62331,"425": 2.69145,"450": 1.90796,"475": 1.8058,"500": 1.49919,"525": 1.36289,"550": 0.83484,"575": 0.90296,"600": 0.73264,"625": 0.86896,"650": 0.6134,"675": 0.61342,"700": 0.59638,"725": 0.52824,"750": 0.54528,"775": 0.63048,"800": 0.54529,"825": 0.61346,"850": 0.57938,"875": 0.30674,"900": 0.32378,"925": 0.2045,"950": 0.2045,"975": 0.23859,"1000": 0.18746,"1025": 0.15338,"1050": 0.10225,"1075": 0.05113,"1100": 0.06817,"1150": 0.05113,"1175": 0.01704,"1200": 0.01704}}}