{"type":"Feature","properties":{"GID_2":"DZA.23.27_1","GID_0":"DZA","country":"Algeria","GID_1":"DZA.23_1","province":"Jijel","NL_NAME_1":"ولايةجيجل","county":"Texenna","VARNAME_2":"NA","NL_NAME_2":"NA","TYPE_2":"Commune","ENGTYPE_2":"Commune","CC_2":"1824","HASC_2":"DZ.JJ.TE","name":"Texenna.county"},
"geometry":{"type": "MultiPolygon","coordinates": [[[[5.8504,36.6148,293.1198],[5.8552,36.6179,270.1717],[5.8466,36.6309,220.4942],[5.8502,36.6395,234.3223],[5.8459,36.6554,161.7612],[5.8496,36.6604,283.9321],[5.8457,36.6628,186.8344],[5.848,36.6667,131.9873],[5.8524,36.6682,141.6349],[5.8578,36.6728,246.2147],[5.861,36.6798,251.5751],[5.8608,36.6855,120.0778],[5.8651,36.6887,250.6572],[5.8605,36.7006,275.2922],[5.8554,36.7016,219.9584],[5.851,36.6984,211.0725],[5.8453,36.6985,359.7715],[5.8426,36.7102,580.4604],[5.8476,36.72,434.2169],[5.8454,36.7257,524.9376],[5.8406,36.7289,439.2812],[5.8345,36.728,251.2017],[5.8297,36.7293,203.5509],[5.8259,36.7248,137.5],[5.8213,36.7234,137.5],[5.8008,36.7229,183.8876],[5.7889,36.7292,257.724],[5.7877,36.7356,197.8627],[5.7923,36.7375,186.6563],[5.7931,36.742,159.1315],[5.7868,36.7441,80.5674],[5.7778,36.7367,97.354],[5.7644,36.7295,235.0478],[5.7426,36.7213,426.7718],[5.7239,36.7192,538.8808],[5.7136,36.7302,169.3315],[5.709,36.721,197.5739],[5.7072,36.7117,310.1607],[5.6996,36.6939,317.4765],[5.6868,36.6858,318.2669],[5.6776,36.6761,435.416],[5.6908,36.6748,785.1782],[5.6959,36.6706,802.875],[5.6981,36.6646,1061.0868],[5.7078,36.6548,1253.5852],[5.703,36.6367,1498.6276],[5.7123,36.6153,707.1859],[5.7113,36.6094,485.9194],[5.6994,36.6082,458.629],[5.6954,36.6056,458.2687],[5.6908,36.6052,464.5557],[5.6873,36.6014,482.2589],[5.682,36.6002,506.8801],[5.682,36.5958,584.5028],[5.6938,36.5942,805.7261],[5.7067,36.5958,730.3675],[5.7253,36.6043,879.8015],[5.7226,36.6105,526.2552],[5.7273,36.6141,422.0074],[5.7324,36.6155,452.8192],[5.7545,36.6142,365.8686],[5.7622,36.6156,361.2661],[5.7833,36.6227,312.1307],[5.7876,36.6221,396.5435],[5.7913,36.6257,312.2998],[5.8039,36.6306,279.5535],[5.8179,36.6264,389.5964],[5.8263,36.6207,317.1595],[5.8341,36.6199,326.2702],[5.8452,36.6142,328.9481],[5.8504,36.6148,293.1198]]]]}}