{"type":"Feature","properties":{"GID_2":"DZA.48.27_1","GID_0":"DZA","country":"Algeria","GID_1":"DZA.48_1","province":"Tlemcen","NL_NAME_1":"تلمسان","county":"Fellaoucene","VARNAME_2":"NA","NL_NAME_2":"NA","TYPE_2":"Commune","ENGTYPE_2":"Commune","CC_2":"1320","HASC_2":"DZ.TL.FE","name":"Fellaoucene.county"},
"geometry":{"type": "MultiPolygon","coordinates": [[[[-1.5922,34.9953,187.9863],[-1.5865,34.995,188.1747],[-1.5905,35.0005,196.3842],[-1.5922,34.9953,187.9863]]],
[[[-1.5942,34.9689,198.2127],[-1.5948,34.9629,201.0676],[-1.5757,34.963,242.9057],[-1.5694,34.9643,293.8486],[-1.5634,34.9702,295.9789],[-1.5317,34.9899,218.158],[-1.52,35.0098,167.9035],[-1.5156,35.0098,157.4784],[-1.5109,35.0119,213.1104],[-1.5086,35.0163,179.2439],[-1.5078,35.0213,150.3696],[-1.5108,35.0305,117.8667],[-1.5148,35.0339,116.4682],[-1.5191,35.0295,125.4561],[-1.5239,35.0309,127.5162],[-1.5275,35.0358,143.8277],[-1.5335,35.0366,129.4831],[-1.537,35.0406,194.852],[-1.5432,35.0436,235.89],[-1.5704,35.0494,228.2487],[-1.5765,35.052,214.591],[-1.5784,35.0562,164.5134],[-1.5847,35.0567,168.0811],[-1.5903,35.0649,221.8803],[-1.5955,35.0651,249.0638],[-1.6032,35.0571,235.4307],[-1.6144,35.0569,207.41],[-1.6184,35.0592,254.2676],[-1.6239,35.0584,247.1637],[-1.6402,35.0447,334.4357],[-1.6401,35.0331,409.6185],[-1.6429,35.0282,438.024],[-1.6486,35.0261,443.2607],[-1.6555,35.0262,460.6275],[-1.6571,35.0201,462.9408],[-1.637,35.018,471.7335],[-1.6016,35.0057,247.922],[-1.5904,35.0063,220.4607],[-1.5806,35.0031,177.8789],[-1.5825,34.9986,228.8915],[-1.5865,34.995,188.1747],[-1.5839,34.9905,186.9724],[-1.5835,34.985,187.9253],[-1.579,34.9819,210.4788],[-1.5801,34.9751,196.1306],[-1.5919,34.9766,199.5576],[-1.5957,34.9731,194.9731],[-1.5942,34.9689,198.2127]]]]}}