{"type":"Feature","properties":{"GID_2":"DZA.37.3_1","GID_0":"DZA","country":"Algeria","GID_1":"DZA.37_1","province":"Sétif","NL_NAME_1":"ولايةسطيف","county":"AinAbessa","VARNAME_2":"NA","NL_NAME_2":"NA","TYPE_2":"Commune","ENGTYPE_2":"Commune","CC_2":"1914","HASC_2":"DZ.SF.AB","name":"Ain_Abessa.county"},
"geometry":{"type": "MultiPolygon","coordinates": [[[[5.2618,36.3653,1115.2079],[5.259,36.3533,826.3879],[5.2604,36.3461,848.7409],[5.2633,36.3413,821.9746],[5.261,36.3358,934.701],[5.2609,36.3248,1075.6201],[5.2482,36.317,1208.6978],[5.2315,36.3128,1149.5712],[5.2264,36.296,1158.3091],[5.2332,36.2932,1138.1338],[5.2365,36.2886,1132.2886],[5.2291,36.2717,1082.1593],[5.2309,36.2591,1000.6953],[5.2236,36.2556,1047.885],[5.2136,36.2464,1009.7938],[5.223,36.2394,936.7597],[5.2208,36.2257,934.3693],[5.2248,36.2211,947.3932],[5.2398,36.2201,1037.6127],[5.2497,36.2177,1022.5426],[5.2657,36.2235,1018.0886],[5.2649,36.2351,1074.8564],[5.2757,36.2373,1083.0439],[5.2885,36.2444,1118.6996],[5.2948,36.2446,1138.2863],[5.3,36.2503,1219.99],[5.3415,36.2783,1219.5742],[5.3506,36.283,1129.177],[5.3628,36.2856,1169.9526],[5.3684,36.2914,1256.4597],[5.3676,36.2986,1376.8529],[5.3714,36.3192,1539.8046],[5.37,36.3248,1519.6812],[5.3618,36.3313,1585.2273],[5.3552,36.3336,1704.1324],[5.3649,36.3438,1402.9585],[5.3663,36.3489,1248.0184],[5.3656,36.3581,1158.9369],[5.3604,36.3621,1129.8719],[5.3577,36.3675,1089.8751],[5.3632,36.3781,965.0101],[5.3627,36.3841,890.7924],[5.3514,36.3854,911.423],[5.3596,36.3913,802.7402],[5.3346,36.3935,924.4836],[5.3234,36.3898,969.1855],[5.3184,36.3937,935.988],[5.3128,36.3908,984.627],[5.3101,36.382,1066.3169],[5.3043,36.383,1038.0828],[5.2989,36.3872,915.3907],[5.2911,36.3876,987.238],[5.2842,36.3852,980.6854],[5.2739,36.3748,981.5556],[5.2768,36.3691,1084.4806],[5.2618,36.3653,1115.2079]]]]}}