{"type":"Feature","properties":{"GID_2":"DZA.21.24_1","GID_0":"DZA","country":"Algeria","GID_1":"DZA.21_1","province":"Guelma","NL_NAME_1":"ولايةقالمة","county":"Khezzara","VARNAME_2":"Khezara","NL_NAME_2":"NA","TYPE_2":"Commune","ENGTYPE_2":"Commune","CC_2":"2415","HASC_2":"DZ.GL.KH","name":"Khezzara.county"},
"geometry":{"type": "MultiPolygon","coordinates": [[[[7.4194,36.3243,830.1389],[7.4401,36.3173,647.3983],[7.446,36.318,549.3903],[7.4532,36.326,514.7862],[7.4728,36.3337,505.8837],[7.4831,36.3347,462.5924],[7.4997,36.3315,495.0098],[7.5129,36.3349,633.6683],[7.5268,36.3341,633.5562],[7.5362,36.3396,422.1175],[7.5476,36.3373,572.2025],[7.5614,36.3319,679.1218],[7.5718,36.3327,646.1041],[7.5746,36.34,517.8683],[7.5715,36.3455,475.0849],[7.569,36.355,356.8576],[7.5744,36.3577,320.1958],[7.5811,36.3578,302.5271],[7.5883,36.3611,281.327],[7.5713,36.3696,291.7147],[7.5714,36.3742,243.9612],[7.5785,36.3824,254.2053],[7.5686,36.3891,295.0823],[7.5407,36.3982,322.6418],[7.5356,36.4021,285.1032],[7.5333,36.3974,327.1188],[7.5338,36.3915,348.0274],[7.5306,36.386,365.366],[7.5254,36.3825,367.3901],[7.5166,36.3812,299.8831],[7.4937,36.3685,342.8376],[7.479,36.3633,368.6296],[7.4693,36.3648,433.9446],[7.4648,36.3637,445.409],[7.4557,36.3665,525.89],[7.4329,36.3612,737.5447],[7.4191,36.363,947.5811],[7.4077,36.3573,1143.3577],[7.4015,36.3559,1311.516],[7.4194,36.3243,830.1389]]]]}}