{"type": "Feature","bbox": [3.6342,36.5834,3.7623,36.6854],"geometry": {"type": "MultiPolygon","coordinates": [[[[3.7262,36.5834,624.2499],[3.7309,36.5844,594.6779],[3.733,36.5882,545.2479],[3.7346,36.5988,291.1071],[3.7375,36.6035,243.7526],[3.7371,36.6084,235.7546],[3.7298,36.6187,172.7536],[3.7257,36.6285,139.8505],[3.7219,36.6319,124.272],[3.717,36.6468,94.6893],[3.722,36.648,97.8648],[3.733,36.647,155.305],[3.7374,36.6496,175.282],[3.7619,36.6498,248.9789],[3.7623,36.6572,574.478],[3.7579,36.6654,436.8405],[3.7457,36.6695,224.1985],[3.7429,36.6749,204.5815],[3.7375,36.6774,182.9327],[3.7323,36.6772,161.9096],[3.7185,36.6854,140.2631],[3.7011,36.6795,60.084],[3.6959,36.6824,49.2427],[3.6879,36.6827,65.0923],[3.6857,36.6766,140.329],[3.687,36.6696,162.1052],[3.6799,36.6662,133.7502],[3.6761,36.6602,214.3383],[3.6759,36.6555,174.5619],[3.6709,36.6584,212.8738],[3.6645,36.6565,292.2615],[3.6616,36.6509,270.2821],[3.6624,36.6457,290.4338],[3.6517,36.6381,281.0355],[3.6402,36.6355,304.2107],[3.6372,36.6312,239.7243],[3.6412,36.6221,321.2411],[3.6406,36.6174,371.4057],[3.6342,36.6055,592.3453],[3.6386,36.6022,622.7531],[3.642,36.5933,821.0331],[3.6468,36.5878,914.0124],[3.6679,36.5857,805.0522],[3.6802,36.5897,826.389],[3.6974,36.5901,796.5806],[3.7062,36.5879,744.6344],[3.7143,36.5884,781.7698],[3.7262,36.5834,624.2499]]]]}
,"properties": {"GID_2": "DZA.13.11_1","GID_0": "DZA","country": "Algeria","GID_1": "DZA.13_1","province": "Boumerdès","NL_NAME_1": "ولايةبومرداس","county": "ChabetElAmeur","VARNAME_2": "Sa`abat","NL_NAME_2": "NA","TYPE_2": "Commune","ENGTYPE_2": "Commune","CC_2": "3513","HASC_2": "DZ.BM.CA","name": "Chabet_El_Ameur.county","area_km2": 76.29381,"hist_schema_id": "Elevation0-9000","hist_area_km2": {"50": 0.83322,"75": 1.81973,"100": 2.53429,"125": 4.01423,"150": 5.12014,"175": 4.66122,"200": 4.18498,"225": 4.13418,"250": 4.38949,"275": 3.93009,"300": 4.32156,"325": 4.28762,"350": 3.67511,"375": 3.52207,"400": 3.04587,"425": 2.19513,"450": 2.46757,"475": 1.95712,"500": 1.54877,"525": 1.736,"550": 1.54876,"575": 1.51482,"600": 1.22554,"625": 0.73197,"650": 0.80004,"675": 0.85114,"700": 0.749,"725": 0.74901,"750": 0.91925,"775": 0.62987,"800": 0.73201,"825": 0.45963,"850": 0.37451,"875": 0.17024,"900": 0.2894,"925": 0.13619,"950": 0.01702,"975": 0.01702}}}