{"type": "Feature","bbox": [6.6065,35.9607,6.7842,36.1053],"geometry": {"type": "MultiPolygon","coordinates": [[[[6.7187,35.9607,961.8445],[6.7346,35.9645,933.9871],[6.7393,35.9713,955.4161],[6.7607,35.9792,1080.5836],[6.7655,35.9829,1012.508],[6.7652,35.998,938.7945],[6.767,36.004,915.6807],[6.7724,36.007,920.6437],[6.7842,36.0179,939.8218],[6.7759,36.024,961.5702],[6.759,36.0264,969.8687],[6.7443,36.0412,1063.3757],[6.742,36.0478,1170.3965],[6.7182,36.0574,1366.8685],[6.7146,36.0611,1412.5159],[6.6947,36.0943,943.1887],[6.6869,36.0966,961.9216],[6.6709,36.1053,1061.3247],[6.6652,36.1014,1088.01],[6.6468,36.0807,995.1275],[6.637,36.0753,975.2694],[6.6311,36.0739,964.3459],[6.6241,36.0693,776.2662],[6.6249,36.0613,761.7806],[6.6065,36.0559,759.079],[6.6173,36.0491,759.6799],[6.6303,36.0344,762.3225],[6.6389,36.0278,763.9648],[6.6404,36.0196,764.9426],[6.6409,36.0111,765.2399],[6.6375,36.006,766.0692],[6.6117,36.0022,770.5916],[6.6145,35.9982,771.3683],[6.6303,35.9963,769.9219],[6.6273,35.981,774.6225],[6.6291,35.9751,782.7148],[6.6402,35.9688,850.5865],[6.6468,35.9731,944.6783],[6.6507,35.9788,890.719],[6.656,35.9732,981.7518],[6.6617,35.9708,950.0343],[6.6677,35.972,899.4418],[6.6694,35.9775,935.5262],[6.6835,35.9819,950.9998],[6.6908,35.988,992.9779],[6.6936,35.9933,1040.1246],[6.6972,35.9802,1049.2321],[6.7068,35.9628,935.1326],[6.7187,35.9607,961.8445]]]]}
,"properties": {"GID_2": "DZA.34.23_1","GID_0": "DZA","country": "Algeria","GID_1": "DZA.34_1","province": "OumelBouaghi","NL_NAME_1": "ولايةأمالبواقي","county": "OuledGacem","VARNAME_2": "NA","NL_NAME_2": "NA","TYPE_2": "Commune","ENGTYPE_2": "Commune","CC_2": "428","HASC_2": "DZ.OB.OG","name": "Ouled_Gacem.county","area_km2": 137.9165,"hist_schema_id": "Elevation0-9000","hist_area_km2": {"750": 3.2056,"775": 17.0609,"800": 6.9788,"825": 4.8179,"850": 5.2119,"875": 4.8685,"900": 5.0055,"925": 7.2171,"950": 9.7558,"975": 12.3288,"1000": 8.1455,"1025": 5.1276,"1050": 4.4418,"1075": 3.756,"1100": 3.5674,"1125": 3.4986,"1150": 3.2245,"1175": 3.7734,"1200": 3.499,"1225": 3.5333,"1250": 3.2244,"1275": 2.6069,"1300": 2.1265,"1325": 1.7492,"1350": 1.389,"1375": 1.4919,"1400": 1.4061,"1425": 1.0117,"1450": 0.9774,"1475": 0.5488,"1500": 0.4802,"1525": 0.2915,"1550": 0.2744,"1575": 0.2573,"1600": 0.2573,"1625": 0.3259,"1650": 0.1544,"1675": 0.2058,"1700": 0.1029,"1725": 0.0172}}}