{"type":"Feature","properties":{"GID_2":"DZA.17.20_1","GID_0":"DZA","country":"Algeria","GID_1":"DZA.17_1","province":"ElBayadh","NL_NAME_1":"ولايةالبيض","county":"SidiTifour","VARNAME_2":"NA","NL_NAME_2":"NA","TYPE_2":"Commune","ENGTYPE_2":"Commune","CC_2":"3222","HASC_2":"DZ.EB.ST","name":"Sidi_Tifour.county"},
"geometry":{"type": "MultiPolygon","coordinates": [[[[1.5019,33.4968,1218.8246],[1.502,33.4912,1202.9366],[1.5112,33.4816,1196.2037],[1.5339,33.4752,1204.0123],[1.5475,33.464,1248.8118],[1.5547,33.463,1299.2642],[1.5523,33.4545,1323.9293],[1.5486,33.4493,1339.7909],[1.5493,33.4434,1322.5129],[1.5522,33.44,1283.8427],[1.5581,33.4371,1261.0801],[1.5544,33.4282,1216.2472],[1.5569,33.4108,1198.0306],[1.5582,33.4065,1154.5259],[1.5613,33.4032,1141.672],[1.57,33.3998,1135.7881],[1.5761,33.4005,1144.1859],[1.5854,33.3949,1134.5945],[1.6046,33.3931,1133.5035],[1.6096,33.3942,1136.6587],[1.6374,33.4168,1157.9978],[1.6468,33.4191,1161.2192],[1.6558,33.4264,1142.2736],[1.6629,33.4265,1136.4526],[1.6789,33.42,1097.3251],[1.6827,33.415,1116.7485],[1.6827,33.3976,1126.7748],[1.6855,33.3869,1083.1794],[1.697,33.3673,1030.187],[1.7002,33.364,1023.0298],[1.7199,33.3526,997.1609],[1.7245,33.3523,995.1954],[1.7281,33.3601,998.5194],[1.7298,33.3721,1009.1473],[1.7289,33.3802,1017.5374],[1.7658,33.4063,1052.2606],[1.7826,33.4227,1017.6636],[1.7902,33.4231,1014.5478],[1.8795,33.4153,973.6467],[1.8866,33.4167,967.8517],[1.9101,33.4669,988.4105],[1.8945,33.5078,996.8496],[1.8993,33.5264,1000.7188],[1.9115,33.565,1038.4633],[1.937,33.5834,997.3433],[1.9332,33.591,995.7516],[1.9202,33.6017,1007.6608],[1.9173,33.606,1012.0211],[1.9128,33.6064,1026.2231],[1.9015,33.6028,1082.3308],[1.8983,33.6122,1019.4022],[1.8899,33.6166,1055.4087],[1.8862,33.6212,1031.0994],[1.8826,33.6278,1084.0325],[1.8926,33.635,1032.822],[1.8842,33.6433,1090.3407],[1.8848,33.6496,1057.6104],[1.8789,33.6603,1091.9995],[1.8739,33.6633,1065.312],[1.868,33.6608,1081.2109],[1.8634,33.6505,1135.802],[1.8582,33.6513,1202.9226],[1.8542,33.6528,1208.5291],[1.8518,33.6606,1091.8274],[1.8444,33.6645,1094.9165],[1.8401,33.6733,1152.5833],[1.827,33.6699,1105.1914],[1.823,33.6734,1102.2422],[1.8183,33.6734,1106.0458],[1.8125,33.6758,1114.5613],[1.8182,33.6834,1094.5239],[1.8058,33.6867,1101.672],[1.8025,33.6905,1101.7891],[1.7846,33.6905,1108.5399],[1.7716,33.7011,1115.4946],[1.7732,33.7157,1128.7072],[1.7683,33.7244,1135.5521],[1.7671,33.7374,1145.9663],[1.7624,33.7391,1148.1083],[1.7599,33.7446,1158.7328],[1.7615,33.7557,1164.2745],[1.7581,33.7617,1179.1838],[1.7337,33.7694,1192.3424],[1.7205,33.7677,1206.6627],[1.7141,33.7719,1217.0477],[1.7103,33.777,1234.198],[1.7072,33.788,1248.13],[1.6959,33.8127,1396.7471],[1.6968,33.8177,1445.7231],[1.7142,33.829,1376.4021],[1.6487,33.8678,1545.9595],[1.7338,33.8849,1424.5092],[1.7224,33.8901,1471.6194],[1.7118,33.901,1522.0229],[1.6872,33.8993,1484.3074],[1.6471,33.8919,1436.0394],[1.6394,33.877,1452.2065],[1.6089,33.8286,1492.2096],[1.5853,33.8088,1402.6978],[1.5872,33.7978,1383.5143],[1.5864,33.7837,1343.7809],[1.5885,33.7793,1337.1694],[1.5885,33.7743,1328.5101],[1.5948,33.7642,1315.7278],[1.6057,33.7554,1305.7559],[1.6076,33.7373,1273.875],[1.6106,33.7298,1269.7959],[1.6091,33.7183,1254.1719],[1.6192,33.7148,1247.1848],[1.6102,33.6864,1531.7618],[1.5479,33.5395,1292.5795],[1.514,33.5105,1239.8816],[1.5019,33.4968,1218.8246]]]]}}