{"type":"Feature","properties":{"GID_2":"DZA.31.11_1","GID_0":"DZA","country":"Algeria","GID_1":"DZA.31_1","province":"Naâma","NL_NAME_1":"ولايةالنعامة","county":"Sfissifa","VARNAME_2":"NA","NL_NAME_2":"NA","TYPE_2":"Commune","ENGTYPE_2":"Commune","CC_2":"4505","HASC_2":"DZ.NA.SF","name":"Sfissifa.county"},
"geometry":{"type": "MultiPolygon","coordinates": [[[[-1.3576,32.7303,1663.3799],[-1.2701,32.6955,1334.0457],[-1.0139,32.5264,1208.8783],[-0.9963,32.517,1232.1257],[-0.978,32.5251,1339.811],[-0.9761,32.5159,1482.7886],[-0.9701,32.5081,1426.4153],[-0.963,32.5042,1592.8785],[-0.9375,32.5068,1704.5334],[-0.929,32.5084,1783.4177],[-0.9193,32.5125,1797.3582],[-0.9093,32.5136,1891.38],[-0.8522,32.5108,1434.6052],[-0.8136,32.5137,1231.0702],[-0.7201,32.5576,1525.6873],[-0.6936,32.5718,1378.8964],[-0.698,32.5763,1272.3696],[-0.7012,32.5878,1195.8108],[-0.7067,32.597,1179.3851],[-0.7207,32.6126,1152.5063],[-0.7229,32.6189,1148.2081],[-0.7272,32.6229,1146.4133],[-0.7361,32.6387,1138.1343],[-0.7331,32.6477,1133.782],[-0.7248,32.6556,1130.9004],[-0.7228,32.6621,1129.8171],[-0.7222,32.6887,1139.6632],[-0.7306,32.7184,1168.3708],[-0.7232,32.7441,1204.2325],[-0.7481,32.8498,2087.7983],[-0.7689,32.8822,1387.6497],[-0.7679,32.8933,1371.085],[-0.7703,32.9337,1341.8068],[-0.721,33.0013,1297.2854],[-0.7125,33.0097,1298.4562],[-0.7018,33.0131,1306.2361],[-0.6701,33.0292,1424.4329],[-0.7483,33.0665,1266.6143],[-0.7952,33.0618,1259.1958],[-0.8093,33.0564,1257.3271],[-1.0625,32.9939,1336.462],[-1.0829,32.976,1365.2354],[-1.0901,32.9654,1345.6755],[-1.099,32.9558,1333.703],[-1.1232,32.9493,1316.7231],[-1.1337,32.9424,1313.4175],[-1.148,32.9277,1325.667],[-1.1577,32.9122,1338.8623],[-1.1722,32.8948,1360.7368],[-1.199,32.8801,1359.6982],[-1.2208,32.8629,1395.4856],[-1.2318,32.8583,1406.7195],[-1.2651,32.8501,1381.0918],[-1.2899,32.8375,1397.0496],[-1.275,32.8085,1570.193],[-1.3103,32.7731,1809.8302],[-1.3576,32.7303,1663.3799]]]]}}