{"type": "Feature","bbox": [0.2592,35.4499,0.4328,35.5572],"geometry": {"type": "MultiPolygon","coordinates": [[[[0.2835,35.4853,650.2283],[0.2877,35.4871,651.5099],[0.2931,35.4867,646.6597],[0.2935,35.4914,664.0991],[0.3014,35.4931,634.4552],[0.3102,35.4841,639.694],[0.315,35.4746,618.8372],[0.3176,35.4566,587.5513],[0.3168,35.4499,594.8611],[0.3223,35.4503,601.4172],[0.3268,35.4527,601.714],[0.3394,35.451,580.5652],[0.3456,35.4534,597.9188],[0.3587,35.4668,599.3455],[0.3792,35.4825,585.7558],[0.392,35.4762,527.799],[0.4066,35.4766,468.2513],[0.4194,35.4844,439.2966],[0.4328,35.4882,421.9366],[0.4269,35.4915,455.0601],[0.4046,35.4979,545.6433],[0.3966,35.5062,593.6351],[0.375,35.5224,778.0267],[0.3709,35.5311,746.9772],[0.3479,35.5448,724.7881],[0.3452,35.5501,707.2461],[0.3411,35.5534,698.0836],[0.3346,35.554,690.8463],[0.328,35.5572,624.0441],[0.3085,35.5541,587.38],[0.3032,35.5479,614.5335],[0.2773,35.5475,791.7499],[0.2753,35.5393,797.2227],[0.2647,35.5416,583.1733],[0.2592,35.5403,522.5473],[0.2657,35.5311,586.7651],[0.2729,35.5293,770.0614],[0.2761,35.5224,663.0233],[0.2757,35.5175,725.5105],[0.28,35.5136,868.5983],[0.2734,35.5093,872.1318],[0.2708,35.5024,826.5392],[0.2746,35.4927,727.0558],[0.2835,35.4853,650.2283]]]]}
,"properties": {"GID_2": "DZA.27.11_1","GID_0": "DZA","country": "Algeria","GID_1": "DZA.27_1","province": "Mascara","NL_NAME_1": "ولايةمعسكر","county": "ElBordj","VARNAME_2": "NA","NL_NAME_2": "NA","TYPE_2": "Commune","ENGTYPE_2": "Commune","CC_2": "2917","HASC_2": "DZ.MC.EB","name": "El_Bordj.county","area_km2": 91.07933,"hist_schema_id": "Elevation0-9000","hist_area_km2": {"400": 0.03453,"425": 0.29348,"450": 0.67329,"475": 1.07035,"500": 1.24301,"525": 1.64007,"550": 1.51908,"575": 2.12317,"600": 6.38802,"625": 7.23355,"650": 6.45605,"675": 8.12998,"700": 8.35372,"725": 8.93992,"750": 10.7857,"775": 11.51042,"800": 5.57374,"825": 3.64099,"850": 2.91627,"875": 1.84649,"900": 0.62124,"925": 0.08628}}}