{"type": "Feature","bbox": [2.9781,36.0064,3.1234,36.2008],"geometry": {"type": "MultiPolygon","coordinates": [[[[2.9781,36.0989,832.6013],[2.981,36.0848,966.8171],[2.9939,36.0738,883.7253],[3.0013,36.0567,847.8301],[3.0182,36.0438,874.2795],[3.0287,36.0412,906.9113],[3.0282,36.0364,973.0421],[3.0301,36.03,1014.326],[3.0263,36.0269,994.1409],[3.0326,36.0242,1008.613],[3.037,36.0201,1047.0214],[3.0375,36.0145,1028.7515],[3.0474,36.0118,1040.998],[3.0494,36.0064,959.8732],[3.0571,36.009,993.8686],[3.0588,36.0294,1028.3639],[3.0608,36.0358,1050.7628],[3.0634,36.0406,1117.1344],[3.0766,36.0481,1085.5032],[3.0792,36.0516,1088.3618],[3.0799,36.0562,1111.3997],[3.0759,36.061,1066.2686],[3.0811,36.0635,1003.3476],[3.0852,36.0678,971.7469],[3.0858,36.0743,1004.4598],[3.0974,36.0722,1064.3435],[3.1033,36.0747,1024.7228],[3.119,36.0911,845.8298],[3.1151,36.0964,819.6445],[3.1012,36.1064,824.9635],[3.0984,36.1112,840.8649],[3.0991,36.1174,912.6429],[3.1033,36.1226,918.3224],[3.1232,36.123,910.8061],[3.1234,36.1308,1018.0214],[3.1181,36.1343,1061.4401],[3.093,36.135,960.7014],[3.0891,36.14,998.2341],[3.0918,36.1439,931.6315],[3.1082,36.1487,819.1486],[3.1054,36.1587,921.1222],[3.0932,36.161,863.3312],[3.0816,36.1583,1001.1317],[3.0761,36.1667,774.0839],[3.0707,36.1804,719.7495],[3.0681,36.1905,690.0377],[3.069,36.1986,657.0425],[3.063,36.1975,673.9282],[3.0462,36.2008,718.5215],[3.0202,36.188,762.6366],[3.0138,36.1879,783.5108],[3.0065,36.1756,808.3835],[3.0126,36.1667,729.3157],[3.0107,36.1541,859.0239],[3.0062,36.1503,839.548],[3.0061,36.1393,991.2119],[3.0083,36.1296,1179.6276],[3.0022,36.1266,1187.6018],[3.0004,36.1203,1061.8228],[3.0016,36.1152,1038.9941],[2.9986,36.1105,941.3029],[2.9928,36.1076,902.5587],[2.9868,36.0983,850.251],[2.9781,36.0989,832.6013]]]]}
,"properties": {"GID_2": "DZA.28.44_1","GID_0": "DZA","country": "Algeria","GID_1": "DZA.28_1","province": "Médéa","NL_NAME_1": "ولايةالمدية","county": "OuledDaid","VARNAME_2": "OuledDeide","NL_NAME_2": "NA","TYPE_2": "Commune","ENGTYPE_2": "Commune","CC_2": "2606","HASC_2": "DZ.MD.OD","name": "Ouled_Daid.county","area_km2": 149.0742,"hist_schema_id": "Elevation0-9000","hist_area_km2": {"650": 0.1369,"675": 0.8727,"700": 3.1828,"725": 5.4078,"750": 4.9462,"775": 4.2276,"800": 4.1259,"825": 6.3207,"850": 10.9302,"875": 13.2428,"900": 14.8185,"925": 15.6404,"950": 15.1778,"975": 14.0473,"1000": 12.6092,"1025": 9.9376,"1050": 6.8196,"1075": 3.2381,"1100": 1.7476,"1125": 1.0281,"1150": 0.3082,"1175": 0.2911,"1200": 0.0171}}}