{"type":"Feature","properties":{"GID_2":"DZA.18.23_1","GID_0":"DZA","country":"Algeria","GID_1":"DZA.18_1","province":"ElOued","NL_NAME_1":"ولايةالوادي","county":"SidiAmrane","VARNAME_2":"SīdīAmran","NL_NAME_2":"NA","TYPE_2":"Commune","ENGTYPE_2":"Commune","CC_2":"3930","HASC_2":"DZ.EO.SM","name":"Sidi_Amrane.county"},
"geometry":{"type": "MultiPolygon","coordinates": [[[[5.7393,33.4833,103.5804],[5.7291,33.4209,96.8784],[5.9963,33.4249,60.7681],[5.9998,33.4218,62.6599],[6.0832,33.4199,54.2084],[6.073,33.5175,26.8801],[6.0677,33.5316,25.0027],[6.0299,33.5261,34.8484],[6.022,33.5302,35.9401],[6.0138,33.5309,35.0915],[6.0092,33.5255,37.3327],[5.99,33.5127,37.3846],[5.9171,33.4958,53.8543],[5.7393,33.4833,103.5804]]]]}}