{"type":"Feature","properties":{"GID_2":"DZA.6.50_1","GID_0":"DZA","country":"Algeria","GID_1":"DZA.6_1","province":"Batna","NL_NAME_1":"ولايةباتنة","county":"Seggana","VARNAME_2":"NA","NL_NAME_2":"NA","TYPE_2":"Commune","ENGTYPE_2":"Commune","CC_2":"529","HASC_2":"DZ.BT.SG","name":"Seggana.county"},
"geometry":{"type": "MultiPolygon","coordinates": [[[[5.4065,35.3524,521.1664],[5.4107,35.351,530.872],[5.4196,35.3436,562.3971],[5.4332,35.326,537.6356],[5.4372,35.313,507.6995],[5.4341,35.3081,510.1365],[5.4348,35.3032,515.3771],[5.4409,35.2918,539.9941],[5.4506,35.283,573.8373],[5.4519,35.2773,582.8922],[5.4498,35.272,618.7476],[5.4534,35.2585,795.723],[5.4579,35.2566,857.6066],[5.4656,35.258,828.6223],[5.4694,35.2635,740.5549],[5.4817,35.2735,776.5248],[5.5141,35.2843,733.8921],[5.5203,35.2817,816.4933],[5.5253,35.2713,898.177],[5.5331,35.2619,950.316],[5.5507,35.2515,709.653],[5.5643,35.2569,704.4739],[5.572,35.2656,760.386],[5.5826,35.2704,771.8698],[5.5879,35.2873,927.054],[5.5852,35.2972,1041.7251],[5.5867,35.3069,805.3226],[5.5908,35.309,774.8648],[5.6131,35.3118,855.4143],[5.6345,35.3201,823.0828],[5.6444,35.322,904.0275],[5.6493,35.3255,781.1444],[5.6631,35.3297,842.6759],[5.6743,35.3363,841.1193],[5.6885,35.3376,859.8231],[5.6855,35.3423,789.7375],[5.6876,35.3481,772.7089],[5.6925,35.3479,785.4716],[5.6889,35.3539,760.6284],[5.6824,35.3564,744.9471],[5.6754,35.3563,740.3975],[5.6791,35.3616,742.6168],[5.6837,35.363,752.9426],[5.6817,35.3739,766.9868],[5.6838,35.3791,777.6089],[5.6904,35.3866,797.7642],[5.6854,35.3875,798.4485],[5.6732,35.3849,816.1476],[5.6658,35.3855,770.7675],[5.6476,35.3967,756.3055],[5.6272,35.3899,723.9305],[5.6167,35.3936,710.4736],[5.6123,35.3977,696.3309],[5.6075,35.3983,695.1039],[5.6006,35.3966,688.0609],[5.5945,35.3988,682.3604],[5.5809,35.398,665.9408],[5.5753,35.4005,663.1821],[5.5703,35.3998,660.8765],[5.5581,35.4019,648.3385],[5.5411,35.3955,627.6306],[5.5372,35.3923,623.0945],[5.5268,35.39,613.4524],[5.516,35.3834,603.8482],[5.5018,35.3802,587.1168],[5.4954,35.3809,581.6867],[5.4862,35.3832,573.2596],[5.4749,35.3889,549.6334],[5.4814,35.3971,562.4565],[5.4642,35.4087,545.5757],[5.46,35.4133,539.4474],[5.4633,35.4162,536.1049],[5.4701,35.4176,533.6239],[5.4665,35.4239,539.0413],[5.462,35.4247,531.7953],[5.4464,35.4206,519.5685],[5.4344,35.4127,509.8419],[5.4334,35.4082,506.1631],[5.4286,35.4048,512.1411],[5.4166,35.4036,495.8723],[5.4119,35.4013,500.1166],[5.4055,35.4007,490.676],[5.3995,35.3972,490.4214],[5.4026,35.3902,502.9959],[5.4011,35.3846,504.5926],[5.4048,35.373,513.2051],[5.3995,35.3643,509.8565],[5.4065,35.3524,521.1664]]]]}}