{"type": "Feature","bbox": [4.4643,36.7675,4.5987,36.8851],"geometry": {"type": "MultiPolygon","coordinates": [[[[4.5869,36.8827,7.2943],[4.5358,36.8851,6.3729],[4.5146,36.884,1.2509],[4.5108,36.8794,4.6489],[4.51,36.8741,6.0618],[4.5009,36.8641,15.9222],[4.5044,36.8603,20.6855],[4.4988,36.8352,40.9848],[4.4992,36.831,44.6385],[4.4922,36.8193,81.5088],[4.4917,36.8122,101.6884],[4.4819,36.7981,196.9162],[4.4643,36.785,259.9404],[4.4671,36.7809,238.8777],[4.4745,36.774,232.9503],[4.4859,36.7702,282.073],[4.5072,36.7675,457.7209],[4.5123,36.7779,776.9447],[4.5172,36.7821,932.0743],[4.5289,36.7805,916.8123],[4.5472,36.7842,897.615],[4.551,36.7863,874.5797],[4.5565,36.7856,850.7413],[4.5574,36.8002,590.4788],[4.5561,36.8058,485.7762],[4.5595,36.8152,284.8427],[4.5594,36.8197,264.0591],[4.5543,36.8235,247.5584],[4.5612,36.8335,481.058],[4.5715,36.8378,779.6918],[4.5765,36.8369,813.5504],[4.5851,36.8313,773.7249],[4.5916,36.8302,844.7984],[4.5965,36.8329,763.931],[4.5987,36.8392,551.0439],[4.5946,36.8447,421.0744],[4.5926,36.8564,220.6779],[4.5941,36.8628,177.5843],[4.5914,36.8748,61.7962],[4.5883,36.8782,90.6008],[4.5869,36.8827,7.2943]]]]}
,"properties": {"GID_2": "DZA.47.6_1","GID_0": "DZA","country": "Algeria","GID_1": "DZA.47_1","province": "TiziOuzou","NL_NAME_1": "ولايةغليزان","county": "Ait-Chaffaa","VARNAME_2": "AitChaffaa","NL_NAME_2": "NA","TYPE_2": "Commune-Cotiere","ENGTYPE_2": "Commune-Cotiere","CC_2": "1513","HASC_2": "DZ.TO.AC","name": "Ait-Chaffaa.county","area_km2": 85.47971,"hist_schema_id": "Elevation0-9000","hist_area_km2": {"0": 1.20413,"25": 3.73131,"50": 2.54434,"75": 2.8838,"100": 3.32497,"125": 3.32509,"150": 3.7495,"175": 3.51207,"200": 3.56325,"225": 3.63126,"250": 3.29214,"275": 3.1225,"300": 3.46207,"325": 2.85118,"350": 3.07191,"375": 2.85132,"400": 2.86827,"425": 2.56288,"450": 2.35919,"475": 2.13868,"500": 2.07074,"525": 2.1387,"550": 1.90106,"575": 1.79927,"600": 1.83326,"625": 1.64656,"650": 1.83343,"675": 1.71458,"700": 1.52784,"725": 1.56183,"750": 1.25629,"775": 1.15444,"800": 1.20543,"825": 0.8829,"850": 0.57727,"875": 0.42449,"900": 0.47543,"925": 0.44148,"950": 0.3396,"975": 0.25471,"1000": 0.15282,"1025": 0.1698,"1050": 0.06792}}}