{"type": "Feature","id": "2193","bbox": [1.33623,32.69599,4.17621,34.69287],"geometry": {"type": "Polygon","coordinates": [[[2.59775,33.90925,920.4408],[2.51771,33.91708,913.0917],[2.48996,33.91736,921.8588],[2.47487,33.92372,915.8527],[2.46634,33.93695,924.124],[2.45843,33.99219,1043.1395],[2.45828,34.00325,996.0259],[2.46371,34.02759,1042.4419],[2.48448,34.08081,1083.9734],[2.48665,34.09678,1103.943],[2.48339,34.11358,1118.3357],[2.4713,34.13758,1208.7865],[2.45843,34.1567,1240.561],[2.44309,34.17409,1261.6476],[2.40676,34.20835,1331.958],[2.39374,34.2253,1307.605],[2.38691,34.24194,1291.6274],[2.36888,34.32878,1163.7422],[2.36097,34.35274,1155.995],[2.35105,34.36891,1133.0566],[2.33865,34.38155,1103.4205],[2.3172,34.39873,1097.4321],[2.30449,34.41263,1067.5237],[2.29581,34.43904,1067.2037],[2.29348,34.47495,1047.8701],[2.30123,34.53133,1013.5169],[2.30945,34.56342,1068.9751],[2.32315,34.58538,1071.1266],[2.35121,34.61109,1041.0273],[2.35958,34.62711,1042.7825],[2.36438,34.63959,1013.2719],[2.35772,34.69287,894.0171],[2.31503,34.69119,890.8519],[2.2384,34.67995,900.5822],[2.22057,34.67468,908.5435],[2.21173,34.66832,910.2192],[2.20408,34.65375,919.2052],[2.19587,34.64254,922.8215],[2.18083,34.62913,929.6885],[2.08755,34.58357,978.1425],[1.9811,34.50699,1070.0493],[1.95784,34.49637,1065.4368],[1.83279,34.4643,1155.4469],[1.80623,34.44909,1126.9641],[1.7701,34.42358,1083.8433],[1.71641,34.37457,1100.9325],[1.69109,34.34581,1107.5291],[1.67481,34.31775,1167.2048],[1.66877,34.29729,1168.5836],[1.65776,34.27238,1175.618],[1.64158,34.25615,1187.6438],[1.33623,34.06893,1139.4786],[1.38977,33.97818,1197.1444],[1.40914,33.9618,1209.6714],[1.42811,33.95118,1217.6208],[1.48103,33.93204,1254.8015],[1.52459,33.91137,1299.696],[1.67884,33.87491,1508.54],[1.72695,33.85861,1419.399],[1.76003,33.84259,1343.9431],[1.77693,33.83135,1318.5062],[1.79398,33.81641,1296.6194],[1.8115,33.79522,1289.12],[1.88245,33.67164,1201.9785],[2.01929,33.49904,948.7262],[2.03123,33.46855,958.2694],[2.03743,33.42491,935.3873],[2.03138,33.39254,935.923],[2.02037,33.36737,925.0712],[1.98265,33.32965,879.5979],[1.97614,33.31962,890.0442],[1.97273,33.30792,883.2974],[1.97521,33.29218,872.984],[1.98611,33.2744,865.5312],[2.00565,33.2513,860.0734],[2.01479,33.23753,841.1893],[2.0213,33.22221,846.7356],[2.03185,33.16077,809.0846],[2.0396,33.13769,802.0687],[2.05422,33.10891,794.7128],[2.07794,33.07581,783.2581],[2.17494,32.97499,806.9148],[2.20594,32.91626,775.7496],[2.26196,32.74413,712.9697],[2.29147,32.69599,696.2258],[2.65005,32.75245,711.5038],[2.7655,32.78898,718.5282],[2.88735,32.81242,712.8328],[3.10067,32.83068,738.4465],[3.15762,32.82386,730.8475],[3.1834,32.81614,733.7934],[3.26516,32.78115,744.6579],[3.29513,32.77699,751.3508],[3.32133,32.78079,753.6506],[3.34758,32.795,736.5772],[3.36742,32.81322,730.6605],[3.40546,32.85668,751.6499],[3.42747,32.87551,757.1365],[3.73505,32.99796,608.8985],[3.73861,33.00047,599.5852],[3.76404,33.00341,595.0088],[3.8137,33.00044,592.9078],[3.82409,32.99788,576.2583],[3.85049,32.98514,551.1729],[3.88445,32.98186,555.7794],[4.17621,33.02964,499.4327],[4.16562,33.06266,516.9392],[4.11771,33.16929,539.8253],[4.08448,33.22399,579.1173],[4.05906,33.25252,611.4563],[4.02831,33.28037,606.097],[3.641,33.56433,769.3032],[3.23213,33.94741,700.251],[3.16056,34.05216,805.8234],[3.14924,34.07477,804.9853],[3.14087,34.09787,819.2969],[3.12801,34.17166,969.5853],[3.10392,34.22975,947.4147],[3.09354,34.24003,953.0035],[3.0709,34.24791,963.7943],[3.02248,34.24737,1011.1017],[3.00791,34.24902,1032.2166],[2.99814,34.25222,1082.0806],[2.97484,34.26331,1085.2584],[2.96336,34.26579,1095.0547],[2.94941,34.26362,1100.6704],[2.93324,34.25442,1109.238],[2.858,34.19693,1175.1136],[2.84497,34.1844,1168.5137],[2.83753,34.17176,1181.335],[2.82808,34.14722,1242.5482],[2.81764,34.13885,1198.9651],[2.80337,34.13197,1181.2554],[2.75728,34.11833,1097.443],[2.66685,34.10567,1117.4496],[2.6561,34.10241,1115.3508],[2.65021,34.09797,1097.5413],[2.64648,34.08986,1088.0034],[2.64493,34.07797,1073.8721],[2.64881,33.97017,1011.9873],[2.64695,33.93979,923.5389],[2.64276,33.91568,915.2087],[2.6392,33.91101,910.2469],[2.63222,33.90979,900.6072],[2.59775,33.90925,920.4408]]]}
,"properties": {"ISO3166-1-Alpha-3": "DZA","country": "Algeria","fill": "#F00","name": "Laghouat","area_km2": 27129.25,"hist_schema_id": "Elevation0-9000","hist_area_km2": {"500": 11.09,"525": 56.65,"550": 162.66,"575": 225.8,"600": 214.46,"625": 212.36,"650": 304.18,"675": 464.03,"700": 738.84,"725": 1987.9,"750": 2530.46,"775": 2641.55,"800": 2103.71,"825": 1967.4,"850": 1548.89,"875": 1309.75,"900": 1242.36,"925": 886.01,"950": 575.37,"975": 488.82,"1000": 485.85,"1025": 390.47,"1050": 346.21,"1075": 329.85,"1100": 356.25,"1125": 334.07,"1150": 367.23,"1175": 415.04,"1200": 464.81,"1225": 449.85,"1250": 496.02,"1275": 406.25,"1300": 354.26,"1325": 349.91,"1350": 323.98,"1375": 348.32,"1400": 392.16,"1425": 329.53,"1450": 238.03,"1475": 143.33,"1500": 70.54,"1525": 29.45,"1550": 12.3,"1575": 8.86,"1600": 7.05,"1625": 4.51,"1650": 1.72,"1675": 0.75,"1700": 0.21}}}