{"type": "Feature","bbox": [3.9254,36.373,4.0287,36.4615],"geometry": {"type": "MultiPolygon","coordinates": [[[[3.9308,36.4334,908.531],[3.9329,36.4269,765.1633],[3.9321,36.4156,601.0958],[3.9269,36.4059,573.4518],[3.9263,36.4009,557.8508],[3.9307,36.3865,521.1351],[3.9371,36.3783,509.9519],[3.939,36.373,496.349],[3.9466,36.3819,516.5589],[3.9545,36.3949,546.7568],[3.9816,36.413,624.8347],[3.9864,36.4137,623.6739],[4.0114,36.4307,877.1162],[4.0148,36.437,942.4333],[4.0215,36.4405,1041.793],[4.0255,36.4536,1618.9648],[4.0287,36.459,2054.9958],[4.0034,36.4615,1921.9019],[3.9923,36.4611,1933.5557],[3.9784,36.4572,1576.4692],[3.9631,36.4579,1509.4556],[3.9507,36.4525,1198.7753],[3.9374,36.4513,1106.1626],[3.928,36.446,870.0006],[3.9254,36.4404,801.9436],[3.9308,36.4334,908.531]]]]}
,"properties": {"GID_2": "DZA.12.43_1","GID_0": "DZA","country": "Algeria","GID_1": "DZA.12_1","province": "Bouira","NL_NAME_1": "ولايةالبويرة","county": "Taghzout","VARNAME_2": "NA","NL_NAME_2": "NA","TYPE_2": "Commune","ENGTYPE_2": "Commune","CC_2": "1009","HASC_2": "DZ.BU.TZ","name": "Taghzout.county","area_km2": 46.12798,"hist_schema_id": "Elevation0-9000","hist_area_km2": {"500": 0.42675,"525": 1.87749,"550": 3.85691,"575": 3.92466,"600": 2.11572,"625": 1.55259,"650": 1.12602,"675": 1.29658,"700": 1.45008,"725": 1.50121,"750": 1.87648,"775": 1.99586,"800": 2.02991,"825": 1.92757,"850": 1.79107,"875": 1.4328,"900": 1.04045,"925": 1.04045,"950": 0.8528,"975": 0.64813,"1000": 0.59696,"1025": 0.64812,"1050": 0.57989,"1075": 0.39227,"1100": 0.56283,"1125": 0.56283,"1150": 0.54577,"1175": 0.46048,"1200": 0.54576,"1225": 0.39226,"1250": 0.51164,"1275": 0.35815,"1300": 0.42636,"1325": 0.49458,"1350": 0.35814,"1375": 0.25581,"1400": 0.27286,"1425": 0.30697,"1450": 0.15348,"1475": 0.39224,"1500": 0.23875,"1525": 0.32402,"1550": 0.17053,"1575": 0.27285,"1600": 0.20464,"1625": 0.20464,"1650": 0.17053,"1675": 0.20464,"1700": 0.18758,"1725": 0.10232,"1750": 0.15348,"1775": 0.10232,"1800": 0.08526,"1825": 0.15348,"1850": 0.06821,"1875": 0.10232,"1900": 0.13642,"1925": 0.05116,"1950": 0.11937,"1975": 0.10231,"2000": 0.08526,"2025": 0.08526,"2050": 0.13642,"2075": 0.06821,"2100": 0.01705}}}