{"type":"Feature","properties":{"GID_2":"DZA.43.5_1","GID_0":"DZA","country":"Algeria","GID_1":"DZA.43_1","province":"Tiaret","NL_NAME_1":"ولايةتيارت","county":"AinZarit","VARNAME_2":"NA","NL_NAME_2":"NA","TYPE_2":"Commune","ENGTYPE_2":"Commune","CC_2":"1405","HASC_2":"DZ.TR.AZ","name":"Ain_Zarit.county"},
"geometry":{"type": "MultiPolygon","coordinates": [[[[1.573,35.3199,977.4998],[1.5899,35.3208,970.5399],[1.601,35.3187,976.1989],[1.64,35.3173,951.6415],[1.6641,35.3186,953.5518],[1.6691,35.3163,949.0471],[1.6772,35.3088,946.9822],[1.6852,35.308,964.4725],[1.7042,35.2972,951.3127],[1.7212,35.2938,930.4202],[1.7274,35.2965,927.58989999999994],[1.7294,35.3062,924.0034],[1.747,35.3163,916.8251],[1.7499,35.3197,914.8607],[1.7524,35.3298,912.3232],[1.7574,35.333,906.3518],[1.7661,35.3452,900.8715],[1.7838,35.3461,894.7528],[1.7981,35.3493,890.8202],[1.8048,35.3521,890.2656],[1.808,35.3567,886.8586],[1.8206,35.3593,883.2068],[1.8356,35.3669,877.8403],[1.8447,35.3659,875.8054],[1.8593,35.3708,870.3956],[1.8796,35.3724,866.0432],[1.9023,35.3788,860.4958],[1.9194,35.3801,855.7228],[1.9261,35.384,856.007],[1.9187,35.3989,858.6456],[1.9108,35.4005,859.4617],[1.8897,35.3994,866.1335],[1.8697,35.394,871.7307],[1.8444,35.3939,880.1777],[1.8254,35.4104,886.426],[1.8206,35.4168,888.8222],[1.8155,35.4122,889.3144],[1.7672,35.404,904.8438],[1.7185,35.3892,923.5348],[1.6846,35.3754,925.1394],[1.6744,35.3755,936.2507],[1.6676,35.3732,940.004],[1.6279,35.3462,944.3571],[1.6172,35.3406,957.5889],[1.5949,35.3482,957.9537],[1.5768,35.3581,958.6274],[1.5781,35.3452,955.7937],[1.5739,35.3401,969.0081],[1.5721,35.3321,969.8761],[1.573,35.3199,977.4998]]]]}}