{"type":"Feature","properties":{"GID_2":"DZA.41.1_1","GID_0":"DZA","country":"Algeria","GID_1":"DZA.41_1","province":"Tamanghasset","NL_NAME_1":"ولايةتمنراست","county":"Abalissa","VARNAME_2":"Abalessa","NL_NAME_2":"NA","TYPE_2":"Commune","ENGTYPE_2":"Commune","CC_2":"1102","HASC_2":"DZ.TM.AB","name":"Abalissa.county"},
"geometry":{"type": "MultiPolygon","coordinates": [[[[1.4184,21.8028,417.9993],[1.424,21.8061,418.3206],[1.4458,21.8089,419.58],[1.4717,21.8163,413.2762],[1.5052,21.8213,418.0615],[1.5914,21.8291,410.7658],[1.6328,21.83,413.5193],[1.706,21.8264,424.8038],[1.7395,21.8216,421.3536],[1.7763,21.8091,422.0355],[1.8837,21.814,435.0394],[2.0279,21.818,437.0842],[2.1566,21.8174,445.5985],[2.6504,21.8261,475.7734],[2.7301,21.8241,479.6393],[2.7604,21.8244,484.876],[2.7933,21.8273,496.9155],[2.9473,21.8278,633.4191],[2.9691,21.8321,633.5101],[3.0017,21.8437,593.7716],[3.0212,21.859,612.5201],[3.0718,21.8874,569.7751],[3.0913,21.9039,555.2538],[3.2983,21.4206,803.1154],[3.4344,21.4191,551.1586],[3.4309,21.4099,551.6061],[3.4292,21.3989,552.496],[3.433,21.385,554.1701],[3.435,21.3638,555.6525],[3.448,21.3429,557.6605],[3.4469,21.334,558.5902],[3.4487,21.3254,560.1386],[3.4607,21.3088,560.8107],[3.5033,21.2734,565.0924],[3.5144,21.2717,566.9247],[3.5412,21.2811,569.0739],[3.5517,21.2802,571.0849],[3.5719,21.2724,571.3557],[3.5841,21.263,573.4476],[3.5941,21.262,574.8054],[3.6049,21.2581,575.8035],[3.6177,21.2556,577.4533],[3.6338,21.2542,579.0525],[3.6666,21.2648,585.7734],[3.6944,21.2577,591.7573],[3.7075,21.2508,595.5325],[3.7108,21.2454,597.5638],[3.7811,21.1924,616.3776],[3.7973,21.1552,602.8775],[3.8138,21.1601,603.8759],[3.8267,21.1659,605.2491],[3.8346,21.167,605.915],[3.8627,21.1606,610.0577],[3.8797,21.1634,611.9709],[3.8844,21.1579,613.3173],[3.914,21.1428,616.9987],[3.9342,21.1431,619.6407],[3.9412,21.136,621.0922],[3.9452,21.1284,623.1195],[3.9537,21.1213,625.3691],[3.9605,21.1187,627.9367],[3.9674,21.1103,630.2993],[3.9757,21.0932,635.5526],[3.99,21.0755,646.2618],[4.022,21.0689,695.1898],[4.0301,21.0405,750.2915],[4.0329,21.0078,718.7336],[4.0329,21.001,721.0054],[4.0293,20.9957,737.8024],[4.0327,20.9652,751.798],[4.0308,20.9564,763.1642],[4.0313,20.9472,746.2099],[4.0409,20.9166,720.2731],[4.0453,20.9071,711.6151],[4.0507,20.9001,728.3786],[4.0529,20.8835,693.4563],[4.0423,20.8526,711.5343],[4.0449,20.773,667.7069],[4.0409,20.7512,655.489],[4.0371,20.7416,662.3447],[4.0312,20.7334,654.6117],[4.0294,20.7267,658.7145],[4.0364,20.7203,676.9994],[4.0322,20.634,659.5554],[4.0336,20.6122,703.163],[4.0325,20.6042,707.826],[4.0221,20.5738,724.2053],[4.0226,20.5284,701.7051],[4.0273,20.4936,680.6281],[4.0271,20.4869,654.033],[4.0214,20.4846,680.399],[4.0258,20.4695,712.3628],[4.0249,20.4533,673.5803],[4.0234,20.4471,693.8488],[4.0189,20.4442,683.3713],[4.1995,20.4553,542.2791],[4.3196,20.493,576.1101],[4.3239,20.4988,571.7788],[4.3395,20.5026,565.3956],[4.3495,20.5138,561.715],[4.3562,20.5182,559.906],[4.387,20.5302,552.9116],[4.3831,20.5401,550.1067],[4.3828,20.5471,548.3147],[4.3928,20.5614,545.9846],[4.4035,20.5708,543.875],[4.4221,20.583,540.6777],[4.4427,20.6005,537.4706],[4.4601,20.602,536.106],[4.4754,20.623,531.7797],[4.4919,20.6335,529.0422],[4.4966,20.6408,530.0539],[4.5192,20.6511,527.3604],[4.5257,20.6524,526.0946],[4.5646,20.6377,521.1156],[4.5891,20.6195,525.3483],[4.5941,20.6238,519.7469],[4.6047,20.6479,521.652],[4.6261,20.6751,526.623],[4.6352,20.6917,525.8173],[4.6378,20.7115,527.5325],[4.6508,20.7372,529.6058],[4.6596,20.7753,533.4067],[4.6699,20.7929,536.4995],[4.6808,20.8212,537.129],[4.6855,20.8476,539.978],[4.6936,20.8689,542.0116],[4.698,20.8883,545.4142],[4.7059,20.9042,546.6913],[4.7135,20.9152,547.722],[4.7153,20.9211,550.4425],[4.7139,20.9344,549.9376],[4.7019,20.9533,554.1899],[4.6949,20.971,554.4766],[4.6824,20.9809,555.8427],[4.6818,20.9921,558.2472],[4.6823,20.9975,558.7534],[4.6848,21.0024,559.6896],[4.6852,21.0231,562.6649],[4.6822,21.0428,561.5257],[4.6712,21.0643,563.6128],[4.6711,21.091,566.4363],[4.6808,21.1304,573.2874],[4.6845,21.1348,572.991],[4.711,21.1536,574.9242],[4.7238,21.1752,578.1896],[4.7237,21.1897,579.8142],[4.7369,21.1985,581.8569],[4.7432,21.2092,584.1377],[4.7421,21.2189,583.8564],[4.7485,21.2483,586.5858],[4.7496,21.265,588.7326],[4.7476,21.272,589.2225],[4.7335,21.2929,592.5318],[4.7225,21.3127,594.0526],[4.7227,21.3236,595.1608],[4.73,21.3464,598.6113],[4.732,21.3626,600.4815],[4.7304,21.3743,602.2353],[4.7312,21.3799,602.8212],[4.7335,21.3852,603.6073],[4.747,21.3971,606.5327],[4.7509,21.4027,609.3332],[4.7536,21.4221,609.6817],[4.7536,21.4416,611.8842],[4.7566,21.4528,613.7164],[4.7561,21.4592,614.2457],[4.7581,21.4649,615.1714],[4.7661,21.4745,616.7984],[4.7674,21.4814,617.5084],[4.7661,21.4892,618.4747],[4.7682,21.5001,619.6996],[4.7699,21.5466,627.0288],[4.7832,21.57,631.0626],[4.7834,21.5772,632.8781],[4.778,21.5897,635.7354],[4.7796,21.602,639.0666],[4.7782,21.6064,638.2322],[4.7694,21.6102,640.2675],[4.7702,21.6173,646.0889],[4.7743,21.6336,644.9602],[4.7782,21.6404,647.8779],[4.7873,21.6492,649.1454],[4.7935,21.6592,651.7618],[4.799,21.6626,652.741],[4.8012,21.6718,653.6678],[4.8066,21.6809,656.1812],[4.8025,21.6946,660.5278],[4.8033,21.6988,660.8346],[4.8074,21.7101,662.1786],[4.8157,21.7178,663.8273],[4.8236,21.7407,668.6538],[4.8453,21.9743,707.0457],[4.8479,21.9795,707.5609],[4.8668,21.991,711.9812],[4.8804,22.0015,715.9515],[4.891,22.0185,721.4753],[4.8998,22.0377,728.4455],[4.9044,22.0523,732.2245],[4.9154,22.0682,737.193],[4.9205,22.0793,741.1748],[4.9204,22.0865,743.514],[4.917,22.0987,747.0444],[4.9106,22.1078,749.9461],[4.9117,22.1227,754.7227],[4.9157,22.1257,755.1235],[4.9252,22.1409,762.6167],[4.9294,22.1444,760.9716],[4.9359,22.1669,769.344],[4.9468,22.1907,775.9739],[4.9592,22.2103,784.3511],[4.9581,22.2163,799.908],[4.9609,22.2221,794.5458],[4.9684,22.2272,795.5602],[4.9708,22.2323,795.7527],[4.9905,22.251,800.2138],[4.9915,22.2625,803.9568],[4.9943,22.2678,806.4072],[4.994,22.2724,809.6825],[5.0121,22.3125,850.1372],[5.0204,22.3502,865.9443],[5.0249,22.3612,833.9216],[5.0414,22.3833,848.4691],[5.0529,22.4081,865.4125],[5.0528,22.4213,873.5084],[5.059,22.4319,882.1716],[5.0628,22.4567,905.7665],[5.0786,22.4841,949.2266],[5.079,22.4975,951.4146],[5.0818,22.504,963.6096],[5.0755,22.5121,962.1979],[5.0968,22.5539,1029.6017],[5.1005,22.5653,1049.7812],[5.1102,22.573,1063.8606],[5.1109,22.5785,1079.3268],[5.1079,22.5852,1105.0625],[5.1087,22.5933,1107.403],[5.1576,22.6653,1227.0669],[5.1102,22.7069,1170.4586],[5.2036,22.7797,1222.0715],[5.2054,22.7896,1223.5549],[5.2052,22.8054,1180.9828],[5.2027,22.8186,1158.4813],[5.1963,22.8221,1092.5878],[5.1902,22.8229,1093.9519],[5.182,22.8322,1086.5278],[5.1938,22.8426,1096.8243],[5.2004,22.8444,1112.8817],[5.2046,22.8492,1124.1471],[5.2024,22.8715,1146.7155],[5.2034,22.8794,1133.1372],[5.1982,22.8896,1118.795],[5.1864,22.8995,1107.5525],[5.1671,22.9204,1090.0143],[5.1475,22.9342,1066.2874],[5.1715,22.9399,1092.0284],[5.1469,22.9518,1061.2202],[5.1455,22.981,1068.9802],[5.1594,22.9856,1080.6536],[5.1726,22.9831,1096.5592],[5.1934,22.9837,1129.9797],[5.212,22.9889,1135.3889],[5.2214,22.9996,1150.6172],[5.2231,23.007,1156.0707],[5.2089,23.0402,1116.4969],[5.2022,23.0712,1096.491],[5.1823,23.1006,1075.4385],[5.1666,23.1289,1066.9894],[5.164,23.1484,1091.1946],[5.1475,23.1836,1062.0159],[5.1439,23.2056,1041.4554],[5.1406,23.2145,1036.4303],[5.1398,23.2491,1050.3832],[5.1305,23.2989,1045.5964],[5.1268,23.3382,1018.6141],[5.107,23.3361,1003.3807],[5.101,23.3373,998.36],[5.0946,23.3418,998.089],[5.0848,23.3432,989.507],[5.0781,23.3416,988.4243],[5.0751,23.3377,994.0768],[5.0677,23.3377,979.0198],[5.0623,23.3417,974.6956],[5.0495,23.3385,969.5536],[5.0336,23.3389,968.0291],[5.0052,23.3472,949.7357],[5.0008,23.3538,948.5693],[4.9939,23.3537,943.3471],[4.9729,23.3414,932.9207],[4.9636,23.3475,957.0369],[4.9556,23.3631,933.599],[4.9415,23.3829,904.6573],[4.9309,23.4066,887.9063],[4.9165,23.4061,881.9054],[4.8951,23.401,873.1428],[4.8861,23.4015,870.4042],[4.8784,23.4058,866.8905],[4.8622,23.4219,857.4653],[4.8466,23.4284,882.9554],[4.8312,23.4376,864.9314],[4.8176,23.4368,838.655],[4.7874,23.44,828.7955],[4.7721,23.4384,822.7477],[4.7656,23.4342,819.4201],[4.7506,23.4151,812.4208],[4.7405,23.4093,809.4984],[4.728,23.405,804.9088],[4.7223,23.401,802.4492],[4.6954,23.3943,794.7048],[4.6781,23.3934,791.2463],[4.6694,23.3893,788.0693],[4.6583,23.3814,785.8063],[4.6473,23.3774,781.6022],[4.6371,23.3765,794.7928],[4.6245,23.3836,805.1761],[4.6173,23.384,780.3849],[4.6049,23.3814,769.5262],[4.5741,23.364,759.7578],[4.5613,23.3586,756.1161],[4.3836,23.5122,753.0719],[4.3596,23.5072,747.5549],[4.3208,23.4928,740.0975],[4.284,23.4744,730.1296],[4.2562,23.4578,724.5228],[4.2434,23.4533,721.619],[4.2057,23.445,714.8116],[4.1654,23.4396,706.9093],[4.1295,23.4283,700.2211],[4.0811,23.4224,691.7515],[4.0365,23.4039,684.4849],[3.9943,23.3802,675.8621],[3.9909,23.3754,674.8905],[3.9863,23.3582,671.9561],[3.974,23.3381,667.8923],[3.9701,23.3281,665.4057],[3.9634,23.3174,663.2842],[3.9544,23.3127,661.3633],[3.9422,23.3129,658.7723],[3.9298,23.321,660.4748],[3.8918,23.3234,649.4607],[3.8785,23.3181,649.1483],[3.8714,23.3232,651.6866],[3.8652,23.3315,650.5403],[3.8549,23.3372,638.8028],[3.8411,23.3418,633.5045],[3.8295,23.3491,631.1444],[3.8174,23.3538,628.3805],[3.8038,23.35,625.0853],[3.7942,23.3527,623.6648],[3.7869,23.3591,622.1351],[3.7805,23.3762,621.3289],[3.7727,23.378,619.0983],[3.7611,23.3767,617.5645],[3.7472,23.3782,615.4305],[3.7174,23.3889,609.5592],[3.7158,23.3824,609.8218],[3.7186,23.3736,610.6589],[3.7155,23.3638,607.9165],[3.7084,23.3546,605.3991],[3.6945,23.3507,604.1996],[3.6709,23.3478,601.5554],[3.6463,23.3348,596.0129],[3.6223,23.3332,591.5093],[3.5831,23.3363,585.7653],[3.5732,23.3306,584.4762],[3.5333,23.3233,582.1267],[3.5082,23.3159,584.6066],[3.4684,23.2983,570.6194],[3.0006,23.372,516.6523],[2.9938,23.3766,518.3263],[2.9887,23.3776,519.2982],[2.9297,23.3844,504.3224],[2.8664,23.3987,506.0305],[2.7867,23.4077,490.6372],[2.7348,23.4215,489.2222],[2.7115,23.4234,487.21],[2.6822,23.4297,502.8297],[2.6562,23.4322,513.6639],[2.651,23.4362,519.3384],[2.6519,23.445,525.1946],[2.6566,23.452,546.0349],[2.6621,23.4752,742.5104],[2.6629,23.4875,747.7184],[2.6568,23.4937,701.7278],[2.6241,23.4959,798.3005],[2.5624,23.5068,494.5592],[2.5416,23.5078,484.2668],[2.5182,23.507,474.6576],[2.5078,23.505,470.3738],[2.4988,23.5006,467.8692],[2.4899,23.4933,464.779],[2.471,23.4667,458.1449],[2.4617,23.4631,458.3533],[2.4036,23.4495,448.2054],[2.3782,23.4391,448.8347],[2.3501,23.4318,450.9612],[2.3354,23.43,451.6879],[2.3004,23.429,443.4382],[2.2421,23.4307,432.1543],[2.2204,23.4283,427.4801],[2.1856,23.4222,433.3194],[2.1346,23.4103,417.4737],[2.0575,23.3967,411.1968],[1.9485,23.3809,399.393],[1.9145,23.3739,398.0793],[1.8407,23.3704,396.3362],[1.8114,23.3654,395.8594],[1.758,23.3692,392.8488],[1.7204,23.3677,392.9969],[1.6392,23.3774,386.4364],[1.6173,23.3767,382.5034],[1.596,23.3735,381.6307],[1.5787,23.3686,383.1288],[1.5246,23.3582,374.7016],[1.4893,23.3461,376.2174],[1.4555,23.3272,371.9224],[1.4397,23.3155,372.0916],[1.426,23.3028,371.0602],[1.4186,22.2059,405.051],[1.4184,21.8028,417.9993]]]]}}