{"type": "Feature","bbox": [7.4997,36.3812,7.6163,36.4737],"geometry": {"type": "MultiPolygon","coordinates": [[[[7.5166,36.3812,299.8831],[7.5254,36.3825,367.3901],[7.5306,36.386,365.366],[7.5338,36.3915,348.0274],[7.5333,36.3974,327.1188],[7.5356,36.4021,285.1032],[7.5407,36.3982,322.6418],[7.5686,36.3891,295.0823],[7.5785,36.3824,254.2053],[7.5843,36.3826,213.1854],[7.5973,36.3881,186.3956],[7.609,36.3962,166.6711],[7.6139,36.4026,149.4323],[7.6139,36.4138,128.8375],[7.6163,36.4197,123.8515],[7.6126,36.423,126.2814],[7.6083,36.4237,127.0747],[7.6081,36.4285,129.2832],[7.6103,36.4329,131.1312],[7.5967,36.4398,134.4753],[7.5889,36.4465,137.2002],[7.5794,36.4458,144.0885],[7.5745,36.4495,147.1184],[7.5777,36.4562,151.0006],[7.5736,36.4589,148.6663],[7.5582,36.455,150.2858],[7.5422,36.4678,173.1911],[7.5115,36.4707,166.6283],[7.5045,36.4737,167.6769],[7.5017,36.4669,173.8401],[7.4997,36.4511,221.0637],[7.5097,36.4281,285.2749],[7.509,36.4208,305.0415],[7.5034,36.4094,343.4123],[7.5106,36.4086,356.4402],[7.505,36.3965,401.6738],[7.5089,36.3845,395.9505],[7.5166,36.3812,299.8831]]]]}
,"properties": {"GID_2": "DZA.21.14_1","GID_0": "DZA","country": "Algeria","GID_1": "DZA.21_1","province": "Guelma","NL_NAME_1": "ولايةقالمة","county": "BoumahraAhmed","VARNAME_2": "BumahraAhmad","NL_NAME_2": "NA","TYPE_2": "Commune","ENGTYPE_2": "Commune","CC_2": "2431","HASC_2": "DZ.GL.BA","name": "Boumahra_Ahmed.county","area_km2": 72.36922,"hist_schema_id": "Elevation0-9000","hist_area_km2": {"125": 2.42242,"150": 7.40208,"175": 6.70266,"200": 5.9871,"225": 6.24365,"250": 6.96051,"275": 7.91641,"300": 7.6611,"325": 6.65458,"350": 6.39868,"375": 4.283,"400": 2.0989,"425": 1.16034,"450": 0.47779}}}