{"type":"Feature","properties":{"GID_2":"DZA.28.50_1","GID_0":"DZA","country":"Algeria","GID_1":"DZA.28_1","province":"Médéa","NL_NAME_1":"ولايةالمدية","county":"Sedraya","VARNAME_2":"Sedraia","NL_NAME_2":"NA","TYPE_2":"Commune","ENGTYPE_2":"Commune","CC_2":"2661","HASC_2":"DZ.MD.SY","name":"Sedraya.county"},
"geometry":{"type": "MultiPolygon","coordinates": [[[[3.5203,36.2767,556.2578],[3.5076,36.2819,550.2957],[3.4889,36.2819,516.7463],[3.4759,36.2844,511.6514],[3.4823,36.2694,561.1195],[3.4867,36.2655,561.0818],[3.4886,36.2593,560.3467],[3.4842,36.2531,584.5294],[3.4788,36.2398,596.8223],[3.4729,36.2325,605.521],[3.469,36.2281,615.6021],[3.4607,36.2278,627.6843],[3.4581,36.2235,637.2488],[3.4532,36.1955,720.3259],[3.4567,36.1903,831.4084],[3.4616,36.1865,827.7998],[3.4702,36.1907,1008.8105],[3.4809,36.1929,950.8674],[3.4859,36.1924,969.0556],[3.4898,36.19,879.752],[3.5026,36.1979,827.8097],[3.5127,36.2008,817.3726],[3.5266,36.1999,742.3393],[3.5373,36.2022,825.1105],[3.5408,36.2051,902.7853],[3.546,36.2066,881.5043],[3.5594,36.2052,709.4913],[3.557,36.2119,690.0131],[3.5573,36.2182,653.1317],[3.5673,36.2263,646.6385],[3.568,36.2383,626.139],[3.5557,36.2529,602.8917],[3.5473,36.2697,568.2524],[3.541,36.2727,586.6986],[3.535,36.2727,557.4586],[3.5203,36.2767,556.2578]]]]}}