{"type": "Feature","bbox": [-0.823,35.1179,-0.7193,35.1915],"geometry": {"type": "MultiPolygon","coordinates": [[[[-0.813,35.1413,606.1476],[-0.8076,35.1368,601.2334],[-0.7977,35.1216,570.3766],[-0.7913,35.122,565.3606],[-0.7783,35.1179,555.9833],[-0.7754,35.1204,553.8529],[-0.7778,35.1242,552.5807],[-0.7684,35.1418,545.0964],[-0.7571,35.1421,525.0519],[-0.7527,35.1381,530.6965],[-0.7436,35.1379,524.2212],[-0.7404,35.1474,518.8069],[-0.7307,35.159,511.4739],[-0.7204,35.1605,506.0151],[-0.7193,35.1727,501.2377],[-0.7342,35.1773,514.8422],[-0.7406,35.1766,518.0764],[-0.7422,35.1703,551.0677],[-0.7643,35.1628,523.3006],[-0.7702,35.1626,529.3698],[-0.7937,35.1754,542.7419],[-0.798,35.1799,533.0574],[-0.7984,35.1885,526.6985],[-0.8033,35.1915,535.3215],[-0.823,35.1866,556.9661],[-0.8207,35.1803,563.0164],[-0.8161,35.1754,559.7576],[-0.8096,35.1571,551.6188],[-0.8141,35.1482,596.3232],[-0.813,35.1413,606.1476]],
[[-0.7422,35.1703,551.0677],[-0.7366,35.17,528.426],[-0.739,35.1661,546.1382],[-0.7422,35.1703,551.0677]]]]}
,"properties": {"GID_2": "DZA.38.43_1","GID_0": "DZA","country": "Algeria","GID_1": "DZA.38_1","province": "SidiBelAbbès","NL_NAME_1": "ولايةسيديبلعباس","county": "SidiYacoub","VARNAME_2": "NA","NL_NAME_2": "NA","TYPE_2": "Commune","ENGTYPE_2": "Commune","CC_2": "2240","HASC_2": "DZ.SB.SY","name": "Sidi_Yacoub.county","area_km2": 34.44434,"hist_schema_id": "Elevation0-9000","hist_area_km2": {"500": 1.8199,"525": 11.49248,"550": 10.81657,"575": 7.52409,"600": 2.60061,"625": 0.1907}}}