{"type": "Feature","bbox": [-0.9042,34.4307,-0.7047,34.5705],"geometry": {"type": "MultiPolygon","coordinates": [[[[-0.845,34.5705,1041.2899],[-0.8598,34.5657,1053.9877],[-0.8665,34.5674,1084.9939],[-0.8724,34.5652,1109.5537],[-0.9012,34.5452,1170.5682],[-0.9042,34.5411,1155.1597],[-0.8884,34.5375,1100.7214],[-0.8752,34.5374,1075.2574],[-0.8634,34.5349,1064.5659],[-0.8557,34.5204,1077.7634],[-0.845,34.5062,1097.8813],[-0.8505,34.4996,1127.7108],[-0.8614,34.494,1117.0903],[-0.895,34.4652,1131.3846],[-0.8934,34.4581,1131.6099],[-0.888,34.453,1127.8219],[-0.8735,34.4457,1137.4077],[-0.8649,34.4453,1140.0972],[-0.8245,34.4477,1146.418],[-0.7889,34.4525,1133.733],[-0.7834,34.4427,1146.0645],[-0.7745,34.4315,1176.7915],[-0.7686,34.4307,1170.5482],[-0.7417,34.4332,1181.8254],[-0.7263,34.4454,1188.9277],[-0.7164,34.4495,1171.9637],[-0.7121,34.454,1160.2715],[-0.7102,34.4698,1134.7734],[-0.7084,34.4751,1142.3683],[-0.7047,34.48,1145.6841],[-0.717,34.5024,1154.4438],[-0.7183,34.5084,1161.4136],[-0.736,34.5135,1135.1699],[-0.7616,34.5141,1126.4878],[-0.767,34.5138,1119.2662],[-0.7815,34.5064,1113.7246],[-0.7888,34.5046,1113.0552],[-0.7987,34.5248,1121.8042],[-0.8119,34.5399,1134.9873],[-0.828,34.5495,1089.0571],[-0.8325,34.557,1080.1633],[-0.8373,34.5567,1069.1049],[-0.845,34.5705,1041.2899]]]]}
,"properties": {"GID_2": "DZA.38.30_1","GID_0": "DZA","country": "Algeria","GID_1": "DZA.38_1","province": "SidiBelAbbès","NL_NAME_1": "ولايةسيديبلعباس","county": "RasElMa","VARNAME_2": "Rā's-al-Mā`","NL_NAME_2": "NA","TYPE_2": "Commune","ENGTYPE_2": "Commune","CC_2": "2223","HASC_2": "DZ.SB.RM","name": "Ras_El_Ma.county","area_km2": 146.3568,"hist_schema_id": "Elevation0-9000","hist_area_km2": {"1025": 0.0524,"1050": 6.3215,"1075": 13.7455,"1100": 24.3392,"1125": 43.5671,"1150": 33.7157,"1175": 14.8247,"1200": 5.5949,"1225": 2.098,"1250": 1.3637,"1275": 0.3671,"1300": 0.2622,"1325": 0.0874,"1350": 0.0175}}}