{"type": "Feature","bbox": [2.4805,36.3348,3.3093,36.6711],"geometry": {"type": "MultiPolygon","coordinates": [[[[2.5982,36.344,339.2133],[2.6123,36.3455,365.4358],[2.6167,36.3414,387.5811],[2.6323,36.3348,425.3661],[2.6478,36.3477,797.1183],[2.6582,36.3504,865.5914],[2.6739,36.3586,1019.2562],[2.6841,36.3606,1200.6927],[2.6948,36.3715,1232.1011],[2.7003,36.3737,1288.9619],[2.7252,36.3763,1514.4529],[2.7334,36.3753,1482.9067],[2.7441,36.3771,1225.9857],[2.7683,36.3746,645.5402],[2.7742,36.3769,321.9297],[2.7851,36.3704,650.2961],[2.8154,36.3689,805.4212],[2.8272,36.3641,909.5396],[2.834,36.3652,859.5599],[2.8438,36.3746,933.0461],[2.8497,36.3729,963.9595],[2.8604,36.3878,1387.6196],[2.8692,36.3938,1351.0566],[2.8805,36.3972,1143.868],[2.9012,36.4071,764.7631],[2.9077,36.4085,598.253],[2.9228,36.4072,531.9421],[2.9262,36.4106,533.2014],[2.9285,36.4053,765.1262],[2.9285,36.3956,1056.3152],[2.9229,36.3915,831.0773],[2.9347,36.3833,1212.2639],[2.9379,36.3789,1324.5254],[2.9293,36.3655,1142.917],[2.9372,36.3574,944.9666],[2.9394,36.3522,890.1082],[2.9483,36.3486,779.1957],[2.9561,36.3496,741.563],[2.972,36.3568,656.2338],[2.9903,36.3507,647.0686],[3.0055,36.3512,633.2474],[3.0099,36.3499,577.5998],[3.0245,36.3577,564.6327],[3.0403,36.375,455.7656],[3.0498,36.3819,436.3878],[3.0526,36.3871,458.0969],[3.0519,36.4039,456.2917],[3.0548,36.4276,418.1628],[3.0452,36.4362,367.8002],[3.0486,36.4391,355.0081],[3.0655,36.4281,367.1858],[3.0674,36.4124,770.3264],[3.0666,36.4049,781.2215],[3.0767,36.4098,602.5718],[3.0835,36.4152,462.7534],[3.0861,36.4202,455.439],[3.1018,36.4246,465.9475],[3.117,36.4198,551.7319],[3.1226,36.4156,640.2742],[3.1305,36.4011,717.8066],[3.1356,36.3986,684.7175],[3.1454,36.4067,962.9531],[3.1627,36.4109,1060.1921],[3.1704,36.4242,1223.6887],[3.1687,36.4293,1156.1361],[3.1645,36.4336,1231.2151],[3.1769,36.4398,1033.3679],[3.1883,36.4414,694.051],[3.1875,36.4488,593.7095],[3.1785,36.4652,601.837],[3.1789,36.4701,477.866],[3.182,36.4764,457.5299],[3.19,36.4831,372.1406],[3.1957,36.4944,370.7038],[3.2115,36.4924,493.7294],[3.217,36.4901,389.2575],[3.2284,36.4907,494.0123],[3.2391,36.489,473.8651],[3.2582,36.4838,537.0554],[3.2641,36.4858,549.7614],[3.2749,36.4851,769.8041],[3.284,36.4918,532.7384],[3.2826,36.4994,722.3885],[3.2968,36.5024,739.7759],[3.2947,36.5172,354.9573],[3.2962,36.5214,351.4449],[3.3022,36.5252,299.1292],[3.305,36.5294,301.6178],[3.3005,36.5354,317.6978],[3.2982,36.5422,275.3212],[3.2993,36.547,253.6345],[3.3049,36.548,246.3891],[3.3093,36.5528,248.9665],[3.3014,36.5537,356.3466],[3.2929,36.5569,529.9773],[3.287,36.56,594.0071],[3.2846,36.5641,618.1343],[3.2977,36.5817,523.3209],[3.2875,36.5856,416.015],[3.2887,36.5908,342.0801],[3.2918,36.5945,304.5555],[3.2793,36.6128,148.368],[3.2878,36.6213,117.2937],[3.2945,36.6223,104.1522],[3.3032,36.6297,90.4024],[3.2978,36.6318,84.4042],[3.2856,36.6327,85.6446],[3.2844,36.6369,77.476],[3.2796,36.6363,79.1877],[3.2748,36.6333,88.3903],[3.2724,36.6226,134.7328],[3.2665,36.6201,209.7896],[3.2604,36.6221,176.9765],[3.2628,36.6291,103.6876],[3.237,36.6677,32.6599],[3.2317,36.6673,29.8196],[3.2283,36.6711,27.6583],[3.2159,36.6657,26.501],[3.2104,36.671,26.75],[3.2061,36.6688,24.9647],[3.2066,36.6602,27.8294],[3.2014,36.6543,30.0529],[3.1833,36.6512,33.0082],[3.1782,36.642,36.9614],[3.1489,36.6515,30.3943],[3.1507,36.6377,38.5904],[3.1452,36.6346,37.6607],[3.1373,36.626,42.1853],[3.1278,36.6207,44.5496],[3.1331,36.6067,56.5872],[3.1253,36.6005,58.9347],[3.1258,36.5957,62.4263],[3.1225,36.5918,65.1537],[3.1236,36.5866,69.1087],[3.1177,36.5873,67.1737],[3.1125,36.5838,69.4578],[3.101,36.5888,60.7794],[3.097,36.5938,56.6575],[3.0928,36.5961,55.7911],[3.0909,36.5914,57.7811],[3.0693,36.5834,61.1285],[3.0617,36.582,62.8356],[3.059,36.588,56.8872],[3.0597,36.6005,48.8982],[3.0642,36.6164,37.7961],[3.0638,36.6221,30.0749],[3.0528,36.6219,36.9524],[3.0395,36.6181,36.4702],[3.0313,36.6096,40.772],[3.0318,36.6042,43.9778],[3.0231,36.5996,47.0899],[3.0117,36.5961,49.5042],[3.0085,36.5903,50.2259],[3.0017,36.5892,49.3235],[2.9925,36.5848,48.3979],[2.9877,36.5898,45.6275],[2.9817,36.5909,43.2823],[2.9784,36.5947,42.3634],[2.973,36.5956,41.2989],[2.9672,36.5937,42.803],[2.9632,36.5897,43.8048],[2.9588,36.5945,42.0776],[2.9586,36.6013,38.7506],[2.9543,36.6113,34.2415],[2.9475,36.61,33.7423],[2.9443,36.5985,38.5072],[2.9311,36.6027,35.7703],[2.9255,36.5989,33.8969],[2.9155,36.6036,32.3688],[2.9079,36.6054,27.3665],[2.9039,36.6102,26.4275],[2.8829,36.6218,19.452],[2.8866,36.6327,28.5643],[2.8356,36.6412,23.932],[2.8211,36.6416,13.4485],[2.8248,36.6331,12.1287],[2.8329,36.6231,12.2902],[2.8298,36.6139,13.3121],[2.8294,36.6069,12.8043],[2.8196,36.6002,12.8764],[2.7855,36.5989,15.1599],[2.7821,36.5951,15.6671],[2.7821,36.5888,16.3578],[2.7641,36.5791,22.7972],[2.7488,36.5758,27.2823],[2.7346,36.5757,31.2522],[2.7327,36.5836,29.8251],[2.727,36.5806,29.744],[2.7037,36.565,39.829],[2.6998,36.559,45.1744],[2.6887,36.5578,41.8301],[2.6861,36.5521,43.3941],[2.6795,36.5505,45.2251],[2.6723,36.5415,50.7374],[2.6672,36.5379,51.4665],[2.6657,36.5325,56.8596],[2.6605,36.5306,55.2586],[2.6542,36.5186,64.5361],[2.637,36.5138,68.3328],[2.6289,36.5148,68.1951],[2.6066,36.5128,69.1823],[2.6066,36.5082,71.3114],[2.618,36.5029,76.0266],[2.6167,36.4987,77.8032],[2.6234,36.4902,81.1175],[2.625,36.485,84.4296],[2.6217,36.4796,85.7156],[2.6203,36.4717,92.5767],[2.6033,36.4634,149.9094],[2.6024,36.4579,140.2831],[2.594,36.4556,105.7503],[2.5877,36.4574,129.6992],[2.5791,36.4601,210.607],[2.5712,36.4675,156.9909],[2.5655,36.4656,152.0313],[2.5637,36.4616,174.8781],[2.5584,36.4599,168.9007],[2.5429,36.4602,232.8285],[2.5384,36.4618,242.1283],[2.5299,36.4686,143.2999],[2.5158,36.4603,240.1281],[2.5142,36.453,342.4137],[2.5175,36.4475,511.4362],[2.5233,36.443,571.3052],[2.5138,36.4344,593.2756],[2.5092,36.426,552.6516],[2.4983,36.4256,541.5284],[2.4805,36.4137,534.2798],[2.4856,36.4107,564.5918],[2.4979,36.4103,609.2172],[2.5067,36.4118,570.6879],[2.5106,36.3917,206.3401],[2.5255,36.3821,498.7837],[2.535,36.3846,513.3374],[2.5404,36.3843,492.6286],[2.5754,36.3762,252.7841],[2.5601,36.3647,305.2164],[2.5567,36.3601,299.0],[2.5647,36.3573,318.5667],[2.5624,36.3537,299.0],[2.5681,36.3497,323.9239],[2.5852,36.3424,307.0876],[2.5982,36.344,339.2133]]]]}
,"properties": {"GID_1": "DZA.10_1","GID_0": "DZA","country": "Algeria","province": "Blida","VARNAME_1": "ElBoulaïda|Al-Boulaida","NL_NAME_1": "البليدة","TYPE_1": "Wilaya","ENGTYPE_1": "Province","CC_1": "9","HASC_1": "DZ.BL","ISO_1": "DZ-09","name": "Blida.province","area_km2": 1479.849,"hist_schema_id": "Elevation0-9000","hist_area_km2": {"0": 2.978,"25": 83.473,"50": 154.703,"75": 141.109,"100": 92.688,"125": 67.539,"150": 55.193,"175": 44.271,"200": 39.056,"225": 30.634,"250": 25.843,"275": 24.649,"300": 24.532,"325": 25.095,"350": 24.858,"375": 25.25,"400": 25.865,"425": 26.053,"450": 27.264,"475": 26.651,"500": 26.074,"525": 24.522,"550": 25.869,"575": 23.14,"600": 23.09,"625": 23.62,"650": 22.205,"675": 22.189,"700": 21.303,"725": 21.32,"750": 20.434,"775": 19.155,"800": 18.099,"825": 16.718,"850": 15.064,"875": 14.313,"900": 14.109,"925": 14.244,"950": 13.068,"975": 13.017,"1000": 11.618,"1025": 11.567,"1050": 9.588,"1075": 9.367,"1100": 8.924,"1125": 8.548,"1150": 7.337,"1175": 6.518,"1200": 5.733,"1225": 4.982,"1250": 4.692,"1275": 4.641,"1300": 4.044,"1325": 3.72,"1350": 3.361,"1375": 3.429,"1400": 3.412,"1425": 2.985,"1450": 2.218,"1475": 1.689,"1500": 1.092,"1525": 0.734,"1550": 0.205,"1575": 0.085,"1600": 0.085,"1625": 0.017}}}