{"type":"Feature","properties":{"ISO3166-1-Alpha-3":"DZA","country":"Algeria","fill":"#FF0","id":"2209","name":"Blida"},
"geometry":{"type": "Polygon","coordinates": [[[3.44768,36.67595,356.4159],[3.43739,36.67655,349.6421],[3.3898,36.69414,94.4244],[3.38525,36.69854,90.2574],[3.38169,36.70427,84.4827],[3.37176,36.71042,60.3487],[3.3544,36.71347,37.7409],[3.32365,36.71231,34.1654],[3.28769,36.70722,32.2739],[3.22981,36.68513,23.5796],[3.18185,36.66613,25.9585],[3.13436,36.65874,28.511],[3.12258,36.65332,26.5315],[3.11111,36.65055,28.0634],[3.09741,36.64993,27.5691],[3.08253,36.65396,23.6676],[3.07075,36.66004,18.3508],[3.0647,36.67011,20.1693],[3.06253,36.67564,25.0275],[3.06222,36.6819,27.0035],[3.06238,36.68768,61.9761],[3.06191,36.69208,78.3795],[3.05757,36.69895,77.1278],[3.0537,36.70293,96.7141],[3.02512,36.71006,140.2979],[3.02465,36.69753,87.6205],[3.02791,36.68939,115.5369],[3.02992,36.68675,144.9574],[3.03101,36.68461,148.6582],[3.03194,36.68184,161.7281],[3.03302,36.67988,143.8572],[3.03395,36.67761,147.7603],[3.03473,36.67422,104.2793],[3.03504,36.67097,75.6702],[3.03395,36.66624,58.6129],[3.02992,36.66223,51.7647],[3.02279,36.65874,55.8066],[3.00264,36.65606,82.0295],[2.9969,36.65443,94.1892],[2.99111,36.65102,78.6614],[2.98414,36.64433,72.5826],[2.97608,36.63981,54.9083],[2.96197,36.63756,58.1601],[2.84714,36.64012,22.9509],[2.83738,36.63787,15.5576],[2.83304,36.6311,12.0673],[2.83133,36.62407,12.5555],[2.82606,36.61534,14.1178],[2.81268,36.60588,12.9899],[2.75123,36.58118,24.9314],[2.73216,36.57591,31.2798],[2.71449,36.56769,35.0706],[2.69646,36.55643,40.9785],[2.65036,36.52108,60.6544],[2.63439,36.51281,66.4762],[2.62866,36.50462,71.6254],[2.62602,36.5016,74.2947],[2.62447,36.49356,80.3488],[2.62168,36.48397,85.3606],[2.61393,36.47405,91.5882],[2.60246,36.46744,98.7003],[2.58225,36.46382,136.8378],[2.54613,36.46289,253.3838],[2.53647,36.46385,230.629],[2.50732,36.47038,165.8789],[2.49972,36.47038,178.9825],[2.49197,36.46493,214.0864],[2.48618,36.45933,214.4515],[2.47626,36.42062,570.2223],[2.48758,36.40129,512.6946],[2.49259,36.39607,382.9604],[2.49848,36.39165,287.8771],[2.50825,36.38708,227.238],[2.51135,36.38341,325.7524],[2.51399,36.3707,544.2128],[2.52251,36.36398,428.7849],[2.54034,36.36631,401.6362],[2.58985,36.38197,304.6407],[2.61842,36.38631,296.1995],[2.64338,36.39726,364.7909],[2.64788,36.39612,349.4437],[2.65269,36.39209,415.9025],[2.66111,36.3631,792.0244],[2.68374,36.36088,1200.6927],[2.78276,36.36791,728.9044],[2.80523,36.36527,861.9949],[2.82446,36.36517,947.5132],[2.84528,36.36923,893.6821],[2.8611,36.37768,1264.3998],[2.87567,36.38757,904.5011],[2.89867,36.40848,891.6209],[2.90983,36.41525,931.4928],[2.92378,36.41307,524.2025],[2.93231,36.40313,805.008],[2.94058,36.38786,973.9495],[2.95096,36.37233,976.8404],[2.96709,36.36067,731.7576],[2.98305,36.35473,787.7037],[2.99628,36.35329,695.3959],[3.00806,36.35644,767.6348],[3.02496,36.36396,597.2787],[3.05323,36.38228,545.0895],[3.10191,36.40791,820.7042],[3.13715,36.41866,802.9631],[3.16232,36.42909,1119.0791],[3.18263,36.44455,667.4389],[3.18991,36.45622,879.9838],[3.19488,36.46765,783.6622],[3.20325,36.47491,733.8185],[3.22004,36.48124,565.3994],[3.24516,36.48258,553.325],[3.28304,36.49018,559.7723],[3.29373,36.51415,414.5149],[3.30474,36.53364,394.1353],[3.31203,36.5424,455.1754],[3.32179,36.55038,310.1003],[3.33549,36.55609,542.5174],[3.44318,36.57257,604.9728],[3.45636,36.57684,530.8491],[3.46736,36.58317,548.4281],[3.47605,36.59144,606.0536],[3.49263,36.61229,638.2604],[3.49873,36.61725,673.03],[3.51005,36.62317,587.6823],[3.51036,36.63156,370.6202],[3.50819,36.64257,298.0851],[3.47744,36.68856,84.9204],[3.45651,36.67802,224.2644],[3.44768,36.67595,356.4159]]]}}