{"type":"Feature","properties":{"GID_2":"DZA.22.6_1","GID_0":"DZA","country":"Algeria","GID_1":"DZA.22_1","province":"Illizi","NL_NAME_1":"ولايةاليزي","county":"InAmenas","VARNAME_2":"NA","NL_NAME_2":"NA","TYPE_2":"Commune","ENGTYPE_2":"Commune","CC_2":"3306","HASC_2":"DZ.IL.IA","name":"In_Amenas.county"},
"geometry":{"type": "MultiPolygon","coordinates": [[[[8.6301,27.8301,478.6362],[8.7397,27.6213,533.2899],[8.7504,27.6048,507.2873],[8.7671,27.6047,518.5712],[8.7794,27.6015,532.5964],[8.7883,27.5959,514.7326],[8.7996,27.5962,561.9561],[8.808,27.5938,549.5701],[8.8344,27.5969,505.9601],[8.8392,27.5963,507.9169],[8.8475,27.5919,524.0161],[8.8475,27.5869,511.2578],[8.839,27.5814,513.7724],[8.836,27.577,514.7976],[8.8424,27.5741,516.9293],[8.8506,27.5772,528.1054],[8.876,27.5713,560.157],[8.8769,27.5668,510.4707],[8.8755,27.5624,513.0486],[8.8986,27.559,558.8557],[8.9057,27.556,530.5355],[8.9186,27.5557,515.2202],[8.9251,27.5541,537.6304],[8.932,27.5512,535.554],[8.9507,27.5379,560.4552],[8.9616,27.5396,552.3015],[8.9731,27.5474,506.8547],[8.986,27.5422,506.9393],[9.0002,27.5295,533.4884],[9.0078,27.5262,509.4092],[9.022,27.5245,506.387],[9.0304,27.5213,501.605],[9.0337,27.5174,511.5611],[9.0279,27.5106,527.9899],[9.0269,27.5047,523.4854],[9.0316,27.5016,507.0511],[9.0429,27.5031,503.7912],[9.0636,27.502,503.95],[9.0675,27.4983,511.6623],[9.0367,27.4729,559.1951],[9.0233,27.4694,550.6119],[9.0394,27.46,516.8354],[9.0347,27.4499,512.8378],[9.026,27.4375,519.8793],[9.0079,27.4248,527.722],[9.0042,27.4201,536.2799],[9.0038,27.4043,571.3621],[9.0099,27.4022,533.1136],[9.0281,27.4024,534.8762],[9.0421,27.397,530.9036],[9.0496,27.3994,530.4443],[9.0551,27.3975,530.6972],[9.0735,27.4022,525.2046],[9.087,27.399,520.5453],[9.1165,27.4023,513.2538],[9.1336,27.4004,508.5081],[9.1791,27.4062,534.8349],[9.2044,27.3929,497.0023],[9.2204,27.3892,489.5261],[9.2324,27.3893,482.9799],[9.2701,27.3922,471.9721],[9.2768,27.3936,469.9902],[9.2857,27.3995,499.3105],[9.2944,27.397,466.8469],[9.3002,27.3986,464.8574],[9.3079,27.4058,493.6779],[9.3083,27.4105,468.903],[9.3139,27.4114,464.2969],[9.3225,27.4049,461.7366],[9.3292,27.4072,463.8437],[9.3337,27.4118,505.7986],[9.3452,27.4124,503.4902],[9.3505,27.4083,497.3417],[9.3586,27.4086,511.5376],[9.3669,27.4096,466.8339],[9.3715,27.415,497.1815],[9.4032,27.416,451.1211],[9.4292,27.421,443.3802],[9.4409,27.4166,443.003],[9.4446,27.4132,443.6631],[9.4522,27.4007,445.6348],[9.4557,27.3979,446.3056],[9.4739,27.3909,450.4395],[9.4953,27.3881,457.2494],[9.5036,27.3796,461.6197],[9.5311,27.3678,463.2864],[9.5578,27.3584,472.8813],[9.578,27.3545,474.068],[9.5849,27.3516,475.3555],[9.5882,27.3482,475.9536],[9.5931,27.3378,477.0579],[9.5968,27.3343,478.0302],[9.6024,27.3316,491.3447],[9.6101,27.3234,484.571],[9.6382,27.3057,492.6907],[9.6458,27.3043,489.4046],[9.6763,27.3038,492.8121],[9.7188,27.2983,521.4073],[9.7518,27.2839,503.5599],[9.7642,27.2765,525.9836],[9.7787,27.2713,508.8506],[9.7836,27.2722,502.9964],[9.7859,27.3058,489.2791],[9.7905,27.3215,514.0936],[9.7953,27.3539,503.7837],[9.7845,27.3529,508.7426],[9.7863,27.3647,517.4016],[9.7973,27.3998,513.908],[9.8108,27.4207,509.8242],[9.8103,27.437,533.8983],[9.8171,27.4495,602.2155],[9.8141,27.4575,504.4317],[9.8141,27.4621,497.7502],[9.8241,27.4753,495.9117],[9.8307,27.4886,497.6577],[9.8465,27.4977,505.4568],[9.8625,27.5033,519.1971],[9.8684,27.516,513.186],[9.8664,27.5385,523.9226],[9.8675,27.5429,546.3246],[9.8786,27.5617,536.7284],[9.8246,27.561,522.3582],[9.8176,27.5649,545.2838],[9.8169,27.5712,522.2125],[9.8198,27.5767,511.2073],[9.8227,27.5786,552.1853],[9.8655,27.5854,519.1279],[9.8717,27.5953,519.2972],[9.8883,27.6073,512.6583],[9.9013,27.636,497.829],[9.9242,27.6781,491.0097],[9.9258,27.6977,497.8171],[9.943,27.7317,493.9678],[9.9401,27.7744,489.6711],[9.9463,27.8,478.6519],[9.9434,27.8355,479.0037],[9.944,27.8438,533.2398],[9.9495,27.8542,541.0966],[9.9616,27.8646,552.3838],[9.9629,27.875,559.4105],[9.9622,27.8866,565.2012],[9.8335,28.2853,611.3823],[9.8472,28.3895,620.1592],[9.8702,28.5407,709.0574],[9.8549,28.5312,703.0652],[9.842,28.5312,707.2034],[9.8275,28.5175,727.757],[9.8112,28.5107,727.3819],[9.7919,28.5058,714.0421],[9.7837,28.5087,724.2356],[9.7751,28.4987,683.7518],[9.7589,28.5022,721.6417],[9.7267,28.4881,628.8757],[9.7167,28.5004,706.5408],[9.7011,28.4939,719.7237],[9.6661,28.4901,635.343],[9.6604,28.5127,722.0538],[9.6439,28.5152,683.9434],[9.6243,28.5348,707.7148],[9.6136,28.5372,651.0019],[9.6097,28.5415,690.1241],[9.6067,28.5503,700.9847],[9.5978,28.5575,681.051],[9.583,28.5564,709.6919],[9.5783,28.5462,694.5788],[9.5691,28.5457,708.8068],[9.5664,28.5357,693.1846],[9.5592,28.5328,714.6953],[9.5664,28.527,704.837],[9.5419,28.5147,650.3379],[9.5359,28.5191,713.8043],[9.535,28.5113,715.015],[9.5372,28.5035,714.1562],[9.5143,28.498,671.1973],[9.5059,28.5064,692.2064],[9.4889,28.5135,672.5927],[9.4741,28.5086,715.7066],[9.4584,28.5008,715.5032],[9.4475,28.4927,717.3806],[9.4391,28.4768,720.8528],[9.421,28.4697,719.8463],[9.3895,28.4771,594.4178],[9.3873,28.4919,616.7422],[9.3888,28.5086,605.1646],[9.3707,28.5386,705.4387],[9.373,28.6105,693.4392],[9.3674,28.6253,681.0214],[9.1245,28.7196,600.0351],[9.1052,28.7236,595.8043],[9.0234,28.7211,567.5218],[9.0047,28.7266,626.8396],[9.0101,28.7126,585.7443],[8.9991,28.7063,632.5301],[8.9718,28.7179,582.9478],[8.9388,28.7367,615.6723],[8.9211,28.7355,608.4007],[8.905,28.7439,605.5216],[8.8883,28.7409,603.0286],[8.8747,28.7407,543.752],[8.8641,28.7525,591.5725],[8.848,28.7628,587.0596],[8.8482,28.7494,587.2941],[8.8297,28.7461,593.9883],[8.8154,28.7394,584.4011],[8.8042,28.7513,588.0833],[8.7841,28.7498,586.0697],[8.7724,28.7384,519.8116],[8.7771,28.7328,521.9587],[8.7975,28.7318,526.806],[8.8107,28.7286,530.6384],[8.8213,28.7225,534.5012],[8.8405,28.7177,540.841],[8.8652,28.709,545.4604],[8.8707,28.7046,550.5995],[8.873,28.7005,553.3689],[8.881,28.6734,559.4828],[8.8781,28.6697,568.3517],[8.8734,28.6686,571.6429],[8.856,28.6518,577.5341],[8.8369,28.6419,581.5847],[8.833,28.6374,583.2878],[8.859,28.5705,479.2411],[8.8541,28.5678,473.0624],[8.8391,28.5539,459.7198],[8.8358,28.5497,459.1422],[8.8299,28.5344,457.8839],[8.8368,28.5156,462.0194],[8.8515,28.4986,476.8618],[8.8623,28.4794,474.0904],[8.912,28.436,481.1571],[8.9209,28.4148,482.7708],[8.9283,28.405,491.1452],[8.9306,28.3993,490.071],[8.9281,28.3914,488.1191],[8.9235,28.3851,485.4323],[8.9093,28.3724,478.7523],[8.905,28.3626,469.20119999999997],[8.9039,28.3508,469.6008],[8.901,28.3449,471.0426],[8.8952,28.3422,478.7916],[8.8905,28.3372,473.11],[8.8884,28.3316,479.1764],[8.8806,28.3346,476.9371],[8.8633,28.3234,476.8568],[8.8257,28.309,476.6938],[8.8145,28.3012,478.9773],[8.7779,28.2506,525.4368],[8.7758,28.2451,528.2847],[8.7625,28.2328,504.2765],[8.7492,28.2257,501.615],[8.7398,28.2141,484.7709],[8.7308,28.1972,488.3199],[8.722,28.1866,484.3436],[8.7161,28.1756,482.8466],[8.711,28.1597,476.4098],[8.7043,28.1487,475.6901],[8.6746,28.1275,465.0911],[8.6592,28.1021,467.6096],[8.6567,28.0906,470.5467],[8.6525,28.0807,469.6754],[8.6536,28.0702,467.8087],[8.6511,28.0577,468.8719],[8.6603,28.0506,468.9076],[8.6734,28.0339,471.3266],[8.6781,28.0222,479.4024],[8.6785,28.0151,478.2823],[8.6747,28.0059,481.8685],[8.6642,27.9954,498.9702],[8.6611,27.986,497.6187],[8.6616,27.9617,502.82619999999997],[8.6563,27.9404,498.0071],[8.6521,27.9094,485.0727],[8.6444,27.8813,483.8315],[8.6429,27.8679,493.455],[8.6379,27.8564,496.3574],[8.6352,27.8405,482.4366],[8.6301,27.8301,478.6362]]]]}}