{"type": "Feature","bbox": [1.5432,35.9174,1.7214,36.0618],"geometry": {"type": "MultiPolygon","coordinates": [[[[1.7214,35.9794,988.1947],[1.7213,35.9839,847.2476],[1.716,35.9894,717.2169],[1.7099,35.9885,700.4816],[1.7021,36.0055,804.5881],[1.687,36.0141,749.8973],[1.6823,36.0197,692.4308],[1.6763,36.023,541.2202],[1.6613,36.0214,552.7888],[1.6711,36.0324,666.9892],[1.6682,36.0359,659.7925],[1.663,36.0366,592.8218],[1.6589,36.0392,664.2449],[1.6552,36.0431,663.8203],[1.6541,36.0495,555.2642],[1.6484,36.0503,559.7366],[1.6411,36.0463,469.621],[1.634,36.0453,440.1382],[1.6227,36.0491,391.6644],[1.6156,36.0488,401.4488],[1.6101,36.051,441.1901],[1.6087,36.0588,341.3663],[1.605,36.0611,266.7062],[1.5989,36.0618,326.2035],[1.5943,36.06,365.0998],[1.5829,36.0478,551.7284],[1.5787,36.0479,565.7643],[1.5699,36.0551,528.2068],[1.5647,36.0572,520.2276],[1.5587,36.0574,510.9176],[1.5535,36.0596,524.423],[1.5432,36.0505,434.9721],[1.5482,36.0398,515.9872],[1.5553,36.0303,613.8782],[1.5679,36.0342,683.8394],[1.5672,36.0279,493.6],[1.5622,36.0194,546.5535],[1.5718,36.0138,458.1815],[1.5788,36.0154,376.3576],[1.5802,36.01,360.0],[1.5843,36.0062,382.2693],[1.5893,36.0046,364.7114],[1.5891,35.9992,370.3301],[1.5924,35.9958,368.386],[1.6131,35.9876,427.9633],[1.6157,35.9756,397.9113],[1.6185,35.9708,446.9772],[1.6149,35.9678,403.6949],[1.6185,35.9635,406.6902],[1.6276,35.9599,449.8675],[1.6352,35.9506,429.1327],[1.6409,35.949,476.4281],[1.6497,35.9397,451.4017],[1.6636,35.9359,463.0041],[1.6695,35.9368,459.8918],[1.6715,35.9311,498.3958],[1.6795,35.9286,471.3412],[1.6852,35.9241,531.558],[1.7074,35.9174,523.6182],[1.7074,35.9299,722.8309],[1.7032,35.9354,811.0051],[1.7054,35.9397,912.1718],[1.7153,35.9483,987.2227],[1.7065,35.9639,936.4793],[1.7214,35.9794,988.1947]]]]}
,"properties": {"GID_2": "DZA.14.4_1","GID_0": "DZA","country": "Algeria","GID_1": "DZA.14_1","province": "Chlef","NL_NAME_1": "ولايةالشلف","county": "BeniBouattab","VARNAME_2": "NA","NL_NAME_2": "NA","TYPE_2": "Commune","ENGTYPE_2": "Commune","CC_2": "235","HASC_2": "DZ.CH.BB","name": "Beni_Bouattab.county","area_km2": 120.14405,"hist_schema_id": "Elevation0-9000","hist_area_km2": {"275": 0.01714,"300": 0.11998,"325": 0.11998,"350": 5.72712,"375": 3.17236,"400": 2.9837,"425": 3.82387,"450": 4.97311,"475": 5.71081,"500": 6.72285,"525": 7.28879,"550": 6.7925,"575": 6.81012,"600": 6.91313,"625": 7.20517,"650": 6.31325,"675": 6.77649,"700": 5.47308,"725": 5.01012,"750": 4.22089,"775": 4.58115,"800": 3.50022,"825": 3.44881,"850": 2.79672,"875": 2.65942,"900": 2.21339,"925": 1.66433,"950": 1.25255,"975": 0.92652,"1000": 0.51472,"1025": 0.29165,"1050": 0.10294,"1075": 0.01715}}}