{"type": "Feature","bbox": [-0.5933,35.6283,-0.4318,35.6998],"geometry": {"type": "MultiPolygon","coordinates": [[[[-0.5933,35.6976,127.3499],[-0.5929,35.6703,94.3386],[-0.5915,35.6628,91.2748],[-0.5924,35.6564,89.9331],[-0.5858,35.6418,93.0406],[-0.5781,35.6411,93.587],[-0.5713,35.6426,94.5805],[-0.5687,35.6461,93.0377],[-0.5482,35.6373,91.9911],[-0.5349,35.6351,109.6482],[-0.5236,35.6421,100.3022],[-0.5068,35.6371,125.995],[-0.4966,35.6421,154.3908],[-0.4758,35.6293,267.0455],[-0.4695,35.6283,299.2899],[-0.464,35.6283,288.8874],[-0.4591,35.6324,322.8318],[-0.4443,35.6398,320.5814],[-0.4318,35.6414,301.7192],[-0.4552,35.654,178.3436],[-0.4589,35.6616,173.4159],[-0.4615,35.6749,142.5996],[-0.4782,35.6739,122.3937],[-0.4906,35.6702,121.2212],[-0.4968,35.6702,112.124],[-0.5086,35.6793,94.2545],[-0.5158,35.6892,103.6047],[-0.5171,35.6948,104.047],[-0.5292,35.6968,98.031],[-0.5371,35.6998,111.91],[-0.5429,35.6975,110.1997],[-0.5635,35.6984,129.3449],[-0.5726,35.696,128.7276],[-0.5933,35.6976,127.3499]]]]}
,"properties": {"GID_2": "DZA.32.25_1","GID_0": "DZA","country": "Algeria","GID_1": "DZA.32_1","province": "Oran","NL_NAME_1": "ولايةوهران","county": "SidiChahmi","VARNAME_2": "SidiChami","NL_NAME_2": "NA","TYPE_2": "Commune","ENGTYPE_2": "Commune","CC_2": "3113","HASC_2": "DZ.OR.SC","name": "Sidi_Chahmi.county","area_km2": 69.17917,"hist_schema_id": "Elevation0-9000","hist_area_km2": {"100": 45.9051,"125": 7.11331,"150": 3.96216,"175": 3.89345,"200": 2.01583,"225": 1.51626,"250": 1.8437,"275": 1.18897,"300": 1.3612899999999999,"325": 0.37911}}}