{"type":"Feature","properties":{"GID_2":"DZA.48.26_1","GID_0":"DZA","country":"Algeria","GID_1":"DZA.48_1","province":"Tlemcen","NL_NAME_1":"تلمسان","county":"ElGor","VARNAME_2":"NA","NL_NAME_2":"NA","TYPE_2":"Commune","ENGTYPE_2":"Commune","CC_2":"1310","HASC_2":"DZ.TL.EG","name":"El_Gor.county"},
"geometry":{"type": "MultiPolygon","coordinates": [[[[-0.9042,34.5411,1155.1597],[-0.9206,34.5614,1149.8276],[-0.9243,34.5713,1163.8386],[-0.9237,34.5843,1195.6458],[-0.9269,34.5901,1217.0593],[-0.9271,34.5961,1229.7057],[-0.9219,34.6052,1275.4031],[-0.9184,34.6234,1201.6223],[-0.9261,34.66,1152.8326],[-0.9363,34.6703,1093.0143],[-0.9679,34.68,1196.8149],[-1.0102,34.6876,1126.615],[-1.0388,34.7029,1125.5696],[-1.0454,34.7135,1164.7644],[-1.0512,34.7184,1203.3138],[-1.0558,34.7199,1202.1102],[-1.0698,34.7186,1257.3069],[-1.0861,34.724,1493.8677],[-1.0988,34.7223,1569.6111],[-1.1021,34.7194,1563.9233],[-1.1207,34.7197,1540.0393],[-1.1313,34.7161,1513.554],[-1.142,34.7157,1455.1021],[-1.1518,34.7093,1325.561],[-1.1761,34.7058,1164.9639],[-1.1793,34.7018,1161.1931],[-1.1743,34.6778,1188.0919],[-1.1797,34.6732,1229.3806],[-1.1818,34.6631,1289.7473],[-1.1854,34.6583,1285.14],[-1.2054,34.6419,1284.8955],[-1.2073,34.627,1216.3501],[-1.2142,34.618899999999996,1168.7008],[-1.2147,34.6145,1167.2119],[-1.1999,34.6029,1176.4283],[-1.2077,34.5871,1158.6697],[-1.2024,34.5855,1148.5886],[-1.2042,34.5729,1126.657],[-1.1957,34.5614,1112.1528],[-1.1832,34.5567,1126.8137],[-1.1799,34.5494,1123.5938],[-1.1771,34.5378,1111.7457],[-1.1813,34.5338,1110.6552],[-1.1791,34.5207,1099.318],[-1.1721,34.4972,1112.6328],[-1.1717,34.4853,1099.7969],[-1.1694,34.4779,1101.2062],[-1.1536,34.4574,1108.5461],[-1.1461,34.4509,1113.2804],[-1.1304,34.4415,1119.2754],[-1.1135,34.4349,1126.6855],[-1.1027,34.428,1131.2341],[-1.0738,34.4194,1142.6106],[-1.0611,34.4111,1148.5802],[-1.0348,34.4038,1162.594],[-1.0306,34.3998,1161.439],[-1.0284,34.3948,1164.8613],[-1.0242,34.3798,1174.613],[-0.9761,34.3994,1232.7393],[-0.9417,34.4173,1213.2228],[-0.9385,34.4207,1189.4241],[-0.9361,34.4278,1181.0277],[-0.9096,34.4435,1143.6326],[-0.8993,34.4543,1125.1462],[-0.8934,34.4581,1131.6099],[-0.895,34.4652,1131.3846],[-0.8897,34.4708,1135.8657],[-0.8614,34.494,1117.0903],[-0.8505,34.4996,1127.7108],[-0.845,34.5062,1097.8813],[-0.8557,34.5204,1077.7634],[-0.8634,34.5349,1064.5659],[-0.8752,34.5374,1075.2574],[-0.8884,34.5375,1100.7214],[-0.9042,34.5411,1155.1597]]]]}}