{"type":"Feature","properties":{"GID_2":"DZA.47.32_1","GID_0":"DZA","country":"Algeria","GID_1":"DZA.47_1","province":"TiziOuzou","NL_NAME_1":"ولايةغليزان","county":"DraaElMizan","VARNAME_2":"Dara`-al-Mizān","NL_NAME_2":"NA","TYPE_2":"Commune","ENGTYPE_2":"Commune","CC_2":"1510","HASC_2":"DZ.TO.DM","name":"Draa_El_Mizan.county"},
"geometry":{"type": "MultiPolygon","coordinates": [[[[3.84,36.4876,488.1714],[3.8422,36.494,513.3069],[3.8488,36.4974,625.4011],[3.8549,36.4974,716.8658],[3.862,36.5013,550.0971],[3.8654,36.5062,490.6152],[3.866,36.5125,415.9432],[3.8696,36.5174,368.6718],[3.8672,36.5321,304.5],[3.8708,36.5446,264.9537],[3.8805,36.5598,230.7206],[3.8711,36.5667,269.7516],[3.8677,36.5707,338.5035],[3.8662,36.576,381.1539],[3.875,36.5845,450.1472],[3.8722,36.5908,467.7339],[3.8744,36.5953,394.0083],[3.8665,36.5998,352.0834],[3.8632,36.6049,260.7208],[3.8475,36.6047,224.7095],[3.8417,36.6074,271.1411],[3.8332,36.6028,265.5751],[3.8312,36.5983,306.0784],[3.827,36.5963,297.7371],[3.8245,36.5907,295.6113],[3.8133,36.5886,305.188],[3.8042,36.5823,295.0853],[3.8023,36.5768,325.2339],[3.8111,36.5709,397.4445],[3.806,36.5676,355.2474],[3.7944,36.5703,337.1847],[3.7891,36.5685,346.5106],[3.7713,36.5702,516.9068],[3.7619,36.5738,580.1247],[3.7464,36.556,764.9773],[3.7548,36.5508,767.2007],[3.7668,36.5348,559.235],[3.7728,36.5322,614.599],[3.779,36.5335,669.3853],[3.7902,36.5327,572.4043],[3.795,36.5351,575.9642],[3.8065,36.5326,637.7864],[3.8085,36.527,610.7008],[3.8157,36.5179,585.1119],[3.8134,36.513,579.7555],[3.8144,36.5074,687.0146],[3.8181,36.5021,645.2955],[3.8243,36.4986,631.2592],[3.8307,36.4886,440.9022],[3.8345,36.4864,406.9954],[3.84,36.4876,488.1714]]]]}}