{"type":"Feature","properties":{"GID_2":"DZA.46.20_1","GID_0":"DZA","country":"Algeria","GID_1":"DZA.46_1","province":"Tissemsilt","NL_NAME_1":"ولايةتسمسيلت","county":"Tamelaht","VARNAME_2":"Tamalaht","NL_NAME_2":"NA","TYPE_2":"Commune","ENGTYPE_2":"Commune","CC_2":"3819","HASC_2":"DZ.TS.TA","name":"Tamelaht.county"},
"geometry":{"type": "MultiPolygon","coordinates": [[[[1.6531,35.8166,702.6166],[1.6421,35.8123,705.5132],[1.6276,35.8246,732.4391],[1.6219,35.8323,744.6008],[1.6101,35.8319,929.3918],[1.6048,35.8348,927.2264],[1.5992,35.8327,910.2839],[1.5889,35.8326,855.5696],[1.5777,35.8376,864.4758],[1.5728,35.8443,804.5551],[1.5573,35.833,833.7925],[1.5634,35.821,985.446],[1.5622,35.8137,942.4889],[1.5516,35.7976,844.9941],[1.5513,35.7917,734.18],[1.5479,35.7857,773.2148],[1.5679,35.7773,741.617],[1.574,35.7803,783.8729],[1.5797,35.7807,875.0348],[1.5894,35.7783,710.1312],[1.5911,35.7713,721.9867],[1.5984,35.7699,710.2745],[1.6088,35.7559,653.7203],[1.6214,35.7567,828.3563],[1.6256,35.7595,776.4427],[1.6245,35.7665,724.3121],[1.6164,35.7806,615.3604],[1.62,35.7841,615.9055],[1.6382,35.7847,796.1353],[1.6509,35.779,860.4036],[1.6545,35.7839,897.5496],[1.6601,35.7861,1028.2081],[1.6634,35.7904,1114.1781],[1.661,35.7946,1115.4805],[1.6621,35.8093,925.6468],[1.6593,35.8148,774.0861],[1.6531,35.8166,702.6166]]]]}}