{"type":"Feature","properties":{"GID_2":"DZA.18.15_1","GID_0":"DZA","country":"Algeria","GID_1":"DZA.18_1","province":"ElOued","NL_NAME_1":"ولايةالوادي","county":"Magrane","VARNAME_2":"Maqran","NL_NAME_2":"NA","TYPE_2":"Commune","ENGTYPE_2":"Commune","CC_2":"3918","HASC_2":"DZ.EO.MA","name":"Magrane.county"},
"geometry":{"type": "MultiPolygon","coordinates": [[[[7.01,34.1545,-9.629],[6.8308,34.1501,-21.0585],[6.8543,33.978,8.1113],[6.8534,33.9687,6.1829],[6.8809,33.695,26.5676],[6.9284,33.582,44.8104],[6.9528,33.5815,45.0807],[6.9586,33.5844,46.3926],[6.9943,33.5838,50.1492],[6.9748,33.6826,30.0817],[6.9708,33.9015,0.6298],[6.9538,33.991,-4.9643],[6.9723,34.0552,-17.0289],[6.9656,34.0933,-17.4496],[7.01,34.1545,-9.629]]]]}}