{"type": "Feature","bbox": [5.0753,36.2076,5.1695,36.3106],"geometry": {"type": "MultiPolygon","coordinates": [[[[5.1492,36.2076,827.8348],[5.1576,36.2087,837.5672],[5.1616,36.2119,842.0076],[5.163,36.2311,871.0612],[5.1695,36.2341,895.6827],[5.1557,36.2424,926.844],[5.1472,36.2442,914.6978],[5.1345,36.2528,985.2085],[5.1358,36.2596,996.4988],[5.1463,36.2667,1090.3374],[5.15,36.2727,1027.5195],[5.1542,36.2913,1128.0358],[5.1531,36.2984,1181.875],[5.1493,36.3031,1106.3296],[5.1514,36.31,1123.3987],[5.1457,36.3106,1166.2068],[5.1318,36.3039,1112.811],[5.1259,36.3046,1169.1079],[5.0976,36.2985,1268.2217],[5.089,36.2994,1136.0718],[5.0829,36.297,1013.9075],[5.08,36.2926,931.692],[5.0753,36.2895,780.9427],[5.0819,36.2695,741.781],[5.078,36.2669,780.7398],[5.0834,36.2589,747.5247],[5.0804,36.2549,782.8248],[5.0842,36.2486,793.073],[5.0888,36.2443,771.2429],[5.1052,36.2379,792.1225],[5.108,36.234,823.4045],[5.11,36.2265,796.0099],[5.115,36.2229,785.6323],[5.124,36.2117,791.6271],[5.1366,36.2166,831.7627],[5.1492,36.2076,827.8348]],
[[5.0834,36.2589,747.5247],[5.0859,36.2632,749.618],[5.092,36.2626,800.5068],[5.0885,36.2579,753.9996],[5.0834,36.2589,747.5247]]]]}
,"properties": {"GID_2": "DZA.37.22_1","GID_0": "DZA","country": "Algeria","GID_1": "DZA.37_1","province": "Sétif","NL_NAME_1": "ولايةسطيف","county": "BeniOussine","VARNAME_2": "BeniHocine","NL_NAME_2": "NA","TYPE_2": "Commune","ENGTYPE_2": "Commune","CC_2": "1953","HASC_2": "DZ.SF.BN","name": "Beni_Oussine.county","area_km2": 55.11717,"hist_schema_id": "Elevation0-9000","hist_area_km2": {"750": 0.52996,"775": 1.3335,"800": 3.12925,"825": 4.36075,"850": 4.49749,"875": 5.4891,"900": 5.54031,"925": 3.88146,"950": 2.47917,"975": 2.01717,"1000": 2.63245,"1025": 2.64929,"1050": 2.76882,"1075": 1.96536,"1100": 1.58933,"1125": 1.82859,"1150": 1.52102,"1175": 1.29884,"1200": 1.24755,"1225": 0.63235,"1250": 0.59815,"1275": 0.41015,"1300": 0.29052,"1325": 0.44432,"1350": 0.42723,"1375": 0.3076,"1400": 0.18798,"1425": 0.27342,"1450": 0.30759,"1475": 0.18797,"1500": 0.13671,"1525": 0.05126,"1550": 0.06835,"1575": 0.01709,"1600": 0.01709}}}