{"type":"Feature","properties":{"GID_2":"DZA.12.31_1","GID_0":"DZA","country":"Algeria","GID_1":"DZA.12_1","province":"Bouira","NL_NAME_1":"ولايةالبويرة","county":"Lakhdaria","VARNAME_2":"Lakhdarīyah","NL_NAME_2":"NA","TYPE_2":"Commune","ENGTYPE_2":"Commune","CC_2":"1013","HASC_2":"DZ.BU.LA","name":"Lakhdaria.county"},
"geometry":{"type": "MultiPolygon","coordinates": [[[[3.4951,36.5354,217.2105],[3.5032,36.531,473.109],[3.5242,36.5246,748.8474],[3.529,36.5248,757.0496],[3.5375,36.5286,627.958],[3.5461,36.5424,583.0838],[3.5564,36.5436,574.8514],[3.561,36.5458,589.5137],[3.5753,36.5353,199.6224],[3.5861,36.5359,302.8521],[3.5923,36.5344,359.5086],[3.5955,36.5307,442.3612],[3.6036,36.5365,458.664],[3.609,36.5381,428.9295],[3.6273,36.5387,166.5743],[3.6334,36.537,316.6003],[3.6654,36.5186,531.3578],[3.6701,36.5202,492.7877],[3.6698,36.5275,156.9614],[3.666,36.5306,157.8369],[3.6685,36.5353,155.9671],[3.6809,36.5466,202.4467],[3.6773,36.5497,262.3192],[3.6679,36.5801,808.7542],[3.6679,36.5857,805.0522],[3.6468,36.5878,914.0124],[3.635,36.5858,656.8423],[3.6256,36.5862,625.6215],[3.6131,36.588,546.4304],[3.6074,36.5902,519.8796],[3.5797,36.5926,241.0996],[3.5772,36.5988,112.2923],[3.5717,36.6021,351.9217],[3.5521,36.6009,592.0137],[3.5273,36.605,554.746],[3.5331,36.5976,498.0333],[3.5345,36.5802,167.077],[3.5229,36.5787,186.542],[3.5197,36.5716,223.1954],[3.5227,36.5674,176.3112],[3.5179,36.5664,178.6324],[3.5077,36.5598,306.434],[3.5018,36.5537,404.5255],[3.5129,36.5446,191.1748],[3.5065,36.5407,182.1994],[3.4997,36.5396,187.6732],[3.4951,36.5354,217.2105]]]]}}