{"type": "Feature","bbox": [5.8308,35.6591,5.9598,35.7984],"geometry": {"type": "MultiPolygon","coordinates": [[[[5.8964,35.7984,916.2205],[5.8913,35.7917,899.9556],[5.8872,35.7785,904.584],[5.8825,35.7744,907.9651],[5.8781,35.7672,914.3384],[5.872,35.7466,914.626],[5.8429,35.7172,923.3482],[5.8412,35.7125,918.1696],[5.8308,35.701,911.327],[5.8474,35.6949,888.0757],[5.8553,35.6856,885.8431],[5.8608,35.6824,887.6094],[5.8636,35.6778,890.7181],[5.8733,35.6751,894.5155],[5.8848,35.6661,907.2849],[5.8946,35.6619,920.5168],[5.9276,35.6668,917.2509],[5.9493,35.6592,922.4575],[5.9536,35.6591,927.2416],[5.9598,35.6683,928.2941],[5.9581,35.6743,923.4128],[5.95,35.6741,919.2777],[5.9402,35.6798,913.058],[5.9375,35.6836,911.3118],[5.9399,35.688,912.3346],[5.9291,35.6897,907.4456],[5.9247,35.6924,906.7493],[5.9333,35.6958,912.6904],[5.9335,35.7017,922.069],[5.9308,35.7086,939.2938],[5.9342,35.7228,997.93],[5.9329,35.7278,1035.189],[5.9375,35.7358,1159.5564],[5.936,35.7418,1234.0509],[5.9367,35.7477,1337.3475],[5.9347,35.7533,1322.9893],[5.9292,35.7586,1380.6747],[5.9279,35.7675,1180.843],[5.9299,35.7766,995.2511],[5.9244,35.7788,963.5065],[5.904,35.7944,889.6782],[5.8964,35.7984,916.2205]]]]}
,"properties": {"GID_2": "DZA.6.29_1","GID_0": "DZA","country": "Algeria","GID_1": "DZA.6_1","province": "Batna","NL_NAME_1": "ولايةباتنة","county": "KsarBellezma","VARNAME_2": "KsarBelezma","NL_NAME_2": "NA","TYPE_2": "Commune","ENGTYPE_2": "Commune","CC_2": "528","HASC_2": "DZ.BT.KB","name": "Ksar_Bellezma.county","area_km2": 90.09719,"hist_schema_id": "Elevation0-9000","hist_area_km2": {"875": 0.58548,"900": 41.92407,"925": 17.4909,"950": 6.28133,"975": 4.33658,"1000": 3.28675,"1025": 2.08222,"1050": 1.75518,"1075": 1.75518,"1100": 1.65195,"1125": 1.15289,"1150": 1.11846,"1175": 1.0324,"1200": 1.15285,"1225": 0.89475,"1250": 0.92916,"1275": 0.77428,"1300": 0.67108,"1325": 0.44737,"1350": 0.37854,"1375": 0.27531,"1400": 0.12044}}}