{"type":"Feature","properties":{"GID_2":"DZA.27.5_1","GID_0":"DZA","country":"Algeria","GID_1":"DZA.27_1","province":"Mascara","NL_NAME_1":"ولايةمعسكر","county":"Alaimia","VARNAME_2":"NA","NL_NAME_2":"NA","TYPE_2":"Commune","ENGTYPE_2":"Commune","CC_2":"2928","HASC_2":"DZ.MC.AL","name":"Alaimia.county"},
"geometry":{"type": "MultiPolygon","coordinates": [[[[-0.1904,35.6945,4.2387],[-0.2022,35.6918,14.1281],[-0.209,35.7027,31.4613],[-0.2295,35.7059,130.8996],[-0.2334,35.7101,163.8802],[-0.2358,35.7163,166.1124],[-0.2428,35.7194,161.4489],[-0.2573,35.7344,64.9643],[-0.2715,35.7207,60.138],[-0.2812,35.6993,67.7132],[-0.2946,35.6782,110.4972],[-0.2885,35.676,174.7305],[-0.2557,35.6766,120.2238],[-0.2351,35.6603,76.2547],[-0.2379,35.6523,86.6076],[-0.2326,35.6499,71.8229],[-0.2162,35.6489,36.0153],[-0.2138,35.6356,25.465699999999998],[-0.2025,35.6326,15.9831],[-0.1712,35.6555,9.073],[-0.1717,35.6613,6.2775],[-0.1825,35.689,2.4923],[-0.1904,35.6945,4.2387]]]]}}