{"type":"Feature","properties":{"GID_2":"DZA.39.12_1","GID_0":"DZA","country":"Algeria","GID_1":"DZA.39_1","province":"Skikda","NL_NAME_1":"سكيكدة","county":"Bouchetata","VARNAME_2":"Bouchtata","NL_NAME_2":"NA","TYPE_2":"Commune","ENGTYPE_2":"Commune","CC_2":"2134","HASC_2":"DZ.SK.BC","name":"Bouchetata.county"},
"geometry":{"type": "MultiPolygon","coordinates": [[[[6.7477,36.8797,431.0184],[6.7435,36.8744,561.0682],[6.7367,36.8704,318.2032],[6.7295,36.8599,428.1316],[6.7372,36.8503,530.9729],[6.747,36.8505,561.0264],[6.7428,36.8445,570.3517],[6.7309,36.8424,646.3988],[6.719,36.8291,476.29],[6.716,36.8246,372.3686],[6.721,36.8236,378.0723],[6.7244,36.8205,398.2567],[6.7238,36.8155,391.1476],[6.7171,36.8069,287.4592],[6.7042,36.8006,200.8051],[6.6985,36.7953,192.0699],[6.6732,36.7853,197.7707],[6.6839,36.772,341.2657],[6.6882,36.7568,320.3755],[6.7034,36.7529,502.905],[6.7291,36.7622,554.9357],[6.7357,36.7631,468.1773],[6.7465,36.7602,469.2851],[6.7685,36.7674,418.704],[6.7855,36.769,320.4356],[6.8021,36.7728,332.1057],[6.8079,36.7717,274.9673],[6.8193,36.7752,162.4255],[6.8256,36.7793,122.3278],[6.8275,36.7834,145.6102],[6.8381,36.7884,265.5367],[6.8413,36.793,288.3712],[6.8426,36.7984,210.0614],[6.8408,36.8026,245.8593],[6.8429,36.8146,139.8691],[6.8277,36.8273,119.221],[6.798,36.8311,535.9807],[6.7943,36.8358,471.2798],[6.7997,36.8523,469.6205],[6.7868,36.8622,282.2896],[6.7821,36.8678,296.6786],[6.7771,36.8685,221.2146],[6.7716,36.8775,311.0675],[6.7676,36.8807,163.5946],[6.7619,36.877,207.3548],[6.7505,36.8747,338.8662],[6.7477,36.8797,431.0184]]]]}}