{"type": "Feature","id": "2147","bbox": [-2.22256,34.09202,-0.75848,35.3199],"geometry": {"type": "Polygon","coordinates": [[[-1.35472,35.30265,166.2157],[-1.35849,35.30508,173.0103],[-1.35989,35.30859,155.2249],[-1.36082,35.31795,90.271],[-1.36195,35.31986,0.0],[-1.36198,35.3199,0.0],[-1.364,35.31835,4.5495],[-1.36954,35.31586,0.0],[-1.3959,35.30939,0.0],[-1.49087,35.30097,0.0],[-1.51037,35.29548,0.0],[-1.62951,35.21223,59.6248],[-1.63768,35.19453,149.4052],[-1.64883,35.18842,23.8928],[-1.7128,35.1706,0.0],[-1.74559,35.13882,0.0],[-1.76114,35.12962,0.0],[-1.77424,35.12735,0.0],[-1.80435,35.12812,85.8867],[-1.81273,35.12653,76.4567],[-1.83869,35.11091,0.0],[-1.93248,35.08869,0.0],[-1.94982,35.07713,0.0],[-1.95645,35.07502,0.0],[-1.96475,35.07624,0.0],[-1.9877,35.08246,0.0],[-2.05236,35.07502,0.0],[-2.08609,35.08198,0.0],[-2.12222,35.09467,0.0],[-2.15689,35.10098,5.8444],[-2.18639,35.08869,0.5115],[-2.18944,35.093,0.0],[-2.19262,35.09447,0.0],[-2.19612,35.09488,0.0],[-2.2001,35.09614,0.0],[-2.22256,35.0893,0.0],[-2.22113,35.04995,38.6972],[-2.21167,35.02344,98.815],[-2.19379,35.0036,119.2959],[-2.1633,34.99404,137.1477],[-2.12604,34.97192,180.5296],[-2.09493,34.94769,253.9168],[-2.06124,34.9297,378.305],[-2.01628,34.92624,541.6719],[-2.00362,34.91818,494.9988],[-1.99969,34.90635,456.7938],[-1.9984,34.8927,443.9587],[-1.99349,34.87885,443.5394],[-1.97975,34.86526,444.2866],[-1.92673,34.83808,436.4462],[-1.89283,34.81167,445.2607],[-1.78772,34.75669,474.9553],[-1.76953,34.74134,509.9286],[-1.77314,34.73406,505.1545],[-1.78611,34.72584,513.5164],[-1.8105,34.68073,582.2893],[-1.86296,34.6136,671.3017],[-1.87112,34.59665,717.438],[-1.75066,34.49417,1175.2908],[-1.71423,34.48505,1252.5188],[-1.70297,34.47968,1232.6504],[-1.80963,34.37245,1156.874],[-1.77133,34.3347,1149.7074],[-1.74606,34.29031,1117.4629],[-1.67475,34.10596,1257.9431],[-1.67209,34.09202,1256.7455],[-1.65827,34.10014,1278.5449],[-1.47988,34.19052,1333.735],[-1.4435,34.19871,1263.4341],[-1.42986,34.19982,1239.6038],[-1.39957,34.19838,1270.1035],[-1.35058,34.20057,1214.4614],[-1.32795,34.19822,1235.6714],[-1.26046,34.20422,1252.3975],[-1.24992,34.20623,1254.9277],[-1.24227,34.20892,1260.2852],[-1.22827,34.21773,1285.085],[-1.21561,34.22814,1291.0371],[-1.21075,34.23114,1304.5765],[-1.14998,34.25331,1293.4138],[-1.1385,34.25941,1277.2241],[-1.12042,34.27129,1263.6129],[-1.09551,34.30473,1258.5034],[-1.05613,34.33922,1227.3436],[-0.89593,34.45175,1130.5994],[-0.88002,34.46761,1157.8237],[-0.87583,34.47536,1151.5308],[-0.87253,34.48353,1130.1288],[-0.87222,34.49032,1121.9689],[-0.87273,34.49466,1109.0238],[-0.87454,34.50058,1107.3766],[-0.87656,34.50433,1101.1746],[-0.8825,34.51267,1093.2816],[-0.88627,34.51681,1076.1095],[-0.89681,34.52601,1099.5909],[-0.90162,34.53138,1127.7477],[-0.90529,34.5382,1153.9281],[-0.90379,34.54719,1252.3308],[-0.89593,34.55489,1175.4385],[-0.88436,34.56078,1095.6906],[-0.84049,34.57295,1036.4153],[-0.83268,34.57606,1034.1547],[-0.82958,34.57838,1031.265],[-0.82617,34.58246,1037.5416],[-0.80953,34.62135,1002.1982],[-0.7901,34.65644,978.8322],[-0.77563,34.6769,957.0324],[-0.76116,34.70238,936.3314],[-0.75848,34.71191,926.7222],[-0.75884,34.71891,949.1151],[-0.76711,34.73163,905.259],[-0.77067,34.73524,894.9781],[-0.77563,34.73744,899.3057],[-0.83956,34.73209,976.8751],[-0.86555,34.73426,1009.0978],[-0.88612,34.74302,999.3796],[-0.8965,34.7609,975.1976],[-0.89697,34.7847,1054.925],[-0.88968,34.81793,1219.0088],[-0.88787,34.83532,1079.0046],[-0.89056,34.84361,1155.3319],[-0.90136,34.84495,1078.4917],[-0.91474,34.84291,892.7515],[-0.92787,34.83911,994.4258],[-0.93604,34.83917,921.139],[-0.94136,34.84258,894.647],[-0.94296,34.85131,916.02],[-0.93883,34.85971,864.5917],[-0.92425,34.87655,831.0555],[-0.92415,34.88151,822.9944],[-0.92916,34.88629,806.2119],[-0.93454,34.88803,810.5673],[-0.93857,34.88865,797.7819],[-0.94224,34.88865,784.7682],[-0.94704,34.89038,788.799],[-0.95299,34.89632,765.1555],[-0.9596,34.90686,814.097],[-0.96611,34.92273,761.6666],[-0.96725,34.92882,694.6918],[-0.9672,34.94211,613.4979],[-0.96508,34.96197,660.5428],[-0.95361,35.00022,669.1411],[-0.95345,35.00034,669.1411],[-0.94942,35.00711,669.8466],[-0.93862,35.02143,653.8977],[-0.92937,35.04045,660.0253],[-0.92983,35.04716,644.1144],[-0.93319,35.05181,623.8973],[-0.98999,35.08313,470.7996],[-0.99329,35.08424,521.7533],[-1.00053,35.08739,436.9445],[-1.04828,35.09732,418.8218],[-1.27162,35.19566,318.2688],[-1.27886,35.19599,382.701],[-1.28578,35.19563,371.2498],[-1.29808,35.19289,377.6425],[-1.30345,35.19067,403.0424],[-1.31048,35.18891,426.4431],[-1.31865,35.18788,396.2529],[-1.33095,35.18824,236.9822],[-1.33766,35.19082,239.3371],[-1.34221,35.19457,172.3758],[-1.34387,35.19956,200.5709],[-1.34485,35.2102,157.5702],[-1.34728,35.21935,149.655],[-1.34531,35.22335,138.3336],[-1.33208,35.2318,139.777],[-1.32888,35.23519,115.5071],[-1.32738,35.23806,141.2072],[-1.32619,35.2426,157.6547],[-1.3248,35.26599,254.3557],[-1.32159,35.27767,242.0005],[-1.32066,35.28379,205.1132],[-1.32196,35.29004,197.0874],[-1.32733,35.298,180.7504],[-1.33332,35.30219,163.2241],[-1.34056,35.30405,194.6098],[-1.34759,35.30381,192.3053],[-1.35472,35.30265,166.2157]]]}
,"properties": {"ISO3166-1-Alpha-3": "DZA","country": "Algeria","fill": "#FF0","name": "Tlemcen","area_km2": 9556.764,"hist_schema_id": "Elevation0-9000","hist_area_km2": {"0": 53.865,"25": 32.421,"50": 41.962,"75": 58.129,"100": 86.424,"125": 107.736,"150": 124.883,"175": 135.356,"200": 149.508,"225": 168.981,"250": 186.225,"275": 182.452,"300": 182.355,"325": 159.331,"350": 170.737,"375": 172.607,"400": 197.302,"425": 244.59,"450": 243.281,"475": 174.424,"500": 156.566,"525": 146.493,"550": 126.049,"575": 118.562,"600": 113.55,"625": 107.274,"650": 111.215,"675": 88.827,"700": 84.822,"725": 80.442,"750": 73.953,"775": 71.868,"800": 72.72,"825": 66.484,"850": 62.135,"875": 58.624,"900": 61.891,"925": 67.357,"950": 73.186,"975": 84.65,"1000": 96.561,"1025": 113.026,"1050": 173.867,"1075": 260.586,"1100": 407.871,"1125": 725.024,"1150": 695.149,"1175": 476.636,"1200": 351.894,"1225": 293.03,"1250": 245.685,"1275": 181.82,"1300": 152.198,"1325": 133.161,"1350": 113.847,"1375": 98.781,"1400": 79.165,"1425": 65.482,"1450": 48.655,"1475": 35.771,"1500": 28.423,"1525": 24.744,"1550": 16.54,"1575": 11.566,"1600": 10.083,"1625": 7.236,"1650": 4.544,"1675": 2.761,"1700": 1.416,"1725": 0.752,"1750": 0.664,"1775": 0.297,"1800": 0.21,"1825": 0.087}}}