{"type":"Feature","properties":{"GID_1":"DZA.48_1","GID_0":"DZA","country":"Algeria","province":"Tlemcen","VARNAME_1":"Tilimsene|Tlemsane|Tilimsen|Trem","NL_NAME_1":"تلمسان","TYPE_1":"Wilaya","ENGTYPE_1":"Province","CC_1":"13","HASC_1":"DZ.TL","ISO_1":"DZ-13","name":"Tlemcen.province"},
"geometry":{"type": "MultiPolygon","coordinates": [[[[-1.3603,34.2092,1232.3289],[-1.3322,34.208,1221.8293],[-1.3229,34.215,1207.8662],[-1.3111,34.2156,1224.5642],[-1.2916,34.2056,1237.6453],[-1.2684,34.2008,1240.0511],[-1.2473,34.2047,1257.824],[-1.2347,34.2096,1265.0607],[-1.2168,34.2218,1304.7882],[-1.1947,34.2587,1349.2025],[-1.182,34.2594,1321.5908],[-1.1671,34.2628,1301.413],[-1.1299,34.2751,1258.2133],[-1.125,34.2785,1253.0989],[-1.1002,34.3034,1254.5863],[-1.0757,34.3364,1241.2617],[-1.0435,34.3615,1200.5208],[-1.0242,34.3798,1174.613],[-0.9761,34.3994,1232.7393],[-0.9417,34.4173,1213.2228],[-0.9385,34.4207,1189.4241],[-0.9361,34.4278,1181.0277],[-0.9096,34.4435,1143.6326],[-0.8993,34.4543,1125.1462],[-0.8934,34.4581,1131.6099],[-0.895,34.4652,1131.3846],[-0.8897,34.4708,1135.8657],[-0.8614,34.494,1117.0903],[-0.8505,34.4996,1127.7108],[-0.845,34.5062,1097.8813],[-0.8557,34.5204,1077.7634],[-0.8634,34.5349,1064.5659],[-0.8752,34.5374,1075.2574],[-0.8884,34.5375,1100.7214],[-0.9042,34.5411,1155.1597],[-0.9012,34.5452,1170.5682],[-0.8724,34.5652,1109.5537],[-0.8665,34.5674,1084.9939],[-0.8598,34.5657,1053.9877],[-0.845,34.5705,1041.2899],[-0.8427,34.5745,1047.0503],[-0.8334,34.579,1036.0266],[-0.8186,34.6021,1015.4795],[-0.8194,34.6078,1008.9743],[-0.8154,34.6107,1007.5359],[-0.799,34.6391,998.6183],[-0.7974,34.6491,977.395],[-0.8008,34.6526,993.495],[-0.7994,34.6577,990.5298],[-0.7813,34.6755,976.0724],[-0.778,34.681,971.3024],[-0.7758,34.6877,992.0461],[-0.7867,34.6963,1042.4641],[-0.7861,34.7134,987.1807],[-0.7784,34.722,950.0471],[-0.773,34.7235,951.0761],[-0.7646,34.7154,922.2767],[-0.7675,34.7237,903.678],[-0.7675,34.7322,932.7888],[-0.7774,34.7515,875.0009],[-0.7829,34.7493,894.9422],[-0.79,34.7492,896.7098],[-0.8018,34.7438,931.8643],[-0.8131,34.7451,938.441],[-0.8177,34.7414,948.2249],[-0.823,34.7416,940.6478],[-0.838,34.7463,947.1753],[-0.8449,34.7465,957.3959],[-0.8702,34.7409,996.4367],[-0.8848,34.7421,1018.1837],[-0.8841,34.7555,958.323],[-0.8892,34.7582,948.6942],[-0.891,34.7633,960.2799],[-0.8905,34.775,1000.8491],[-0.8866,34.7897,1003.8503],[-0.876,34.8065,1000.5259],[-0.8758,34.8141,1013.4002],[-0.8775,34.8209,1050.0327],[-0.884,34.8295,1231.2629],[-0.8787,34.8353,1218.0247],[-0.8745,34.8444,1175.3281],[-0.8781,34.8469,1119.2115],[-0.8701,34.854,971.2582],[-0.8694,34.8592,953.5015],[-0.8716,34.8645,918.9567],[-0.8845,34.8724,886.4506],[-0.9217,34.8523,912.4323],[-0.9259,34.8565,864.0458],[-0.9196,34.8719,854.1849],[-0.9151,34.8762,836.9075],[-0.8961,34.8876,814.4033],[-0.892,34.8923,808.8079],[-0.8903,34.898,797.2839],[-0.915,34.9077,790.2044],[-0.9205,34.9114,779.9223],[-0.9301,34.9045,794.111],[-0.9427,34.9,771.994],[-0.9489,34.9069,762.8565],[-0.9452,34.9165,755.1094],[-0.942,34.9197,751.2067],[-0.9454,34.9367,730.1971],[-0.9703,34.9688,659.8397],[-0.9676,34.975,654.9695],[-0.952,34.982,662.3003],[-0.9424,34.9932,675.6587],[-0.9346,34.9992,688.7234],[-0.9136,35.0475,673.8646],[-0.9125,35.0537,670.6191],[-0.9408,35.0561,604.0797],[-0.9407,35.065,642.8502],[-0.9516,35.0727,551.2639],[-0.9633,35.0766,497.3862],[-0.9704,35.0761,493.5655],[-0.9734,35.0804,483.7552],[-0.9794,35.0837,504.5716],[-0.988,35.0821,454.0793],[-0.9996,35.0885,440.5805],[-1.0028,35.0935,487.5378],[-1.0074,35.0935,480.9983],[-1.0134,35.091,435.3451],[-1.0246,35.0934,427.0509],[-1.0358,35.0907,407.0222],[-1.0456,35.0936,418.3639],[-1.0414,35.0976,382.8633],[-1.0458,35.1078,465.2668],[-1.045,35.1187,435.8839],[-1.049,35.1237,420.9624],[-1.0676,35.1229,380.2517],[-1.0678,35.1276,387.6304],[-1.0781,35.1333,459.2749],[-1.0894,35.1341,437.4861],[-1.1003,35.1326,538.7388],[-1.1063,35.1345,578.5511],[-1.1189,35.1457,518.4396],[-1.1287,35.1473,470.6969],[-1.1282,35.1561,472.8197],[-1.1486,35.1586,581.1331],[-1.1601,35.1561,633.993],[-1.1668,35.1567,587.6462],[-1.1677,35.163,662.787],[-1.1712,35.1663,660.3033],[-1.1814,35.1722,558.4902],[-1.1966,35.1692,491.5312],[-1.2023,35.1724,482.651],[-1.2062,35.1792,444.5688],[-1.2169,35.186,403.8202],[-1.2216,35.1804,464.4897],[-1.2338,35.1787,570.0814],[-1.245,35.1863,477.3732],[-1.2524,35.2008,386.8315],[-1.2471,35.2044,395.36],[-1.2529,35.2063,445.7032],[-1.2645,35.2046,328.9794],[-1.271,35.2055,303.6663],[-1.2762,35.2006,314.4119],[-1.2872,35.2024,310.1269],[-1.293,35.2013,283.1234],[-1.2996,35.1988,318.9303],[-1.3025,35.1949,375.3505],[-1.3081,35.198,314.6658],[-1.3242,35.2014,251.6922],[-1.3361,35.2003,209.9836],[-1.3433,35.2021,217.9974],[-1.3537,35.2,131.787],[-1.3597,35.2044,152.6008],[-1.3649,35.2111,198.9039],[-1.3767,35.2108,140.798],[-1.387,35.2074,71.7498],[-1.3931,35.2084,49.2838],[-1.3989,35.2053,51.1239],[-1.4058,35.2086,29.8613],[-1.4124,35.2159,31.2494],[-1.415,35.2123,24.5777],[-1.4211,35.2134,18.9959],[-1.4188,35.208,33.3195],[-1.423,35.2027,21.3355],[-1.4224,35.1981,48.2849],[-1.4239,35.1932,36.1769],[-1.4307,35.1932,23.9643],[-1.4344,35.1871,24.7413],[-1.4422,35.18,39.9554],[-1.4465,35.1788,25.7178],[-1.4506,35.1753,35.9902],[-1.4472,35.1701,42.5853],[-1.452,35.166,37.2905],[-1.4619,35.1631,38.4744],[-1.4647,35.1589,42.8779],[-1.4696,35.1564,40.0999],[-1.4706,35.1508,44.1863],[-1.4778,35.1536,47.7017],[-1.4871,35.152,75.1173],[-1.5012,35.1523,86.8407],[-1.5057,35.154,100.1697],[-1.5063,35.1584,142.9512],[-1.5096,35.1635,162.4662],[-1.5308,35.1709,177.7512],[-1.5303,35.1754,175.1007],[-1.5364,35.1768,196.5216],[-1.5475,35.1763,279.077],[-1.5547,35.1793,373.3305],[-1.5524,35.1952,352.2849],[-1.5469,35.2031,332.4224],[-1.5457,35.2118,331.7461],[-1.5504,35.2151,215.6998],[-1.574,35.2231,220.4721],[-1.5841,35.2383,17.3524],[-1.5885,35.2391,45.9181],[-1.5936,35.2353,40.278],[-1.6072,35.2315,9.8174],[-1.6106,35.2267,0.0],[-1.6115,35.2217,19.3037],[-1.617,35.2217,0.0],[-1.6367,35.2118,5.5076],[-1.6371,35.2063,0.0],[-1.6423,35.2026,19.8274],[-1.6492,35.1885,23.8928],[-1.6551,35.1841,0.0],[-1.6588,35.1781,0.4743],[-1.6653,35.1775,5.5828],[-1.6844,35.181,17.8071],[-1.6931,35.181,0.0],[-1.7049,35.1778,0.0],[-1.7185,35.1642,0.0],[-1.7238,35.1616,0.0],[-1.7256,35.1552,0.0],[-1.7312,35.1534,0.0],[-1.7323,35.1476,0.0],[-1.7367,35.1434,12.1038],[-1.7542,35.1308,0.0],[-1.7728,35.1203,0.0],[-1.7794,35.1188,0.0],[-1.784,35.1226,2.7693],[-1.791,35.1206,0.0],[-1.7976,35.1225,0.0],[-1.8015,35.1252,4.4847],[-1.8053,35.1309,23.6553],[-1.8091,35.128,29.5674],[-1.815,35.127,64.7907],[-1.8256,35.1143,109.9316],[-1.8459,35.1072,0.0],[-1.8536,35.1077,14.885],[-1.8656,35.1014,0.7477],[-1.8724,35.1005,0.0],[-1.8757,35.0973,0.0],[-1.8811,35.096,8.0616],[-1.885,35.0915,7.9083],[-1.9007,35.0907,3.8807],[-1.9052,35.0861,0.0],[-1.9116,35.0865,0.0],[-1.9277,35.0837,48.4704],[-1.9377,35.0842,1.3735],[-1.9409,35.0794,0.0],[-1.9623,35.0731,63.033],[-1.9922,35.0743,0.0],[-2.0082,35.0711,0.0],[-2.0143,35.0716,3.9501],[-2.0201,35.0783,28.5189],[-2.0259,35.0776,0.0],[-2.0307,35.0734,44.2724],[-2.0688,35.0714,10.6263],[-2.0958,35.076,0.8743],[-2.1108,35.0822,1.1593],[-2.1181,35.0921,9.1139],[-2.1344,35.0913,8.1944],[-2.1409,35.0927,3.2344],[-2.1556,35.101,5.8444],[-2.1672,35.0981,0.0],[-2.1741,35.0922,0.0],[-2.1807,35.0895,14.3987],[-2.1838,35.086,6.499],[-2.1955,35.0868,0.8133],[-2.2,35.0842,0.0],[-2.2112,35.0823,2.3822],[-2.2111,35.062,26.3133],[-2.2153,35.0473,34.2531],[-2.1864,35.0318,69.0096],[-2.1813,35.0203,90.2088],[-2.1692,35.0104,100.2689],[-2.1573,35.0086,119.7044],[-2.1577,35.0067,116.2582],[-2.1414,34.9996,130.1629],[-2.135,35.0002,134.785],[-2.1336,34.9983,138.6185],[-2.1255,34.9964,149.021],[-2.1199,34.9906,158.0708],[-2.1218,34.9896,162.0345],[-2.1195,34.9825,171.1223],[-2.0934,34.9605,233.4762],[-2.0772,34.9484,291.3309],[-2.0424,34.9269,457.6281],[-2.0327,34.925,511.4362],[-2.0138,34.9316,556.3641],[-2.0021,34.9297,505.2138],[-1.9949,34.9303,516.4716],[-1.9728,34.9355,519.4673],[-1.9697,34.9076,463.224],[-1.9722,34.8971,448.7217],[-1.9698,34.8908,449.3217],[-1.9697,34.8802,436.306],[-1.9488,34.8706,434.122],[-1.9368,34.8623,432.4605],[-1.9197,34.8562,427.5382],[-1.8934,34.8431,431.4698],[-1.8903,34.8379,432.6188],[-1.8879,34.828,437.275],[-1.8865,34.8098,445.3398],[-1.8823,34.8068,444.9366],[-1.8551,34.8021,446.498],[-1.8354,34.7878,451.5012],[-1.8222,34.7834,453.6176],[-1.8111,34.7825,447.5356],[-1.8052,34.785,448.1665],[-1.8087,34.7773,452.5584],[-1.8034,34.774,460.5179],[-1.7516,34.7526,512.4158],[-1.7391,34.745,515.9545],[-1.7685,34.7258,520.9376],[-1.7709,34.7192,523.7251],[-1.7725,34.7046,548.4094],[-1.7762,34.6971,567.1217],[-1.7902,34.6855,585.4692],[-1.8012,34.6705,603.1482],[-1.8207,34.6495,595.2418],[-1.8333,34.6302,657.5898],[-1.8414,34.6244,662.2115],[-1.8466,34.6177,697.707],[-1.8359,34.6179,707.5096],[-1.831,34.6139,738.9424],[-1.814,34.6058,784.8235],[-1.8093,34.5966,827.6244],[-1.8027,34.5885,896.6101],[-1.7978,34.5861,954.8519],[-1.7951,34.5799,1120.3427],[-1.7876,34.5718,1472.4709],[-1.7866,34.5626,1557.2083],[-1.7748,34.5508,1497.3177],[-1.7655,34.545,1477.4276],[-1.761,34.5316,1451.1697],[-1.7518,34.5282,1452.6892],[-1.7507,34.52,1488.6848],[-1.7443,34.5147,1513.6433],[-1.7323,34.5074,1506.6295],[-1.7213,34.5075,1484.387],[-1.7086,34.5006,1464.9392],[-1.6865,34.4938,1503.6233],[-1.7802,34.393,1155.0911],[-1.7712,34.3768,1207.7617],[-1.7318,34.345,1145.6593],[-1.7049,34.3096,1111.6775],[-1.7053,34.3021,1121.8943],[-1.7093,34.2916,1115.5527],[-1.707,34.2746,1102.5898],[-1.7134,34.2515,1060.1736],[-1.7113,34.237,1062.7209],[-1.6476,34.1067,1203.4966],[-1.6476,34.0978,1253.0326],[-1.6233,34.1102,1280.189],[-1.5966,34.1294,1408.7212],[-1.5835,34.1361,1377.6997],[-1.5379,34.1674,1359.7551],[-1.5244,34.1673,1362.0881],[-1.5147,34.1798,1357.5953],[-1.4835,34.1993,1341.4282],[-1.4651,34.1953,1351.4749],[-1.454,34.2034,1284.7595],[-1.4196,34.2058,1222.9033],[-1.4139,34.2086,1227.6235],[-1.3901,34.2073,1271.1931],[-1.3603,34.2092,1232.3289]]]]}}