{"type": "Feature","bbox": [6.1809,36.3345,6.3221,36.3917],"geometry": {"type": "MultiPolygon","coordinates": [[[[6.3221,36.3782,607.4987],[6.315,36.3802,749.7351],[6.3045,36.3787,919.3113],[6.2934,36.3815,1180.3999],[6.2812,36.3782,1106.9282],[6.2602,36.3814,1007.7446],[6.2516,36.3747,1014.4311],[6.2295,36.3749,711.7144],[6.2231,36.3831,640.3737],[6.2188,36.3862,661.1625],[6.2057,36.3917,540.0074],[6.1841,36.3879,433.6863],[6.1809,36.3823,472.8564],[6.1905,36.3766,531.2528],[6.1922,36.3719,638.5097],[6.2025,36.3678,697.1633],[6.2063,36.3639,680.8306],[6.209,36.3576,727.0559],[6.203,36.3453,904.9893],[6.1994,36.3417,939.1359],[6.2103,36.3411,929.7596],[6.2235,36.3457,906.5835],[6.2298,36.3449,882.4715],[6.2365,36.3345,823.998],[6.247,36.3359,806.6171],[6.2622,36.3414,840.0],[6.2747,36.3498,876.6849],[6.2814,36.3498,877.2494],[6.2849,36.3446,921.0255],[6.2988,36.3387,952.9402],[6.3042,36.3371,943.2965],[6.3103,36.3392,950.1649],[6.3107,36.3451,891.433],[6.3171,36.359,778.1097],[6.3186,36.3709,689.471],[6.3221,36.3782,607.4987]]]]}
,"properties": {"GID_2": "DZA.29.23_1","GID_0": "DZA","country": "Algeria","GID_1": "DZA.29_1","province": "Mila","NL_NAME_1": "ولايةميلة","county": "SidiKhelifa","VARNAME_2": "NA","NL_NAME_2": "NA","TYPE_2": "Commune","ENGTYPE_2": "Commune","CC_2": "4327","HASC_2": "DZ.ML.SK","name": "Sidi_Khelifa.county","area_km2": 46.04784,"hist_schema_id": "Elevation0-9000","hist_area_km2": {"425": 0.03414,"450": 0.15362,"475": 0.20482,"500": 0.18775,"525": 0.47793,"550": 0.44379,"575": 0.4438,"600": 0.47793,"625": 0.54623,"650": 0.68279,"675": 0.97303,"700": 1.00719,"725": 1.31451,"750": 1.69018,"775": 1.72438,"800": 1.96351,"825": 3.80792,"850": 7.22323,"875": 5.12262,"900": 4.2517,"925": 3.10756,"950": 2.61226,"975": 2.35605,"1000": 2.03155,"1025": 1.51936,"1050": 0.61456,"1075": 0.39263,"1100": 0.32434,"1125": 0.18777,"1150": 0.10242,"1175": 0.06828}}}