{"type": "Feature","bbox": [4.0675,36.5389,4.1605,36.5915],"geometry": {"type": "MultiPolygon","coordinates": [[[[4.1308,36.5389,272.3784],[4.1316,36.5448,258.5667],[4.1362,36.5411,302.3924],[4.1412,36.5404,368.5843],[4.1472,36.5443,367.6234],[4.1512,36.5575,448.8785],[4.1495,36.5625,345.086],[4.1605,36.5692,466.4277],[4.1545,36.5838,266.295],[4.1501,36.5869,251.4689],[4.1387,36.5844,230.848],[4.1349,36.5871,289.7791],[4.1283,36.5858,276.9329],[4.1245,36.5824,281.0072],[4.109,36.5781,320.3683],[4.1051,36.5799,329.5189],[4.0997,36.589,427.2297],[4.0868,36.5915,703.0988],[4.0716,36.5888,784.8011],[4.0675,36.5834,745.5644],[4.0758,36.5785,614.9963],[4.082,36.5684,471.7773],[4.0833,36.5602,414.0059],[4.0714,36.5507,434.7659],[4.0753,36.5424,491.6122],[4.0803,36.5455,464.5741],[4.0869,36.5434,436.0548],[4.1004,36.5445,494.2066],[4.1308,36.5389,272.3784]]]]}
,"properties": {"GID_2": "DZA.47.52_1","GID_0": "DZA","country": "Algeria","GID_1": "DZA.47_1","province": "TiziOuzou","NL_NAME_1": "ولايةغليزان","county": "Ouadhia","VARNAME_2": "Wadhīyah","NL_NAME_2": "NA","TYPE_2": "Commune","ENGTYPE_2": "Commune","CC_2": "1536","HASC_2": "DZ.TO.OD","name": "Ouadhia.county","area_km2": 32.73017,"hist_schema_id": "Elevation0-9000","hist_area_km2": {"200": 0.05107,"225": 0.52784,"250": 1.53273,"275": 1.39649,"300": 1.85635,"325": 1.92438,"350": 1.95847,"375": 2.14572,"400": 3.47421,"425": 3.45723,"450": 2.75887,"475": 1.49853,"500": 1.58365,"525": 1.26005,"550": 1.27707,"575": 1.2941,"600": 1.12382,"625": 0.95351,"650": 0.9535,"675": 0.63,"700": 0.5959,"725": 0.30644,"750": 0.11917,"775": 0.05107}}}