{"type":"Feature","properties":{"GID_1":"DZA.42_1","GID_0":"DZA","country":"Algeria","province":"Tébessa","VARNAME_1":"Tbessa","NL_NAME_1":"ولايةتبسة","TYPE_1":"Wilaya","ENGTYPE_1":"Province","CC_1":"12","HASC_1":"DZ.TB","ISO_1":"NA","name":"Tébessa.province"},
"geometry":{"type": "MultiPolygon","coordinates": [[[[7.6431,34.2618,39.282],[7.6551,34.2592,30.0405],[7.7851,34.2455,19.4395],[7.8133,34.2408,23.9394],[7.8552,34.3529,120.6739],[7.8552,34.3676,153.0543],[7.8605,34.3821,231.9577],[7.8569,34.3845,274.7901],[7.8556,34.391,375.8182],[7.8571,34.3952,360.1863],[7.8568,34.4062,509.5934],[7.8769,34.4071,440.4428],[7.8873,34.4119,464.0083],[7.8905,34.4149,460.8047],[7.897,34.4163,516.3404],[7.9072,34.4145,437.8815],[7.9199,34.4157,394.5141],[7.9324,34.4211,494.654],[7.9326,34.426,494.7403],[7.9351,34.4298,452.8062],[7.9423,34.4377,450.9355],[7.9495,34.4388,509.311],[7.9535,34.442,491.3926],[7.9548,34.4466,485.1286],[7.9738,34.447,462.3035],[7.9878,34.4525,474.7805],[8.0118,34.4581,482.3211],[8.0195,34.471,471.3878],[8.0452,34.4925,540.4423],[8.0676,34.4945,561.4285],[8.0727,34.4969,626.2017],[8.0735,34.5018,688.4036],[8.0823,34.5095,743.2683],[8.085,34.5143,715.2231],[8.1018,34.5111,666.5551],[8.1171,34.5138,755.5829],[8.1196,34.5195,774.0941],[8.1237,34.5235,783.9376],[8.1356,34.53,795.5269],[8.1489,34.5332,792.7877],[8.1504,34.5397,764.224],[8.1541,34.545,751.4896],[8.1671,34.5538,810.0297],[8.1637,34.5615,807.3035],[8.1637,34.5659,817.6331],[8.1707,34.5652,832.3684],[8.1736,34.5735,801.112],[8.1908,34.5713,804.4039],[8.2149,34.5754,804.8257],[8.2216,34.5784,858.6431],[8.2085,34.5874,843.6992],[8.2119,34.5912,820.3067],[8.2149,34.6023,815.1119],[8.2297,34.6093,861.5891],[8.2342,34.6141,887.8474],[8.2437,34.6128,888.5534],[8.2501,34.6144,903.7998],[8.246,34.6214,805.1689],[8.2452,34.6305,825.2585],[8.2498,34.6349,822.3685],[8.2565,34.638,850.1721],[8.267,34.6425,814.749],[8.2743,34.6434,783.5165],[8.2828,34.6531,864.5497],[8.2832,34.6576,877.8302],[8.2799,34.6607,871.5939],[8.2632,34.659,1020.6256],[8.2482,34.6663,1086.9951],[8.2431,34.6706,950.3732],[8.2399,34.6763,936.0297],[8.2414,34.6828,880.0065],[8.2465,34.6888,847.256],[8.2682,34.6912,801.9214],[8.2956,34.7255,698.0662],[8.2976,34.7318,682.7198],[8.3019,34.7333,677.3817],[8.3134,34.7296,670.74],[8.3196,34.7332,666.7343],[8.3091,34.7381,673.4746],[8.3006,34.7453,684.6462],[8.2953,34.7516,688.2235],[8.284,34.7737,703.9648],[8.2856,34.7939,729.2885],[8.2881,34.8006,741.3591],[8.2872,34.8071,743.335],[8.2827,34.8125,728.9043],[8.2829,34.8271,739.8401],[8.2791,34.8371,749.7211],[8.2757,34.8405,751.7097],[8.2773,34.8456,754.6329],[8.2736,34.8515,762.9357],[8.2747,34.8624,772.726],[8.2634,34.8751,775.9895],[8.2621,34.8828,787.0142],[8.2637,34.8914,794.3619],[8.2577,34.9093,811.6166],[8.254,34.9122,843.2214],[8.2544,34.9139,816.8123],[8.2497,34.9201,830.7134],[8.259,34.9281,1077.8307],[8.2739,34.9338,1066.6069],[8.288,34.9442,1135.6421],[8.2957,34.9459,1136.7843],[8.3027,34.9504,1083.8574],[8.3064,34.9483,1116.3795],[8.3177,34.9505,1047.0208],[8.3169,34.9585,1014.7184],[8.3202,34.9997,965.6678],[8.318,35.0096,904.0728],[8.3405,35.0588,974.9764],[8.345,35.0725,1011.6245],[8.3497,35.0775,1011.9706],[8.3592,35.0994,1067.0984],[8.3634,35.1038,1070.7283],[8.3805,35.1125,1082.8073],[8.4022,35.1287,1088.0752],[8.418,35.1519,1147.0823],[8.4248,35.1798,1145.9716],[8.4306,35.1849,1144.6165],[8.4564,35.2207,1123.6509],[8.4755,35.2368,1081.418],[8.4774,35.241,1073.7645],[8.4669,35.2385,1089.0035],[8.4454,35.2382,1115.2354],[8.435,35.2409,1091.6416],[8.4251,35.2469,1036.9248],[8.4081,35.2471,1033.5945],[8.4082,35.2491,1021.9724],[8.4,35.2523,1035.1796],[8.3896,35.2615,1074.274],[8.3772,35.2686,1112.6405],[8.3653,35.2721,1184.094],[8.3586,35.2774,1160.7954],[8.3352,35.2808,1232.7546],[8.3261,35.2912,1206.8788],[8.3255,35.2991,1200.6294],[8.3225,35.3054,1187.9761],[8.314,35.3143,1167.8062],[8.3144,35.3267,1143.3025],[8.3189,35.3283,1143.1799],[8.3209,35.343,1082.7559],[8.3174,35.3598,1033.8937],[8.3185,35.3678,1001.3345],[8.3166,35.3774,993.0974],[8.3293,35.3995,938.7947],[8.3313,35.4057,929.1813],[8.3295,35.4116,925.7939],[8.3178,35.4151,988.948],[8.33,35.4219,992.3517],[8.3331,35.4265,963.536],[8.3391,35.4431,986.3414],[8.3513,35.4545,1076.5073],[8.3537,35.46,958.7859],[8.3531,35.4616,981.3973],[8.3576,35.4642,1071.7729],[8.3743,35.4684,1132.3668],[8.3843,35.4682,1122.8347],[8.3871,35.4741,1063.1587],[8.3886,35.4864,1025.558],[8.3755,35.4965,1054.748],[8.3622,35.5254,968.6287],[8.3656,35.5375,921.8505],[8.3633,35.5432,904.1244],[8.3655,35.5484,904.7753],[8.3567,35.5797,953.616],[8.3553,35.6049,992.353],[8.3532,35.6124,1020.5436],[8.3591,35.6212,1011.1011],[8.3622,35.6454,975.5093],[8.3581,35.6533,962.9694],[8.3591,35.6564,951.3066],[8.3579,35.6698,928.1231],[8.3542,35.6749,935.7839],[8.339,35.6831,898.6165],[8.3332,35.6855,875.6649],[8.3202,35.6854,877.582],[8.3137,35.6918,848.0688],[8.3091,35.692,839.8456],[8.3003,35.7056,787.5018],[8.2805,35.7242,725.4052],[8.2661,35.7303,832.8787],[8.2689,35.7376,708.249],[8.2647,35.7458,670.6145],[8.2615,35.7634,643.5381],[8.2627,35.7704,641.1152],[8.2681,35.7822,633.9395],[8.268,35.7965,611.6026],[8.2726,35.8101,582.6204],[8.2717,35.8148,573.5374],[8.2738,35.816,571.667],[8.275,35.8239,570.1025],[8.2698,35.8715,504.6733],[8.2766,35.8907,485.4316],[8.2623,35.8914,485.6937],[8.2703,35.8985,480.1126],[8.2727,35.9028,474.9264],[8.2583,35.9088,466.7404],[8.2601,35.9146,462.5009],[8.2643,35.9188,457.2992],[8.2639,35.9255,452.4293],[8.2655,35.9286,452.0121],[8.2662,35.9403,437.4897],[8.2715,35.9435,439.6176],[8.2726,35.9458,432.9792],[8.2789,35.9481,431.4747],[8.2793,35.9498,430.3719],[8.2919,35.9522,430.8697],[8.2921,35.9577,427.2378],[8.2864,35.9614,432.3456],[8.2802,35.9618,429.5861],[8.2724,35.9581,431.5538],[8.2676,35.9584,430.9267],[8.2628,35.9628,434.3328],[8.2364,35.9734,442.6247],[8.2322,35.9771,452.808],[8.2191,35.9822,458.4623],[8.217,35.9878,469.5248],[8.217,35.9948,483.1666],[8.2119,35.9977,467.7592],[8.2065,35.9928,473.9262],[8.1944,36.0026,477.0461],[8.1878,36.0013,482.0261],[8.1865,35.9958,478.8138],[8.1896,35.9909,513.3732],[8.1782,35.9909,480.7705],[8.1685,35.9874,482.513],[8.1596,35.9902,490.32],[8.1546,35.9888,486.0817],[8.1459,35.9952,506.0603],[8.1393,35.9945,499.6151],[8.1246,35.9884,499.6203],[8.1212,35.9929,504.008],[8.114,35.9882,507.0698],[8.1117,35.9842,516.437],[8.1027,35.9807,516.7696],[8.0976,35.9769,516.0895],[8.09,35.975,510.9861],[8.0829,35.9762,513.4763],[8.0809,35.9713,516.7406],[8.0769,35.9739,527.2007],[8.072,35.9725,521.6552],[8.0726,35.9671,522.6008],[8.0668,35.9656,525.2399],[8.0651,35.9713,525.4553],[8.046,35.9695,530.9547],[8.0376,35.977,534.4518],[8.0127,35.9736,546.5677],[8.0055,35.9595,552.0699],[7.9939,35.9583,558.9229],[7.988,35.956,560.8979],[7.9869,35.9516,561.5155],[7.9799,35.9473,568.9543],[7.9807,35.9407,571.4877],[7.9834,35.9366,575.1246],[7.9799,35.9327,575.3544],[7.952,35.9301,588.8154],[7.9456,35.9328,596.7206],[7.9449,35.9261,623.266],[7.9386,35.9227,605.6241],[7.9314,35.913,609.9341],[7.9202,35.9097,608.6142],[7.9103,35.9003,622.8748],[7.9072,35.8884,626.7134],[7.896,35.888,643.386],[7.8894,35.89,658.2307],[7.8844,35.8938,674.9578],[7.8647,35.8784,695.867],[7.8412,35.8912,740.1384],[7.8308,35.8949,758.9421],[7.8279,35.8893,745.8349],[7.8049,35.9017,676.3333],[7.8004,35.9104,670.1826],[7.7789,35.9383,719.5671],[7.7697,35.9286,728.5582],[7.7647,35.9314,732.1179],[7.7587,35.9379,739.0554],[7.748,35.9362,748.0853],[7.743,35.938,762.3107],[7.7412,35.9453,753.3568],[7.7298,35.9343,773.3038],[7.7263,35.9288,769.7583],[7.7196,35.9106,737.2758],[7.7178,35.8947,740.3168],[7.723,35.894,744.2606],[7.7364,35.8843,739.4802],[7.7508,35.8791,761.0778],[7.7533,35.8738,729.5516],[7.7557,35.8585,791.131],[7.7775,35.8193,886.0474],[7.778,35.8147,869.7339],[7.7708,35.8006,816.8203],[7.7729,35.7956,802.2692],[7.7974,35.7717,723.7898],[7.8052,35.7698,716.0552],[7.8108,35.7658,716.2543],[7.8223,35.7652,710.1511],[7.8328,35.7607,703.2661],[7.8439,35.7626,694.2184],[7.8416,35.7436,718.6038],[7.8307,35.7397,721.9135],[7.8146,35.7415,734.819],[7.8103,35.7378,743.3636],[7.8143,35.7336,753.9833],[7.8124,35.7282,757.454],[7.8138,35.7211,769.5339],[7.8128,35.7005,795.0938],[7.8182,35.6896,807.1649],[7.8202,35.6761,828.1229],[7.82,35.6665,841.5811],[7.8228,35.657,859.9597],[7.8283,35.6512,863.6906],[7.8351,35.632,901.8221],[7.8484,35.6163,943.3209],[7.8573,35.6112,970.0956],[7.8604,35.6077,977.2142],[7.8685,35.5921,916.3933],[7.8459,35.5917,962.4795],[7.8312,35.5818,1019.8768],[7.8237,35.5731,1048.4143],[7.8064,35.5671,1094.7322],[7.8019,35.57,1116.1727],[7.8016,35.5764,1073.3746],[7.7966,35.5778,1047.8502],[7.7855,35.5772,1030.4702],[7.7809,35.5818,1007.9886],[7.7715,35.5736,1032.2314],[7.7496,35.5659,1010.5848],[7.7406,35.5596,1022.589],[7.7205,35.5534,1083.7834],[7.7045,35.5446,1048.9851],[7.6738,35.536,1044.2867],[7.6661,35.5274,1058.3574],[7.6624,35.5162,1129.0032],[7.6624,35.5063,1209.0525],[7.6591,35.5023,1256.401],[7.6537,35.5012,1155.0568],[7.6507,35.497,1215.1587],[7.61,35.4668,1084.3037],[7.5886,35.4466,1026.6724],[7.5813,35.4347,1040.8053],[7.5763,35.4302,1056.4258],[7.5537,35.4231,1065.3341],[7.5488,35.4269,1029.0264],[7.5256,35.418,1005.3887],[7.4737,35.4061,1003.486],[7.4627,35.4003,1012.5891],[7.4536,35.4023,1020.0417],[7.4455,35.4018,1025.9075],[7.4402,35.3992,1039.0256],[7.4325,35.3996,1046.4214],[7.407,35.3944,1092.6724],[7.3952,35.3887,1131.6102],[7.4015,35.3848,1111.4974],[7.3954,35.3733,1084.5797],[7.4053,35.3653,1077.1998],[7.4113,35.3572,1078.2534],[7.4084,35.3534,1111.3696],[7.4108,35.3498,1122.5776],[7.3995,35.3378,1125.8379],[7.4033,35.3218,1146.0254],[7.4025,35.3115,1218.7611],[7.4041,35.301,1384.2603],[7.3986,35.2963,1388.0956],[7.4034,35.2846,1314.4192],[7.4077,35.2804,1305.553],[7.4261,35.2708,1346.7067],[7.4318,35.2716,1337.9716],[7.4167,35.2554,1324.9773],[7.4007,35.2452,1330.9126],[7.3908,35.2418,1364.3125],[7.3921,35.2256,1200.8179],[7.3945,35.2197,1160.533],[7.4208,35.1887,1116.928],[7.4375,35.1633,1104.976],[7.3656,35.0734,1187.4199],[7.3553,35.0733,1062.0122],[7.3098,35.0525,1021.9107],[7.3002,35.0414,1025.6293],[7.2925,35.0291,1050.0973],[7.2886,35.0199,1180.5055],[7.288,35.0029,1041.6378],[7.2856,34.9969,1084.8129],[7.2703,34.9925,1189.9922],[7.2657,34.989,1190.2178],[7.2672,34.9834,984.184],[7.2639,34.9788,998.5523],[7.2529,34.9714,907.9984],[7.2462,34.9629,909.0346],[7.2442,34.9578,917.9561],[7.242,34.9463,929.1166],[7.2439,34.9359,824.5767],[7.2367,34.9244,814.9585],[7.236,34.9182,778.9406],[7.2292,34.903,847.785],[7.2336,34.8968,745.6129],[7.2338,34.8907,720.6351],[7.2361,34.8868,696.8759],[7.2492,34.8734,595.8889],[7.2593,34.8984,873.9788],[7.2674,34.9102,909.7289],[7.2736,34.9292,1030.7098],[7.2817,34.9364,1008.0042],[7.2998,34.9476,1075.9485],[7.3072,34.9584,1160.5254],[7.3078,34.9652,1300.8159],[7.3203,34.9669,1295.0645],[7.3459,34.9519,1363.6342],[7.3679,34.9594,1357.0129],[7.3711,34.9556,1252.7883],[7.3706,34.9397,1213.9211],[7.3924,34.9095,919.2687],[7.3953,34.8954,892.569],[7.3997,34.8843,846.723],[7.3981,34.8696,785.841],[7.4021,34.8643,827.9877],[7.3943,34.8438,774.5316],[7.39,34.8366,789.0577],[7.3793,34.8253,752.7725],[7.3769,34.8185,736.2672],[7.3769,34.8116,720.8985],[7.3726,34.807,688.5725],[7.3732,34.8006,673.8047],[7.3655,34.7935,641.7519],[7.3637,34.7889,623.5414],[7.3683,34.7734,658.5307],[7.3906,34.7514,673.2379],[7.3902,34.7364,475.4448],[7.3945,34.7266,406.5239],[7.3916,34.7061,394.6159],[7.3869,34.6894,359.6577],[7.3775,34.6657,340.5296],[7.353,34.6356,276.682],[7.3267,34.5988,284.1982],[7.3182,34.5896,231.2976],[7.3091,34.5764,195.6025],[7.2999,34.5579,161.7254],[7.2782,34.536,140.5081],[7.2458,34.4432,100.6369],[7.2315,34.3401,65.0138],[7.4274,34.2746,52.3067],[7.6431,34.2618,39.282]]],
[[[7.2705,34.8564,609.1788],[7.264,34.8698,806.3507],[7.2577,34.8671,595.2668],[7.2492,34.8734,595.8889],[7.2488,34.8687,566.7936],[7.2551,34.8614,555.9017],[7.2625,34.8464,490.9372],[7.2608,34.8326,508.883],[7.2634,34.8289,490.6987],[7.2661,34.8327,559.0941],[7.2666,34.8398,581.0589],[7.2704,34.8448,632.0553],[7.269,34.8506,740.2993],[7.2705,34.8564,609.1788]]]]}}