{"type": "Feature","bbox": [3.2769,36.248,3.3867,36.3186],"geometry": {"type": "MultiPolygon","coordinates": [[[[3.3867,36.2732,484.6291],[3.3828,36.286,476.4315],[3.3857,36.291,494.3086],[3.3774,36.2979,452.712],[3.3779,36.3082,458.2643],[3.3707,36.3047,446.2048],[3.3629,36.3042,498.5449],[3.3394,36.3106,527.3316],[3.3063,36.3142,651.5952],[3.3017,36.3186,602.6671],[3.2873,36.3054,661.7863],[3.2834,36.2943,705.3765],[3.2831,36.2888,689.2078],[3.2787,36.2836,777.3177],[3.2769,36.2763,796.5942],[3.2796,36.2707,787.1567],[3.2871,36.2652,724.8574],[3.292,36.2514,678.0073],[3.2992,36.248,647.7568],[3.3292,36.2495,593.1598],[3.3472,36.2564,569.8374],[3.3551,36.2641,609.9475],[3.3569,36.268,623.8679],[3.3664,36.2736,606.3939],[3.3867,36.2732,484.6291]]]]}
,"properties": {"GID_2": "DZA.28.54_1","GID_0": "DZA","country": "Algeria","GID_1": "DZA.28_1","province": "Médéa","NL_NAME_1": "ولايةالمدية","county": "SidiErrabia","VARNAME_2": "NA","NL_NAME_2": "NA","TYPE_2": "Commune","ENGTYPE_2": "Commune","CC_2": "2655","HASC_2": "#N/A","name": "Sidi_Errabia.county","area_km2": 51.54716,"hist_schema_id": "Elevation0-9000","hist_area_km2": {"425": 0.01709,"450": 1.1278,"475": 1.43551,"500": 2.30694,"525": 2.35821,"550": 2.58037,"575": 2.97366,"600": 4.01636,"625": 5.65751,"650": 5.77729,"675": 5.09351,"700": 4.18738,"725": 3.69172,"750": 3.28165,"775": 3.02535,"800": 2.64935,"825": 1.24779,"850": 0.11965}}}