{"type": "Feature","bbox": [6.8912,35.444,7.019,35.5682],"geometry": {"type": "MultiPolygon","coordinates": [[[[6.9212,35.461,1120.4854],[6.9263,35.4639,1016.292],[6.9339,35.4737,967.6346],[6.94,35.474,1004.5912],[6.9495,35.4604,992.8049],[6.9434,35.4525,989.9039],[6.9463,35.4472,1020.6672],[6.951,35.444,1007.1292],[6.9556,35.4468,1019.8726],[6.9565,35.4519,1029.3567],[6.9552,35.4581,1004.7495],[6.9705,35.4743,1008.8894],[6.9664,35.4794,960.1904],[6.9817,35.4889,928.3606],[6.9859,35.4934,919.0219],[6.9924,35.4964,914.4094],[6.9952,35.5016,906.2791],[7.0013,35.5031,903.5599],[7.0057,35.507,894.3516],[7.0088,35.513,891.2704],[7.0061,35.5176,884.8913],[7.0077,35.5221,877.0953],[6.9899,35.5202,880.6707],[6.9883,35.5251,876.2568],[6.989,35.5365,869.097],[6.9909,35.5419,867.4962],[6.9943,35.5453,865.1869],[6.999,35.5489,862.7393],[7.0081,35.5515,859.2448],[7.0166,35.5593,855.0179],[7.019,35.5647,854.9565],[7.0136,35.5682,853.7245],[6.9963,35.5587,859.0817],[6.9843,35.5575,861.1103],[6.9764,35.5458,870.1788],[6.9657,35.5418,874.8013],[6.9651,35.5309,881.439],[6.9601,35.5262,887.0391],[6.9548,35.5151,896.5984],[6.9427,35.5192,895.4854],[6.9379,35.5229,891.8497],[6.9277,35.5198,894.911],[6.9217,35.5226,890.3411],[6.9036,35.5219,878.8091],[6.8927,35.5032,906.5853],[6.8912,35.4944,938.9642],[6.897,35.4915,949.0288],[6.9072,35.4921,941.6599],[6.9206,35.4897,943.4666],[6.9123,35.478,981.0621],[6.9111,35.4737,1045.8002],[6.9212,35.461,1120.4854]]]]}
,"properties": {"GID_2": "DZA.24.12_1","GID_0": "DZA","country": "Algeria","GID_1": "DZA.24_1","province": "Khenchela","NL_NAME_1": "ولايةخنشلة","county": "Kais","VARNAME_2": "NA","NL_NAME_2": "NA","TYPE_2": "Commune","ENGTYPE_2": "Commune","CC_2": "4003","HASC_2": "DZ.KH.KA","name": "Kais.county","area_km2": 57.80387,"hist_schema_id": "Elevation0-9000","hist_area_km2": {"850": 3.17376,"875": 11.45714,"900": 18.38097,"925": 9.85663,"950": 5.19649,"975": 2.14092,"1000": 1.89947,"1025": 2.48671,"1050": 1.38143,"1075": 0.67342,"1100": 0.56982,"1125": 0.36262,"1150": 0.18995,"1175": 0.03454}}}