{"type": "Feature","bbox": [2.4356,36.049,2.5369,36.1753],"geometry": {"type": "MultiPolygon","coordinates": [[[[2.438,36.0573,932.3278],[2.4405,36.0522,943.9099],[2.4469,36.0528,970.5853],[2.4597,36.0582,836.9867],[2.4695,36.0571,812.9056],[2.4804,36.052,723.4907],[2.4977,36.049,666.7873],[2.5019,36.0502,662.9994],[2.516,36.0668,636.3063],[2.518,36.0868,597.7511],[2.5249,36.1026,486.8556],[2.5309,36.1059,481.7407],[2.5359,36.1135,551.4307],[2.5369,36.119,626.5248],[2.5271,36.1264,703.2805],[2.5213,36.1264,696.7273],[2.5108,36.1355,593.6625],[2.5077,36.1409,552.14],[2.5106,36.1536,470.5843],[2.5099,36.1597,498.1989],[2.5051,36.1642,515.3869],[2.499,36.1643,519.2254],[2.493,36.1607,531.4942],[2.4867,36.1642,544.9711],[2.4797,36.1736,490.6224],[2.4702,36.1733,459.7795],[2.462,36.1753,400.8138],[2.4529,36.1715,451.0891],[2.4559,36.1598,496.7972],[2.4551,36.1528,509.3557],[2.4468,36.1424,594.3894],[2.4576,36.1401,478.3814],[2.4574,36.1339,508.0266],[2.4616,36.1117,544.3621],[2.4602,36.1045,602.0599],[2.4627,36.0995,623.5579],[2.4631,36.0943,600.7777],[2.4574,36.0922,623.5828],[2.4543,36.0873,680.5234],[2.4487,36.0832,683.634],[2.4399,36.0731,873.3542],[2.4356,36.0619,938.1933],[2.438,36.0573,932.3278]]]]}
,"properties": {"GID_2": "DZA.2.8_1","GID_0": "DZA","country": "Algeria","GID_1": "DZA.2_1","province": "AïnDefla","NL_NAME_1": "ولايةعينالدفلى","county": "Barbouche","VARNAME_2": "NA","NL_NAME_2": "NA","TYPE_2": "Commune","ENGTYPE_2": "Commune","CC_2": "4428","HASC_2": "DZ.AD.BB","name": "Barbouche.county","area_km2": 74.92416,"hist_schema_id": "Elevation0-9000","hist_area_km2": {"400": 0.25674,"425": 1.04416,"450": 1.83162,"475": 2.91031,"500": 4.10921,"525": 5.32513,"550": 5.46268,"575": 4.00782,"600": 4.62469,"625": 4.84754,"650": 4.69367,"675": 5.32767,"700": 6.40723,"725": 5.5852,"750": 4.83198,"775": 4.12968,"800": 3.1359,"825": 1.83388,"850": 1.31973,"875": 0.99408,"900": 0.94266,"925": 0.75414,"950": 0.29137,"975": 0.20567,"1000": 0.05141}}}