{"type": "Feature","bbox": [3.129,36.7042,3.2737,36.815],"geometry": {"type": "MultiPolygon","coordinates": [[[[3.2612,36.8048,26.5773],[3.2598,36.8101,16.5367],[3.2554,36.813,8.8438],[3.2353,36.815,11.1805],[3.229,36.8149,0.7432],[3.2248,36.8128,0.0],[3.2285,36.8069,0.9011],[3.235,36.8046,5.4237],[3.2354,36.7964,1.422],[3.23,36.7746,2.7123],[3.2208,36.7652,3.2082],[3.187,36.7485,7.0485],[3.1629,36.7427,0.4182],[3.1318,36.741,1.4159],[3.129,36.7317,12.1253],[3.1461,36.7271,33.0821],[3.1497,36.7233,47.1274],[3.1676,36.7239,36.7291],[3.1744,36.7169,25.1577],[3.1677,36.7083,17.7171],[3.1715,36.7051,15.0623],[3.1779,36.7042,12.5485],[3.203,36.7118,15.5604],[3.2067,36.7139,16.957],[3.2031,36.7197,15.4384],[3.198,36.7239,15.4689],[3.197,36.73,15.1849],[3.2033,36.7316,13.677],[3.2137,36.7275,15.4191],[3.2307,36.7298,17.9532],[3.2341,36.738,17.4567],[3.2441,36.7381,15.8171],[3.2413,36.7537,11.6911],[3.2437,36.7581,12.2732],[3.2572,36.7576,12.4057],[3.2628,36.7598,12.0442],[3.2674,36.7654,11.4364],[3.2692,36.7775,49.2322],[3.2737,36.778,53.7488],[3.2693,36.7914,33.5119],[3.2613,36.7941,33.6994],[3.2602,36.7987,33.465],[3.2612,36.8048,26.5773]]]]}
,"properties": {"GID_2": "DZA.4.4_1","GID_0": "DZA","country": "Algeria","GID_1": "DZA.4_1","province": "Alger","NL_NAME_1": "ولايةالجزائر","county": "BordjElKiffan","VARNAME_2": "Burj-al-Kiffan","NL_NAME_2": "NA","TYPE_2": "Commune-Cotiere","ENGTYPE_2": "Commune-Cotiere","CC_2": "1630","HASC_2": "DZ.AL.BK","name": "Bordj_El_Kiffan.county","area_km2": 50.50347,"hist_schema_id": "Elevation0-9000","hist_area_km2": {"0": 18.10774,"25": 28.99958,"50": 3.3622,"75": 0.03395}}}