{"type":"Feature","properties":{"GID_2":"DZA.24.10_1","GID_0":"DZA","country":"Algeria","GID_1":"DZA.24_1","province":"Khenchela","NL_NAME_1":"ولايةخنشلة","county":"ElOueldja","VARNAME_2":"NA","NL_NAME_2":"NA","TYPE_2":"Commune","ENGTYPE_2":"Commune","CC_2":"4009","HASC_2":"DZ.KH.EO","name":"El_Oueldja.county"},
"geometry":{"type": "MultiPolygon","coordinates": [[[[6.5826,34.7716,89.4932],[6.588,34.7727,87.8354],[6.5918,34.7756,92.9463],[6.6041,34.7773,96.353],[6.6157,34.7812,102.4734],[6.6375,34.7943,117.4814],[6.6454,34.8126,151.9608],[6.6487,34.8156,177.5358],[6.6495,34.822,222.4107],[6.6526,34.829,228.2697],[6.6584,34.8336,266.8318],[6.6622,34.8419,354.7102],[6.6667,34.8449,509.8663],[6.6735,34.8546,663.8698],[6.6905,34.8582,623.811],[6.7237,34.8583,458.7753],[6.728,34.8569,471.7361],[6.7276,34.864,536.204],[6.7311,34.8769,692.0432],[6.7296,34.8819,762.0896],[6.7316,34.8977,916.6773],[6.7384,34.9197,1032.1748],[6.7433,34.9295,925.2421],[6.7439,34.9473,745.9769],[6.7431,34.9531,814.4866],[6.7383,34.9573,701.7726],[6.7201,34.9675,545.2495],[6.7186,34.9727,494.5777],[6.7221,34.9764,460.1778],[6.7226,34.9812,524.1299],[6.7198,34.9976,718.3397],[6.7248,34.9995,645.5705],[6.7425,35.0016,545.5622],[6.746,35.0053,561.0816],[6.7527,35.0196,659.8866],[6.7529,35.0249,650.2477],[6.7462,35.0387,699.5286],[6.7407,35.0331,692.6667],[6.7353,35.0314,825.1361],[6.7287,35.0315,906.5009],[6.7217,35.0284,876.6298],[6.7179,35.0165,725.1315],[6.7061,35.0189,804.0593],[6.6921,35.0248,922.0795],[6.6804,35.0276,1123.9978],[6.6587,35.0298,1209.8027],[6.6436,35.0292,1244.0183],[6.6447,35.0232,1097.7263],[6.64,35.0223,1154.0032],[6.6342,35.0226,1152.984],[6.6125,35.0302,1352.4771],[6.587,35.0264,1414.9137],[6.572,35.022,1276.8092],[6.563,35.0176,1407.1062],[6.5466,35.0183,1281.9503],[6.536,35.0166,1247.2717],[6.5519,34.9827,885.2214],[6.5525,34.976,847.8319],[6.5565,34.9642,697.9272],[6.5651,34.9468,556.5163],[6.5712,34.9452,727.6316],[6.5784,34.9373,670.1835],[6.5853,34.9382,727.6107],[6.5914,34.9315,806.2878],[6.593,34.9262,953.5784],[6.571,34.9046,687.3646],[6.5802,34.901,868.5175],[6.589,34.9016,1004.0711],[6.5929,34.8977,925.1302],[6.5979,34.8963,866.3975],[6.5969,34.8919,816.2521],[6.598,34.8869,934.1573],[6.5953,34.8832,931.3698],[6.5834,34.8755,847.9152],[6.5766,34.8737,788.5918],[6.5674,34.8676,637.2735],[6.5649,34.8621,422.8318],[6.561,34.8593,312.6257],[6.5588,34.8551,285.7305],[6.5644,34.8336,218.1051],[6.5647,34.817,172.2222],[6.5631,34.8106,159.5352],[6.568,34.797,126.3197],[6.5783,34.7887,108.3986],[6.5826,34.7716,89.4932]]]]}}