{"type": "Feature","bbox": [2.275,36.3627,2.4757,36.4273],"geometry": {"type": "MultiPolygon","coordinates": [[[[2.4212,36.3689,343.8874],[2.4251,36.3746,266.8539],[2.4248,36.38,330.0303],[2.4265,36.3839,393.3247],[2.4307,36.3863,383.6229],[2.4434,36.3875,299.9288],[2.445,36.4008,368.7879],[2.4634,36.4098,567.1284],[2.4712,36.4117,539.4277],[2.4757,36.4149,543.8502],[2.4694,36.4173,486.3588],[2.455,36.4188,392.6108],[2.4505,36.4212,274.3979],[2.4363,36.4203,304.5743],[2.4193,36.426,393.4609],[2.4048,36.4273,504.9818],[2.3818,36.4219,615.7664],[2.3707,36.4263,822.2589],[2.3547,36.4235,827.3112],[2.3425,36.4184,823.4429],[2.3379,36.4214,774.6906],[2.3316,36.4222,769.2939],[2.3048,36.4225,946.4169],[2.2984,36.4214,964.9653],[2.288,36.4155,933.3929],[2.2771,36.4151,974.5975],[2.275,36.4062,952.3944],[2.2758,36.4006,966.3726],[2.2907,36.391,787.7133],[2.312,36.388,486.4086],[2.3161,36.3842,562.2111],[2.3189,36.3774,501.0759],[2.3228,36.3741,461.1931],[2.3375,36.3726,453.8964],[2.3429,36.3691,389.5017],[2.3567,36.366,369.2993],[2.391,36.3627,308.7322],[2.4006,36.3671,301.5342],[2.4067,36.3671,288.6349],[2.4151,36.37,292.9973],[2.4212,36.3689,343.8874]]]]}
,"properties": {"GID_2": "DZA.2.24_1","GID_0": "DZA","country": "Algeria","GID_1": "DZA.2_1","province": "AïnDefla","NL_NAME_1": "ولايةعينالدفلى","county": "HammamRigha","VARNAME_2": "NA","NL_NAME_2": "NA","TYPE_2": "Commune","ENGTYPE_2": "Commune","CC_2": "4405","HASC_2": "DZ.AD.HR","name": "Hammam_Righa.county","area_km2": 81.47243,"hist_schema_id": "Elevation0-9000","hist_area_km2": {"275": 0.83645,"300": 1.53628,"325": 3.05521,"350": 4.11302,"375": 5.27347,"400": 4.60796,"425": 3.65232,"450": 3.24269,"475": 3.48169,"500": 3.24271,"525": 3.80595,"550": 3.3622,"575": 3.14029,"600": 3.25968,"625": 3.34491,"650": 2.78164,"675": 2.86692,"700": 2.73036,"725": 3.02044,"750": 2.57666,"775": 3.0374,"800": 2.47422,"825": 1.99645,"850": 2.16707,"875": 1.65519,"900": 1.77465,"925": 1.36514,"950": 1.16034,"975": 0.93852,"1000": 0.61429,"1025": 0.30715,"1050": 0.05119}}}