{"type": "Feature","bbox": [-1.8519,34.8597,-1.5803,34.9882],"geometry": {"type": "MultiPolygon","coordinates": [[[[-1.713,34.9637,651.6967],[-1.7212,34.9866,969.2319],[-1.7262,34.9882,964.4414],[-1.7324,34.9856,1012.0959],[-1.7407,34.9813,966.6005],[-1.7391,34.9753,952.0408],[-1.7302,34.9585,578.4054],[-1.7324,34.9521,624.0795],[-1.7361,34.9485,577.0225],[-1.7404,34.952,588.4317],[-1.754,34.9556,671.4247],[-1.7636,34.9537,763.3246],[-1.7679,34.9486,813.7986],[-1.766,34.9442,827.5297],[-1.773,34.9398,839.9015],[-1.7782,34.9422,884.9114],[-1.7905,34.939,896.2835],[-1.8324,34.9092,679.8282],[-1.8446,34.9143,816.5776],[-1.8507,34.9143,731.8875],[-1.8519,34.9019,532.3788],[-1.8382,34.8921,497.693],[-1.8329,34.8867,465.3766],[-1.8302,34.8813,464.6586],[-1.8206,34.8744,431.4732],[-1.8052,34.867,407.8774],[-1.8008,34.8626,403.8749],[-1.7938,34.8597,375.6738],[-1.7911,34.8663,368.5809],[-1.7866,34.8676,394.6649],[-1.7827,34.8723,378.804],[-1.778,34.8723,386.1896],[-1.7686,34.8676,379.0749],[-1.7518,34.8802,356.6628],[-1.7475,34.8791,352.876],[-1.7296,34.8857,339.8802],[-1.7192,34.8826,319.6972],[-1.7109,34.8845,333.3427],[-1.6935,34.8821,341.2235],[-1.6865,34.8797,308.9942],[-1.6761,34.8799,335.6303],[-1.6697,34.8732,387.9745],[-1.6645,34.8719,327.0916],[-1.661,34.867,356.4562],[-1.6514,34.8682,302.0],[-1.6464,34.8748,302.0],[-1.6417,34.8754,305.1804],[-1.6329,34.8701,353.5289],[-1.6224,34.8709,382.0438],[-1.6178,34.8717,378.2933],[-1.6197,34.8777,378.8871],[-1.6165,34.883,320.4896],[-1.6158,34.8893,311.9624],[-1.6012,34.8996,324.7091],[-1.5953,34.916,313.994],[-1.5922,34.9201,294.516],[-1.5888,34.9174,342.6956],[-1.5835,34.9296,314.3912],[-1.5836,34.9366,304.8674],[-1.5803,34.9421,290.3673],[-1.5848,34.9455,276.925],[-1.6004,34.944,212.2869],[-1.6018,34.9389,240.1935],[-1.6075,34.9385,218.1799],[-1.6145,34.9406,221.6916],[-1.6195,34.9379,224.839],[-1.6162,34.9292,250.7898],[-1.6208,34.9247,227.9617],[-1.6277,34.9277,259.3279],[-1.6276,34.9343,295.9385],[-1.6298,34.9391,253.5183],[-1.6364,34.9404,321.5414],[-1.6451,34.938,343.0962],[-1.6507,34.934,309.3821],[-1.6507,34.9288,281.6801],[-1.6612,34.9284,332.4829],[-1.6717,34.931,368.7357],[-1.688,34.9413,458.5691],[-1.692,34.9381,472.3848],[-1.6966,34.9382,478.0746],[-1.7111,34.9439,572.6694],[-1.7182,34.9523,525.5697],[-1.713,34.9637,651.6967]]]]}
,"properties": {"GID_2": "DZA.48.29_1","GID_0": "DZA","country": "Algeria","GID_1": "DZA.48_1","province": "Tlemcen","NL_NAME_1": "تلمسان","county": "HammamBoughrara","VARNAME_2": "NA","NL_NAME_2": "NA","TYPE_2": "Commune","ENGTYPE_2": "Commune","CC_2": "1328","HASC_2": "DZ.TL.HB","name": "Hammam_Boughrara.county","area_km2": 159.8536,"hist_schema_id": "Elevation0-9000","hist_area_km2": {"200": 0.0521,"225": 2.8508,"250": 7.5457,"275": 7.8062,"300": 12.5725,"325": 8.9901,"350": 10.138,"375": 13.912,"400": 17.7896,"425": 12.2243,"450": 12.345,"475": 9.1622,"500": 7.8753,"525": 6.2933,"550": 5.2848,"575": 4.3981,"600": 3.9113,"625": 2.6771,"650": 2.3119,"675": 1.7208,"700": 1.964,"725": 1.3382,"750": 1.1644,"775": 0.9211,"800": 0.8864,"825": 0.6083,"850": 0.8168,"875": 0.3302,"900": 0.278,"925": 0.1911,"950": 0.1911,"975": 0.2432,"1000": 0.2606,"1025": 0.1911,"1050": 0.3301,"1075": 0.2258,"1100": 0.0521}}}