{"type": "Feature","bbox": [2.5928,35.7818,2.7644,35.8786],"geometry": {"type": "MultiPolygon","coordinates": [[[[2.6568,35.7821,671.2576],[2.6627,35.7818,674.8083],[2.6688,35.7891,724.9631],[2.6829,35.7917,731.7186],[2.7147,35.8093,716.4138],[2.7212,35.8118,696.5311],[2.7322,35.8129,714.3369],[2.7497,35.819,670.4726],[2.7611,35.8242,644.0656],[2.7644,35.8276,611.6212],[2.7592,35.8305,641.1959],[2.7512,35.8295,613.7433],[2.745,35.831,645.9907],[2.7316,35.8284,668.0053],[2.7232,35.8331,636.8398],[2.7201,35.8362,625.0909],[2.7202,35.841,624.5145],[2.7228,35.8456,629.2496],[2.7201,35.8515,641.3841],[2.7231,35.8556,646.6097],[2.7214,35.8595,624.3505],[2.7107,35.866,646.6854],[2.7174,35.8682,652.1862],[2.7154,35.8724,755.4407],[2.7072,35.8786,678.2088],[2.6719,35.8661,695.4502],[2.6652,35.8656,703.5621],[2.6649,35.8702,708.9615],[2.662,35.8733,718.9382],[2.656,35.8734,757.6039],[2.6514,35.8717,742.3052],[2.648,35.8499,690.4874],[2.6432,35.8475,686.6743],[2.6433,35.8425,679.8748],[2.6282,35.8423,701.328],[2.6219,35.8442,702.3215],[2.6071,35.8293,795.4257],[2.5964,35.8218,850.2322],[2.5928,35.817,808.2318],[2.5957,35.8133,766.4919],[2.6109,35.8085,704.7923],[2.6171,35.8092,698.7723],[2.6542,35.8026,667.2251],[2.6585,35.7977,663.6542],[2.6539,35.7858,670.8513],[2.6568,35.7821,671.2576]]]]}
,"properties": {"GID_2": "DZA.28.47_1","GID_0": "DZA","country": "Algeria","GID_1": "DZA.28_1","province": "Médéa","NL_NAME_1": "ولايةالمدية","county": "OumElDjellil","VARNAME_2": "OumElDjalil","NL_NAME_2": "NA","TYPE_2": "Commune","ENGTYPE_2": "Commune","CC_2": "2642","HASC_2": "DZ.MD.OE","name": "Oum_El_Djellil.county","area_km2": 75.53156,"hist_schema_id": "Elevation0-9000","hist_area_km2": {"600": 0.10314,"625": 4.07368,"650": 17.03471,"675": 27.07422,"700": 17.05189,"725": 6.7732,"750": 2.26907,"775": 0.6531,"800": 0.15471,"825": 0.13753,"850": 0.15472,"875": 0.05157}}}