{"type": "Feature","bbox": [4.7774,35.9959,4.9264,36.0792],"geometry": {"type": "MultiPolygon","coordinates": [[[[4.9264,36.0301,977.3021],[4.9027,36.0326,1001.3011],[4.8982,36.0372,1007.2506],[4.8965,36.0426,1018.3154],[4.8981,36.0555,1042.6365],[4.8947,36.0602,1051.5076],[4.8835,36.0514,1043.1097],[4.8762,36.0485,1031.7411],[4.8643,36.0488,1048.2817],[4.859,36.0529,1002.0328],[4.8717,36.0588,1051.5549],[4.8686,36.0638,1042.6809],[4.8629,36.0647,1024.9486],[4.8676,36.073,1050.1309],[4.8533,36.0792,1008.7651],[4.8393,36.077,984.1481],[4.8295,36.0735,958.2361],[4.8049,36.0701,916.739],[4.8015,36.0659,929.6625],[4.8031,36.0616,968.1273],[4.7991,36.0576,931.391],[4.7842,36.0556,880.8398],[4.7871,36.0484,883.4799],[4.7867,36.0438,885.0498],[4.7832,36.04,875.0364],[4.7774,36.0387,884.5896],[4.783,36.034,881.1926],[4.7841,36.0278,867.801],[4.7901,36.02,862.7781],[4.7958,36.0216,876.1116],[4.7987,36.0184,870.5568],[4.8001,36.0094,869.2595],[4.8073,35.9993,851.9364],[4.8156,35.9991,857.4357],[4.8252,35.9959,860.2972],[4.8399,36.0001,880.6156],[4.8422,36.0057,881.0648],[4.846,36.0093,887.3813],[4.8518,36.0103,895.2371],[4.8582,36.0187,918.8907],[4.867,36.0221,955.8836],[4.8906,36.0144,931.3879],[4.9012,36.014,948.7207],[4.9056,36.0178,963.8251],[4.9149,36.0138,950.7445],[4.9264,36.0301,977.3021]]]]}
,"properties": {"GID_2": "DZA.11.13_1","GID_0": "DZA","country": "Algeria","GID_1": "DZA.11_1","province": "BordjBouArréridj","NL_NAME_1": "ولايةبرجبوعريريج","county": "ElAnseur","VARNAME_2": "NA","NL_NAME_2": "NA","TYPE_2": "Commune","ENGTYPE_2": "Commune","CC_2": "3428","HASC_2": "DZ.BB.ES","name": "El_Anseur.county","area_km2": 66.24748,"hist_schema_id": "Elevation0-9000","hist_area_km2": {"850": 0.87478,"875": 8.98623,"900": 10.90526,"925": 8.43503,"950": 10.28615,"975": 11.5037,"1000": 8.69132,"1025": 4.81677,"1050": 1.50829,"1075": 0.23995}}}