{"type": "Feature","bbox": [4.3633,36.4071,4.4741,36.487],"geometry": {"type": "MultiPolygon","coordinates": [[[[4.4741,36.4237,294.8268],[4.464,36.4404,784.4207],[4.4542,36.4465,1055.6233],[4.4466,36.4542,1251.6177],[4.4415,36.4554,1238.3108],[4.4337,36.4609,1331.249],[4.4154,36.4775,1458.823],[4.4126,36.487,1684.2185],[4.4053,36.4815,1796.5173],[4.4008,36.4806,1796.2849],[4.3956,36.4822,1768.2512],[4.3827,36.4797,1785.1067],[4.3633,36.4663,1819.8438],[4.3665,36.4556,1641.7089],[4.3728,36.4441,1426.8245],[4.3897,36.4362,1072.7031],[4.3947,36.431399999999996,849.3649],[4.3933,36.4243,724.4496],[4.396,36.4185,557.7346],[4.3992,36.422,589.9852],[4.4127,36.4193,700.4242],[4.4173,36.4149,535.2965],[4.4192,36.4106,436.72],[4.4349,36.4071,319.3062],[4.4377,36.4128,366.8943],[4.4395,36.4224,539.4822],[4.4462,36.4217,431.9216],[4.4441,36.4257,513.6658],[4.4468,36.4295,594.7424],[4.4546,36.4266,554.4535],[4.4741,36.4237,294.8268]]]]}
,"properties": {"GID_2": "DZA.8.10_1","GID_0": "DZA","country": "Algeria","GID_1": "DZA.8_1","province": "Béjaïa","NL_NAME_1": "بجاية","county": "Beni-Mellikeche","VARNAME_2": "BeniMelikech","NL_NAME_2": "NA","TYPE_2": "Commune","ENGTYPE_2": "Commune","CC_2": "638","HASC_2": "DZ.BJ.BM","name": "Beni-Mellikeche.county","area_km2": 42.97906,"hist_schema_id": "Elevation0-9000","hist_area_km2": {"300": 0.01706,"325": 0.05118,"350": 0.1365,"375": 0.17063,"400": 0.27299,"425": 0.27299,"450": 0.39242,"475": 0.40946,"500": 0.44358,"525": 0.61418,"550": 0.61417,"575": 0.75063,"600": 1.05768,"625": 0.75063,"650": 1.00649,"675": 1.2453,"700": 1.10883,"725": 1.14293,"750": 1.10878,"775": 1.12582,"800": 1.29638,"825": 1.24518,"850": 1.4157,"875": 1.15986,"900": 1.15983,"925": 0.78455,"950": 1.10859,"975": 0.63104,"1000": 0.69923,"1025": 0.76747,"1050": 0.85272,"1075": 0.68218,"1100": 0.83566,"1125": 0.71627,"1150": 0.57982,"1175": 0.75037,"1200": 0.81857,"1225": 0.78446,"1250": 0.76738,"1275": 0.85263,"1300": 0.9038,"1325": 0.81851,"1350": 0.66504,"1375": 0.73325,"1400": 0.66503,"1425": 0.68205,"1450": 0.7332,"1475": 0.54563,"1500": 0.64795,"1525": 0.73318,"1550": 0.69908,"1575": 0.42626,"1600": 0.49445,"1625": 0.4774,"1650": 0.5797,"1675": 0.37508,"1700": 0.47739,"1725": 0.35803,"1750": 0.35803,"1775": 0.37508,"1800": 0.28982,"1825": 0.22163,"1850": 0.11933}}}