{"type": "Feature","bbox": [0.337,35.1739,0.4628,35.3074],"geometry": {"type": "MultiPolygon","coordinates": [[[[0.3952,35.1739,1039.1565],[0.4269,35.1846,1057.7499],[0.4276,35.1913,989.3183],[0.4342,35.1933,1017.4337],[0.4464,35.1913,948.0443],[0.4533,35.1928,903.5303],[0.4628,35.1977,816.0814],[0.4457,35.2106,980.119],[0.4366,35.2265,857.1078],[0.4368,35.2322,835.9235],[0.4404,35.2365,823.3802],[0.4445,35.2379,815.668],[0.4466,35.2539,822.0643],[0.4459,35.2714,775.4808],[0.4383,35.2839,813.3939],[0.4178,35.299,748.0824],[0.4105,35.3074,714.9756],[0.3841,35.303,752.9033],[0.3571,35.2927,786.8421],[0.3532,35.2892,806.3062],[0.3525,35.2843,832.0442],[0.337,35.276,835.9298],[0.3438,35.2665,853.3248],[0.3487,35.2629,862.2465],[0.3519,35.2585,879.974],[0.3525,35.2538,886.1852],[0.3616,35.2436,956.2849],[0.3605,35.2383,981.6085],[0.3553,35.2341,987.3934],[0.3528,35.2275,877.3495],[0.3658,35.2198,950.4675],[0.363,35.2164,916.7632],[0.3621,35.2119,895.9887],[0.3793,35.2016,964.546],[0.3809,35.1947,993.0202],[0.3865,35.1929,1014.9153],[0.3952,35.1739,1039.1565]]]]}
,"properties": {"GID_2": "DZA.27.32_1","GID_0": "DZA","country": "Algeria","GID_1": "DZA.27_1","province": "Mascara","NL_NAME_1": "ولايةمعسكر","county": "Nesmoth","VARNAME_2": "NA","NL_NAME_2": "NA","TYPE_2": "Commune","ENGTYPE_2": "Commune","CC_2": "2945","HASC_2": "DZ.MC.NE","name": "Nesmoth.county","area_km2": 98.54405,"hist_schema_id": "Elevation0-9000","hist_area_km2": {"725": 0.32876,"750": 1.79959,"775": 3.78998,"800": 6.29995,"825": 7.82389,"850": 9.15733,"875": 11.84136,"900": 6.16389,"925": 6.26843,"950": 7.03135,"975": 7.11803,"1000": 7.72483,"1025": 8.03782,"1050": 5.90797,"1075": 2.78906,"1100": 2.16545,"1125": 1.83634,"1150": 1.73242,"1175": 0.60635,"1200": 0.12127}}}