{"type": "Feature","bbox": [3.5943,36.4612,3.7417,36.5901],"geometry": {"type": "MultiPolygon","coordinates": [[[[3.7417,36.5545,793.2025],[3.7323,36.5618,873.7727],[3.7243,36.5779,706.627],[3.7262,36.5834,624.2499],[3.7221,36.5854,777.5474],[3.7143,36.5884,781.7698],[3.7062,36.5879,744.6344],[3.6974,36.5901,796.5806],[3.6802,36.5897,826.389],[3.6679,36.5857,805.0522],[3.6679,36.5801,808.7542],[3.6773,36.5497,262.3192],[3.6809,36.5466,202.4467],[3.6685,36.5353,155.9671],[3.666,36.5306,157.8369],[3.6698,36.5275,156.9614],[3.6701,36.5202,492.7877],[3.6654,36.5186,531.3578],[3.6334,36.537,316.6003],[3.6273,36.5387,166.5743],[3.609,36.5381,428.9295],[3.6036,36.5365,458.664],[3.5955,36.5307,442.3612],[3.5943,36.5178,493.5684],[3.5963,36.5138,549.8036],[3.6012,36.5123,619.7373],[3.6123,36.5129,594.2141],[3.621,36.5069,484.5373],[3.6161,36.4884,276.2744],[3.6071,36.4807,354.4714],[3.6049,36.4617,772.2729],[3.6113,36.4612,803.3202],[3.6211,36.4645,806.2086],[3.6313,36.4737,683.8329],[3.6374,36.4709,651.7927],[3.6462,36.4702,651.0643],[3.6527,36.4737,561.2866],[3.6664,36.4735,444.5682],[3.6795,36.4759,460.133],[3.6842,36.4792,429.2823],[3.683,36.4848,282.5643],[3.6878,36.4893,193.0956],[3.6929,36.4905,188.2952],[3.6957,36.4947,183.4412],[3.7023,36.4969,178.3358],[3.7094,36.495,201.1113],[3.7139,36.4965,185.0213],[3.7177,36.5005,193.6446],[3.7123,36.5042,186.3299],[3.7217,36.5099,197.4266],[3.7257,36.5152,326.2792],[3.7268,36.5224,251.1616],[3.7315,36.5326,286.7974],[3.7322,36.5445,441.1856],[3.7417,36.5545,793.2025]]]]}
,"properties": {"GID_2": "DZA.12.30_1","GID_0": "DZA","country": "Algeria","GID_1": "DZA.12_1","province": "Bouira","NL_NAME_1": "ولايةالبويرة","county": "Kadiria","VARNAME_2": "NA","NL_NAME_2": "NA","TYPE_2": "Commune","ENGTYPE_2": "Commune","CC_2": "1005","HASC_2": "DZ.BU.KA","name": "Kadiria.county","area_km2": 93.79491,"hist_schema_id": "Elevation0-9000","hist_area_km2": {"150": 0.61334,"175": 6.18541,"200": 4.9418,"225": 4.4816,"250": 4.89042,"275": 4.83919,"300": 4.94136,"325": 4.8562,"350": 5.00954,"375": 4.90736,"400": 4.53253,"425": 4.61755,"450": 4.14046,"475": 4.83902,"500": 4.00389,"525": 3.95281,"550": 3.49237,"575": 3.03248,"600": 2.72584,"625": 2.69156,"650": 1.97589,"675": 1.92469,"700": 1.68622,"725": 1.60087,"750": 0.74948,"775": 0.8686,"800": 0.7495,"825": 0.15327,"850": 0.25543,"875": 0.06811,"900": 0.06812}}}