{"type":"Feature","properties":{"GID_2":"DZA.4.17_1","GID_0":"DZA","country":"Algeria","GID_1":"DZA.4_1","province":"Alger","NL_NAME_1":"ولايةالجزائر","county":"OuledChebel","VARNAME_2":"NA","NL_NAME_2":"NA","TYPE_2":"Commune","ENGTYPE_2":"Commune","CC_2":"1636","HASC_2":"DZ.AL.OC","name":"Ouled_Chebel.county"},
"geometry":{"type": "MultiPolygon","coordinates": [[[[2.9554,36.6169,33.9381],[2.9543,36.6113,34.2415],[2.9586,36.6013,38.7506],[2.9588,36.5945,42.0776],[2.9632,36.5897,43.8048],[2.9672,36.5937,42.803],[2.973,36.5956,41.2989],[2.9784,36.5947,42.3634],[2.9817,36.5909,43.2823],[2.9877,36.5898,45.6275],[2.9925,36.5848,48.3979],[3.0017,36.5892,49.3235],[3.0085,36.5903,50.2259],[3.0117,36.5961,49.5042],[3.0231,36.5996,47.0899],[3.0318,36.6042,43.9778],[3.0313,36.6096,40.772],[3.0395,36.6181,36.4702],[3.0528,36.6219,36.9524],[3.0638,36.6221,30.0749],[3.0655,36.6269,34.914],[3.031,36.6314,34.4951],[3.025,36.6307,33.6457],[3.0182,36.6374,30.6002],[2.9876,36.6288,34.6411],[2.9742,36.6222,35.5478],[2.9554,36.6169,33.9381]]]]}}