{"type":"Feature","properties":{"GID_2":"DZA.28.48_1","GID_0":"DZA","country":"Algeria","GID_1":"DZA.28_1","province":"Médéa","NL_NAME_1":"ولايةالمدية","county":"Roubia","VARNAME_2":"Rebaia","NL_NAME_2":"NA","TYPE_2":"Commune","ENGTYPE_2":"Commune","CC_2":"2620","HASC_2":"DZ.MD.RO","name":"Roubia.county"},
"geometry":{"type": "MultiPolygon","coordinates": [[[[3.2297,35.9812,1019.3207],[3.253,35.9869,870.3634],[3.2515,35.9931,846.909],[3.2264,36.0066,819.6042],[3.2231,36.012,830.0807],[3.2242,36.0187,806.3402],[3.2193,36.0209,803.2533],[3.2148,36.0253,783.2328],[3.193,36.0584,745.5901],[3.1783,36.058,793.3818],[3.1717,36.0601,839.4369],[3.1683,36.0647,770.5948],[3.1702,36.069,740.1891],[3.1696,36.075,732.8594],[3.1621,36.0767,778.3859],[3.153,36.084,818.8147],[3.1478,36.0844,829.4862],[3.1328,36.092,889.7317],[3.1303,36.0882,886.1391],[3.119,36.0911,845.8298],[3.1142,36.0871,851.3417],[3.1082,36.0785,953.1458],[3.0974,36.0722,1064.3435],[3.0858,36.0743,1004.4598],[3.0852,36.0678,971.7469],[3.0811,36.0635,1003.3476],[3.0759,36.061,1066.2686],[3.0799,36.0562,1111.3997],[3.0792,36.0516,1088.3618],[3.0766,36.0481,1085.5032],[3.0634,36.0406,1117.1344],[3.0608,36.0358,1050.7628],[3.0588,36.0294,1028.3639],[3.0571,36.009,993.8686],[3.0543,36.0004,1014.0101],[3.0459,35.9884,987.5601],[3.0446,35.982,946.5942],[3.0465,35.9778,916.9727],[3.0517,35.9759,891.3449],[3.0652,35.9764,913.0518],[3.0872,35.9732,893.9555],[3.0921,35.9692,877.3214],[3.0922,35.9622,878.2452],[3.0952,35.9568,895.9062],[3.1164,35.9605,1060.3333],[3.129,35.9558,1020.1769],[3.1344,35.9649,923.8773],[3.1376,35.9679,971.7158],[3.1435,35.9693,1033.3241],[3.1504,35.9791,1035.0712],[3.1561,35.9748,1072.754],[3.1734,35.9799,1117.9448],[3.18,35.9885,1070.1237],[3.1845,35.9903,1051.9431],[3.196,35.9874,979.9206],[3.1999,35.9914,974.3087],[3.206,35.9918,951.168],[3.2238,35.9884,1008.7463],[3.2288,35.9873,999.657],[3.2256,35.9836,1004.1468],[3.2297,35.9812,1019.3207]]]]}}