{"type": "Feature","bbox": [8.052,35.8812,8.2926,36.0026],"geometry": {"type": "MultiPolygon","coordinates": [[[[8.0668,35.9656,525.2399],[8.0598,35.9647,525.9257],[8.0559,35.9615,536.7816],[8.052,35.9186,589.5454],[8.0816,35.8964,554.575],[8.1017,35.8854,526.2261],[8.1077,35.8827,524.003],[8.124,35.8812,509.7038],[8.1274,35.8856,505.9574],[8.1351,35.889,503.8589],[8.1381,35.8945,500.2294],[8.1499,35.8983,498.0231],[8.152,35.9037,490.2494],[8.1597,35.9029,488.2158],[8.1669,35.9103,484.1135],[8.1734,35.9141,484.9524],[8.1782,35.92,479.3835],[8.1825,35.9191,475.0378],[8.1907,35.9243,471.6848],[8.1972,35.9259,470.8372],[8.2056,35.9368,463.898],[8.2141,35.9409,467.6699],[8.2201,35.9395,456.6237],[8.2324,35.9434,454.0744],[8.2662,35.9403,437.4897],[8.2715,35.9435,439.6176],[8.2726,35.9458,432.9792],[8.2789,35.9481,431.4747],[8.2793,35.9498,430.3719],[8.2819,35.9494,429.7611],[8.2926,35.9533,430.8697],[8.2911,35.9558,426.2962],[8.2921,35.9577,427.2378],[8.2864,35.9614,432.3456],[8.2802,35.9618,429.5861],[8.2724,35.9581,431.5538],[8.2676,35.9584,430.9267],[8.2628,35.9628,434.3328],[8.2364,35.9734,442.6247],[8.2322,35.9771,452.808],[8.2191,35.9822,458.4623],[8.217,35.9878,469.5248],[8.217,35.9948,483.1666],[8.2119,35.9977,467.7592],[8.2065,35.9928,473.9262],[8.1944,36.0026,477.0461],[8.1878,36.0013,482.0261],[8.1865,35.9958,478.8138],[8.1896,35.9909,513.3732],[8.1782,35.9909,480.7705],[8.1685,35.9874,482.513],[8.1596,35.9902,490.32],[8.1546,35.9888,486.0817],[8.1459,35.9952,506.0603],[8.1393,35.9945,499.6151],[8.1246,35.9884,499.6203],[8.1212,35.9929,504.008],[8.114,35.9882,507.0698],[8.1117,35.9842,516.437],[8.1027,35.9807,516.7696],[8.0976,35.9769,516.0895],[8.09,35.975,510.9861],[8.0829,35.9762,513.4763],[8.0809,35.9713,516.7406],[8.0769,35.9739,527.2007],[8.072,35.9725,521.6552],[8.0726,35.9671,522.6008],[8.0668,35.9656,525.2399]]]]}
,"properties": {"GID_2": "DZA.42.23_1","GID_0": "DZA","country": "Algeria","GID_1": "DZA.42_1","province": "Tébessa","NL_NAME_1": "ولايةتبسة","county": "Ouenza","VARNAME_2": "ElOuenza|Winzah","NL_NAME_2": "NA","TYPE_2": "Commune","ENGTYPE_2": "Commune","CC_2": "1219","HASC_2": "DZ.TB.OU","name": "Ouenza.county","area_km2": 150.4834,"hist_schema_id": "Elevation0-9000","hist_area_km2": {"425": 2.6945,"450": 11.8589,"475": 20.9385,"500": 21.1636,"525": 22.1098,"550": 16.9433,"575": 14.351,"600": 10.4712,"625": 6.9864,"650": 5.3211,"675": 3.3985,"700": 2.6089,"725": 1.9053,"750": 1.6306,"775": 1.2702,"800": 1.0814,"825": 0.9097,"850": 0.7381,"875": 0.4806,"900": 0.6351,"925": 0.6179,"950": 0.3261,"975": 0.2231,"1000": 0.2918,"1025": 0.3776,"1050": 0.2918,"1075": 0.1888,"1100": 0.1716,"1125": 0.206,"1150": 0.103,"1175": 0.1373,"1200": 0.0343,"1225": 0.0172}}}