{"type":"Feature","properties":{"GID_2":"DZA.3.18_1","GID_0":"DZA","country":"Algeria","GID_1":"DZA.3_1","province":"AïnTémouchent","NL_NAME_1":"ولايةعينتموشنت","county":"OuedBerkeche","VARNAME_2":"NA","NL_NAME_2":"NA","TYPE_2":"Commune","ENGTYPE_2":"Commune","CC_2":"4606","HASC_2":"DZ.AT.OB","name":"Oued_Berkeche.county"},
"geometry":{"type": "MultiPolygon","coordinates": [[[[-1.0013,35.1984,403.3399],[-0.9801,35.1932,435.5964],[-0.9746,35.1901,461.6204],[-0.9691,35.1903,464.1697],[-0.9576,35.1821,548.4996],[-0.9536,35.1692,589.0206],[-0.9361,35.1752,569.2037],[-0.9267,35.1797,530.1543],[-0.922,35.1842,524.1889],[-0.9246,35.1961,477.8392],[-0.9254,35.2074,432.9312],[-0.9235,35.2168,415.3083],[-0.9248,35.2219,408.0127],[-0.9276,35.2262,403.0329],[-0.9597,35.2435,339.322],[-0.9858,35.2472,312.4144],[-0.9909,35.2452,281.3291],[-0.9886,35.2402,331.4123],[-0.9898,35.2334,348.2046],[-0.9989,35.2274,336.9342],[-1.0079,35.2083,419.1291],[-1.0062,35.202,378.4189],[-1.0013,35.1984,403.3399]]]]}}