{"type": "Feature","bbox": [7.1166,35.5026,7.3164,35.6281],"geometry": {"type": "MultiPolygon","coordinates": [[[[7.3026,35.5104,1041.5042],[7.3048,35.5158,996.6899],[7.2973,35.5299,959.6292],[7.2967,35.5413,941.8046],[7.3064,35.5437,939.4453],[7.3088,35.5618,902.2853],[7.3137,35.5651,897.6936],[7.3164,35.5694,894.4851],[7.3138,35.5756,884.757],[7.3147,35.5803,882.9174],[7.3082,35.5927,867.4185],[7.2928,35.6029,859.556],[7.2675,35.6145,854.0331],[7.2287,35.6281,836.4592],[7.2244,35.6277,840.8888],[7.2178,35.6106,836.6569],[7.2131,35.6124,832.2029],[7.2099,35.6177,830.5],[7.2048,35.6195,831.5735],[7.1881,35.6164,831.6434],[7.1533,35.6131,831.1414],[7.1363,35.6203,830.5],[7.133,35.6176,843.5771],[7.1166,35.5919,839.2624],[7.1989,35.5677,861.3615],[7.2088,35.5557,868.1451],[7.21,35.5508,871.7864],[7.2078,35.5468,876.9771],[7.2533,35.5352,915.2271],[7.2601,35.5216,934.3997],[7.2687,35.5164,955.2429],[7.2766,35.5179,956.285],[7.2896,35.5076,1005.7063],[7.2923,35.5026,1037.0266],[7.2997,35.5047,1034.2574],[7.3026,35.5104,1041.5042]]]]}
,"properties": {"GID_2": "DZA.24.16_1","GID_0": "DZA","country": "Algeria","GID_1": "DZA.24_1","province": "Khenchela","NL_NAME_1": "ولايةخنشلة","county": "M'Toussa","VARNAME_2": "Mtoussa","NL_NAME_2": "NA","TYPE_2": "Commune","ENGTYPE_2": "Commune","CC_2": "4002","HASC_2": "DZ.KH.MT","name": "M'Toussa.county","area_km2": 120.24482,"hist_schema_id": "Elevation0-9000","hist_area_km2": {"825": 5.46405,"850": 62.06665,"875": 24.88609,"900": 12.6613,"925": 7.03903,"950": 4.4863,"975": 2.0881,"1000": 1.27714,"1025": 0.24164,"1050": 0.03452}}}