{"type": "Feature","bbox": [0.8491,36.0601,0.9466,36.1564],"geometry": {"type": "MultiPolygon","coordinates": [[[[0.9205,36.1527,540.643],[0.9095,36.1503,548.5955],[0.8949,36.1411,544.4446],[0.8895,36.1416,465.7034],[0.8845,36.1396,475.7338],[0.8538,36.1203,498.3773],[0.8491,36.1206,520.2462],[0.8498,36.1159,503.6789],[0.8573,36.1082,473.4619],[0.8677,36.1028,479.2507],[0.8722,36.1022,497.845],[0.8679,36.0976,493.2944],[0.8719,36.0961,547.1812],[0.8777,36.0844,343.834],[0.8878,36.0817,309.8798],[0.8882,36.0764,284.8892],[0.8854,36.0601,200.2988],[0.8937,36.0649,201.179],[0.9028,36.0732,157.8492],[0.9094,36.0902,188.9279],[0.9187,36.0973,221.8612],[0.9367,36.1176,338.96],[0.9466,36.1243,356.5864],[0.9459,36.1289,389.3164],[0.9429,36.1338,457.7263],[0.937,36.1298,379.0237],[0.9385,36.1376,465.0531],[0.9354,36.1451,505.2163],[0.9445,36.1519,510.1125],[0.9411,36.1549,530.6404],[0.934,36.1564,550.3576],[0.9205,36.1527,540.643]]]]}
,"properties": {"GID_2": "DZA.35.19_1","GID_0": "DZA","country": "Algeria","GID_1": "DZA.35_1","province": "Relizane","NL_NAME_1": "ولايةغليزان","county": "Mazouna","VARNAME_2": "Mazūnah","NL_NAME_2": "NA","TYPE_2": "Commune","ENGTYPE_2": "Commune","CC_2": "4822","HASC_2": "DZ.RE.MA","name": "Mazouna.county","area_km2": 43.38439,"hist_schema_id": "Elevation0-9000","hist_area_km2": {"150": 0.22277,"175": 0.2913,"200": 0.58259,"225": 1.35359,"250": 2.03888,"275": 2.4841,"300": 3.40894,"325": 3.32299,"350": 3.20296,"375": 3.6824,"400": 2.9287,"425": 3.66505,"450": 3.61364,"475": 4.24722,"500": 3.95592,"525": 3.08202,"550": 1.30131}}}