{"type": "Feature","id": "2164","bbox": [7.64975,36.40413,8.64255,36.95808],"geometry": {"type": "Polygon","coordinates": [[[8.60251,36.93951,0.0],[8.6019,36.93936,0.0],[8.49757,36.9042,1.6355],[8.46323,36.90156,0.0],[8.42872,36.9042,0.0],[8.4144,36.91022,0.0],[8.40162,36.91861,0.0],[8.38885,36.92324,0.0],[8.37403,36.91844,6.8124],[8.35597,36.92593,0.0],[8.33326,36.9278,0.0],[8.2881,36.92593,0.0],[8.26873,36.93374,0.0],[8.25115,36.94868,0.0],[8.23316,36.95808,0.0],[8.09303,36.9018,0.0],[8.07301,36.8874,0.0],[8.04998,36.87759,0.0],[7.90846,36.84955,0.0],[7.86647,36.8544,0.0],[7.80991,36.86815,0.0],[7.77378,36.88975,0.0],[7.76953,36.88824,0.0],[7.76287,36.88659,0.0],[7.76038,36.88338,2.3865],[7.75739,36.87703,1.9612],[7.75537,36.78339,9.1327],[7.75258,36.77197,10.3462],[7.74731,36.76484,11.0159],[7.72592,36.75879,11.0146],[7.71553,36.75274,11.5126],[7.70979,36.74551,11.8764],[7.69176,36.71368,64.5219],[7.66432,36.68551,62.2768],[7.64975,36.6634,180.1929],[7.69703,36.65774,86.4267],[7.70793,36.6521,56.9745],[7.74126,36.62882,130.5796],[7.75196,36.61766,156.1307],[7.75878,36.60717,95.9278],[7.76442,36.59175,48.5682],[7.77155,36.58164,128.0241],[7.78488,36.57384,267.0708],[7.96564,36.51222,621.1428],[7.97464,36.50728,762.5732],[7.97851,36.50315,787.4692],[7.97991,36.50085,847.9126],[7.9827,36.49333,699.5513],[7.98786,36.48439,561.6517],[8.00306,36.45902,462.8636],[8.00724,36.41279,813.406],[8.01298,36.4061,1005.6528],[8.02321,36.40413,1006.009],[8.03995,36.40677,1136.0892],[8.05489,36.41049,1268.0151],[8.06884,36.41545,1057.8969],[8.08326,36.42214,1077.5076],[8.09628,36.43036,960.6146],[8.10688,36.43917,837.7301],[8.12734,36.46361,523.991],[8.1416,36.47648,305.1451],[8.15886,36.4877,400.5199],[8.16754,36.49183,301.7047],[8.16789,36.49199,301.7047],[8.16992,36.52583,396.1122],[8.19348,36.54898,493.7724],[8.22232,36.56376,499.0975],[8.28691,36.5834,548.1861],[8.40794,36.64262,586.4605],[8.43037,36.66262,508.2183],[8.45321,36.69766,284.958],[8.46179,36.7328,127.7193],[8.44163,36.75321,140.371],[8.4067,36.76799,159.2137],[8.41311,36.78391,91.5046],[8.44401,36.7962,160.7563],[8.48267,36.79998,109.7932],[8.52008,36.79791,128.5126],[8.5545,36.80365,138.0015],[8.62385,36.82607,398.2026],[8.64173,36.83636,247.4978],[8.64255,36.8485,348.1405],[8.60824,36.89072,88.1828],[8.60483,36.90098,93.7502],[8.60566,36.91305,161.8685],[8.60251,36.93951,0.0]]]}
,"properties": {"ISO3166-1-Alpha-3": "DZA","country": "Algeria","fill": "#FF0","name": "El Tarf","area_km2": 2732.198,"hist_schema_id": "Elevation0-9000","hist_area_km2": {"0": 562.566,"25": 361.526,"50": 233.715,"75": 151.964,"100": 118.905,"125": 107.015,"150": 102.328,"175": 82.296,"200": 78.107,"225": 74.907,"250": 77.288,"275": 79.567,"300": 76.58,"325": 75.364,"350": 77.196,"375": 72.894,"400": 64.061,"425": 53.069,"450": 44.578,"475": 36.904,"500": 31.052,"525": 27.548,"550": 22.749,"575": 18.375,"600": 15.567,"625": 12.758,"650": 11.38,"675": 10.393,"700": 8.366,"725": 7.31,"750": 6.101,"775": 4.823,"800": 3.886,"825": 3.426,"850": 3.205,"875": 2.284,"900": 1.892,"925": 1.892,"950": 1.347,"975": 1.16,"1000": 0.938,"1025": 0.768,"1050": 0.785,"1075": 0.836,"1100": 0.751,"1125": 0.529,"1150": 0.341,"1175": 0.188,"1200": 0.222,"1225": 0.205,"1250": 0.102,"1275": 0.102,"1300": 0.068}}}