{"type": "Feature","bbox": [7.6673,36.3909,8.6831,36.9517],"geometry": {"type": "MultiPolygon","coordinates": [[[[8.1006,36.4437,708.48],[8.1127,36.4531,862.71],[8.1187,36.4543,777.6205],[8.1249,36.4546,675.4273],[8.1268,36.4498,630.3779],[8.1508,36.4475,395.6361],[8.1636,36.4578,632.8114],[8.1663,36.4666,787.7668],[8.1606,36.4782,751.5422],[8.1611,36.4861,420.8597],[8.159,36.4918,314.5234],[8.154,36.4933,314.5833],[8.1529,36.4956,269.7253],[8.1556,36.4992,281.8751],[8.1679,36.501,300.7972],[8.1729,36.5052,303.5891],[8.1766,36.5132,324.7407],[8.1816,36.5142,354.4668],[8.1945,36.5089,417.0649],[8.2007,36.5103,433.3402],[8.2096,36.514,472.0691],[8.2223,36.5164,529.0197],[8.2247,36.5204,553.1273],[8.2426,36.5266,601.8964],[8.2481,36.5301,621.9017],[8.2508,36.534,641.4775],[8.2574,36.5371,671.8778],[8.2674,36.5356,741.6617],[8.2914,36.5398,767.9532],[8.3017,36.5477,652.3483],[8.3077,36.5486,620.1309],[8.3135,36.5523,601.024],[8.3196,36.5581,579.4716],[8.3225,36.5625,537.1557],[8.3233,36.5688,547.941],[8.3265,36.5734,623.7285],[8.3384,36.5761,742.3942],[8.3492,36.583,948.0592],[8.3571,36.5839,950.9896],[8.3657,36.5917,1107.1356],[8.38,36.5952,1118.4819],[8.3824,36.5972,1131.7417],[8.3888,36.5936,1142.0146],[8.3933,36.5956,1160.6199],[8.3986,36.6039,1105.0878],[8.4013,36.6096,1013.1337],[8.4003,36.6101,1057.7795],[8.4062,36.6165,1061.1812],[8.4119,36.6164,961.0779],[8.4194,36.6217,966.1878],[8.4316,36.6186,753.8424],[8.4423,36.6186,607.5901],[8.449,36.6205,548.1331],[8.461,36.6556,549.5952],[8.4595,36.6582,600.1712],[8.4533,36.6616,680.7399],[8.4616,36.6631,685.9365],[8.47,36.667,714.7991],[8.4858,36.6846,766.3376],[8.4854,36.6892,722.7816],[8.4883,36.6971,714.332],[8.4829,36.7002,647.7875],[8.4772,36.7151,402.7838],[8.4714,36.7197,314.1468],[8.4682,36.7245,216.6025],[8.4667,36.735,124.5607],[8.4703,36.7425,86.7934],[8.4612,36.7489,61.0057],[8.4484,36.7465,91.1885],[8.4408,36.7468,60.5439],[8.4353,36.75,58.4593],[8.4318,36.7594,176.905],[8.4398,36.7604,158.3299],[8.4614,36.7698,163.9599],[8.4752,36.7722,121.4376],[8.4827,36.7783,95.4073],[8.4869,36.7798,80.4979],[8.5138,36.7794,84.9612],[8.5287,36.7817,94.7492],[8.5355,36.7759,99.9461],[8.5427,36.7744,102.6305],[8.553,36.7761,109.485],[8.5567,36.7786,113.1201],[8.5635,36.7744,123.4638],[8.5706,36.776,129.9966],[8.576,36.774,142.5527],[8.5908,36.792,341.9446],[8.6035,36.7992,460.9711],[8.6127,36.793,462.3566],[8.6179,36.7929,420.1932],[8.6223,36.7955,442.4214],[8.6273,36.8025,473.0624],[8.6365,36.8029,403.6584],[8.6632,36.8139,545.0679],[8.6756,36.8218,509.3687],[8.6769,36.8264,541.3605],[8.6822,36.8336,504.0564],[8.6831,36.8402,452.4171],[8.6751,36.844,393.6241],[8.6662,36.8529,178.7929],[8.657,36.8504,148.8292],[8.6488,36.8541,272.8651],[8.6338,36.8569,405.5943],[8.6285,36.8556,453.4974],[8.6327,36.8642,424.3023],[8.6316,36.8697,452.7349],[8.634,36.8761,442.6418],[8.6326,36.8884,481.0048],[8.6339,36.8987,489.2592],[8.6371,36.9058,486.3159],[8.6397,36.9103,477.2396],[8.6575,36.9166,445.7624],[8.6512,36.9234,327.2578],[8.6527,36.9231,318.4134],[8.6475,36.9305,179.3697],[8.6456,36.9369,114.9464],[8.6414,36.9414,6.024],[8.6365,36.9372,0.0],[8.6176,36.9352,5.4044],[8.6121,36.9401,23.417],[8.6067,36.9391,2.0561],[8.6029,36.9356,6.869],[8.5885,36.9302,32.408],[8.5795,36.9305,0.0],[8.5589,36.9271,0.0],[8.5488,36.921,0.0],[8.5241,36.9137,5.4779],[8.5207,36.9096,13.4548],[8.5142,36.9092,0.0],[8.5016,36.9051,1.4518],[8.494,36.9058,1.5378],[8.4786,36.903,0.0],[8.4671,36.8992,0.0],[8.4565,36.8997,0.9459],[8.4518,36.8981,1.6402],[8.4407,36.9001,0.0],[8.4304,36.8954,13.5669],[8.4256,36.8958,0.0],[8.4032,36.9137,0.0],[8.3885,36.9145,1.6484],[8.3603,36.9218,18.6487],[8.3409,36.9183,2.2444],[8.3283,36.9205,0.0],[8.3236,36.9199,1.5277],[8.3193,36.917,6.4618],[8.307,36.9187,1.511],[8.2918,36.9152,10.2319],[8.2835,36.9151,8.8136],[8.268,36.9183,2.21],[8.2652,36.9263,2.7769],[8.2603,36.931,3.4838],[8.2465,36.9335,18.7579],[8.241,36.9366,0.0],[8.2407,36.948,0.0],[8.2264,36.9517,11.0557],[8.208,36.9427,24.7068],[8.2068,36.9386,25.1534],[8.2012,36.9394,0.0],[8.1848,36.9301,38.8121],[8.1407,36.9114,5.6473],[8.113,36.9024,0.0],[8.0851,36.8899,18.8157],[8.055,36.8791,0.0],[7.9914,36.8588,0.0],[7.9473,36.849,0.0],[7.9125,36.8444,0.0],[7.9058,36.8407,14.0652],[7.901,36.8435,1.9508],[7.8471,36.8428,1.5098],[7.8172,36.8476,1.2911],[7.8213,36.8425,1.694],[7.8271,36.8392,0.799],[7.8302,36.8219,1.0622],[7.8138,36.8141,3.159],[7.803,36.8182,4.1376],[7.7847,36.8218,4.7954],[7.778,36.8199,5.9783],[7.7782,36.8146,7.4322],[7.7765,36.81,8.7826],[7.7812,36.8064,8.4709],[7.7803,36.8019,8.5871],[7.7728,36.7936,8.5715],[7.7732,36.7707,11.1596],[7.7582,36.7736,9.4787],[7.7511,36.7724,9.8433],[7.7319,36.778,9.1384],[7.7274,36.7773,9.0274],[7.7221,36.7582,11.2231],[7.7192,36.755,11.6198],[7.7095,36.7621,10.2063],[7.7048,36.7638,10.2755],[7.6937,36.7426,12.1886],[7.6816,36.7396,13.3249],[7.6789,36.7342,17.1215],[7.6825,36.7293,58.1292],[7.6817,36.722,90.5226],[7.6829,36.7169,71.3503],[7.6964,36.708,43.1669],[7.6957,36.702,38.7835],[7.6924,36.6905,38.6784],[7.6743,36.6805,57.4558],[7.6706,36.6747,69.1018],[7.6673,36.6634,85.2822],[7.6684,36.6532,98.4558],[7.6791,36.648,102.0586],[7.691,36.6459,119.269],[7.6954,36.6467,115.3366],[7.6896,36.6558,93.8445],[7.6964,36.6593,90.8002],[7.7106,36.6621,64.0806],[7.7232,36.6569,38.0373],[7.7443,36.639,57.6764],[7.7449,36.6308,92.8294],[7.7379,36.6217,184.6044],[7.7437,36.62,188.4209],[7.7641,36.6219,148.6043],[7.7739,36.5954,47.8764],[7.7728,36.5899,46.7483],[7.7794,36.5842,50.3411],[7.7782,36.565,95.8696],[7.7848,36.5558,168.7407],[7.7819,36.5505,213.1867],[7.7839,36.5463,270.6108],[7.7979,36.5392,303.344],[7.8038,36.5394,324.8423],[7.8177,36.5419,373.6919],[7.833,36.55,457.0584],[7.8507,36.5514,462.8815],[7.8552,36.549,464.0326],[7.8568,36.543,452.575],[7.8637,36.5408,488.5293],[7.8587,36.5526,432.9846],[7.8585,36.5589,373.5757],[7.8643,36.5601,398.2492],[7.8691,36.5529,463.9702],[7.8791,36.5431,683.6671],[7.8924,36.5392,702.0583],[7.9059,36.539,628.619],[7.9177,36.535,780.1264],[7.9271,36.5276,645.6919],[7.9327,36.5196,572.7056],[7.9468,36.5065,788.9987],[7.9532,36.4976,705.0773],[7.9399,36.4917,649.0911],[7.9614,36.4618,531.9812],[7.9928,36.4692,534.4354],[8.0028,36.463,469.8969],[8.0088,36.4608,440.3553],[8.0212,36.4601,342.8527],[8.0254,36.4573,348.8954],[8.0229,36.4536,390.4945],[8.0167,36.4517,346.5934],[8.0137,36.4467,422.9837],[8.0141,36.4372,475.9607],[8.0117,36.4331,572.4427],[8.012,36.4263,644.9411],[8.0151,36.4134,961.2947],[8.0193,36.4102,1083.3025],[8.0207,36.398,1218.426],[8.0299,36.3922,1149.1869],[8.0341,36.3909,1198.9478],[8.0438,36.3924,1258.9375],[8.0465,36.3963,1311.1365],[8.0471,36.4005,1241.3984],[8.0567,36.4073,1295.9183],[8.0593,36.414,1072.2498],[8.0788,36.4379,846.6614],[8.0952,36.4395,839.1728],[8.1006,36.4437,708.48]]]]}
,"properties": {"GID_1": "DZA.19_1","GID_0": "DZA","country": "Algeria","province": "ElTarf","VARNAME_1": "EtTarf|ElTaref","NL_NAME_1": "ولايةالطارف","TYPE_1": "Wilaya","ENGTYPE_1": "Province","CC_1": "36","HASC_1": "DZ.ET","ISO_1": "DZ-36","name": "El_Tarf.province","area_km2": 2883.251,"hist_schema_id": "Elevation0-9000","hist_area_km2": {"0": 470.604,"25": 364.057,"50": 228.167,"75": 157.696,"100": 129.144,"125": 115.655,"150": 110.153,"175": 90.291,"200": 86.17,"225": 81.595,"250": 84.4,"275": 86.798,"300": 83.168,"325": 80.442,"350": 82.056,"375": 78.81,"400": 71.221,"425": 61.232,"450": 51.96,"475": 44.95,"500": 39.047,"525": 36.38,"550": 33.014,"575": 28.183,"600": 25.375,"625": 22.685,"650": 20.746,"675": 17.869,"700": 15.586,"725": 14.326,"750": 11.891,"775": 9.506,"800": 7.359,"825": 5.928,"850": 5.536,"875": 4.157,"900": 3.952,"925": 4.259,"950": 3.083,"975": 2.334,"1000": 2.18,"1025": 1.772,"1050": 1.312,"1075": 1.499,"1100": 1.159,"1125": 1.279,"1150": 1.244,"1175": 0.938,"1200": 0.58,"1225": 0.529,"1250": 0.358,"1275": 0.239,"1300": 0.188,"1325": 0.171}}}