{"type":"Feature","properties":{"GID_2":"DZA.14.26_1","GID_0":"DZA","country":"Algeria","GID_1":"DZA.14_1","province":"Chlef","NL_NAME_1":"ولايةالشلف","county":"OumDrou","VARNAME_2":"NA","NL_NAME_2":"NA","TYPE_2":"Commune","ENGTYPE_2":"Commune","CC_2":"233","HASC_2":"DZ.CH.OD","name":"Oum_Drou.county"},
"geometry":{"type": "MultiPolygon","coordinates": [[[[1.4671,36.256,301.2298],[1.4615,36.254,309.872],[1.4489,36.2392,174.8777],[1.4314,36.2361,159.777],[1.4247,36.2372,183.3804],[1.4202,36.2401,177.5421],[1.418,36.2547,183.3727],[1.406,36.238,161.082],[1.4008,36.2371,152.9015],[1.3974,36.2335,152.7911],[1.395,36.2228,129.9464],[1.363,36.2133,142.7322],[1.3653,36.2082,177.5136],[1.3625,36.2021,151.8289],[1.3657,36.1947,102.7412],[1.3665,36.1882,107.8836],[1.3723,36.1846,120.1983],[1.3886,36.1893,122.3985],[1.3986,36.1864,150.1823],[1.4049,36.1749,193.8808],[1.4062,36.1675,227.9664],[1.4181,36.1535,230.8475],[1.4237,36.1527,256.5126],[1.4372,36.1552,330.4764],[1.4501,36.1526,322.223],[1.4554,36.155,309.2684],[1.4617,36.1644,344.9022],[1.4669,36.169,280.3831],[1.4571,36.1779,254.649],[1.4564,36.1846,256.6674],[1.4465,36.1922,215.612],[1.4473,36.1987,190.7432],[1.4442,36.2041,168.8466],[1.4407,36.2174,124.0992],[1.4443,36.2203,110.4641],[1.4497,36.2179,123.2264],[1.4558,36.219,120.0133],[1.4536,36.2247,121.5004],[1.4564,36.2302,117.3759],[1.4602,36.2263,117.297],[1.4733,36.2326,133.5362],[1.4709,36.2397,207.0841],[1.4698,36.2504,234.265],[1.4671,36.256,301.2298]]]]}}