{"type":"Feature","properties":{"GID_2":"DZA.29.27_1","GID_0":"DZA","country":"Algeria","GID_1":"DZA.29_1","province":"Mila","NL_NAME_1":"ولايةميلة","county":"Teleghma","VARNAME_2":"Telaghma|Talīghmah","NL_NAME_2":"NA","TYPE_2":"Commune","ENGTYPE_2":"Commune","CC_2":"4306","HASC_2":"DZ.ML.TE","name":"Teleghma.county"},
"geometry":{"type": "MultiPolygon","coordinates": [[[[6.2403,36.0962,822.7786],[6.2502,36.0932,810.046],[6.252,36.0882,851.5956],[6.2565,36.0852,801.2423],[6.2992,36.0632,795.4476],[6.31,36.0545,816.9764],[6.3188,36.0275,842.0745],[6.3164,36.0216,847.4033],[6.32,36.0171,855.7396],[6.3248,36.0048,893.2983],[6.3236,35.9829,1102.3274],[6.3312,35.9823,1010.4464],[6.3444,35.976,1023.0439],[6.3601,35.9931,932.5842],[6.3649,35.9964,960.1779],[6.3771,36.0135,926.1516],[6.4059,36.0334,874.8981],[6.4029,36.0432,883.8724],[6.4017,36.0613,1190.8795],[6.4034,36.0683,1129.2983],[6.4111,36.0767,900.6349],[6.4053,36.1021,772.3107],[6.4028,36.1065,766.6556],[6.4026,36.1137,756.5602],[6.4109,36.1299,779.7136],[6.4188,36.1406,845.9595],[6.4005,36.139,790.5594],[6.3818,36.1501,716.5773],[6.3668,36.1531,740.928],[6.3607,36.157,756.9402],[6.3557,36.1634,783.3589],[6.323,36.1637,827.4011],[6.3227,36.1735,865.8719],[6.2923,36.1666,946.6481],[6.2833,36.1591,1034.3997],[6.2758,36.1552,1042.3757],[6.2747,36.1491,1066.5009],[6.2686,36.1396,994.3246],[6.26,36.1339,976.1056],[6.2568,36.1293,947.5731],[6.2458,36.1227,971.5077],[6.2418,36.1175,957.6438],[6.2492,36.1087,850.4965],[6.2513,36.1035,827.0638],[6.2442,36.1009,831.6074],[6.2403,36.0962,822.7786]]]]}}