{"type": "Feature","bbox": [-0.891,34.7409,-0.6951,34.922],"geometry": {"type": "MultiPolygon","coordinates": [[[[-0.7574,34.752,901.0234],[-0.7642,34.7553,890.5453],[-0.7617,34.7503,910.2124],[-0.7574,34.752,901.0234]]],
[[[-0.8792,34.8764,899.668],[-0.8845,34.8724,886.4506],[-0.8716,34.8645,918.9567],[-0.8694,34.8592,953.5015],[-0.8701,34.854,971.2582],[-0.8781,34.8469,1119.2115],[-0.8745,34.8444,1175.3281],[-0.8787,34.8353,1218.0247],[-0.884,34.8295,1231.2629],[-0.8775,34.8209,1050.0327],[-0.8758,34.8141,1013.4002],[-0.876,34.8065,1000.5259],[-0.8866,34.7897,1003.8503],[-0.8905,34.775,1000.8491],[-0.891,34.7633,960.2799],[-0.8892,34.7582,948.6942],[-0.8841,34.7555,958.323],[-0.8848,34.7421,1018.1837],[-0.8702,34.7409,996.4367],[-0.8449,34.7465,957.3959],[-0.8317,34.7451,948.3305],[-0.823,34.7416,940.6478],[-0.8177,34.7414,948.2249],[-0.8131,34.7451,938.441],[-0.8018,34.7438,931.8643],[-0.79,34.7492,896.7098],[-0.7829,34.7493,894.9422],[-0.7774,34.7515,875.0009],[-0.7752,34.7572,874.5145],[-0.7642,34.7553,890.5453],[-0.7663,34.7592,886.728],[-0.7666,34.7648,881.3557],[-0.7598,34.7696,877.1907],[-0.7491,34.7726,889.3138],[-0.7441,34.7697,891.1401],[-0.7384,34.7633,905.1285],[-0.7334,34.7607,921.8451],[-0.7356,34.7672,900.7647],[-0.7191,34.7744,888.0103],[-0.7151,34.7775,875.8851],[-0.7138,34.784,883.8795],[-0.7146,34.7911,876.0524],[-0.7097,34.7951,862.8124],[-0.7047,34.7923,879.8015],[-0.6998,34.7864,883.5042],[-0.6951,34.7885,886.5896],[-0.6951,34.8036,869.2744],[-0.7002,34.8156,854.9318],[-0.7214,34.8341,805.0043],[-0.736,34.8402,786.9862],[-0.7428,34.8526,773.5891],[-0.7406,34.8572,761.3931],[-0.7335,34.8618,763.7077],[-0.7352,34.8684,765.2532],[-0.7301,34.8908,735.6144],[-0.7399,34.8922,746.9245],[-0.7646,34.8922,756.1781],[-0.7829,34.8885,773.2846],[-0.7874,34.8892,785.2926],[-0.8006,34.8986,856.2317],[-0.8054,34.9056,836.8069],[-0.807,34.9124,875.9659],[-0.816,34.9201,971.713],[-0.8433,34.922,806.9445],[-0.8453,34.898,859.3799],[-0.8532,34.8966,838.0323],[-0.8589,34.892,873.0657],[-0.8582,34.8844,956.7358],[-0.868,34.8785,875.9033],[-0.8792,34.8764,899.668]]]]}
,"properties": {"GID_2": "DZA.38.25_1","GID_0": "DZA","country": "Algeria","GID_1": "DZA.38_1","province": "SidiBelAbbès","NL_NAME_1": "ولايةسيديبلعباس","county": "MoulaySlissen","VARNAME_2": "NA","NL_NAME_2": "NA","TYPE_2": "Commune","ENGTYPE_2": "Commune","CC_2": "2218","HASC_2": "DZ.SB.MS","name": "Moulay_Slissen.county","area_km2": 236.9414,"hist_schema_id": "Elevation0-9000","hist_area_km2": {"725": 0.1739,"750": 2.8003,"775": 6.7318,"800": 10.9436,"825": 16.6878,"850": 25.758,"875": 36.3827,"900": 27.3503,"925": 25.141,"950": 23.6078,"975": 15.5613,"1000": 10.4593,"1025": 7.0648,"1050": 5.7078,"1075": 5.2901,"1100": 4.5246,"1125": 3.3587,"1150": 3.1674,"1175": 2.3146,"1200": 1.9318,"1225": 1.1661,"1250": 0.5918,"1275": 0.2263}}}