{"type":"Feature","properties":{"GID_2":"DZA.43.8_1","GID_0":"DZA","country":"Algeria","GID_1":"DZA.43_1","province":"Tiaret","NL_NAME_1":"ولايةتيارت","county":"Dahmouni","VARNAME_2":"NA","NL_NAME_2":"NA","TYPE_2":"Commune","ENGTYPE_2":"Commune","CC_2":"1413","HASC_2":"DZ.TR.DA","name":"Dahmouni.county"},
"geometry":{"type": "MultiPolygon","coordinates": [[[[1.5251999999999999,35.4044,930.283],[1.5086,35.4188,961.0618],[1.504,35.4249,964.9366],[1.5005,35.4411,967.1487],[1.5009,35.4468,956.256],[1.4965,35.4506,914.6954],[1.4982,35.4607,872.5547],[1.4939,35.4647,901.6311],[1.4887,35.4658,871.2444],[1.4747,35.4619,791.3254],[1.4646,35.4629,821.0202],[1.4553,35.4603,883.9708],[1.4431,35.4721,828.2957],[1.4416,35.48,880.2659],[1.4283,35.4871,741.0474],[1.429,35.5048,645.7658],[1.4239,35.5092,621.493],[1.4207,35.5145,617.8517],[1.4033,35.5203,677.5103],[1.3981,35.5248,732.5681],[1.3875,35.5275,769.8379],[1.3756,35.5389,785.3541],[1.3751,35.532,766.3962],[1.3675,35.5257,685.7939],[1.367,35.5033,607.2817],[1.3607,35.5004,656.6792],[1.3519,35.4992,675.5897],[1.3411,35.4931,640.2046],[1.3383,35.4896,622.35],[1.3343,35.4726,680.3446],[1.3355,35.4681,739.7762],[1.3386,35.4619,851.0091],[1.3481,35.4556,819.5605],[1.3557,35.4434,955.371],[1.3555,35.436,950.7436],[1.3638,35.4344,922.0023],[1.3758,35.4394,929.3624],[1.3817,35.4396,938.7818],[1.3873,35.422,1033.0823],[1.3855,35.4164,1034.8921],[1.381,35.4116,1023.9647],[1.3946,35.4012,974.219],[1.405,35.3793,957.2882],[1.3962,35.361,946.7887],[1.4085,35.3591,941.9641],[1.4324,35.3629,945.3643],[1.4448,35.3771,942.4532],[1.451,35.3741,930.8998],[1.4577,35.3751,944.3877],[1.4702,35.3795,928.1852],[1.5017,35.3956,925.1929],[1.5086,35.3969,927.1669],[1.5251999999999999,35.4044,930.283]]]]}}