{"type": "Feature","bbox": [3.4081,35.264,3.6941,35.5877],"geometry": {"type": "MultiPolygon","coordinates": [[[[3.5587,35.5807,710.3816],[3.5133,35.5877,707.4449],[3.508,35.5859,708.7234],[3.4841,35.5672,727.9666],[3.4117,35.5243,749.1749],[3.4081,35.5198,757.8367],[3.4526,35.4322,896.9368],[3.4754,35.3603,957.1452],[3.5388,35.3276,942.4403],[3.5911,35.2694,754.0],[3.5944,35.264,754.0],[3.5981,35.2692,754.0],[3.6134,35.2801,754.0],[3.6668,35.3152,755.2713],[3.6599,35.3507,825.7451],[3.6483,35.3907,915.0698],[3.6877,35.4143,845.358],[3.688,35.4197,815.8698],[3.6823,35.4358,782.786],[3.6896,35.4525,761.5068],[3.6941,35.4841,759.7715],[3.684,35.4952,823.2548],[3.6782,35.5086,820.4583],[3.5587,35.5807,710.3816]]]]}
,"properties": {"GID_2": "DZA.16.3_1","GID_0": "DZA","country": "Algeria","GID_1": "DZA.16_1","province": "Djelfa","NL_NAME_1": "ولايةالجلفة","county": "AinFekka","VARNAME_2": "NA","NL_NAME_2": "NA","TYPE_2": "Commune","ENGTYPE_2": "Commune","CC_2": "1735","HASC_2": "DZ.DJ.AF","name": "Ain_Fekka.county","area_km2": 562.6602,"hist_schema_id": "Elevation0-9000","hist_area_km2": {"700": 14.6763,"725": 57.1357,"750": 67.6004,"775": 63.2818,"800": 78.8443,"825": 65.5196,"850": 51.0868,"875": 44.7715,"900": 32.5791,"925": 21.0196,"950": 13.6911,"975": 11.8593,"1000": 12.3097,"1025": 11.0655,"1050": 7.6939,"1075": 4.9272,"1100": 2.8003999999999998,"1125": 1.7287,"1150": 0.0692}}}