{"type": "Feature","bbox": [2.2707,36.5204,2.3789,36.589],"geometry": {"type": "MultiPolygon","coordinates": [[[[2.2707,36.5837,71.3663],[2.2755,36.5741,117.8033],[2.2762,36.569,157.8558],[2.274,36.5439,241.7919],[2.2714,36.5381,215.3629],[2.2748,36.5261,243.4613],[2.2794,36.523,118.8171],[2.297,36.5226,108.0],[2.3011,36.5246,108.0],[2.3216,36.5204,140.1443],[2.3369,36.5226,135.6176],[2.3719,36.5237,68.4689],[2.3744,36.5307,60.7382],[2.3789,36.5351,56.5963],[2.3755,36.5446,123.8676],[2.3774,36.5503,91.8998],[2.3632,36.5511,107.3499],[2.3698,36.5587,83.7136],[2.3594,36.5668,89.3866],[2.3416,36.5673,124.1432],[2.3296,36.5723,144.3466],[2.324,36.5693,93.242],[2.3073,36.5649,44.5581],[2.3016,36.5678,40.2549],[2.2785,36.587,23.4563],[2.274,36.589,22.9332],[2.2707,36.5837,71.3663]]]]}
,"properties": {"GID_2": "DZA.45.22_1","GID_0": "DZA","country": "Algeria","GID_1": "DZA.45_1","province": "Tipaza","NL_NAME_1": "ولايةتيبازة","county": "SidiAmar","VARNAME_2": "SīdīAmar","NL_NAME_2": "NA","TYPE_2": "Commune","ENGTYPE_2": "Commune","CC_2": "4209","HASC_2": "DZ.TP.SA","name": "Sidi_Amar.county","area_km2": 46.73917,"hist_schema_id": "Elevation0-9000","hist_area_km2": {"25": 1.15778,"50": 3.11656,"75": 3.57693,"100": 7.1538,"125": 8.94228,"150": 7.83559,"175": 5.8427,"200": 4.29274,"225": 2.29972,"250": 0.88578,"275": 0.86876,"300": 0.49399,"325": 0.18737,"350": 0.08516}}}