{"type": "Feature","bbox": [1.5673,36.0992,1.7314,36.2029],"geometry": {"type": "MultiPolygon","coordinates": [[[[1.6264,36.2029,506.5243],[1.6137,36.1991,439.2675],[1.5994,36.1868,252.7453],[1.5833,36.1891,182.6841],[1.5696,36.1842,192.9859],[1.569,36.1786,219.3112],[1.5734,36.1749,274.9211],[1.5783,36.174,343.3088],[1.58,36.17,296.1625],[1.585,36.1667,287.2962],[1.5827,36.1596,273.567],[1.5744,36.1608,244.7834],[1.5673,36.1589,237.0991],[1.5703,36.1532,241.4544],[1.5768,36.1517,255.4741],[1.5719,36.1467,247.7001],[1.5857,36.1348,257.5266],[1.5874,36.1306,292.5282],[1.5847,36.1252,261.2564],[1.5943,36.1248,308.1095],[1.6025,36.1189,313.5305],[1.6153,36.1244,361.317],[1.6242,36.1208,456.9312],[1.6329,36.1247,473.5799],[1.6393,36.1248,481.2346],[1.6356,36.1133,390.0069],[1.6303,36.1043,367.7937],[1.6302,36.0992,322.7422],[1.6409,36.1004,323.6812],[1.6517,36.1083,361.44],[1.6593,36.1091,368.7064],[1.6649,36.1059,397.634],[1.6713,36.1047,412.3195],[1.6934,36.1087,403.2142],[1.698,36.1114,385.9951],[1.707,36.1258,318.5315],[1.7131,36.1302,334.6],[1.7221,36.1635,256.7166],[1.7314,36.1685,246.6301],[1.7201,36.1777,283.5428],[1.7139,36.1802,305.3115],[1.7115,36.1848,317.3108],[1.7113,36.1902,306.8593],[1.6984,36.1931,268.314],[1.6772,36.1941,205.6501],[1.6721,36.1935,200.8512],[1.667,36.1899,197.5318],[1.6384,36.1853,265.395],[1.6264,36.2029,506.5243]]]]}
,"properties": {"GID_2": "DZA.2.35_1","GID_0": "DZA","country": "Algeria","GID_1": "DZA.2_1","province": "AïnDefla","NL_NAME_1": "ولايةعينالدفلى","county": "Tiberkanine","VARNAME_2": "NA","NL_NAME_2": "NA","TYPE_2": "Commune","ENGTYPE_2": "Commune","CC_2": "4435","HASC_2": "DZ.AD.TB","name": "Tiberkanine.county","area_km2": 107.21924,"hist_schema_id": "Elevation0-9000","hist_area_km2": {"175": 0.1369,"200": 2.32728,"225": 6.00704,"250": 15.50698,"275": 17.35677,"300": 16.77592,"325": 11.29923,"350": 9.27983,"375": 7.24316,"400": 6.9009,"425": 5.3602,"450": 4.22997,"475": 2.89416,"500": 1.42137,"525": 0.41102,"550": 0.06852}}}