{"type": "Feature","bbox": [0.9979,33.762,1.3371,34.2061],"geometry": {"type": "MultiPolygon","coordinates": [[[[1.2731,34.2061,1088.448],[1.214,34.2023,1088.1217],[1.1766,34.2019,1104.8384],[1.1398,34.1966,1100.7645],[1.1018,34.1982,1055.9163],[1.0136,34.1932,1032.8496],[1.0196,34.0638,1104.0897],[1.0216,34.0516,1108.7153],[1.0112,34.0099,1131.4159],[1.0102,34.0007,1140.0455],[1.0226,33.9947,1146.4619],[1.0282,33.9897,1148.9431],[1.0311,33.9762,1144.0756],[1.0287,33.9558,1142.7274],[1.0209,33.9162,1164.7296],[1.0046,33.8791,1188.2351],[0.9979,33.8163,1206.9104],[0.9983,33.8099,1208.3086],[1.0032,33.7986,1215.092],[1.013,33.762,1252.2373],[1.0484,33.7946,1271.6747],[1.0842,33.8315,1263.7463],[1.1513,33.9401,1198.797],[1.224,33.9912,1202.7211],[1.2712,34.0217,1185.7412],[1.2963,34.0401,1209.083],[1.3146,34.0509,1170.1703],[1.3371,34.0701,1144.5437],[1.3343,34.0786,1135.3828],[1.3225,34.0864,1134.024],[1.3134,34.0972,1125.7284],[1.312,34.1112,1128.374],[1.306,34.1137,1118.2631],[1.2972,34.1223,1116.2594],[1.291,34.1317,1110.6403],[1.2855,34.1336,1109.0234],[1.2837,34.1469,1105.3716],[1.2792,34.1568,1105.4166],[1.2749,34.1613,1103.0732],[1.2737,34.1712,1099.5109],[1.2697,34.1761,1096.0842],[1.2739,34.1812,1094.9637],[1.2713,34.1849,1092.2855],[1.277,34.1952,1106.2881],[1.276,34.2016,1091.248],[1.2731,34.2061,1088.448]]]]}
,"properties": {"GID_2": "DZA.17.7_1","GID_0": "DZA","country": "Algeria","GID_1": "DZA.17_1","province": "ElBayadh","NL_NAME_1": "ولايةالبيض","county": "Cheguig","VARNAME_2": "NA","NL_NAME_2": "NA","TYPE_2": "Commune","ENGTYPE_2": "Commune","CC_2": "3217","HASC_2": "DZ.EB.CG","name": "Cheguig.county","area_km2": 819.0946,"hist_schema_id": "Elevation0-9000","hist_area_km2": {"1025": 4.823,"1050": 10.2251,"1075": 85.0864,"1100": 126.3295,"1125": 104.3561,"1150": 153.1293,"1175": 170.5001,"1200": 92.6481,"1225": 42.1241,"1250": 24.7814,"1275": 5.0915}}}