{"type": "Feature","bbox": [-1.2596,34.7364,-1.0514,34.9028],"geometry": {"type": "MultiPolygon","coordinates": [[[[-1.2489,34.8265,1383.635],[-1.253,34.824,1382.7743],[-1.2596,34.8156,1506.5604],[-1.257,34.8071,1460.3186],[-1.2473,34.7886,1124.4763],[-1.2414,34.768,1409.2367],[-1.2368,34.7587,1302.8795],[-1.2295,34.7548,1126.7853],[-1.2123,34.7364,1435.8604],[-1.2016,34.7466,1480.2212],[-1.181,34.7579,1423.0906],[-1.1712,34.7684,1416.4167],[-1.1734,34.7801,1522.0867],[-1.1549,34.7988,1335.218],[-1.1469,34.8093,1352.994],[-1.1418,34.8091,1246.8798],[-1.1378,34.8055,1354.1365],[-1.1145,34.8142,1299.6375],[-1.1145,34.8259,1093.3984],[-1.1016,34.836,1021.0337],[-1.0829,34.8556,1151.5698],[-1.0662,34.8673,1188.5968],[-1.056,34.8725,1020.8901],[-1.0514,34.8825,847.8931],[-1.0563,34.8872,818.7476],[-1.0594,34.8934,737.668],[-1.0636,34.8933,734.6193],[-1.0859,34.8824,742.1249],[-1.0956,34.8809,727.6432],[-1.0941,34.8853,713.2789],[-1.0994,34.9028,663.6936],[-1.1036,34.8972,669.6487],[-1.1144,34.8951,681.7509],[-1.1196,34.8915,668.6251],[-1.1319,34.8916,703.1494],[-1.1535,34.8795,771.1323],[-1.1608,34.8799,798.818],[-1.163,34.8673,770.868],[-1.1686,34.8643,789.9338],[-1.1743,34.8586,829.3326],[-1.1776,34.852,924.0218],[-1.1901,34.837,1010.8069],[-1.2011,34.8325,1169.8397],[-1.2194,34.8282,1352.3512],[-1.2302,34.8313,1373.1721],[-1.2406,34.8274,1393.5439],[-1.2489,34.8265,1383.635]]]]}
,"properties": {"GID_2": "DZA.48.37_1","GID_0": "DZA","country": "Algeria","GID_1": "DZA.48_1","province": "Tlemcen","NL_NAME_1": "تلمسان","county": "OuedChouly","VARNAME_2": "NA","NL_NAME_2": "NA","TYPE_2": "Commune","ENGTYPE_2": "Commune","CC_2": "1311","HASC_2": "DZ.TL.OC","name": "Oued_Chouly.county","area_km2": 135.0282,"hist_schema_id": "Elevation0-9000","hist_area_km2": {"650": 0.0522,"675": 1.6347,"700": 3.7045,"725": 4.1919,"750": 5.4793,"775": 5.8276,"800": 4.5927,"825": 4.5059,"850": 3.8972,"875": 3.358,"900": 3.5496,"925": 3.1322,"950": 2.7495,"975": 3.0804,"1000": 3.4981,"1025": 3.8987,"1050": 4.0555,"1075": 4.1602,"1100": 4.8742,"1125": 4.596,"1150": 5.0136,"1175": 4.7352,"1200": 4.6307,"1225": 4.4394,"1250": 4.1261,"1275": 4.3526,"1300": 3.7607,"1325": 3.4995,"1350": 3.848,"1375": 3.935,"1400": 3.6563,"1425": 3.7261,"1450": 2.5599,"1475": 2.4555,"1500": 2.1944,"1525": 1.5849,"1550": 0.8187,"1575": 0.54,"1600": 0.3135}}}