{"type":"Feature","properties":{"GID_2":"DZA.7.3_1","GID_0":"DZA","country":"Algeria","GID_1":"DZA.7_1","province":"Béchar","NL_NAME_1":"ولايةبشار","county":"BeniAbbes","VARNAME_2":"NA","NL_NAME_2":"NA","TYPE_2":"Commune","ENGTYPE_2":"Commune","CC_2":"807","HASC_2":"DZ.BC.BA","name":"Beni_Abbes.county"},
"geometry":{"type": "MultiPolygon","coordinates": [[[[-1.3159,30.8039,678.6718],[-1.5862,30.8181,708.7257],[-1.9031,30.5734,573.2438],[-1.9887,30.4917,608.8583],[-2.0197,30.4559,630.8317],[-2.1492,30.3346,544.1605],[-2.3213,30.2289,527.928],[-2.8341,30.1724,683.6874],[-3.0661,30.1608,616.6791],[-3.0875,30.1617,622.1245],[-3.0944,30.1588,626.2158],[-3.1068,30.1489,632.5963],[-3.13,30.1397,641.7239],[-3.1426,30.1403,646.3215],[-3.1809,30.152,666.3738],[-3.2242,30.1561,768.9611],[-2.9996,30.0352,607.5908],[-2.9982,30.0308,613.4611],[-2.9996,30.0074,632.4039],[-3.021,29.7644,594.2672],[-2.8326,29.5342,640.5925],[-2.7876,29.3783,518.058],[-2.7838,29.375,515.1662],[-2.7587,29.3644,558.9459],[-2.734,29.3565,634.2142],[-2.7049,29.3564,702.7931],[-2.6992,29.3535,628.7266],[-2.6874,29.3585,674.1929],[-2.6733,29.3598,666.9125],[-2.6425,29.3683,653.1726],[-2.6318,29.3692,596.5696],[-2.6261,29.3731,619.6019],[-2.6238,29.38,638.2078],[-2.6145,29.3829,631.8851],[-2.6011,29.3818,534.2017],[-2.5962,29.3839,539.2426],[-2.5792,29.3835,611.1599],[-2.5648,29.3765,642.0752],[-2.2963,29.3621,541.9446],[-2.0971,29.4084,601.8066],[-2.1258,29.594,548.2532],[-2.1211,30.0017,497.4182],[-2.1193,30.0058,544.452],[-1.9897,30.1584,533.3997],[-1.621,30.5138,624.7711],[-1.3159,30.8039,678.6718]]]]}}