{"type": "Feature","bbox": [1.7965,36.2526,1.9331,36.4333],"geometry": {"type": "MultiPolygon","coordinates": [[[[1.8119,36.2558,182.5219],[1.8186,36.2526,182.598],[1.842,36.2562,186.8937],[1.8464,36.2601,194.3566],[1.8476,36.2683,192.2849],[1.8523,36.2723,195.2542],[1.8645,36.2728,197.874],[1.879,36.2689,201.801],[1.8895,36.2702,202.0136],[1.9018,36.2768,214.1978],[1.9005,36.2858,226.3208],[1.8921,36.2833,205.8057],[1.8908,36.296,211.1334],[1.8958,36.2973,212.4077],[1.9082,36.3147,243.1035],[1.9121,36.3332,284.6718],[1.9094,36.3376,410.3127],[1.9129,36.3425,315.7444],[1.9298,36.3508,391.3588],[1.9318,36.3577,425.8993],[1.9258,36.3691,453.7893],[1.9241,36.3811,503.3155],[1.9256,36.3853,500.5106],[1.9331,36.3935,497.3226],[1.925,36.4075,645.4247],[1.9234,36.4132,796.053],[1.915,36.424,821.3764],[1.9126,36.4303,923.0251],[1.9075,36.4323,995.1478],[1.8934,36.4302,964.9203],[1.8592,36.4333,915.8257],[1.8484,36.4317,990.6067],[1.8222,36.4313,821.6255],[1.8189,36.4284,775.2983],[1.814,36.4276,740.0532],[1.8151,36.4216,707.8939],[1.8124,36.4178,648.5769],[1.811,36.4117,626.0907],[1.8136,36.3998,548.3647],[1.8122,36.3941,523.5659],[1.8022,36.3829,537.8],[1.8031,36.3721,453.2246],[1.8005,36.3623,445.0124],[1.8002,36.3497,453.8413],[1.8022,36.3339,384.6218],[1.8007,36.3288,297.7953],[1.8096,36.3206,253.2098],[1.811,36.3142,247.0266],[1.8137,36.3105,245.124],[1.8109,36.3054,237.752],[1.7974,36.2948,318.4297],[1.7965,36.29,276.5273],[1.7987,36.284,232.2911],[1.8068,36.2783,209.2232],[1.8119,36.2558,182.5219]]]]}
,"properties": {"GID_2": "DZA.2.20_1","GID_0": "DZA","country": "Algeria","GID_1": "DZA.2_1","province": "AïnDefla","NL_NAME_1": "ولايةعينالدفلى","county": "ElAmra","VARNAME_2": "al-Amrah","NL_NAME_2": "NA","TYPE_2": "Commune","ENGTYPE_2": "Commune","CC_2": "4408","HASC_2": "DZ.AD.ER","name": "El_Amra.county","area_km2": 180.3419,"hist_schema_id": "Elevation0-9000","hist_area_km2": {"175": 1.419,"200": 17.7423,"225": 13.2613,"250": 7.0909,"275": 4.3567,"300": 3.6389,"325": 3.4165,"350": 3.3822,"375": 3.57,"400": 4.1164,"425": 3.3474,"450": 3.296,"475": 3.2445,"500": 4.0299,"525": 4.6102,"550": 4.7637,"575": 5.7538,"600": 5.5999,"625": 6.9652,"650": 7.2041,"675": 7.5792,"700": 7.8179,"725": 6.9642,"750": 7.4761,"775": 6.5029,"800": 5.6324,"825": 5.6662,"850": 5.5294,"875": 4.7273,"900": 3.8567,"925": 2.7132,"950": 1.6893,"975": 1.4503,"1000": 1.0578,"1025": 0.6313,"1050": 0.1536,"1075": 0.0853}}}