{"type": "Feature","bbox": [4.9439,34.4885,5.3108,34.749],"geometry": {"type": "MultiPolygon","coordinates": [[[[4.9496,34.514,271.766],[4.9744,34.5105,254.7512],[5.0106,34.5152,244.8118],[5.0549,34.5037,229.719],[5.1033,34.5118,218.1172],[5.1191,34.5106,206.7676],[5.1426,34.5078,200.3729],[5.2349,34.4919,144.0267],[5.2407,34.4885,141.8722],[5.2778,34.4995,138.8481],[5.2935,34.5102,129.6444],[5.2767,34.5404,156.947],[5.3108,34.5859,121.8362],[5.2876,34.6042,129.9354],[5.2697,34.6382,134.4161],[5.2579,34.6544,140.3804],[5.2424,34.6662,153.088],[5.2314,34.6726,154.0611],[5.2218,34.6749,155.7381],[5.2138,34.6806,160.6311],[5.2144,34.6849,162.1561],[5.2122,34.69,165.9212],[5.2058,34.6975,171.8797],[5.207,34.7017,175.9608],[5.201,34.7134,184.073],[5.183,34.7353,203.758],[5.1772,34.7403,213.0191],[5.1207,34.749,224.1902],[5.1145,34.719,206.8533],[5.11,34.7184,209.5546],[5.0787,34.7252,227.26],[5.0723,34.7075,222.1241],[5.0593,34.6862,214.7493],[5.0581,34.68,215.2438],[5.049,34.6731,218.6839],[5.0361,34.668,221.2567],[4.9956,34.6384,218.5795],[4.9706,34.6404,229.463],[4.9651,34.6356,230.5859],[4.9562,34.6223,244.9704],[4.9439,34.5941,280.5806],[4.9454,34.5815,267.1409],[4.9644,34.5681,237.0901],[4.9677,34.5612,233.3554],[4.9676,34.5562,231.152],[4.9595,34.5531,234.7984],[4.9584,34.5401,234.0947],[4.9508,34.5211,257.8735],[4.9496,34.514,271.766]]]]}
,"properties": {"GID_2": "DZA.9.10_1","GID_0": "DZA","country": "Algeria","GID_1": "DZA.9_1","province": "Biskra","NL_NAME_1": "ولايةبسكرة","county": "Daoussen","VARNAME_2": "Doucen","NL_NAME_2": "NA","TYPE_2": "Commune","ENGTYPE_2": "Commune","CC_2": "709","HASC_2": "DZ.BS.DA","name": "Daoussen.county","area_km2": 622.0133,"hist_schema_id": "Elevation0-9000","hist_area_km2": {"125": 28.6454,"150": 122.2923,"175": 180.8459,"200": 174.1489,"225": 88.1773,"250": 24.2205,"275": 3.683}}}