{"type": "Feature","bbox": [4.4652,36.6331,4.603,36.7153],"geometry": {"type": "MultiPolygon","coordinates": [[[[4.5192,36.7153,1264.0122],[4.5084,36.7115,1272.9707],[4.5045,36.7082,1203.9138],[4.5021,36.7034,1139.7708],[4.5036,36.6982,1108.7927],[4.4997,36.6965,1179.8438],[4.4933,36.6978,1211.139],[4.4692,36.6892,998.4485],[4.4685,36.683,996.6225],[4.4736,36.6785,855.1067],[4.4713,36.6726,720.2427],[4.471,36.6635,523.2522],[4.4652,36.659,474.7373],[4.4704,36.6476,773.6719],[4.4924,36.647,1015.2527],[4.5022,36.6381,1136.7854],[4.5109,36.6331,1233.6704],[4.5283,36.6347,1232.9819],[4.5467,36.6336,1280.2731],[4.564,36.6385,1490.2069],[4.5687,36.6432,1422.0247],[4.5749,36.6543,1365.1165],[4.5791,36.6576,1326.3838],[4.5905,36.6597,1180.361],[4.5971,36.6625,1311.9103],[4.601,36.6663,1366.8297],[4.603,36.6711,1348.056],[4.5999,36.6874,1394.2751],[4.5814,36.6918,1236.8464],[4.5698,36.698,1210.7102],[4.5436,36.7054,1152.54],[4.5333,36.7108,1101.4677],[4.5192,36.7153,1264.0122]]]]}
,"properties": {"GID_2": "DZA.47.36_1","GID_0": "DZA","country": "Algeria","GID_1": "DZA.47_1","province": "TiziOuzou","NL_NAME_1": "ولايةغليزان","county": "Idjeur","VARNAME_2": "NA","NL_NAME_2": "NA","TYPE_2": "Commune","ENGTYPE_2": "Commune","CC_2": "1549","HASC_2": "DZ.TO.ID","name": "Idjeur.county","area_km2": 74.53589,"hist_schema_id": "Elevation0-9000","hist_area_km2": {"500": 0.10205,"525": 0.27213,"550": 0.27213,"575": 0.4422,"600": 0.51024,"625": 0.62929,"650": 1.19053,"675": 1.27555,"700": 1.41159,"725": 1.59867,"750": 1.5986,"775": 1.39454,"800": 1.54756,"825": 1.63256,"850": 1.78562,"875": 2.07466,"900": 2.49976,"925": 2.87379,"950": 2.94164,"975": 3.41785,"1000": 3.04365,"1025": 3.16278,"1050": 3.04381,"1075": 3.31583,"1100": 3.92805,"1125": 4.14917,"1150": 4.16636,"1175": 3.02699,"1200": 2.90798,"1225": 2.15962,"1250": 1.93859,"1275": 1.70063,"1300": 1.49666,"1325": 1.24155,"1350": 1.29259,"1375": 1.10552,"1400": 0.96955,"1425": 0.66342,"1450": 0.52735,"1475": 0.49333,"1500": 0.40826,"1525": 0.28919,"1550": 0.03402}}}