{"type": "Feature","bbox": [5.4255,36.5192,6.5105,36.94],"geometry": {"type": "MultiPolygon","coordinates": [[[[5.7122,36.5415,1425.8608],[5.7183,36.5451,1419.6138],[5.7304,36.5489,1458.5566],[5.7406,36.56,1540.6383],[5.7485,36.5596,1525.8101],[5.7547,36.562,1524.6447],[5.7584,36.5678,1565.7738],[5.7629,36.5701,1458.1487],[5.7769,36.5704,1264.365],[5.7832,36.5685,1181.6584],[5.7959,36.568,1027.4076],[5.8078,36.5636,1023.7288],[5.8212,36.555,972.1674],[5.8326,36.5513,919.0769],[5.838,36.5474,938.4565],[5.8404,36.5428,833.2914],[5.8578,36.5403,859.6881],[5.8643,36.5511,1160.2559],[5.8686,36.5544,1158.1948],[5.8868,36.5537,1330.6688],[5.8968,36.557,1252.0234],[5.9125,36.5573,1209.7675],[5.9189,36.5572,1184.187],[5.9242,36.5545,1220.8732],[5.9304,36.5564,1176.2968],[5.9357,36.5634,927.032],[5.9464,36.569,929.0836],[5.9536,36.5788,1232.9619],[5.9627,36.5856,1347.4966],[5.9573,36.5907,1312.9268],[5.958,36.6029,1234.3114],[5.9643,36.6069,1141.304],[5.9757,36.6102,871.3917],[5.9788,36.6133,783.2901],[5.993,36.6176,507.4469],[5.9979,36.6146,642.1716],[6.0054,36.6163,772.4127],[6.0316,36.6082,1165.8242],[6.0359,36.6119,1074.9395],[6.0539,36.6142,1021.2587],[6.0657,36.602,732.0303],[6.1233,36.601,534.2595],[6.1295,36.6024,508.2469],[6.1296,36.5966,636.9379],[6.1323,36.5922,679.2554],[6.1369,36.5904,744.7772],[6.1484,36.5899,1077.7756],[6.1615,36.5847,1123.1858],[6.1706,36.5833,1070.1362],[6.1754,36.5827,1022.8615],[6.181,36.5851,944.2686],[6.1892,36.5857,1020.6606],[6.206,36.5809,1215.8068],[6.2247,36.5792,1123.4017],[6.2417,36.5818,839.8204],[6.2449,36.5865,774.6074],[6.2467,36.5935,673.0309],[6.2457,36.601,537.9919],[6.2518,36.6021,519.8386],[6.2593,36.611,266.3278],[6.2825,36.6159,127.7766],[6.2858,36.6203,267.5504],[6.2917,36.6209,306.9781],[6.298,36.617,386.5297],[6.3121,36.6182,563.2201],[6.3151,36.6232,391.2897],[6.3276,36.6219,676.1618],[6.3335,36.6143,674.4418],[6.3341,36.6019,983.7271],[6.3401,36.5974,1300.3138],[6.368,36.5953,1217.7867],[6.3868,36.5907,1120.5442],[6.4039,36.5903,1260.642],[6.4097,36.5884,1226.6759],[6.4207,36.5777,1049.2828],[6.4322,36.5731,1204.7444],[6.4381,36.5712,1194.7401],[6.4517,36.5737,1145.6115],[6.4574,36.5711,1179.5024],[6.463,36.5741,1130.157],[6.4598,36.5798,1089.3579],[6.459,36.5925,970.059],[6.4602,36.5984,1064.5211],[6.4658,36.6014,904.0327],[6.4738,36.6164,553.9664],[6.4701,36.6218,497.3016],[6.457,36.6256,440.9226],[6.4571,36.6313,584.2335],[6.477,36.6393,998.434],[6.4912,36.6373,1141.8002],[6.4973,36.6389,1035.5042],[6.5002,36.6437,916.417],[6.5044,36.6451,854.7693],[6.5021,36.6547,816.2272],[6.5105,36.6661,631.795],[6.506,36.6708,795.0607],[6.5036,36.6762,788.3727],[6.4876,36.6895,641.8187],[6.473,36.6912,610.9156],[6.4598,36.6905,456.9062],[6.4449,36.6931,640.1882],[6.4379,36.6966,615.8719],[6.4228,36.6957,465.7078],[6.4141,36.6976,464.5345],[6.4101,36.7012,469.4565],[6.4098,36.7079,337.6403],[6.4058,36.7111,306.2262],[6.4039,36.716,216.8581],[6.3971,36.7248,130.2536],[6.3709,36.7272,110.059],[6.3669,36.7365,105.945],[6.368,36.7408,102.1964],[6.3732,36.7458,95.8428],[6.3715,36.7513,81.8028],[6.3676,36.7554,94.1021],[6.3673,36.7623,73.5],[6.37,36.7672,78.8675],[6.3603,36.7741,90.6509],[6.3531,36.7818,73.5],[6.3513,36.7878,73.5],[6.3454,36.7924,74.1664],[6.3418,36.7989,76.9234],[6.3493,36.8068,73.5],[6.3515,36.8111,73.5],[6.3497,36.8235,73.5],[6.3462,36.8272,92.7748],[6.3446,36.8323,112.1756],[6.3486,36.8423,216.3881],[6.3414,36.8548,467.3919],[6.334,36.8571,348.3667],[6.3284,36.8559,290.6405],[6.3247,36.86,325.7042],[6.3134,36.865,373.135],[6.2673,36.8714,505.9551],[6.2694,36.8841,381.7418],[6.2745,36.8872,372.1183],[6.2771,36.8914,325.6793],[6.2809,36.9147,7.0407],[6.2797,36.9207,19.6394],[6.2745,36.9243,74.9464],[6.2714,36.9306,194.0118],[6.2702,36.94,250.0768],[6.264,36.9377,154.4871],[6.2602,36.9398,117.7519],[6.2556,36.9388,0.4231],[6.2497,36.929,0.0],[6.2381,36.9203,5.2675],[6.2072,36.9069,6.4232],[6.1932,36.9028,3.0367],[6.1868,36.9035,34.5376],[6.1772,36.8993,9.7142],[6.1473,36.895,25.3617],[6.1431,36.8909,1.2771],[6.0998,36.8768,2.7073],[6.0899,36.8715,1.2892],[6.0417,36.8532,5.1467],[6.0059,36.8421,1.4389],[5.9983,36.8376,18.0776],[5.989,36.8379,2.1632],[5.9487,36.8297,1.6855],[5.945,36.826,10.5373],[5.9396,36.8276,0.4647],[5.9028,36.8198,7.8441],[5.898,36.822,0.1942],[5.8949,36.8176,2.7594],[5.8921,36.821,2.7735],[5.8879,36.8185,1.8613],[5.8795,36.819,2.6708],[5.8555,36.8123,0.9041],[5.8168,36.8066,1.9419],[5.7968,36.8064,2.8549],[5.7786,36.8125,0.0],[5.7751,36.8177,0.3993],[5.7735,36.8258,1.0329],[5.7678,36.8281,0.0],[5.7564,36.8248,0.0],[5.7439,36.8282,7.8695],[5.737,36.8272,2.6705],[5.7376,36.8207,0.0],[5.7307,36.8194,1.1795],[5.7279,36.8232,0.9532],[5.7211,36.8231,0.4232],[5.713,36.8205,0.0],[5.707,36.8206,0.0],[5.7016,36.8165,8.1355],[5.6897,36.8175,8.2122],[5.6924,36.8114,0.0],[5.6806,36.8074,10.3423],[5.6788,36.7996,6.9009],[5.675,36.7973,1.305],[5.6634,36.7962,3.3696],[5.6592,36.7995,3.5025],[5.6537,36.7907,10.704],[5.6389,36.7818,2.7754],[5.6239,36.7775,0.0],[5.6086,36.7767,2.362],[5.6022,36.7768,24.31],[5.5963,36.7802,2.2978],[5.5898,36.7716,0.0],[5.5816,36.7662,0.0],[5.572,36.7647,2.2245],[5.5665,36.752,0.0],[5.5578,36.7464,7.3799],[5.5533,36.7397,0.0],[5.5515,36.7322,12.4576],[5.556,36.724,4.0756],[5.5553,36.7187,9.2029],[5.5493,36.7106,21.0851],[5.5413,36.7105,75.9859],[5.5392,36.7029,0.0],[5.5279,36.7016,26.5202],[5.5268,36.6952,13.9204],[5.5195,36.6906,0.0],[5.509,36.6873,6.6192],[5.5061,36.6823,15.9446],[5.5017,36.6794,4.3593],[5.4854,36.6742,0.0],[5.4786,36.6767,1.1198],[5.4765,36.6693,0.0],[5.4657,36.6651,8.8174],[5.4458,36.6625,0.0],[5.4412,36.6638,0.0],[5.438,36.667,15.9351],[5.4339,36.6641,6.1805],[5.4343,36.6576,0.0],[5.428,36.6536,42.8566],[5.4267,36.6456,284.582],[5.4376,36.6456,57.2748],[5.441,36.6425,250.9217],[5.4398,36.6378,189.4506],[5.4269,36.6227,464.6594],[5.4255,36.6185,485.0563],[5.4274,36.6038,1057.3135],[5.4423,36.6033,1159.1379],[5.4526,36.6073,1246.4465],[5.4596,36.6062,1035.7379],[5.4659,36.6021,861.9097],[5.4726,36.5947,1148.9963],[5.4902,36.5919,998.8253],[5.4998,36.5955,892.0239],[5.5074,36.5961,770.9836],[5.5087,36.5843,924.3852],[5.5109,36.5805,1012.2264],[5.5155,36.5774,1100.7869],[5.5175,36.5733,1049.8115],[5.5143,36.5689,962.9233],[5.5181,36.5566,1175.8867],[5.5142,36.5522,1172.4978],[5.5157,36.5463,1002.9225],[5.5106,36.5365,888.5784],[5.5171,36.5276,972.8302],[5.5251,36.5231,1113.2002],[5.5518,36.5206,815.4611],[5.5585,36.5218,718.2687],[5.5709,36.5192,863.3215],[5.5735,36.5257,714.0204],[5.5882,36.532,770.6821],[5.5916,36.5353,746.9255],[5.5931,36.5421,786.912],[5.6073,36.5421,893.1907],[5.6201,36.554,1311.3151],[5.6232,36.5492,1286.9207],[5.6294,36.5464,1365.0497],[5.6418,36.5456,1408.3981],[5.6447,36.5421,1258.5515],[5.6445,36.5355,1332.1941],[5.6559,36.5262,1638.8281],[5.6617,36.5285,1651.964],[5.6796,36.5272,1508.8605],[5.705,36.537,1424.0203],[5.7122,36.5415,1425.8608]]]]}
,"properties": {"GID_1": "DZA.23_1","GID_0": "DZA","country": "Algeria","province": "Jijel","VARNAME_1": "Djidjel|Djidjelli","NL_NAME_1": "ولايةجيجل","TYPE_1": "Wilaya","ENGTYPE_1": "Province","CC_1": "18","HASC_1": "DZ.JJ","ISO_1": "DZ-18","name": "Jijel.province","area_km2": 2396.758,"hist_schema_id": "Elevation0-9000","hist_area_km2": {"0": 63.589,"25": 107.31,"50": 83.603,"75": 81.839,"100": 71.14,"125": 67.292,"150": 67.96,"175": 67.453,"200": 66.728,"225": 69.622,"250": 67.606,"275": 65.335,"300": 65.475,"325": 62.811,"350": 63.038,"375": 62.172,"400": 58.965,"425": 57.404,"450": 57.235,"475": 56.766,"500": 54.064,"525": 52.472,"550": 48.275,"575": 49.945,"600": 46.09,"625": 47.248,"650": 44.597,"675": 57.266,"700": 48.454,"725": 47.109,"750": 43.387,"775": 42.384,"800": 39.953,"825": 38.474,"850": 35.498,"875": 33.592,"900": 30.802,"925": 29.798,"950": 26.871,"975": 25.527,"1000": 24.267,"1025": 21.936,"1050": 20.047,"1075": 16.746,"1100": 15.47,"1125": 14.194,"1150": 12.374,"1175": 11.165,"1200": 9.378,"1225": 8.731,"1250": 7.336,"1275": 5.123,"1300": 5.056,"1325": 3.984,"1350": 3.303,"1375": 2.417,"1400": 2.332,"1425": 2.094,"1450": 1.413,"1475": 1.175,"1500": 1.039,"1525": 0.647,"1550": 0.647,"1575": 0.307,"1600": 0.187,"1625": 0.085,"1650": 0.119,"1675": 0.034}}}