{"type": "Feature","bbox": [-0.8847,34.9201,-0.7669,34.9894],"geometry": {"type": "MultiPolygon","coordinates": [[[[-0.8584,34.9652,678.4573],[-0.8681,34.9607,686.2904],[-0.8709,34.9544,693.6742],[-0.8833,34.9409,712.7814],[-0.8847,34.9338,726.3438],[-0.8803,34.9284,733.8781],[-0.8675,34.9234,745.8876],[-0.816,34.9201,971.713],[-0.8073,34.9209,955.8777],[-0.7971,34.9248,1002.6426],[-0.7901,34.9326,969.291],[-0.7879,34.9469,789.5666],[-0.7819,34.9504,727.3031],[-0.7744,34.9613,684.5324],[-0.7669,34.9789,642.0289],[-0.7803,34.9771,650.6072],[-0.7994,34.9773,647.9418],[-0.8045,34.9793,645.4493],[-0.8058,34.9851,641.0424],[-0.8098,34.9894,647.2161],[-0.8584,34.9652,678.4573]]]]}
,"properties": {"GID_2": "DZA.38.14_1","GID_0": "DZA","country": "Algeria","GID_1": "DZA.38_1","province": "SidiBelAbbès","NL_NAME_1": "ولايةسيديبلعباس","county": "ChetouaneBelaila","VARNAME_2": "NA","NL_NAME_2": "NA","TYPE_2": "Commune","ENGTYPE_2": "Commune","CC_2": "2247","HASC_2": "DZ.SB.CB","name": "Chetouane_Belaila.county","area_km2": 50.83168,"hist_schema_id": "Elevation0-9000","hist_area_km2": {"650": 6.32371,"675": 9.71275,"700": 9.62728,"725": 8.86376,"750": 4.93619,"775": 2.20741,"800": 1.21673,"825": 1.21675,"850": 1.26892,"875": 1.00819,"900": 0.90391,"925": 0.85176,"950": 0.817,"975": 0.7996,"1000": 0.76484,"1025": 0.3129}}}