{"type":"Feature","properties":{"GID_2":"DZA.3.20_1","GID_0":"DZA","country":"Algeria","GID_1":"DZA.3_1","province":"AïnTémouchent","NL_NAME_1":"ولايةعينتموشنت","county":"OuledBoudjemaa","VARNAME_2":"NA","NL_NAME_2":"NA","TYPE_2":"Commune-Cotiere","ENGTYPE_2":"Commune-Cotiere","CC_2":"4617","HASC_2":"DZ.AT.OJ","name":"Ouled_Boudjemaa.county"},
"geometry":{"type": "MultiPolygon","coordinates": [[[[-1.1348,35.4478,29.9285],[-1.1273,35.4479,33.2855],[-1.1118,35.4595,159.576],[-1.1092,35.4638,190.0048],[-1.1057,35.4844,124.1924],[-1.0831,35.4892,176.923],[-1.077,35.4877,198.5432],[-1.0777,35.4968,196.927],[-1.092,35.5082,218.3351],[-1.1104,35.5185,219.9278],[-1.1293,35.5172,213.5893],[-1.1334,35.5193,182.7455],[-1.1452,35.5138,135.7623],[-1.1569,35.5155,220.25],[-1.1587,35.511,212.286],[-1.163,35.5092,198.9048],[-1.1735,35.5124,186.4432],[-1.1802,35.5113,192.3957],[-1.2019,35.5018,82.3351],[-1.2191,35.4967,112.6076],[-1.2247,35.4858,1.9222],[-1.2372,35.4422,10.7573],[-1.2185,35.444,5.9549],[-1.2132,35.4402,5.9943],[-1.2053,35.4386,8.2096],[-1.1914,35.4399,12.1068],[-1.185,35.4429,13.9779],[-1.18,35.4411,15.4704],[-1.1579,35.4505,23.8566],[-1.1522,35.4497,25.3739],[-1.1471,35.4461,29.3057],[-1.1348,35.4478,29.9285]]],
[[[-1.1311,35.7199,1.2789],[-1.1293,35.7262,22.0556],[-1.1339,35.7253,0.0],[-1.1363,35.7208,0.0],[-1.1311,35.7199,1.2789]]]]}}