{"type": "Feature","bbox": [2.1957,36.2733,2.2746,36.3486],"geometry": {"type": "MultiPolygon","coordinates": [[[[2.2268,36.3486,1290.4097],[2.2039,36.3368,1356.4304],[2.2004,36.3333,1385.1102],[2.2028,36.3285,1265.4434],[2.1988,36.3238,1196.9606],[2.1957,36.3057,786.8787],[2.2101,36.2914,450.3585],[2.2087,36.2848,414.1829],[2.2029,36.2787,431.8766],[2.2073,36.2764,492.2445],[2.211,36.2798,479.4644],[2.2205,36.2843,428.4695],[2.2314,36.2834,553.6414],[2.2351,36.2806,545.4673],[2.2404,36.2797,489.3054],[2.2496,36.2733,345.0851],[2.2562,36.2794,371.4147],[2.2691,36.286,498.1639],[2.2709,36.2952,595.042],[2.2741,36.302,506.0849],[2.2746,36.3147,535.665],[2.2549,36.3217,781.7394],[2.2494,36.3277,1102.4609],[2.2454,36.3392,1290.6488],[2.2473,36.3454,1178.5262],[2.243,36.3477,1214.3459],[2.2268,36.3486,1290.4097]]]]}
,"properties": {"GID_2": "DZA.2.28_1","GID_0": "DZA","country": "Algeria","GID_1": "DZA.2_1","province": "AïnDefla","NL_NAME_1": "ولايةعينالدفلى","county": "Miliana","VARNAME_2": "Milyānah","NL_NAME_2": "NA","TYPE_2": "Commune","ENGTYPE_2": "Commune","CC_2": "4402","HASC_2": "DZ.AD.MI","name": "Miliana.county","area_km2": 39.03967,"hist_schema_id": "Elevation0-9000","hist_area_km2": {"350": 0.06837,"375": 0.18801,"400": 0.25637,"425": 0.95709,"450": 1.60647,"475": 1.70895,"500": 1.52089,"525": 1.79426,"550": 1.96512,"575": 2.20433,"600": 1.98223,"625": 1.69167,"650": 1.0423,"675": 0.93976,"700": 1.02519,"725": 1.16183,"750": 1.21306,"775": 0.88842,"800": 0.63214,"825": 0.49546,"850": 0.52962,"875": 0.49544,"900": 0.39294,"925": 0.44418,"950": 0.35876,"975": 0.29042,"1000": 0.35875,"1025": 0.32458,"1050": 0.44416,"1075": 0.37582,"1100": 0.35873,"1125": 0.37582,"1150": 0.46122,"1175": 0.51244,"1200": 0.46118,"1225": 0.81988,"1250": 0.59782,"1275": 1.0248,"1300": 1.69089,"1325": 1.52008,"1350": 0.85401,"1375": 0.6149,"1400": 0.59782,"1425": 0.58074,"1450": 0.42701,"1475": 0.30745,"1500": 0.30745,"1525": 0.0854,"1550": 0.0854}}}