{"type": "Feature","bbox": [2.7868,36.1429,2.8952,36.2406],"geometry": {"type": "MultiPolygon","coordinates": [[[[2.888,36.2026,1180.7233],[2.881,36.2231,1083.1675],[2.8772,36.2274,1061.749],[2.8764,36.2326,1024.0952],[2.8732,36.237,1069.559],[2.8605,36.2406,995.8602],[2.8545,36.2402,965.9365],[2.8461,36.2359,912.9011],[2.8399,36.2266,882.0019],[2.8322,36.2259,795.5056],[2.8184,36.23,761.0635],[2.8114,36.2302,730.0906],[2.8116,36.2243,822.7162],[2.809,36.2205,893.753],[2.8002,36.2168,833.161],[2.7971,36.2125,787.347],[2.8068,36.1986,839.5722],[2.8136,36.1955,876.5637],[2.8249,36.1857,1066.7394],[2.8211,36.1827,1068.5021],[2.8157,36.1814,1097.6748],[2.8131,36.1758,1034.9417],[2.7992,36.1654,808.0035],[2.7928,36.1624,754.2922],[2.788,36.153,695.7803],[2.7868,36.147,652.6856],[2.8045,36.1429,699.9717],[2.8189,36.1429,690.371],[2.8328,36.1522,759.2106],[2.8428,36.1635,820.8767],[2.8634,36.1665,895.0185],[2.8699,36.1658,925.8695],[2.875,36.1684,987.3621],[2.8783,36.1728,993.6523],[2.8896,36.1804,1090.8904],[2.8952,36.1822,1242.3092],[2.8927,36.1864,1240.4734],[2.8946,36.1915,1184.3276],[2.888,36.2026,1180.7233]]]]}
,"properties": {"GID_2": "DZA.28.7_1","GID_0": "DZA","country": "Algeria","GID_1": "DZA.28_1","province": "Médéa","NL_NAME_1": "ولايةالمدية","county": "BenChicao","VARNAME_2": "NA","NL_NAME_2": "NA","TYPE_2": "Commune","ENGTYPE_2": "Commune","CC_2": "2630","HASC_2": "DZ.MD.BC","name": "Ben_Chicao.county","area_km2": 60.60692,"hist_schema_id": "Elevation0-9000","hist_area_km2": {"650": 0.08561,"675": 0.18833,"700": 0.53074,"725": 0.66764,"750": 0.97556,"775": 1.31782,"800": 1.24936,"825": 1.50593,"850": 2.10484,"875": 2.65241,"900": 3.09711,"925": 3.79864,"950": 4.02104,"975": 4.8765,"1000": 5.18433,"1025": 5.68052,"1050": 5.561,"1075": 4.75668,"1100": 3.18239,"1125": 2.01883,"1150": 1.71085,"1175": 1.96751,"1200": 1.02656,"1225": 1.09504,"1250": 0.76996,"1275": 0.37642,"1300": 0.20531}}}