{"type": "Feature","bbox": [4.2884,36.5563,4.4193,36.6424],"geometry": {"type": "MultiPolygon","coordinates": [[[[4.3488,36.5566,740.1797],[4.3541,36.5659,629.042],[4.3645,36.5763,535.3351],[4.3676,36.5877,519.1837],[4.3863,36.6006,331.8153],[4.4015,36.6046,310.575],[4.4036,36.6097,279.5622],[4.4193,36.6108,432.7567],[4.416,36.6199,378.4546],[4.404,36.6274,288.5503],[4.4039,36.6321,230.6359],[4.3991,36.6344,224.7119],[4.3923,36.6347,219.0272],[4.3905,36.6284,230.9198],[4.3869,36.6253,275.8885],[4.3748,36.6244,316.3822],[4.3564,36.6126,439.3557],[4.3524,36.615,553.2198],[4.3546,36.6206,723.3792],[4.3525,36.6271,633.9259],[4.3485,36.6325,573.0051],[4.3375,36.6409,521.4053],[4.3305,36.6424,417.8447],[4.3142,36.6316,517.0054],[4.3061,36.6221,620.7904],[4.2996,36.6199,907.5715],[4.2899,36.6136,722.406],[4.2884,36.6021,648.6755],[4.2945,36.602,687.0101],[4.3069,36.5985,727.9915],[4.315,36.5873,844.7266],[4.3205,36.5714,1204.0833],[4.3262,36.5679,1186.412],[4.3275,36.5633,1118.135],[4.3322,36.5596,975.3344],[4.3375,36.5603,949.4919],[4.3424,36.5563,779.7819],[4.3488,36.5566,740.1797]]]]}
,"properties": {"GID_2": "DZA.47.8_1","GID_0": "DZA","country": "Algeria","GID_1": "DZA.47_1","province": "TiziOuzou","NL_NAME_1": "ولايةغليزان","county": "Ait-Yahia","VARNAME_2": "AitYahia","NL_NAME_2": "NA","TYPE_2": "Commune","ENGTYPE_2": "Commune","CC_2": "1527","HASC_2": "DZ.TO.AH","name": "Ait-Yahia.county","area_km2": 52.08324,"hist_schema_id": "Elevation0-9000","hist_area_km2": {"225": 0.54448,"250": 1.20815,"275": 1.44646,"300": 1.46358,"325": 1.4636,"350": 1.37851,"375": 1.15727,"400": 1.05516,"425": 0.69779,"450": 0.83395,"475": 0.64672,"500": 0.76583,"525": 0.86799,"550": 1.2935,"575": 1.17435,"600": 1.41257,"625": 1.56584,"650": 1.68498,"675": 1.61686,"700": 1.92333,"725": 1.97434,"750": 2.12765,"775": 2.07658,"800": 2.22976,"825": 2.43401,"850": 2.0766,"875": 2.16169,"900": 1.99161,"925": 1.92348,"950": 1.51504,"975": 1.60011,"1000": 1.19167,"1025": 1.02147,"1050": 0.97041,"1075": 0.62992,"1100": 0.71507,"1125": 0.51078,"1150": 0.35754,"1175": 0.22136,"1200": 0.13622,"1225": 0.01703}}}