{"type":"Feature","properties":{"GID_2":"DZA.32.24_1","GID_0":"DZA","country":"Algeria","GID_1":"DZA.32_1","province":"Oran","NL_NAME_1":"ولايةوهران","county":"SidiBenYebka","VARNAME_2":"SidiBenYabka","NL_NAME_2":"NA","TYPE_2":"Commune-Cotiere","ENGTYPE_2":"Commune-Cotiere","CC_2":"3122","HASC_2":"DZ.OR.SB","name":"Sidi_Ben_Yebka.county"},
"geometry":{"type": "MultiPolygon","coordinates": [[[[-0.393,35.8947,15.5266],[-0.3986,35.8915,0.0],[-0.4046,35.891,8.3677],[-0.4126,35.8849,10.0602],[-0.4225,35.8809,0.0],[-0.449,35.8782,0.0],[-0.4614,35.8806,0.0],[-0.4667,35.8849,47.201],[-0.473,35.8853,24.9596],[-0.483,35.8793,6.7924],[-0.4868,35.8753,0.0],[-0.4801,35.8702,4.2368],[-0.4756,35.8724,126.1754],[-0.4706,35.8706,122.9574],[-0.4546,35.8545,534.496],[-0.4394,35.8432,383.3253],[-0.4442,35.8349,354.4713],[-0.4431,35.8301,323.8979],[-0.4357,35.8288,296.335],[-0.4319,35.8259,228.9998],[-0.42,35.8266,201.343],[-0.4104,35.8134,237.6993],[-0.397,35.8063,174.6665],[-0.3866,35.8172,144.9771],[-0.3744,35.8095,127.7684],[-0.37,35.8162,121.5095],[-0.3703,35.8234,119.5133],[-0.3762,35.8276,129.9179],[-0.3606,35.8496,168.0311],[-0.3552,35.8613,103.8163],[-0.3736,35.8538,138.7543],[-0.3787,35.8541,141.5421],[-0.3832,35.8606,204.5897],[-0.3909,35.8615,232.4491],[-0.4012,35.8593,262.213],[-0.407,35.8621,334.877],[-0.3929,35.8817,325.9935],[-0.3911,35.8886,302.7812],[-0.393,35.8947,15.5266]]]]}}