{"type":"Feature","properties":{"GID_2":"DZA.11.32_1","GID_0":"DZA","country":"Algeria","GID_1":"DZA.11_1","province":"BordjBouArréridj","NL_NAME_1":"ولايةبرجبوعريريج","county":"TenietEnNasr","VARNAME_2":"ThenietElAnseur","NL_NAME_2":"NA","TYPE_2":"Commune","ENGTYPE_2":"Commune","CC_2":"3414","HASC_2":"DZ.BB.TN","name":"Teniet_En_Nasr.county"},
"geometry":{"type": "MultiPolygon","coordinates": [[[[4.4095,36.2185,448.2247],[4.4118,36.2017,478.9056],[4.4172,36.1938,518.2862],[4.4423,36.1924,502.3105],[4.4553,36.1954,513.0704],[4.4643,36.1916,542.7615],[4.469,36.1916,548.3503],[4.4842,36.182,658.9288],[4.4887,36.1771,622.4379],[4.5006,36.1755,626.2346],[4.5141,36.1679,672.4011],[4.5234,36.1673,718.7781],[4.5276,36.1638,693.6207],[4.5391,36.145,727.6146],[4.5523,36.1526,850.4612],[4.5788,36.1555,1484.8042],[4.5854,36.1579,1676.1659],[4.5906,36.1632,1470.2522],[4.593,36.176,1273.5269],[4.587,36.1908,1205.1726],[4.5875,36.2157,1066.6743],[4.5954,36.2274,1061.7828],[4.6055,36.2245,974.4833],[4.6145,36.2165,910.3887],[4.6274,36.2155,914.5615],[4.6327,36.2165,894.6719],[4.6319,36.2227,1080.4814],[4.6284,36.2272,1053.7374],[4.6272,36.232,993.478],[4.6348,36.2409,899.0605],[4.6359,36.2508,1199.5964],[4.6223,36.2681,1183.6155],[4.618,36.2612,1149.9906],[4.6139,36.2581,1202.5142],[4.6082,36.2566,1249.9622],[4.6,36.2581,1225.8186],[4.5883,36.2553,1225.4584],[4.5704,36.2574,1206.1638],[4.5555,36.2473,1150.9792],[4.5395,36.2512,1166.4651],[4.5326,36.2513,1133.1255],[4.5251,36.2488,1108.7932],[4.5198,36.2422,936.1564],[4.5206,36.237,1115.5027],[4.5247,36.2332,1082.9402],[4.5067,36.2283,1035.4452],[4.4958,36.2297,970.9947],[4.4775,36.2251,901.7165],[4.47,36.2251,839.5714],[4.4644,36.2218,801.4422],[4.4297,36.2215,691.4514],[4.4095,36.2185,448.2247]]]]}}