{"type": "Feature","bbox": [4.8424,36.5922,5.0346,36.6966],"geometry": {"type": "MultiPolygon","coordinates": [[[[4.9599,36.695,17.8021],[4.9573,36.6898,17.3719],[4.9523,36.6921,17.3215],[4.9489,36.6966,18.1222],[4.9426,36.6949,19.026],[4.9381,36.6847,20.2814],[4.9192,36.6806,21.7763],[4.9145,36.6756,25.4565],[4.909,36.676,22.5079],[4.9038,36.6744,23.7111],[4.9026,36.6686,25.8572],[4.8984,36.6656,25.2593],[4.892,36.6668,26.0104],[4.8846,36.6635,27.385],[4.8794,36.6582,28.5653],[4.8742,36.658,29.5684],[4.8692,36.6639,30.7745],[4.8625,36.666,32.3513],[4.8553,36.6642,35.2484],[4.8594,36.6585,35.3906],[4.8613,36.6526,37.8027],[4.8568,36.6515,35.4604],[4.8525,36.6537,38.1275],[4.8469,36.6531,37.6584],[4.8424,36.6492,41.6311],[4.8532,36.6258,100.2627],[4.8657,36.6121,181.0774],[4.8686,36.6057,116.3041],[4.8704,36.5923,128.4943],[4.8778,36.5992,210.6601],[4.8978,36.5922,519.5392],[4.9029,36.5925,544.7269],[4.9146,36.6021,460.6911],[4.9155,36.6091,240.7326],[4.9205,36.6145,101.3584],[4.9283,36.613,133.4732],[4.9421,36.6158,155.6407],[4.9596,36.6165,205.4463],[4.9636,36.6182,240.1561],[4.9695,36.6182,243.1717],[4.9748,36.614,347.32],[4.9954,36.6083,520.5928],[5.0137,36.6091,406.9233],[5.0148,36.6048,343.3957],[5.019,36.5993,288.6306],[5.033,36.6015,257.3962],[5.0298,36.6073,304.8509],[5.0346,36.6223,513.2337],[5.0236,36.6413,647.1287],[5.0158,36.6443,720.0183],[4.9957,36.6601,397.7655],[4.9889,36.6606,321.9811],[4.9826,36.6629,216.745],[4.9833,36.6683,299.2388],[4.9765,36.6778,139.5035],[4.9599,36.695,17.8021]]]]}
,"properties": {"GID_2": "DZA.8.7_1","GID_0": "DZA","country": "Algeria","GID_1": "DZA.8_1","province": "Béjaïa","NL_NAME_1": "بجاية","county": "Amizour","VARNAME_2": "Amizūr","NL_NAME_2": "NA","TYPE_2": "Commune","ENGTYPE_2": "Commune","CC_2": "602","HASC_2": "DZ.BJ.AZ","name": "Amizour.county","area_km2": 109.61278,"hist_schema_id": "Elevation0-9000","hist_area_km2": {"25": 13.55399,"50": 5.86828,"75": 4.08246,"100": 3.70841,"125": 4.43998,"150": 5.25677,"175": 5.63124,"200": 5.42735,"225": 5.58038,"250": 4.83188,"275": 4.35552,"300": 4.67904,"325": 4.16888,"350": 3.62432,"375": 3.53925,"400": 3.18201,"425": 2.65454,"450": 3.04584,"475": 2.48431,"500": 2.33119,"525": 2.17794,"550": 1.73551,"575": 1.71846,"600": 1.53134,"625": 1.58231,"650": 1.12289,"675": 1.22497,"700": 1.0038,"725": 0.95276,"750": 0.76562,"775": 0.62948,"800": 0.61247,"825": 0.61247,"850": 0.42532,"875": 0.34025,"900": 0.42532,"925": 0.1361,"950": 0.06805,"975": 0.06806,"1000": 0.03403}}}