{"type": "Feature","bbox": [-0.9042,35.1639,-0.8186,35.2853],"geometry": {"type": "MultiPolygon","coordinates": [[[[-0.8927,35.1892,597.9313],[-0.8816,35.1921,648.2972],[-0.8722,35.1705,722.1942],[-0.8712,35.1649,724.9274],[-0.8659,35.1639,712.0125],[-0.8605,35.1653,706.4523],[-0.8571,35.1681,677.9928],[-0.8481,35.1792,612.6837],[-0.8307,35.1913,591.4893],[-0.8207,35.2024,546.5101],[-0.8296,35.2053,551.5336],[-0.8383,35.2171,566.3102],[-0.8252,35.2234,566.9321],[-0.8186,35.2333,534.0004],[-0.8365,35.2447,458.2415],[-0.8407,35.2571,458.2743],[-0.8398,35.2669,472.1767],[-0.852,35.2639,437.1537],[-0.8556,35.2687,398.28],[-0.8581,35.2782,389.811],[-0.8644,35.2853,373.8765],[-0.8731,35.2772,439.5059],[-0.8748,35.2706,484.4157],[-0.8741,35.2597,521.1628],[-0.8822,35.2553,523.0239],[-0.8885,35.2572,447.6875],[-0.9004,35.2659,374.8344],[-0.9042,35.2622,364.2303],[-0.9037,35.2441,435.6987],[-0.9011,35.2394,423.6425],[-0.901,35.2345,475.4676],[-0.8973,35.2299,576.9432],[-0.8917,35.2266,655.0377],[-0.8907,35.2206,651.2078],[-0.8847,35.2096,637.3208],[-0.885,35.2042,649.7452],[-0.8946,35.2015,617.8983],[-0.8955,35.1955,617.0529],[-0.8927,35.1892,597.9313]]]]}
,"properties": {"GID_2": "DZA.38.32_1","GID_0": "DZA","country": "Algeria","GID_1": "DZA.38_1","province": "SidiBelAbbès","NL_NAME_1": "ولايةسيديبلعباس","county": "SehalaThaoura","VARNAME_2": "NA","NL_NAME_2": "NA","TYPE_2": "Commune","ENGTYPE_2": "Commune","CC_2": "2239","HASC_2": "DZ.SB.ST","name": "Sehala_Thaoura.county","area_km2": 57.64165,"hist_schema_id": "Elevation0-9000","hist_area_km2": {"375": 0.55392,"400": 0.83094,"425": 1.48886,"450": 2.38929,"475": 3.35911,"500": 4.1038,"525": 5.45476,"550": 7.51622,"575": 9.80369,"600": 8.40137,"625": 5.11069,"650": 4.19292,"675": 2.5297,"700": 0.93581,"725": 0.72791,"750": 0.24264}}}