{"type": "Feature","bbox": [-0.3574,35.7312,-0.2593,35.8291],"geometry": {"type": "MultiPolygon","coordinates": [[[[-0.2786,35.8191,3.6737],[-0.2901,35.8282,0.1812],[-0.2959,35.8291,4.4921],[-0.2993,35.824,20.1838],[-0.3002,35.8166,59.0999],[-0.3069,35.8148,70.3184],[-0.3359,35.8176,84.2852],[-0.3406,35.8167,90.0809],[-0.3574,35.8002,107.7113],[-0.3573,35.7783,92.8164],[-0.3413,35.7706,88.6994],[-0.3103,35.7638,114.0716],[-0.2863,35.7563,97.5604],[-0.3056,35.7382,133.431],[-0.2946,35.7326,119.7747],[-0.2861,35.7312,56.0],[-0.2835,35.7362,56.0],[-0.2791,35.739,56.0],[-0.26,35.7425,79.7939],[-0.2593,35.7468,75.8177],[-0.2697,35.7544,74.0313],[-0.2732,35.7588,72.0172],[-0.2789,35.7787,79.279],[-0.2838,35.7844,67.2824],[-0.29,35.8005,58.587],[-0.2794,35.804,58.3414],[-0.2757,35.8077,56.9614],[-0.2742,35.8144,8.9519],[-0.2786,35.8191,3.6737]]]]}
,"properties": {"GID_2": "DZA.32.1_1","GID_0": "DZA","country": "Algeria","GID_1": "DZA.32_1","province": "Oran","NL_NAME_1": "ولايةوهران","county": "AinBiya","VARNAME_2": "AinBiya","NL_NAME_2": "NA","TYPE_2": "Commune-Cotiere","ENGTYPE_2": "Commune-Cotiere","CC_2": "3126","HASC_2": "DZ.OR.AB","name": "Ain_Biya.county","area_km2": 46.50798,"hist_schema_id": "Elevation0-9000","hist_area_km2": {"0": 0.94553,"25": 0.85961,"50": 4.88382,"75": 14.51555,"100": 22.9287,"125": 2.0822,"150": 0.29256}}}