{"type": "Feature","bbox": [6.2714,34.566,6.7565,34.8001],"geometry": {"type": "MultiPolygon","coordinates": [[[[6.4717,34.7943,124.9911],[6.4679,34.7835,113.2297],[6.4672,34.7696,99.2428],[6.4556,34.741,74.7415],[6.4507,34.7234,63.7755],[6.4426,34.7157,57.8879],[6.4369,34.7118,54.1687],[6.3827,34.6996,43.9121],[6.3735,34.7038,41.0925],[6.3721,34.6944,37.2144],[6.3626,34.6886,33.9636],[6.3534,34.6773,29.9652],[6.3478,34.6756,26.7112],[6.3399,34.6669,23.1723],[6.3342,34.6659,21.1287],[6.3239,34.66,17.4252],[6.2762,34.6559,2.7639],[6.2715,34.6459,-2.0654],[6.2714,34.6363,-1.7411],[6.2973,34.6256,-0.0501],[6.3031,34.6213,-0.7723],[6.299,34.592,-11.7813],[6.3365,34.5718,-12.07],[6.365,34.566,-8.4466],[6.3736,34.5691,-7.0336],[6.3822,34.5777,-3.5239],[6.4023,34.5902,1.6424],[6.4163,34.6038,7.2552],[6.4343,34.6585,29.7126],[6.4392,34.6528,28.279],[6.4527,34.6258,21.6406],[6.4868,34.6254,24.2341],[6.5032,34.6332,26.2615],[6.51,34.634,25.0556],[6.5086,34.622,22.1646],[6.5031,34.6195,21.056],[6.5022,34.6148,21.2341],[6.5107,34.6139,22.0313],[6.5366,34.6161,25.9388],[6.5463,34.6183,25.5223],[6.5701,34.678,51.9608],[6.6182,34.6719,61.3641],[6.6657,34.6631,63.041],[6.6669,34.6737,67.0768],[6.6857,34.6786,66.5572],[6.6839,34.6855,71.1335],[6.6998,34.6941,79.2533],[6.7034,34.7072,87.1629],[6.7177,34.7163,94.3984],[6.7214,34.7133,92.0962],[6.7214,34.6972,82.6476],[6.726,34.6923,80.2068],[6.7412,34.6849,75.7406],[6.7515,34.6934,81.8154],[6.7565,34.7126,91.6648],[6.7464,34.7162,94.481],[6.7259,34.7274,103.5803],[6.7211,34.7387,107.6582],[6.7137,34.7497,112.4215],[6.7128,34.7566,116.6621],[6.7185,34.7617,124.2073],[6.7198,34.7682,129.0207],[6.7176,34.7806,139.0128],[6.7021,34.7948,151.2497],[6.6928,34.8001,144.8264],[6.678,34.7971,144.1868],[6.6572,34.7956,130.013],[6.6482,34.7989,126.3463],[6.6312,34.7915,112.531],[6.6157,34.7812,102.4734],[6.6041,34.7773,96.353],[6.5918,34.7756,92.9463],[6.588,34.7727,87.8354],[6.5826,34.7716,89.4932],[6.5761,34.7613,84.4459],[6.5606,34.7538,81.38],[6.5547,34.7533,75.3582],[6.5336,34.7589,78.0898],[6.4717,34.7943,124.9911]]]]}
,"properties": {"GID_2": "DZA.9.33_1","GID_0": "DZA","country": "Algeria","GID_1": "DZA.9_1","province": "Biskra","NL_NAME_1": "ولايةبسكرة","county": "ZeribetElOued","VARNAME_2": "Zarībat-al-Wād","NL_NAME_2": "NA","TYPE_2": "Commune","ENGTYPE_2": "Commune","CC_2": "715","HASC_2": "DZ.BS.ZO","name": "Zeribet_El_Oued.county","area_km2": 499.198,"hist_schema_id": "Elevation0-9000","hist_area_km2": {"0": 78.3838,"25": 95.8246,"50": 104.5638,"75": 120.6297,"100": 67.5258,"125": 27.1858,"150": 5.0844}}}