{"type": "Feature","bbox": [6.6614,32.6885,6.9117,33.3701],"geometry": {"type": "MultiPolygon","coordinates": [[[[6.8417,33.2905,100.3975],[6.8086,33.3701,78.9135],[6.7446,33.3664,99.0493],[6.6699,33.3183,92.4067],[6.6888,33.2699,96.6785],[6.7632,33.2239,92.8539],[6.7912,33.117,105.0622],[6.7884,33.0115,105.2218],[6.7746,32.9414,104.2673],[6.756,32.8181,122.2206],[6.6614,32.7255,112.925],[6.6841,32.6885,127.754],[6.8141,32.759,119.1164],[6.8439,32.8952,111.228],[6.9117,33.0992,95.0215],[6.8566,33.2546,99.2559],[6.8417,33.2905,100.3975]]]]}
,"properties": {"GID_2": "DZA.18.18_1","GID_0": "DZA","country": "Algeria","GID_1": "DZA.18_1","province": "ElOued","NL_NAME_1": "ولايةالوادي","county": "OuedElAlenda","VARNAME_2": "NA","NL_NAME_2": "NA","TYPE_2": "Commune","ENGTYPE_2": "Commune","CC_2": "3903","HASC_2": "DZ.EO.OA","name": "Oued_El_Alenda.county","area_km2": 716.0377,"hist_schema_id": "Elevation0-9000","hist_area_km2": {"75": 22.4292,"100": 518.2536,"125": 175.2836,"150": 0.0713}}}