{"type":"Feature","properties":{"GID_2":"DZA.14.10_1","GID_0":"DZA","country":"Algeria","GID_1":"DZA.14_1","province":"Chlef","NL_NAME_1":"ولايةالشلف","county":"Chettia","VARNAME_2":"ash-Shattīyah","NL_NAME_2":"NA","TYPE_2":"Commune","ENGTYPE_2":"Commune","CC_2":"224","HASC_2":"DZ.CH.CT","name":"Chettia.county"},
"geometry":{"type": "MultiPolygon","coordinates": [[[[1.2653,36.1412,89.7217],[1.2732,36.149,84.5914],[1.2795,36.1515,83.4959],[1.2733,36.1637,92.9393],[1.2722,36.17,93.7004],[1.2753,36.1762,123.6127],[1.2879,36.1805,142.782],[1.2897,36.1864,97.8291],[1.2895,36.1941,100.0537],[1.2954,36.1971,107.6521],[1.2933,36.2019,117.3734],[1.2867,36.2087,157.1043],[1.2846,36.2135,230.3952],[1.2853,36.2197,264.9013],[1.2731,36.2155,252.3695],[1.2615,36.2145,208.3638],[1.2567,36.212,186.5544],[1.2563,36.206,170.7893],[1.2527,36.2028,150.2231],[1.2433,36.2005,112.7742],[1.2449,36.1902,111.5914],[1.2434,36.1854,101.2671],[1.2331,36.1834,98.3051],[1.2364,36.1717,94.9329],[1.2303,36.1699,96.003],[1.2216,36.1697,92.0733],[1.2191,36.1644,90.3289],[1.2197,36.158,88.6164],[1.214,36.1564,87.5473],[1.2134,36.1512,86.5135],[1.2082,36.1466,82.8968],[1.2152,36.1371,76.5703],[1.2207,36.1387,75.8939],[1.2255,36.1376,86.8455],[1.2198,36.1326,87.8173],[1.2244,36.1288,81.4697],[1.2303,36.1273,84.4781],[1.2345,36.127,92.1645],[1.2358,36.1323,85.6836],[1.241,36.1336,96.503],[1.246,36.1382,82.4976],[1.2482,36.1427,81.9882],[1.2533,36.1422,88.4777],[1.2584,36.1393,92.1949],[1.2653,36.1412,89.7217]]]]}}