{"type": "Feature","bbox": [-2.3971,30.687,-0.9153,31.4593],"geometry": {"type": "MultiPolygon","coordinates": [[[[-2.3498,30.687,516.9598],[-2.1356,30.7038,606.4039],[-2.0076,30.7213,573.5959],[-1.9628,30.7309,601.1343],[-1.8116,30.7842,628.1632],[-1.5862,30.8181,708.7257],[-1.3159,30.8039,678.6718],[-1.0232,30.8553,641.5928],[-0.9923,30.8468,639.0256],[-0.9153,30.8584,623.8831],[-0.9268,30.8916,645.2105],[-0.9674,30.994,625.5486],[-0.9749,31.0075,626.2862],[-0.981,31.0259,630.3465],[-0.9773,31.0437,635.1093],[-0.9651,31.0696,644.7017],[-0.9644,31.0766,647.8385],[-0.9676,31.0909,654.1305],[-0.9744,31.104,670.1237],[-0.9843,31.1126,667.021],[-0.9867,31.118,664.0244],[-0.9942,31.1268,671.7925],[-0.995,31.1407,661.2789],[-0.9916,31.1503,685.0541],[-1.0002,31.1662,685.8062],[-1.004,31.1773,685.7512],[-1.008,31.182,685.9063],[-1.0213,31.1844,690.2692],[-1.0306,31.1967,696.181],[-1.0287,31.2098,695.1643],[-1.0335,31.2134,695.4451],[-1.0348,31.2182,698.7177],[-1.0342,31.224,698.4545],[-1.0401,31.2315,701.7817],[-1.0417,31.2443,706.7474],[-1.0403,31.2494,704.8384],[-1.034,31.2563,712.0789],[-1.0418,31.2633,710.8742],[-1.0428,31.2758,714.1373],[-1.0462,31.2788,719.2538],[-1.0439,31.2851,720.0582],[-1.0463,31.2983,723.4983],[-1.0295,31.31,723.8938],[-1.0311,31.3219,728.4291],[-1.0216,31.3275,729.8699],[-1.0205,31.3341,729.9372],[-1.0247,31.3434,732.7605],[-1.0241,31.3518,734.7752],[-1.0211,31.3576,738.0049],[-1.0217,31.3627,737.3973],[-1.0185,31.3677,739.3731],[-1.0232,31.3757,743.7501],[-1.029,31.3811,746.3027],[-1.0286,31.3877,746.6298],[-1.019,31.4006,751.5424],[-1.0274,31.4063,753.8713],[-1.0293,31.4104,754.4769],[-1.0304,31.426,765.3696],[-1.041,31.4434,763.8544],[-1.0426,31.4548,767.0216],[-1.0476,31.4588,771.9756],[-1.0518,31.4593,770.8243],[-1.3527,31.4444,706.1923],[-1.5952,31.2948,788.8579],[-1.7057,31.3418,708.6733],[-1.8742,31.4419,658.6183],[-1.9808,31.3913,660.7401],[-2.0154,31.3823,909.4136],[-2.0317,31.362,936.3959],[-2.051,31.3473,933.8062],[-2.0656,31.3402,878.811],[-2.0898,31.319,828.5884],[-2.1073,31.3083,807.2646],[-2.1151,31.2999,859.4171],[-2.1073,31.2958,798.8259],[-2.1057,31.2917,881.3901],[-2.1011,31.2889,811.3041],[-2.0957,31.2754,913.4448],[-2.07,31.2624,814.7922],[-2.0575,31.2532,822.6135],[-2.0535,31.2476,826.8044],[-2.0505,31.2286,717.6553],[-2.0465,31.226,772.5662],[-2.0375,31.2261,728.8866],[-2.0087,31.2342,714.228],[-1.9881,31.2275,801.9484],[-1.984,31.2161,871.7969],[-1.9849,31.2109,852.3521],[-1.9938,31.1926,893.6927],[-2.0009,31.1942,796.8144],[-2.0616,31.1942,794.8784],[-2.2691,31.1827,633.3628],[-2.3929,31.0361,568.4465],[-2.394,31.0123,566.9645],[-2.3971,30.9964,574.8029],[-2.3883,30.9083,542.1554],[-2.3529,30.8668,594.6468],[-2.3498,30.687,516.9598]]]]}
,"properties": {"GID_2": "DZA.7.19_1","GID_0": "DZA","country": "Algeria","GID_1": "DZA.7_1","province": "Béchar","NL_NAME_1": "ولايةبشار","county": "Taghit","VARNAME_2": "Taghit","NL_NAME_2": "NA","TYPE_2": "Commune","ENGTYPE_2": "Commune","CC_2": "813","HASC_2": "DZ.BC.TA","name": "Taghit.county","area_km2": 8321.026,"hist_schema_id": "Elevation0-9000","hist_area_km2": {"525": 79.87,"550": 189.144,"575": 169.484,"600": 347.459,"625": 652.139,"650": 933.146,"675": 1058.943,"700": 2091.069,"725": 1329.7,"750": 824.26,"775": 358.719,"800": 125.334,"825": 63.157,"850": 40.512,"875": 25.861,"900": 11.704,"925": 6.684,"950": 8.242,"975": 4.855,"1000": 0.525,"1025": 0.217}}}