{"type":"Feature","properties":{"GID_2":"DZA.30.31_1","GID_0":"DZA","country":"Algeria","GID_1":"DZA.30_1","province":"Mostaganem","NL_NAME_1":"ولايةمستغانم","county":"Tazgait","VARNAME_2":"NA","NL_NAME_2":"NA","TYPE_2":"Commune","ENGTYPE_2":"Commune","CC_2":"2729","HASC_2":"DZ.MG.TA","name":"Tazgait.county"},
"geometry":{"type": "MultiPolygon","coordinates": [[[[0.576,36.1934,98.1243],[0.5641,36.1924,163.6409],[0.5601,36.1901,218.7303],[0.5513,36.1832,272.3326],[0.5434,36.1735,307.1503],[0.5342,36.1657,320.8485],[0.5209,36.1565,379.3147],[0.5042,36.1507,366.8937],[0.4995,36.1455,361.062],[0.4648,36.1198,259.7462],[0.4774,36.1187,262.432],[0.489,36.1004,367.59],[0.502,36.0925,388.6482],[0.5139,36.0904,416.974],[0.5203,36.0924,455.3165],[0.5241,36.0966,482.5321],[0.5311,36.0968,514.3909],[0.5348,36.0944,494.7363],[0.535,36.0814,361.6115],[0.5476,36.0746,252.5664],[0.5514,36.0689,219.3553],[0.5605,36.0759,259.8523],[0.5704,36.0744,205.28],[0.5752,36.0758,200.9687],[0.5747,36.081,278.0923],[0.571,36.086,394.3516],[0.5818,36.0848,263.6503],[0.6007,36.09,388.5792],[0.6106,36.1043,408.2838],[0.6053,36.1181,504.4618],[0.6142,36.1283,521.4072],[0.6119,36.1333,464.8498],[0.6067,36.1351,484.3477],[0.6015,36.1438,533.2147],[0.6006,36.1486,524.3026],[0.5962,36.1521,435.8171],[0.5973,36.1633,291.2497],[0.5918,36.1784,217.169],[0.5801,36.1825,167.9223],[0.5801,36.1889,116.4663],[0.576,36.1934,98.1243]]]]}}