{"type":"Feature","properties":{"GID_2":"DZA.3.22_1","GID_0":"DZA","country":"Algeria","GID_1":"DZA.3_1","province":"AïnTémouchent","NL_NAME_1":"ولايةعينتموشنت","county":"OulhacaElGheraba","VARNAME_2":"OulhacaGherraba","NL_NAME_2":"NA","TYPE_2":"Commune-Cotiere","ENGTYPE_2":"Commune-Cotiere","CC_2":"4625","HASC_2":"DZ.AT.OG","name":"Oulhaca_El_Gheraba.county"},
"geometry":{"type": "MultiPolygon","coordinates": [[[[-1.4688,35.2985,3.4133],[-1.4758,35.2967,1.5985],[-1.4813,35.2977,8.4433],[-1.4861,35.2918,0.0],[-1.5068,35.2829,2.531],[-1.5087,35.2786,10.8139],[-1.5241,35.2732,12.1328],[-1.5533,35.2706,0.0],[-1.5607,35.2597,21.9566],[-1.5708,35.2522,6.3494],[-1.5743,35.2444,0.0],[-1.5789,35.2403,28.5171],[-1.5841,35.2383,17.3524],[-1.574,35.2231,220.4721],[-1.5504,35.2151,215.6998],[-1.5457,35.2118,331.7461],[-1.5228,35.2202,261.7769],[-1.4974,35.2232,178.5046],[-1.4876,35.229,126.8423],[-1.4815,35.2287,131.1349],[-1.4756,35.2255,113.408],[-1.4656,35.2252,91.9246],[-1.4594,35.222,88.3847],[-1.4561,35.2182,115.7498],[-1.4516,35.2074,89.9501],[-1.4477,35.2037,44.2858],[-1.4429,35.2026,59.1249],[-1.4315,35.207,26.54],[-1.427,35.2121,19.4032],[-1.4211,35.2134,18.9959],[-1.415,35.2123,24.5777],[-1.4124,35.2159,31.2494],[-1.4118,35.222,21.896],[-1.4169,35.2271,63.7568],[-1.4214,35.227,17.959],[-1.4194,35.237,25.2991],[-1.4228,35.2413,21.3284],[-1.4238,35.2463,17.9084],[-1.4213,35.251,22.1293],[-1.4259,35.2518,14.7747],[-1.4345,35.2475,15.2031],[-1.4389,35.2528,38.0392],[-1.4449,35.2566,10.7673],[-1.4355,35.269,15.916],[-1.4378,35.2749,12.8644],[-1.4521,35.2728,6.2373],[-1.4545,35.2858,118.4414],[-1.463,35.2915,2.5978],[-1.4688,35.2985,3.4133]]]]}}