{"type":"Feature","properties":{"GID_2":"DZA.27.37_1","GID_0":"DZA","country":"Algeria","GID_1":"DZA.27_1","province":"Mascara","NL_NAME_1":"ولايةمعسكر","county":"Sedjerara","VARNAME_2":"NA","NL_NAME_2":"NA","TYPE_2":"Commune","ENGTYPE_2":"Commune","CC_2":"2935","HASC_2":"DZ.MC.SJ","name":"Sedjerara.county"},
"geometry":{"type": "MultiPolygon","coordinates": [[[[0.2592,35.5403,522.5473],[0.2647,35.5416,583.1733],[0.2753,35.5393,797.2227],[0.2773,35.5475,791.7499],[0.3032,35.5479,614.5335],[0.3085,35.5541,587.38],[0.3149,35.5558,520.3188],[0.31,35.575,463.6046],[0.289,35.58,602.021],[0.2917,35.589,533.9013],[0.2905,35.5941,461.4958],[0.2962,35.6048,402.9753],[0.2988,35.6195,313.4568],[0.2917,35.6259,289.1989],[0.286,35.636,260.3492],[0.2813,35.6369,241.95],[0.2735,35.6448,219.87],[0.2712,35.6554,209.3044],[0.2587,35.6609,194.2799],[0.2545,35.6652,182.291],[0.2576,35.6711,157.3608],[0.2165,35.6497,123.2416],[0.2047,35.6518,106.4201],[0.1798,35.6504,93.2884],[0.1842,35.6304,112.8767],[0.1766,35.6152,149.7693],[0.1778,35.6054,163.6883],[0.1827,35.6003,183.7928],[0.1884,35.5983,200.1717],[0.1909,35.5938,211.5028],[0.1962,35.592,203.1409],[0.2108,35.5811,239.201],[0.2147,35.5698,273.7022],[0.2188,35.5665,326.4368],[0.2215,35.5617,307.671],[0.2251,35.5447,310.7373],[0.2291,35.5353,334.9137],[0.2331,35.538,386.3962],[0.2387,35.5373,428.064],[0.2592,35.5403,522.5473]]]]}}