{"type":"Feature","properties":{"GID_2":"DZA.32.26_1","GID_0":"DZA","country":"Algeria","GID_1":"DZA.32_1","province":"Oran","NL_NAME_1":"ولايةوهران","county":"Tafraoui","VARNAME_2":"NA","NL_NAME_2":"NA","TYPE_2":"Commune","ENGTYPE_2":"Commune","CC_2":"3112","HASC_2":"DZ.OR.TA","name":"Tafraoui.county"},
"geometry":{"type": "MultiPolygon","coordinates": [[[[-0.619,35.3586,837.8652],[-0.613,35.3511,670.2654],[-0.6067,35.3352,592.1223],[-0.6028,35.3412,637.5125],[-0.5963,35.3438,628.4132],[-0.578,35.3452,561.8305],[-0.5741,35.3474,611.4562],[-0.5718,35.3521,660.4971],[-0.5727,35.3578,703.1935],[-0.5687,35.362,686.6332],[-0.5592,35.3663,665.3427],[-0.5496,35.3614,612.6172],[-0.5437,35.3604,581.6658],[-0.5395,35.3635,531.575],[-0.552,35.3861,720.3643],[-0.5493,35.3977,611.4081],[-0.54,35.4086,502.9491],[-0.5327,35.4143,437.1322],[-0.5298,35.4268,357.3166],[-0.5207,35.4407,287.2083],[-0.5191,35.447,295.0094],[-0.5101,35.4513,267.7412],[-0.5054,35.4558,244.1846],[-0.5065,35.4664,293.6985],[-0.502,35.4684,412.3188],[-0.4961,35.4644,492.4023],[-0.4823,35.4642,521.0096],[-0.4726,35.4697,353.1104],[-0.4617,35.4704,428.4359],[-0.4587,35.4744,447.6151],[-0.461,35.4869,291.6719],[-0.4585,35.4979,276.9913],[-0.4673,35.4987,303.3864],[-0.4711,35.5023,248.2041],[-0.4745,35.507,183.6914],[-0.4709,35.5121,137.8191],[-0.4747,35.5178,131.6853],[-0.488,35.527,123.9335],[-0.499,35.5314,119.3501],[-0.5006,35.5357,117.9856],[-0.508,35.5426,114.7425],[-0.5049,35.548,124.81],[-0.5218,35.5491,106.6746],[-0.5341,35.555,102.0004],[-0.5438,35.5487,106.549],[-0.5498,35.5522,111.5744],[-0.5597,35.5478,106.0593],[-0.562,35.543,111.8956],[-0.5683,35.5379,101.661],[-0.5749,35.5353,101.3127],[-0.5804,35.5357,98.5],[-0.5852,35.5383,108.2282],[-0.5905,35.5368,128.2899],[-0.6047,35.5293,133.3382],[-0.6214,35.524,116.4552],[-0.625,35.5187,95.6915],[-0.6149,35.4926,96.0429],[-0.6053,35.4921,98.5365],[-0.6014,35.4887,100.6966],[-0.6062,35.478,101.5173],[-0.6056,35.4723,111.1577],[-0.6015,35.4661,127.2544],[-0.6013,35.46,212.6493],[-0.5916,35.4553,363.3369],[-0.587,35.4445,454.4703],[-0.5832,35.4238,697.5067],[-0.5975,35.4221,681.063],[-0.5964,35.4176,656.6528],[-0.6079,35.4133,482.7261],[-0.6146,35.4063,417.7382],[-0.6195,35.3952,297.0717],[-0.6027,35.3853,416.8431],[-0.6041,35.3797,514.6573],[-0.6125,35.3701,757.409],[-0.6153,35.3616,873.4103],[-0.619,35.3586,837.8652]]]]}}