{"type":"Feature","properties":{"GID_2":"DZA.28.56_1","GID_0":"DZA","country":"Algeria","GID_1":"DZA.28_1","province":"Médéa","NL_NAME_1":"ولايةالمدية","county":"SidiZahar","VARNAME_2":"NA","NL_NAME_2":"NA","TYPE_2":"Commune","ENGTYPE_2":"Commune","CC_2":"2628","HASC_2":"DZ.MD.SH","name":"Sidi_Zahar.county"},
"geometry":{"type": "MultiPolygon","coordinates": [[[[3.3985,36.0654,913.2502],[3.3794,36.0693,860.4984],[3.3832,36.075,924.5872],[3.3964,36.0844,979.9296],[3.393,36.0914,938.7395],[3.3825,36.0995,972.6471],[3.383,36.1106,922.5888],[3.3739,36.1229,811.8906],[3.3625,36.114,820.3698],[3.3596,36.1175,831.9885],[3.3509,36.1126,891.1598],[3.346,36.1168,870.2374],[3.3393,36.1158,863.4698],[3.3334,36.119,842.4312],[3.3276,36.115,904.6765],[3.3249,36.1198,828.5927],[3.3198,36.1203,869.1739],[3.3189,36.1157,855.3285],[3.3079,36.0988,867.0184],[3.2821,36.0828,936.8382],[3.2707,36.0699,833.0482],[3.2736,36.0635,872.0343],[3.2952,36.056,914.8243],[3.2958,36.0424,1167.8572],[3.3179,36.0373,1245.5327],[3.3319,36.0315,1095.4725],[3.3352,36.0289,1082.2727],[3.3335,36.0232,1045.2878],[3.3447,36.0253,1242.2345],[3.3629,36.0209,1201.5532],[3.3691,36.0235,1258.4777],[3.3704,36.029,1097.3116],[3.3745,36.0327,1018.6986],[3.4042,36.0441,938.3703],[3.4032,36.0495,922.9839],[3.4042,36.0547,991.254],[3.3985,36.0654,913.2502]]]]}}