{"type": "Feature","bbox": [6.4034,35.4362,6.6193,35.6165],"geometry": {"type": "MultiPolygon","coordinates": [[[[6.4549,35.6165,1451.1066],[6.4298,35.6142,1575.255],[6.4238,35.6129,1523.33],[6.4171,35.6087,1430.2994],[6.4237,35.6048,1482.0332],[6.4282,35.5968,1459.0576],[6.4448,35.5896,1278.3062],[6.4456,35.5846,1196.6223],[6.4346,35.5783,1169.5376],[6.4393,35.5719,1121.8254],[6.4334,35.5691,1127.2295],[6.4203,35.5697,1154.0234],[6.416,35.5672,1185.0319],[6.4241,35.5583,1200.6542],[6.4264,35.5531,1179.8021],[6.4344,35.5457,1140.2638],[6.4357,35.5353,1076.0358],[6.4234,35.5328,1115.6857],[6.4192,35.5269,1087.5793],[6.4169,35.5126,1073.0094],[6.4034,35.4897,1131.5393],[6.4081,35.4874,1133.4373],[6.4224,35.4864,1121.6968],[6.4285,35.4881,1110.5354],[6.4391,35.4861,1093.3694],[6.4651,35.4742,1098.1207],[6.4714,35.4656,1095.3789],[6.4756,35.463,1102.2649],[6.4852,35.4609,1142.7804],[6.4942,35.4568,1145.7413],[6.5199,35.4571,1048.8909],[6.5239,35.4525,1087.4883],[6.5418,35.4447,1178.8198],[6.541,35.4405,1176.0813],[6.557,35.4368,1146.4288],[6.5627,35.4362,1136.125],[6.5794,35.4397,1106.207],[6.6017,35.4567,1081.2881],[6.614,35.4618,1059.1741],[6.6193,35.4711,1042.1982],[6.6123,35.4759,1044.7229],[6.6149,35.4809,1038.2451],[6.6105,35.4834,1039.4319],[6.6181,35.4937,1023.1396],[6.6067,35.497,1037.7084],[6.6022,35.5007,1060.2166],[6.5989,35.5121,1095.1383],[6.5865,35.5243,1045.6654],[6.5838,35.5313,1019.2848],[6.5784,35.5357,1006.3305],[6.5689,35.5575,956.7183],[6.5606,35.5616,941.8718],[6.5583,35.5701,931.6127],[6.5617,35.5756,926.5267],[6.5391,35.578,946.9802],[6.5326,35.5797,954.6207],[6.5287,35.5838,966.8779],[6.5237,35.5855,977.6729],[6.5134,35.5844,1010.7227],[6.4957,35.5879,1050.4565],[6.4864,35.5962,1107.0947],[6.474,35.6,1194.4126],[6.4638,35.5994,1250.5312],[6.4549,35.6165,1451.1066]]]]}
,"properties": {"GID_2": "DZA.6.60_1","GID_0": "DZA","country": "Algeria","GID_1": "DZA.6_1","province": "Batna","NL_NAME_1": "ولايةباتنة","county": "Timgad","VARNAME_2": "NA","NL_NAME_2": "NA","TYPE_2": "Commune","ENGTYPE_2": "Commune","CC_2": "550","HASC_2": "DZ.BT.TM","name": "Timgad.county","area_km2": 223.9949,"hist_schema_id": "Elevation0-9000","hist_area_km2": {"925": 1.3452,"950": 9.7627,"975": 15.9408,"1000": 26.0901,"1025": 35.2578,"1050": 39.8353,"1075": 30.6544,"1100": 22.0427,"1125": 14.1025,"1150": 9.131,"1175": 5.2454,"1200": 2.898,"1225": 1.8625,"1250": 1.2933,"1275": 0.5345,"1300": 0.2586,"1325": 0.4655,"1350": 0.5345,"1375": 0.6896,"1400": 0.431,"1425": 0.6378,"1450": 0.8619,"1475": 0.6551,"1500": 0.5689,"1525": 0.6206,"1550": 0.6378,"1575": 0.3965,"1600": 0.4826,"1625": 0.2758,"1650": 0.1207,"1675": 0.1724,"1700": 0.1207,"1725": 0.0689}}}