{"type": "Feature","bbox": [3.0929,34.9562,3.4397,35.1995],"geometry": {"type": "MultiPolygon","coordinates": [[[[3.1969,34.9562,858.5605],[3.2257,34.9644,864.4944],[3.2471,34.9801,850.6671],[3.2727,34.9915,838.2569],[3.2841,34.999,831.012],[3.2919,35.0131,820.3024],[3.2931,35.0055,822.7325],[3.3125,35.016,822.8812],[3.3191,35.0286,821.6585],[3.3556,35.0391,822.4342],[3.3842,35.0428,831.2332],[3.3889,35.0745,790.7222],[3.3998,35.1199,754.5298],[3.4397,35.1633,754.0],[3.4184,35.1829,754.654],[3.3938,35.1864,771.9574],[3.3863,35.1852,775.6287],[3.2777,35.1995,877.5101],[3.2172,35.1696,879.6906],[3.1634,35.1414,912.1387],[3.1425,35.1287,911.1694],[3.103,35.1169,905.0267],[3.0929,35.1111,904.3383],[3.0985,35.1021,895.323],[3.0959,35.091,884.119],[3.0975,35.0793,874.8183],[3.1135,35.0467,872.965],[3.1186,35.0328,884.0644],[3.1314,35.0157,884.3849],[3.1484,35.0054,872.2081],[3.1481,34.9849,838.6229],[3.1969,34.9562,858.5605]]]]}
,"properties": {"GID_2": "DZA.16.24_1","GID_0": "DZA","country": "Algeria","GID_1": "DZA.16_1","province": "Djelfa","NL_NAME_1": "ولايةالجلفة","county": "HassiElEuch","VARNAME_2": "NA","NL_NAME_2": "NA","TYPE_2": "Commune","ENGTYPE_2": "Commune","CC_2": "1716","HASC_2": "DZ.DJ.HE","name": "Hassi_El_Euch.county","area_km2": 510.7707,"hist_schema_id": "Elevation0-9000","hist_area_km2": {"750": 32.8185,"775": 52.2386,"800": 82.95,"825": 70.9034,"850": 73.9009,"875": 64.4259,"900": 73.0241,"925": 42.65,"950": 13.676,"975": 3.2458,"1000": 0.92,"1025": 0.0174}}}