{"type":"Feature","properties":{"GID_2":"DZA.24.13_1","GID_0":"DZA","country":"Algeria","GID_1":"DZA.24_1","province":"Khenchela","NL_NAME_1":"ولايةخنشلة","county":"Khenchela","VARNAME_2":"Khanshalah","NL_NAME_2":"NA","TYPE_2":"Chef-Lieu-Wilaya","ENGTYPE_2":"Chef-Lieu-Wilaya","CC_2":"4001","HASC_2":"DZ.KH.KC","name":"Khenchela.county"},
"geometry":{"type": "MultiPolygon","coordinates": [[[[7.1514,35.4666,1018.6222],[7.1087,35.4545,1045.6116],[7.1077,35.4495,1069.5857],[7.1048,35.4459,1088.634],[7.1048,35.4394,1170.6855],[7.1075,35.4342,1233.4083],[7.1062,35.4237,1636.0457],[7.1191,35.4133,1213.4781],[7.1346,35.4062,1145.4116],[7.1541,35.4098,1115.4727],[7.1684,35.4154,1080.8281],[7.1771,35.4312,1116.3619],[7.1668,35.4516,1059.8125],[7.1623,35.4534,1038.02],[7.1604,35.4598,1015.3439],[7.1514,35.4666,1018.6222]]]]}}