{"type": "Feature","bbox": [2.6085,36.5138,2.7327,36.609],"geometry": {"type": "MultiPolygon","coordinates": [[[[2.637,36.5138,68.3328],[2.6542,36.5186,64.5361],[2.6605,36.5306,55.2586],[2.6657,36.5325,56.8596],[2.6672,36.5379,51.4665],[2.6723,36.5415,50.7374],[2.6795,36.5505,45.2251],[2.6861,36.5521,43.3941],[2.6887,36.5578,41.8301],[2.6998,36.559,45.1744],[2.7037,36.565,39.829],[2.7327,36.5836,29.8251],[2.727,36.5859,32.8406],[2.7196,36.5861,31.8344],[2.7129,36.5991,120.581],[2.7027,36.6066,208.4586],[2.696,36.609,236.8889],[2.6903,36.6084,250.2027],[2.6633,36.5946,260.5479],[2.6571,36.5929,266.3481],[2.6501,36.5938,258.7104],[2.6333,36.5868,235.7348],[2.6282,36.5865,232.0729],[2.6104,36.5807,232.3903],[2.6103,36.5718,115.9937],[2.6127,36.564,54.3575],[2.6116,36.5564,56.4561],[2.6085,36.55,56.6291],[2.6098,36.5403,58.8511],[2.6145,36.5261,62.301],[2.615,36.5202,65.2288],[2.6128,36.5142,67.3537],[2.637,36.5138,68.3328]]]]}
,"properties": {"GID_2": "DZA.45.15_1","GID_0": "DZA","country": "Algeria","GID_1": "DZA.45_1","province": "Tipaza","NL_NAME_1": "ولايةتيبازة","county": "Hattatba","VARNAME_2": "NA","NL_NAME_2": "NA","TYPE_2": "Commune","ENGTYPE_2": "Commune","CC_2": "4225","HASC_2": "DZ.TP.HT","name": "Hattatba.county","area_km2": 63.60536,"hist_schema_id": "Elevation0-9000","hist_area_km2": {"25": 2.87747,"50": 33.85958,"75": 7.22216,"100": 2.92847,"125": 2.99647,"150": 2.99635,"175": 2.70687,"200": 2.48549,"225": 2.89401,"250": 2.12781,"275": 0.51068}}}