{"type": "Feature","bbox": [3.2126,32.6358,4.1738,33.0691],"geometry": {"type": "MultiPolygon","coordinates": [[[[3.8004,33.0471,572.2283],[3.7728,33.0536,577.3429],[3.7605,33.0527,580.9791],[3.7552,33.0549,583.2672],[3.7484,33.0524,586.6248],[3.7421,33.054,593.0762],[3.7343,33.0481,601.5167],[3.7257,33.0503,596.681],[3.7166,33.0644,607.3325],[3.7053,33.0587,620.9649],[3.6927,33.0618,614.1187],[3.6845,33.0603,632.5469],[3.6744,33.0504,650.6515],[3.6703,33.0539,626.7474],[3.6677,33.0691,634.1365],[3.6596,33.0691,643.2538],[3.6573,33.0633,657.2511],[3.6492,33.0582,646.4984],[3.6458,33.0521,659.3231],[3.6442,33.0447,650.8362],[3.6368,33.0406,651.936],[3.6308,33.0425,654.6356],[3.6294,33.0492,677.4866],[3.6258,33.0532,657.6661],[3.6194,33.0534,661.7489],[3.619,33.0388,666.2908],[3.6155,33.0341,667.7458],[3.6036,33.0349,674.381],[3.5957,33.041,675.4017],[3.5901,33.0424,679.5637],[3.5868,33.038,682.5695],[3.5847,33.0303,683.2386],[3.5764,33.0261,686.2767],[3.2126,33.0163,772.3129],[3.2417,32.9954,763.5978],[3.3806,32.9274,786.8433],[3.3943,32.8118,727.5151],[3.485,32.777,691.7786],[3.6178,32.7324,626.2598],[3.7256,32.6986,611.4749],[3.9163,32.7008,475.4594],[3.9568,32.6915,457.7928],[3.9933,32.6739,444.4165],[4.0049,32.6734,434.7894],[4.0281,32.6525,424.342],[4.0619,32.638,412.3545],[4.0714,32.6358,413.4435],[4.0962,32.6461,414.8715],[4.1035,32.6525,409.9688],[4.1065,32.6598,401.0033],[4.1126,32.6627,397.1874],[4.1217,32.6607,391.5779],[4.1276,32.654,392.8529],[4.1292,32.6373,410.5616],[4.1336,32.6377,407.2537],[4.1475,32.644,385.4654],[4.1616,32.6447,381.3422],[4.1738,32.6488,384.3887],[4.1727,32.6647,411.6384],[4.1591,32.7391,420.4189],[4.144,32.8398,467.7759],[4.1293,32.9745,509.2582],[4.1272,33.0095,508.4116],[4.1249,33.014,523.1573],[3.8848,33.0296,534.5878],[3.8759,33.0358,536.4838],[3.8713,33.0343,540.1488],[3.8663,33.0294,550.3544],[3.8501,33.02,555.7014],[3.844,33.0197,548.898],[3.8388,33.0211,549.0673],[3.8272,33.0368,555.9366],[3.8195,33.0369,562.741],[3.8004,33.0471,572.2283]]]]}
,"properties": {"GID_2": "DZA.20.1_1","GID_0": "DZA","country": "Algeria","GID_1": "DZA.20_1","province": "Ghardaïa","NL_NAME_1": "ولايةغرداية","county": "Berriane","VARNAME_2": "Biryān","NL_NAME_2": "NA","TYPE_2": "Commune","ENGTYPE_2": "Commune","CC_2": "4704","HASC_2": "DZ.GR.BE","name": "Berriane.county","area_km2": 2609.517,"hist_schema_id": "Elevation0-9000","hist_area_km2": {"375": 2.214,"400": 23.807,"425": 63.715,"450": 123.885,"475": 174.336,"500": 222.059,"525": 276.83,"550": 257.09,"575": 233.306,"600": 195.472,"625": 183.797,"650": 176.062,"675": 142.91,"700": 130.32,"725": 123.723,"750": 158.368,"775": 104.388,"800": 17.236}}}