{"type": "Feature","bbox": [4.1746,36.7038,4.3329,36.8188],"geometry": {"type": "MultiPolygon","coordinates": [[[[4.2857,36.8188,796.6403],[4.2793,36.8082,518.6028],[4.2749,36.7939,263.7967],[4.2697,36.7841,229.4521],[4.2706,36.7777,173.3007],[4.263,36.7594,145.2761],[4.2645,36.754,135.7411],[4.2584,36.7504,148.0261],[4.2473,36.7516,170.9595],[4.2372,36.7575,213.3798],[4.2336,36.7529,231.9193],[4.2254,36.754,245.371],[4.2096,36.7343,190.5847],[4.2033,36.7288,114.7707],[4.1974,36.7272,106.8966],[4.1846,36.73,126.5208],[4.1787,36.7288,166.5386],[4.1746,36.7251,178.6252],[4.1766,36.7128,103.258],[4.1827,36.7116,88.2233],[4.1871,36.7067,87.862799999999993],[4.1928,36.704,90.7714],[4.2123,36.7038,91.8732],[4.2159,36.7061,99.417],[4.2175,36.7111,97.9722],[4.2234,36.7122,100.532],[4.2277,36.7072,116.0397],[4.2341,36.7084,102.4555],[4.2489,36.7173,107.2611],[4.2533,36.7165,104.6403],[4.268,36.7225,106.7974],[4.2714,36.7271,112.7916],[4.2723,36.7329,111.37],[4.2853,36.7417,118.3542],[4.2914,36.7427,120.1917],[4.2978,36.7408,123.5959],[4.3009,36.7351,123.0863],[4.3058,36.7319,128.9899],[4.3105,36.739,131.5204],[4.319,36.7437,158.6935],[4.321,36.7503,175.9693],[4.3263,36.7534,182.9039],[4.3311,36.7691,165.4287],[4.3329,36.7809,295.8944],[4.3296,36.7923,415.3743],[4.3206,36.7981,524.9845],[4.3108,36.8079,490.4971],[4.3058,36.8073,472.7033],[4.2937,36.811,625.4552],[4.2857,36.8188,796.6403]]]]}
,"properties": {"GID_2": "DZA.47.33_1","GID_0": "DZA","country": "Algeria","GID_1": "DZA.47_1","province": "TiziOuzou","NL_NAME_1": "ولايةغليزان","county": "Freha","VARNAME_2": "Fariha","NL_NAME_2": "NA","TYPE_2": "Commune","ENGTYPE_2": "Commune","CC_2": "1504","HASC_2": "DZ.TO.FH","name": "Freha.county","area_km2": 69.3093,"hist_schema_id": "Elevation0-9000","hist_area_km2": {"75": 0.034,"100": 5.30268,"125": 8.59798,"150": 9.75197,"175": 10.70278,"200": 10.12477,"225": 6.54034,"250": 4.28082,"275": 2.4119,"300": 1.42634,"325": 1.29046,"350": 1.42626,"375": 1.22247,"400": 1.12056,"425": 1.03564,"450": 0.89979,"475": 0.95069,"500": 0.67906,"525": 0.44137,"550": 0.15278,"575": 0.22068,"600": 0.23765,"625": 0.08487,"650": 0.08487,"675": 0.11882,"700": 0.0679,"725": 0.03395,"750": 0.03395,"775": 0.03395}}}