{"type":"Feature","properties":{"GID_2":"DZA.43.23_1","GID_0":"DZA","country":"Algeria","GID_1":"DZA.43_1","province":"Tiaret","NL_NAME_1":"ولايةتيارت","county":"Nadorah","VARNAME_2":"NA","NL_NAME_2":"NA","TYPE_2":"Commune","ENGTYPE_2":"Commune","CC_2":"1431","HASC_2":"DZ.TR.ND","name":"Nadorah.county"},
"geometry":{"type": "MultiPolygon","coordinates": [[[[1.7274,35.2965,927.58989999999994],[1.7322,35.2912,938.1083],[1.722,35.2792,948.4879],[1.7257,35.2634,1017.7003],[1.741,35.2533,1047.7048],[1.7479,35.2512,1050.9895],[1.771,35.2483,992.9407],[1.776,35.2506,985.4371],[1.7862,35.2478,996.6021],[1.7865,35.2319,1028.2167],[1.7913,35.2267,1024.8562],[1.8263,35.2007,1189.1826],[1.8285,35.196,1456.2689],[1.8085,35.1766,1277.5214],[1.8065,35.1662,1279.0991],[1.8114,35.1641,1278.1417],[1.823,35.1533,1274.0916],[1.8288,35.1503,1295.3256],[1.8337,35.1515,1295.7727],[1.8392,35.1458,1241.9899],[1.8488,35.1338,1286.7229],[1.8593,35.1055,1295.207],[1.864,35.1005,1287.0232],[1.8838,35.0859,1274.2495],[1.928,35.0712,1168.0686],[1.9268,35.0666,1195.428],[1.9185,35.0533,1080.7947],[1.9299,35.0543,1024.5653],[1.9523,35.0645,988.0012],[1.9551,35.0678,982.9476],[1.9802,35.0842,956.0502],[2.0158,35.077,932.8813],[2.1053,35.1002,878.4155],[2.0606,35.1322,917.1477],[2.0539,35.1613,964.9301],[2.0206,35.2112,865.0739],[2.0059,35.2665,865.3497],[1.9788,35.2993,848.7786],[1.9527,35.3279,893.7202],[1.9485,35.3341,888.0981],[1.9308,35.3764,856.6487],[1.9261,35.384,856.007],[1.9194,35.3801,855.7228],[1.9023,35.3788,860.4958],[1.8796,35.3724,866.0432],[1.8593,35.3708,870.3956],[1.8447,35.3659,875.8054],[1.8356,35.3669,877.8403],[1.8206,35.3593,883.2068],[1.808,35.3567,886.8586],[1.8048,35.3521,890.2656],[1.7981,35.3493,890.8202],[1.7838,35.3461,894.7528],[1.7661,35.3452,900.8715],[1.7574,35.333,906.3518],[1.7524,35.3298,912.3232],[1.7499,35.3197,914.8607],[1.747,35.3163,916.8251],[1.7294,35.3062,924.0034],[1.7274,35.2965,927.58989999999994]]]]}}