{"type":"Feature","properties":{"GID_2":"DZA.17.4_1","GID_0":"DZA","country":"Algeria","GID_1":"DZA.17_1","province":"ElBayadh","NL_NAME_1":"ولايةالبيض","county":"Bougtoub","VARNAME_2":"NA","NL_NAME_2":"NA","TYPE_2":"Commune","ENGTYPE_2":"Commune","CC_2":"3210","HASC_2":"DZ.EB.BG","name":"Bougtoub.county"},
"geometry":{"type": "MultiPolygon","coordinates": [[[[0.5088,34.3201,989.0877],[0.4964,34.3237,991.4523],[0.4888,34.32,994.4414],[0.482,34.3151,990.9427],[0.4784,34.3088,999.5089],[0.4387,34.29,995.5892],[0.4225,34.2807,1001.8062],[0.4094,34.2688,999.972],[0.4021,34.2644,993.6913],[0.3857,34.2553,988.2004],[0.3385,34.234,988.3676],[0.3007,34.23,989.2792],[0.2679,34.2353,984.0],[0.2574,34.2347,991.5671],[0.2444,34.2315,989.9068],[0.2196,34.2122,997.5021],[0.2122,34.1873,998.0576],[0.1925,34.163,994.1364],[0.1773,34.1513,994.2501],[0.153,34.1384,989.7545],[0.1502,34.1334,987.9307],[0.1437,34.1329,988.1262],[0.1377,34.1355,990.7904],[0.1328,34.1341,988.1139],[0.1078,34.0699,984.9723],[0.0977,34.0704,984.3646],[0.0924,34.069,984.4346],[0.0867,34.0658,982.5],[0.0857,34.0537,985.4547],[0.0632,34.0465,988.0522],[0.0492,34.0437,986.2702],[0.0321,34.0336,989.8937],[0.024,34.0237,992.7675],[0.0361,34.015,1034.1912],[0.0728,33.9942,1039.9252],[0.0691,33.9789,1042.1448],[0.0683,33.9617,1044.707],[0.0634,33.9349,1047.8353],[0.0648,33.8911,1057.1748],[0.071,33.8899,1059.7588],[0.0878,33.8809,1065.2181],[0.0985,33.8806,1067.8076],[0.1125,33.855,1079.2968],[0.1258,33.8236,1092.5507],[0.1351,33.8112,1100.4094],[0.1469,33.8103,1105.5815],[0.1644,33.8053,1114.8101],[0.083,33.7676,1097.1868],[0.0741,33.7613,1101.925],[0.1039,33.7606,1095.408],[0.1709,33.7546,1122.0979],[0.2008,33.7422,1140.5106],[0.2222,33.7376,1146.4589],[0.2423,33.7293,1157.9961],[0.2674,33.7244,1164.5405],[0.2828,33.7228,1166.6597],[0.3027,33.7307,1170.1532],[0.3151,33.7321,1176.3987],[0.3258,33.7266,1184.5188],[0.3366,33.7276,1190.322],[0.3674,33.7242,1208.0996],[0.3866,33.7255,1224.7095],[0.3895,33.7311,1238.2927],[0.389,33.7383,1247.3115],[0.3928,33.7679,1275.6182],[0.3991,33.7843,1240.5271],[0.3998,33.7903,1222.8372],[0.4046,33.7966,1210.7333],[0.4037,33.8024,1204.9545],[0.4048,33.8084,1196.9314],[0.3986,33.8149,1182.3615],[0.3956,33.8261,1169.5406],[0.3974,33.8309,1163.7661],[0.4013,33.8359,1157.5189],[0.4134,33.8441,1151.4786],[0.4228,33.847,1144.0083],[0.4284,33.8467,1138.2188],[0.4595,33.866,1116.9651],[0.4787,33.8866,1103.1788],[0.4794,33.8969,1100.6963],[0.4889,33.9051,1091.3903],[0.4946,33.9145,1085.4303],[0.4927,33.9187,1083.7136],[0.4943,33.9238,1080.698],[0.4918,33.9294,1077.5237],[0.4947,33.9389,1071.9725],[0.4937,33.9547,1063.0084],[0.4949,33.9594,1060.2491],[0.4945,33.9648,1057.2693],[0.4904,33.9759,1050.7263],[0.4918,33.9957,1038.1941],[0.4996,34.0026,1033.5735],[0.4991,34.0069,1032.1553],[0.4955,34.011,1029.348],[0.4939,34.0187,1023.9735],[0.501,34.0598,1002.051],[0.5953,34.0708,989.8055],[0.5855,34.0874,988.5644],[0.5821,34.0989,991.2844],[0.5734,34.1175,992.4008],[0.5683,34.1235,990.3116],[0.5582,34.1294,987.2981],[0.5409,34.1446,993.7234],[0.5488,34.1796,999.0258],[0.5473,34.1886,995.781],[0.548,34.2029,984.8267],[0.546,34.2165,985.9297],[0.537,34.2498,987.3867],[0.5117,34.309,986.7957],[0.5088,34.3201,989.0877]]]]}}