{"type":"Feature","properties":{"GID_2":"DZA.20.11_1","GID_0":"DZA","country":"Algeria","GID_1":"DZA.20_1","province":"Ghardaïa","NL_NAME_1":"ولايةغرداية","county":"Metlili","VARNAME_2":"Matlīlī","NL_NAME_2":"NA","TYPE_2":"Commune","ENGTYPE_2":"Commune","CC_2":"4705","HASC_2":"DZ.GR.ME","name":"Metlili.county"},
"geometry":{"type": "MultiPolygon","coordinates": [[[[3.1623,32.5527,679.0012],[3.1488,32.556,691.4792],[2.728,32.8388,733.7731],[2.2502,32.8031,739.4932],[2.2907,32.77,715.9644],[2.5583,32.5951,658.1219],[2.7627,32.4444,623.3591],[2.9053,32.4143,552.2898],[3.0572,32.3574,691.2792],[3.1532,32.2951,622.0969],[3.1665,32.2901,619.9669],[3.172,32.2897,618.1116],[3.1865,32.2792,590.3154],[3.1932,32.2767,589.5974],[3.2018,32.2769,584.6879],[3.2117,32.2745,579.527],[3.2251,32.2671,573.556],[3.2333,32.2662,573.2256],[3.2446,32.2684,577.5251],[3.2764,32.2692,550.423],[3.3396,32.2433,627.8273],[3.5922,32.2227,594.1154],[4.2819,32.071,314.673],[4.3239,32.0607,289.5379],[4.397,32.0515,281.205],[4.4144,32.0461,278.3086],[4.4344,32.0365,274.8462],[4.4622,32.2113,311.6163],[3.8168,32.3666,426.2047],[3.8073,32.3676,430.3279],[3.7867,32.3656,446.0172],[3.7538,32.3683,481.6501],[3.6449,32.3835,533.9861],[3.3967,32.451,643.2109],[3.2096,32.5309,694.0951],[3.1623,32.5527,679.0012]]]]}}