{"type":"Feature","properties":{"GID_2":"DZA.2.31_1","GID_0":"DZA","country":"Algeria","GID_1":"DZA.2_1","province":"AïnDefla","NL_NAME_1":"ولايةعينالدفلى","county":"Rouina","VARNAME_2":"Ruwīnah","NL_NAME_2":"NA","TYPE_2":"Commune","ENGTYPE_2":"Commune","CC_2":"4416","HASC_2":"DZ.AD.RO","name":"Rouina.county"},
"geometry":{"type": "MultiPolygon","coordinates": [[[[1.7931,36.2476,179.7949],[1.7912,36.2429,190.3599],[1.7737,36.2373,200.3956],[1.7689,36.234,198.9328],[1.7688,36.2295,208.4168],[1.7779,36.2057,262.6415],[1.7837,36.2039,321.1485],[1.7892,36.2041,394.4944],[1.7928,36.2012,384.5259],[1.7939,36.1951,339.3328],[1.7996,36.1923,370.8001],[1.8181,36.1897,323.0006],[1.8239,36.1867,272.9912],[1.8399,36.1864,229.5],[1.8423,36.192,229.5],[1.8549,36.1936,242.805],[1.8597,36.196,266.1033],[1.8589,36.2011,276.4293],[1.8544,36.2097,281.7003],[1.8538,36.2142,273.7325],[1.8562,36.2195,282.1328],[1.8664,36.2273,291.2637],[1.8748,36.2312,282.6217],[1.8757,36.236,278.6975],[1.8742,36.2411,277.2291],[1.8791,36.2604,225.5194],[1.8873,36.261,249.2328],[1.8912,36.2648,231.9839],[1.8895,36.2702,202.0136],[1.879,36.2689,201.801],[1.8645,36.2728,197.874],[1.8523,36.2723,195.2542],[1.8476,36.2683,192.2849],[1.8464,36.2601,194.3566],[1.842,36.2562,186.8937],[1.8186,36.2526,182.598],[1.8119,36.2558,182.5219],[1.8061,36.2513,181.606],[1.7931,36.2476,179.7949]]]]}}