{"type": "Feature","bbox": [0.405,35.7541,0.5679,35.8865],"geometry": {"type": "MultiPolygon","coordinates": [[[[0.405,35.8017,123.3191],[0.4079,35.7951,95.9615],[0.4275,35.7705,59.8915],[0.4429,35.7894,54.1577],[0.4399,35.7541,58.0256],[0.4471,35.7572,56.7663],[0.466,35.7595,55.9483],[0.4791,35.755,58.3269],[0.5136,35.7568,61.4056],[0.5286,35.7686,58.433],[0.5634,35.7817,52.963],[0.5666,35.7845,52.2797],[0.5679,35.7901,51.9023],[0.567,35.7979,50.1052],[0.5594,35.8211,47.2559],[0.5487,35.8266,57.0357],[0.5452,35.8409,49.9525],[0.5487,35.8449,46.6142],[0.5481,35.8515,43.9086],[0.5391,35.8687,42.2436],[0.5356,35.8653,42.604],[0.5304,35.8649,47.2798],[0.5122,35.8675,109.8858],[0.5021,35.8707,163.9049],[0.4878,35.8815,306.4275],[0.4768,35.8865,374.6795],[0.4675,35.8767,440.4303],[0.4621,35.8731,413.3726],[0.4632,35.8686,361.8164],[0.4621,35.8634,355.5229],[0.4549,35.8558,400.2111],[0.453,35.85,369.4057],[0.4447,35.8418,422.169],[0.4389,35.8407,430.0469],[0.4332,35.8362,385.7524],[0.4218,35.8201,223.8298],[0.413,35.8159,214.4899],[0.4079,35.8181,236.2446],[0.4064,35.811,174.9741],[0.4089,35.8059,146.0128],[0.405,35.8017,123.3191]]]]}
,"properties": {"GID_2": "DZA.35.4_1","GID_0": "DZA","country": "Algeria","GID_1": "DZA.35_1","province": "Relizane","NL_NAME_1": "ولايةغليزان","county": "BelaasselBouzagza","VARNAME_2": "BelaasselBouzegza","NL_NAME_2": "NA","TYPE_2": "Commune","ENGTYPE_2": "Commune","CC_2": "4803","HASC_2": "DZ.RE.BB","name": "Belaassel_Bouzagza.county","area_km2": 137.4285,"hist_schema_id": "Elevation0-9000","hist_area_km2": {"50": 92.5672,"75": 9.5412,"100": 6.1713,"125": 4.0051,"150": 3.3517,"175": 3.2485,"200": 3.2312,"225": 2.389,"250": 2.0451,"275": 1.9935,"300": 2.2513,"325": 2.045,"350": 1.9934,"375": 1.1342,"400": 0.8593,"425": 0.464,"450": 0.0859,"475": 0.0515}}}