{"type": "Feature","bbox": [0.909,36.1157,1.0318,36.2363],"geometry": {"type": "MultiPolygon","coordinates": [[[[1.0067,36.2355,282.9521],[0.9989,36.2363,285.8066],[0.9799,36.2342,348.6714],[0.9642,36.2307,378.2039],[0.9586,36.232,403.966],[0.9456,36.2318,498.9515],[0.9414,36.2346,514.181],[0.9395,36.2194,526.6841],[0.9283,36.2181,388.6591],[0.9232,36.2144,349.9615],[0.9197,36.2094,340.6954],[0.9133,36.2079,334.4453],[0.9124,36.2028,328.7673],[0.909,36.1985,325.199],[0.9156,36.1938,374.2978],[0.9178,36.1822,476.9358],[0.9228,36.1746,582.533],[0.9196,36.1599,592.6423],[0.9205,36.1527,540.643],[0.934,36.1564,550.3576],[0.9411,36.1549,530.6404],[0.9445,36.1519,510.1125],[0.9354,36.1451,505.2163],[0.9385,36.1376,465.0531],[0.937,36.1298,379.0237],[0.9429,36.1338,457.7263],[0.9459,36.1289,389.3164],[0.9466,36.1243,356.5864],[0.9651,36.1323,413.5999],[0.9808,36.1309,527.6047],[0.9896,36.1185,287.6844],[0.9939,36.1157,248.7887],[1.0065,36.12,206.2745],[1.0213,36.1216,217.4335],[1.0239,36.1283,263.8725],[1.0318,36.1349,278.5319],[1.0302,36.1393,285.7155],[1.0261,36.1431,291.3091],[1.0219,36.1524,361.9711],[1.0212,36.1583,412.8875],[1.0235,36.1628,434.9022],[1.0244,36.1771,557.8807],[1.0286,36.1898,590.4313],[1.0193,36.198,451.4626],[1.0112,36.202,344.7525],[1.0117,36.2191,264.3953],[1.017,36.2251,283.8008],[1.0198,36.232,212.9494],[1.0135,36.2347,230.2784],[1.0067,36.2355,282.9521]]]]}
,"properties": {"GID_2": "DZA.14.2_1","GID_0": "DZA","country": "Algeria","GID_1": "DZA.14_1","province": "Chlef","NL_NAME_1": "ولايةالشلف","county": "AinMerrane","VARNAME_2": "AinMerane|`AynMaran","NL_NAME_2": "NA","TYPE_2": "Commune","ENGTYPE_2": "Commune","CC_2": "232","HASC_2": "DZ.CH.AM","name": "Ain_Merrane.county","area_km2": 102.25589,"hist_schema_id": "Elevation0-9000","hist_area_km2": {"150": 0.03425,"175": 0.08563,"200": 0.63345,"225": 1.88316,"250": 2.10552,"275": 2.43007,"300": 2.82315,"325": 4.56845,"350": 5.95468,"375": 6.48514,"400": 8.07716,"425": 7.76913,"450": 7.63228,"475": 7.90699,"500": 15.6274,"525": 12.44292,"550": 7.29039,"575": 4.3814,"600": 3.74819,"625": 0.37651}}}