{"type":"Feature","properties":{"GID_2":"DZA.29.20_1","GID_0":"DZA","country":"Algeria","GID_1":"DZA.29_1","province":"Mila","NL_NAME_1":"ولايةميلة","county":"OuedSeguen","VARNAME_2":"NA","NL_NAME_2":"NA","TYPE_2":"Commune","ENGTYPE_2":"Commune","CC_2":"4307","HASC_2":"DZ.ML.OS","name":"Oued_Seguen.county"},
"geometry":{"type": "MultiPolygon","coordinates": [[[[6.424,36.2506,649.6177],[6.4268,36.2401,677.0153],[6.4117,36.2285,647.9573],[6.3952,36.223,652.0684],[6.3902,36.2275,658.7749],[6.3845,36.2284,658.407],[6.3784,36.2245,660.9141],[6.3776,36.2173,665.3995],[6.3869,36.1954,698.1414],[6.3794,36.1876,716.0777],[6.3754,36.1852,718.7916],[6.3619,36.1957,765.9694],[6.3494,36.1932,798.7627],[6.3462,36.1882,803.5395],[6.3401,36.1836,800.6391],[6.3287,36.1798,797.1651],[6.3227,36.1735,865.8719],[6.323,36.1637,827.4011],[6.3557,36.1634,783.3589],[6.3607,36.157,756.9402],[6.3668,36.1531,740.928],[6.3818,36.1501,716.5773],[6.4005,36.139,790.5594],[6.435,36.1426,880.9456],[6.4497,36.1544,828.9396],[6.4551,36.1562,827.7592],[6.4681,36.1544,847.6485],[6.473,36.1552,861.0074],[6.4832,36.1588,868.4171],[6.4832,36.1653,888.3531],[6.4895,36.1668,887.4211],[6.5169,36.1682,928.0308],[6.5218,36.166,931.7681],[6.5267,36.1671,953.7529],[6.5317,36.17,955.5853],[6.5378,36.1708,940.6033],[6.5435,36.1776,885.3881],[6.5451,36.1833,855.0688],[6.5426,36.1948,815.5098],[6.5316,36.2017,795.5906],[6.5295,36.206,765.962],[6.5402,36.2092,752.3342],[6.5423,36.2131,737.0449],[6.5375,36.2185,719.4966],[6.538,36.2228,747.4799],[6.507,36.2349,748.7006],[6.5027,36.239,753.5921],[6.4958,36.2551,620.8118],[6.4786,36.2546,617.0297],[6.4613,36.248,627.8773],[6.4488,36.2457,628.4474],[6.424,36.2506,649.6177]]]]}}