{"type":"Feature","properties":{"GID_2":"DZA.39.24_1","GID_0":"DZA","country":"Algeria","GID_1":"DZA.39_1","province":"Skikda","NL_NAME_1":"سكيكدة","county":"Kanoua","VARNAME_2":"NA","NL_NAME_2":"NA","TYPE_2":"Commune-Cotiere","ENGTYPE_2":"Commune-Cotiere","CC_2":"2132","HASC_2":"DZ.SK.KA","name":"Kanoua.county"},
"geometry":{"type": "MultiPolygon","coordinates": [[[[6.4745,37.0857,95.9703],[6.4697,37.0886,16.4462],[6.4599,37.0853,10.7347],[6.4446,37.0831,0.0],[6.4284,37.0823,0.0],[6.4176,37.0844,0.0],[6.4018,37.0839,14.334],[6.3847,37.0795,0.0],[6.3642,37.0768,22.9939],[6.3517,37.0722,0.0],[6.3486,37.069,65.9302],[6.3532,37.0619,353.3412],[6.3754,37.0483,659.7647],[6.3783,37.0429,685.6555],[6.3787,37.0371,701.9081],[6.3889,37.0317,916.3433],[6.3933,37.0316,940.6726],[6.394,37.0273,884.3113],[6.3838,37.0131,551.4204],[6.3904,37.0129,585.684],[6.396,37.0159,660.4634],[6.4026,37.0247,880.3387],[6.4107,37.0163,889.9933],[6.4135,37.0057,923.4921],[6.4253,37.0106,874.7467],[6.4318,37.0112,798.0112],[6.4425,37.0065,707.2158],[6.4478,37.0072,662.0608],[6.4589,37.0103,662.6914],[6.4632,37.0138,666.0115],[6.4589,37.0241,406.6248],[6.4607,37.0281,353.519],[6.4683,37.0351,205.9079],[6.4692,37.0403,383.5526],[6.468,37.0461,562.2399],[6.4779,37.0506,449.1082],[6.4797,37.0642,675.7506],[6.4734,37.0727,518.5709],[6.4745,37.0857,95.9703]]]]}}