{"type":"Feature","properties":{"GID_2":"DZA.27.45_1","GID_0":"DZA","country":"Algeria","GID_1":"DZA.27_1","province":"Mascara","NL_NAME_1":"ولايةمعسكر","county":"Tizi","VARNAME_2":"NA","NL_NAME_2":"NA","TYPE_2":"Commune","ENGTYPE_2":"Commune","CC_2":"2903","HASC_2":"DZ.MC.TZ","name":"Tizi.county"},
"geometry":{"type": "MultiPolygon","coordinates": [[[[0.0669,35.2409,542.4392],[0.0729,35.2404,568.767],[0.0784,35.2437,584.21],[0.0849,35.2408,573.27],[0.0919,35.2403,642.5193],[0.0941,35.2496,625.769],[0.0977,35.2534,612.6092],[0.0949,35.2579,572.202],[0.0975,35.2635,554.9069],[0.0921,35.2671,494.0971],[0.0899,35.2746,534.9741],[0.095,35.2791,564.5601],[0.1095,35.2866,501.0518],[0.1074,35.2932,605.9718],[0.1038,35.298,534.2098],[0.1014,35.3106,458.6315],[0.1119,35.319,459.4866],[0.1094,35.34,458.4529],[0.1014,35.3475,460.6945],[0.099,35.3532,464.1362],[0.0864,35.3558,473.9615],[0.0701,35.3515,477.3681],[0.0653,35.3568,522.0706],[0.0505,35.3644,656.1903],[0.039,35.3616,623.4699],[0.0271,35.3628,474.0024],[0.0238,35.3659,435.5942],[0.0257,35.3795,523.7811],[0.0239,35.3912,714.8694],[0.0208,35.3944,610.2649],[0.0145,35.3921,537.0596],[0.0037,35.3803,414.6133],[-0.0087,35.3758,344.8593],[-0.0043,35.3726,442.14],[-0.0046,35.3663,301.4081],[-0.0018,35.3622,319.4134],[-0.0095,35.3535,291.1328],[-0.0109,35.3486,350.5302],[-0.0108,35.3323,301.975],[-0.0221,35.3111,383.2343],[-0.0239,35.305,334.2173],[-0.0217,35.3007,438.3581],[-0.0218,35.2962,374.5161],[-0.0313,35.2903,357.507],[-0.0252,35.287,379.2887],[-0.019,35.2862,422.5471],[-0.0126,35.2823,478.6409],[-0.0096,35.2778,534.0312],[0.0004,35.2723,679.0958],[0.0016,35.267,682.04],[0.0008,35.2614,619.2737],[0.0053,35.2617,543.8441],[0.0172,35.259,458.0775],[0.0228,35.2564,440.0812],[0.0257,35.2508,450.5131],[0.0411,35.2546,467.7321],[0.0646,35.2529,492.0376],[0.0669,35.2409,542.4392]]]]}}