{"type":"Feature","properties":{"GID_2":"DZA.43.11_1","GID_0":"DZA","country":"Algeria","GID_1":"DZA.43_1","province":"Tiaret","NL_NAME_1":"ولايةتيارت","county":"Faidja","VARNAME_2":"NA","NL_NAME_2":"NA","TYPE_2":"Commune","ENGTYPE_2":"Commune","CC_2":"1441","HASC_2":"DZ.TR.FA","name":"Faidja.county"},
"geometry":{"type": "MultiPolygon","coordinates": [[[[2.3598,34.7892,868.9285],[2.3591,34.8071,864.4097],[2.3499,34.8276,859.2637],[2.2947,34.8663,842.6947],[2.2469,34.8922,909.182],[2.1774,35.0012,936.9624],[2.1053,35.1002,878.4155],[2.0158,35.077,932.8813],[1.9802,35.0842,956.0502],[1.9551,35.0678,982.9476],[1.9523,35.0645,988.0012],[1.9299,35.0543,1024.5653],[1.9185,35.0533,1080.7947],[1.9268,35.0666,1195.428],[1.928,35.0712,1168.0686],[1.8838,35.0859,1274.2495],[1.864,35.1005,1287.0232],[1.8593,35.1055,1295.207],[1.8488,35.1338,1286.7229],[1.8392,35.1458,1241.9899],[1.8337,35.1515,1295.7727],[1.8288,35.1503,1295.3256],[1.823,35.1533,1274.0916],[1.8114,35.1641,1278.1417],[1.8065,35.1662,1279.0991],[1.8085,35.1766,1277.5214],[1.7993,35.1733,1223.8132],[1.7935,35.1761,1225.7687],[1.7737,35.1783,1134.087],[1.7594,35.1718,1206.5493],[1.7465,35.1595,1221.8126],[1.7333,35.1505,1339.1898],[1.7004,35.1195,1291.2438],[1.6881,35.116,1310.9988],[1.6838,35.1118,1284.26],[1.673,35.1081,1307.1506],[1.6607,35.1081,1378.7019],[1.6201,35.0975,1363.8048],[1.621,35.0916,1347.4099],[1.6343,35.0842,1286.2532],[1.6336,35.0785,1327.7787],[1.6358,35.0729,1328.2699],[1.6419,35.0672,1324.8066],[1.6447,35.0574,1324.5193],[1.6378,35.0538,1322.5591],[1.6312,35.0316,1298.8435],[1.6438,34.9779,1238.3059],[1.6454,34.9517,1219.1217],[1.6655,34.9176,1174.9646],[1.6711,34.8973,1162.1284],[1.7048,34.8714,1134.36],[1.7104,34.8604,1120.3588],[1.7531,34.8141,1103.1584],[1.8236,34.7965,1081.5022],[1.8275,34.7821,1043.5386],[1.8383,34.7721,1033.4192],[1.8426,34.7619,1026.0056],[1.8538,34.7554,1018.9864],[1.8679,34.7536,1013.5772],[1.8791,34.7562,1008.2109],[1.9004,34.7501,999.1822],[1.913,34.7483,993.5628],[1.9244,34.743,988.8743],[1.9333,34.7368,983.3743],[1.9452,34.7393,978.9228],[1.9612,34.7339,973.9463],[1.9812,34.7341,965.744],[1.9921,34.7315,960.65],[2.0159,34.733,952.8074],[2.0226,34.7312,953.3875],[2.0888,34.6734,1054.3921],[2.1111,34.6063,965.3032],[2.1755,34.6272,931.1138],[2.1921,34.6363,923.5432],[2.2043,34.6405,922.3859],[2.2243,34.6798,904.5053],[2.2584,34.6847,896.9327],[2.3653,34.6948,896.2155],[2.3723,34.7069,908.1425],[2.3707,34.7143,900.6003],[2.3667,34.7207,884.8397],[2.3645,34.7333,892.1686],[2.3598,34.7892,868.9285]]]]}}