{"type": "Feature","bbox": [-0.5082,35.7251,-0.3641,35.8724],"geometry": {"type": "MultiPolygon","coordinates": [[[[-0.3641,35.7631,83.7374],[-0.3762,35.7686,89.7492],[-0.3859,35.7811,122.0713],[-0.3917,35.7899,141.7143],[-0.397,35.8063,174.6665],[-0.4104,35.8134,237.6993],[-0.42,35.8266,201.343],[-0.4319,35.8259,228.9998],[-0.4357,35.8288,296.335],[-0.4431,35.8301,323.8979],[-0.4442,35.8349,354.4713],[-0.4394,35.8432,383.3253],[-0.4546,35.8545,534.496],[-0.4706,35.8706,122.9574],[-0.4756,35.8724,126.1754],[-0.4801,35.8702,4.2368],[-0.4856,35.8351,2.1068],[-0.4966,35.8053,31.2694],[-0.5017,35.7943,0.0],[-0.5082,35.7858,4.5117],[-0.5057,35.7803,203.6844],[-0.4773,35.7679,220.4561],[-0.4556,35.7535,130.1459],[-0.4432,35.7478,116.2717],[-0.4387,35.7434,108.9164],[-0.4345,35.7439,110.6175],[-0.43,35.742,108.3915],[-0.4086,35.7286,86.7628],[-0.4003,35.7251,84.6619],[-0.3969,35.7319,84.5385],[-0.3989,35.7361,85.383],[-0.3859,35.7442,84.1293],[-0.3708,35.7505,83.5],[-0.3687,35.7612,83.5],[-0.3641,35.7631,83.7374]]]]}
,"properties": {"GID_2": "DZA.32.15_1","GID_0": "DZA","country": "Algeria","GID_1": "DZA.32_1","province": "Oran","NL_NAME_1": "ولايةوهران","county": "Gdyel","VARNAME_2": "Qadayal","NL_NAME_2": "NA","TYPE_2": "Commune-Cotiere","ENGTYPE_2": "Commune-Cotiere","CC_2": "3102","HASC_2": "DZ.OR.GD","name": "Gdyel.county","area_km2": 98.75148,"hist_schema_id": "Elevation0-9000","hist_area_km2": {"0": 0.70485,"25": 1.23778,"50": 0.89403,"75": 6.69288,"100": 10.85617,"125": 13.71104,"150": 10.90512,"175": 5.69255,"200": 5.4513,"225": 5.57138,"250": 7.35967,"275": 5.96653,"300": 5.91484,"325": 5.41613,"350": 2.95713,"375": 2.38959,"400": 1.94255,"425": 1.66737,"450": 1.51264,"475": 1.11726,"500": 0.55001,"525": 0.1891,"550": 0.03437,"575": 0.0172}}}