{"type": "Feature","bbox": [5.0109,36.5626,5.143,36.714],"geometry": {"type": "MultiPolygon","coordinates": [[[[5.033,36.6015,257.3962],[5.0442,36.5979,249.4614],[5.0424,36.591,446.2104],[5.0464,36.5853,467.9886],[5.0622,36.5708,1024.1213],[5.0671,36.5738,948.12],[5.08,36.5775,685.4185],[5.0831,36.5729,707.8077],[5.0818,36.5669,881.4384],[5.0987,36.5626,966.194],[5.1018,36.5689,919.0423],[5.1022,36.5761,841.2438],[5.1115,36.5707,756.6738],[5.123,36.5702,606.5153],[5.1225,36.5753,852.8906],[5.1192,36.5799,1151.1025],[5.1277,36.5824,1162.2551],[5.1265,36.5883,1204.4015],[5.1279,36.5936,1198.0978],[5.1338,36.5951,1185.8163],[5.1379,36.5985,1070.6002],[5.1365,36.6039,1038.1156],[5.1245,36.6119,367.7623],[5.1229,36.6159,156.3647],[5.1274,36.6214,118.7492],[5.1278,36.6293,79.598],[5.1249,36.6349,148.3028],[5.1259,36.6398,197.9752],[5.1335,36.6511,444.8183],[5.12,36.6543,440.4831],[5.1308,36.6618,171.6493],[5.143,36.6754,10.5205],[5.1037,36.6953,1.0863],[5.0856,36.7092,0.0],[5.0835,36.714,1.1089],[5.0743,36.7109,2.0478],[5.071,36.7079,2.8793],[5.0673,36.6933,111.7363],[5.0588,36.6843,297.9959],[5.0554,36.6783,405.6911],[5.0348,36.6729,523.4745],[5.024,36.6623,592.5607],[5.0207,36.6562,839.5255],[5.0109,36.6477,888.7713],[5.0236,36.6413,647.1287],[5.0346,36.6223,513.2337],[5.0298,36.6073,304.8509],[5.033,36.6015,257.3962]]]]}
,"properties": {"GID_2": "DZA.8.17_1","GID_0": "DZA","country": "Algeria","GID_1": "DZA.8_1","province": "Béjaïa","NL_NAME_1": "بجاية","county": "Boukhlifa","VARNAME_2": "Boukhelifa","NL_NAME_2": "NA","TYPE_2": "Commune-Cotiere","ENGTYPE_2": "Commune-Cotiere","CC_2": "648","HASC_2": "DZ.BJ.BO","name": "Boukhlifa.county","area_km2": 115.40406,"hist_schema_id": "Elevation0-9000","hist_area_km2": {"0": 4.04615,"25": 1.85309,"50": 1.3602,"75": 1.75139,"100": 1.80256,"125": 2.75514,"150": 2.87452,"175": 3.24897,"200": 3.58926,"225": 4.03182,"250": 4.01491,"275": 4.20201,"300": 4.45732,"325": 4.47452,"350": 3.91319,"375": 4.06644,"400": 3.91321,"425": 4.13454,"450": 3.7432,"475": 3.69218,"500": 3.87932,"525": 3.81128,"550": 3.87958,"575": 3.52211,"600": 4.23682,"625": 3.35196,"650": 2.99469,"675": 2.75653,"700": 2.16104,"725": 1.9059,"750": 1.34437,"775": 1.25947,"800": 1.10632,"825": 1.00429,"850": 1.08937,"875": 1.2086,"900": 1.08956,"925": 0.91936,"950": 1.03857,"975": 1.00451,"1000": 0.64699,"1025": 0.81725,"1050": 0.59589,"1075": 0.25536,"1100": 0.23834,"1125": 0.2724,"1150": 0.34049,"1175": 0.2894,"1200": 0.18726,"1225": 0.11916,"1250": 0.08512,"1275": 0.0681}}}