{"type": "Feature","bbox": [7.0394,35.9056,7.2843,36.0574],"geometry": {"type": "MultiPolygon","coordinates": [[[[7.1007,36.0351,945.3301],[7.1052,36.0299,1038.2832],[7.0923,36.0208,1038.1206],[7.095,36.0165,998.4789],[7.091,36.011,1010.7678],[7.0897,36.0062,964.3006],[7.0865,36.0029,984.2797],[7.088,35.9971,981.3729],[7.0825,35.9923,1025.3187],[7.062,35.9821,997.0778],[7.0644,35.9768,943.5875],[7.0489,35.9746,983.9846],[7.0429,35.9724,988.3552],[7.0394,35.9688,1015.2291],[7.047,35.9611,957.7799],[7.0593,35.9537,918.6781],[7.0635,35.9487,931.0484],[7.069,35.9463,939.5305],[7.0956,35.9536,895.8331],[7.1015,35.9524,893.1672],[7.1085,35.922,986.9675],[7.1127,35.9207,1011.4753],[7.1349,35.9302,992.7242],[7.1691,35.9377,897.0253],[7.1743,35.9355,895.6188],[7.1739,35.9306,911.9978],[7.1713,35.9265,945.0613],[7.1746,35.9227,921.6945],[7.1663,35.9157,964.8441],[7.1709,35.9148,947.7117],[7.1657,35.9075,970.8304],[7.1802,35.9056,932.4803],[7.1872,35.9066,908.1649],[7.19,35.911,894.3393],[7.1941,35.9124,891.595],[7.2055,35.9093,896.1345],[7.2126,35.9103,885.7689],[7.2308,35.9069,862.0919],[7.2431,35.91,864.1929],[7.2527,35.9096,875.163],[7.2585,35.912,873.5558],[7.2671,35.9233,864.9397],[7.2764,35.9295,853.4791],[7.2813,35.9299,861.8663],[7.2816,35.9361,850.9549],[7.2843,35.9405,859.9996],[7.2709,35.9538,842.6871],[7.2679,35.9668,832.9594],[7.2678,35.975,827.7911],[7.2513,35.991,859.5242],[7.2376,35.9992,830.024],[7.2347,36.0035,823.7183],[7.2301,36.0022,824.9182],[7.2227,36.0099,856.7991],[7.2173,36.0098,892.0464],[7.2106,36.0072,881.7176],[7.1978,35.9991,894.7274],[7.1924,36.0016,857.455],[7.1876,36.0062,859.8262],[7.1873,36.0117,851.952],[7.1883,36.0168,848.8447],[7.1935,36.0206,846.1342],[7.1907,36.0249,829.2156],[7.1833,36.0312,849.5479],[7.1784,36.033,877.8298],[7.1747,36.0375,928.1207],[7.1731,36.0519,911.4155],[7.1658,36.0574,920.3138],[7.1412,36.0465,925.9583],[7.1079,36.0407,896.8934],[7.1007,36.0351,945.3301]]]]}
,"properties": {"GID_2": "DZA.34.1_1","GID_0": "DZA","country": "Algeria","GID_1": "DZA.34_1","province": "OumelBouaghi","NL_NAME_1": "ولايةأمالبواقي","county": "AinBebouche","VARNAME_2": "AinBabouche","NL_NAME_2": "NA","TYPE_2": "Commune","ENGTYPE_2": "Commune","CC_2": "408","HASC_2": "DZ.OB.AC","name": "Ain_Bebouche.county","area_km2": 198.9917,"hist_schema_id": "Elevation0-9000","hist_area_km2": {"825": 8.1326,"850": 47.9495,"875": 40.328,"900": 42.8994,"925": 25.1182,"950": 16.1599,"975": 10.686,"1000": 5.7116,"1025": 1.5949,"1050": 0.3601,"1075": 0.0514}}}