{"type":"Feature","properties":{"GID_2":"DZA.4.14_1","GID_0":"DZA","country":"Algeria","GID_1":"DZA.4_1","province":"Alger","NL_NAME_1":"ولايةالجزائر","county":"Kouba","VARNAME_2":"NA","NL_NAME_2":"NA","TYPE_2":"Commune","ENGTYPE_2":"Commune","CC_2":"1618","HASC_2":"DZ.AL.KO","name":"Kouba.county"},
"geometry":{"type": "MultiPolygon","coordinates": [[[[3.1318,36.741,1.4159],[3.0981,36.7463,3.2254],[3.0658,36.7558,7.7829],[3.0577,36.7498,147.3288],[3.0594,36.7447,155.1566],[3.0549,36.7402,117.1953],[3.0379,36.741,186.6486],[3.0275,36.738,200.6327],[3.027,36.7327,181.3382],[3.0237,36.7267,158.7692],[3.0266,36.7219,127.289],[3.0331,36.7298,160.4181],[3.0394,36.7317,176.952],[3.0451,36.7304,145.5409],[3.0544,36.7241,128.1675],[3.0568,36.7198,129.202],[3.0682,36.7138,86.3329],[3.0694,36.7061,64.7019],[3.0743,36.7048,77.4437],[3.0882,36.7128,67.7741],[3.1042,36.7141,55.8679],[3.1096,36.7157,57.0623],[3.1145,36.7196,55.9247],[3.128,36.7226,48.4386],[3.1311,36.7258,5.4178],[3.129,36.7317,12.1253],[3.1318,36.741,1.4159]]]]}}