{"type":"Feature","properties":{"GID_2":"DZA.12.41_1","GID_0":"DZA","country":"Algeria","GID_1":"DZA.12_1","province":"Bouira","NL_NAME_1":"ولايةالبويرة","county":"SoukElKhemis","VARNAME_2":"NA","NL_NAME_2":"NA","TYPE_2":"Commune","ENGTYPE_2":"Commune","CC_2":"1004","HASC_2":"DZ.BU.SK","name":"Souk_El_Khemis.county"},
"geometry":{"type": "MultiPolygon","coordinates": [[[[3.6847,36.4292,404.831],[3.6646,36.4385,322.7365],[3.6627,36.4458,291.8327],[3.6565,36.4442,292.0981],[3.6484,36.4365,495.8194],[3.6489,36.4222,726.9635],[3.6247,36.4054,813.9207],[3.615,36.4012,825.7079],[3.6089,36.4013,828.04],[3.6023,36.3955,630.5065],[3.5899,36.3939,530.5358],[3.5856,36.3892,514.8752],[3.5869,36.3838,507.0667],[3.5606,36.3788,840.7838],[3.5673,36.3697,861.1268],[3.5758,36.3629,673.6146],[3.5887,36.3557,616.4375],[3.592,36.3503,646.6052],[3.6077,36.35,682.2725],[3.6231,36.3448,775.3272],[3.6308,36.345,742.4875],[3.6295,36.3514,780.4117],[3.6336,36.3549,770.7092],[3.6472,36.3529,822.5446],[3.6704,36.357,764.2247],[3.6754,36.3618,717.77],[3.6768,36.3684,804.3174],[3.6802,36.3721,877.2821],[3.6765,36.3764,890.0178],[3.6714,36.3793,922.6271],[3.6714,36.3836,839.9533],[3.6807,36.3919,654.7478],[3.6866,36.3944,558.3799],[3.6922,36.4081,490.472],[3.6847,36.4292,404.831]]]]}}