{"type": "Feature","bbox": [6.4728,32.7255,6.7912,33.3183],"geometry": {"type": "MultiPolygon","coordinates": [[[[6.6614,32.7255,112.925],[6.756,32.8181,122.2206],[6.7746,32.9414,104.2673],[6.7884,33.0115,105.2218],[6.7912,33.117,105.0622],[6.7632,33.2239,92.8539],[6.6888,33.2699,96.6785],[6.6699,33.3183,92.4067],[6.6106,33.3031,93.4038],[6.4728,33.2617,93.2445],[6.4814,33.2382,100.4769],[6.4886,33.2235,95.2735],[6.562,33.0197,109.2194],[6.5755,32.9712,117.2128],[6.647,32.7706,115.8478],[6.6614,32.7255,112.925]]]]}
,"properties": {"GID_2": "DZA.18.16_1","GID_0": "DZA","country": "Algeria","GID_1": "DZA.18_1","province": "ElOued","NL_NAME_1": "ولايةالوادي","county": "MihOuansa","VARNAME_2": "MihOuensa","NL_NAME_2": "NA","TYPE_2": "Commune","ENGTYPE_2": "Commune","CC_2": "3926","HASC_2": "DZ.EO.MO","name": "Mih_Ouansa.county","area_km2": 1141.957,"hist_schema_id": "Elevation0-9000","hist_area_km2": {"75": 0.833,"100": 936.1479,"125": 204.6911,"150": 0.2851}}}