{"type":"Feature","properties":{"GID_2":"DZA.29.6_1","GID_0":"DZA","country":"Algeria","GID_1":"DZA.29_1","province":"Mila","NL_NAME_1":"ولايةميلة","county":"BenyahiaAbderrahmane","VARNAME_2":"NA","NL_NAME_2":"NA","TYPE_2":"Commune","ENGTYPE_2":"Commune","CC_2":"4309","HASC_2":"DZ.ML.BA","name":"Benyahia_Abderrahmane.county"},
"geometry":{"type": "MultiPolygon","coordinates": [[[[6.0915,36.2478,834.6628],[6.0838,36.2504,836.8557],[6.0752,36.2475,848.6278],[6.0538,36.2524,865.2218],[6.0396,36.2631,899.5988],[6.0313,36.2726,941.051],[6.0251,36.2718,941.223],[6.0148,36.2674,951.0595],[5.9912,36.2668,978.7089],[5.9772,36.2591,1027.0533],[5.9712,36.2577,1038.9054],[5.9447,36.2393,1067.7908],[5.9399,36.235,1060.485],[5.939,36.2299,1053.024],[5.9441,36.2214,1031.0609],[5.9494,36.2195,1054.4497],[5.946,36.2157,1092.4427],[5.9592,36.2091,1056.7139],[5.9668,36.1983,979.3531],[5.9938,36.1766,885.5089],[6.02,36.1639,852.8986],[6.0254,36.1567,843.1028],[6.0294,36.1593,844.5325],[6.0373,36.1687,853.8143],[6.0428,36.1719,866.4618],[6.0495,36.1707,869.3573],[6.0591,36.1724,855.1014],[6.0776,36.1793,845.4285],[6.0823,36.1847,841.559],[6.0789,36.1903,851.7333],[6.0738,36.2107,855.5226],[6.0778,36.2164,866.1151],[6.0973,36.2297,879.0273],[6.1063,36.2381,859.3732],[6.1061,36.2433,817.2369],[6.096,36.2445,837.4214],[6.0915,36.2478,834.6628]]]]}}