{"type":"Feature","properties":{"GID_2":"DZA.48.25_1","GID_0":"DZA","country":"Algeria","GID_1":"DZA.48_1","province":"Tlemcen","NL_NAME_1":"تلمسان","county":"ElFehoul","VARNAME_2":"NA","NL_NAME_2":"NA","TYPE_2":"Commune","ENGTYPE_2":"Commune","CC_2":"1305","HASC_2":"DZ.TL.EF","name":"El_Fehoul.county"},
"geometry":{"type": "MultiPolygon","coordinates": [[[[-1.271,35.2055,303.6663],[-1.2762,35.2006,314.4119],[-1.2679,35.1845,385.9261],[-1.2616,35.1837,483.6804],[-1.2633,35.1734,418.7881],[-1.2683,35.1675,499.2611],[-1.2792,35.1665,538.597],[-1.2845,35.1626,468.6041],[-1.2884,35.1529,408.4637],[-1.2929,35.1497,361.2999],[-1.3002,35.1583,509.4041],[-1.305,35.1545,453.1617],[-1.3107,35.154,455.0634],[-1.3167,35.1559,488.9639],[-1.3299,35.1518,457.3271],[-1.3369,35.1436,480.1014],[-1.3501,35.1348,462.4697],[-1.3525,35.1312,397.6706],[-1.3588,35.1297,384.4165],[-1.3589,35.1148,265.3471],[-1.3466,35.1037,175.9414],[-1.3493,35.0983,163.5876],[-1.3497,35.0937,138.0681],[-1.3556,35.0911,135.4172],[-1.363,35.0816,133.0427],[-1.3533,35.0826,142.7157],[-1.3435,35.0792,179.1198],[-1.3276,35.0785,193.3107],[-1.3092,35.0715,286.9418],[-1.2998,35.0722,333.6474],[-1.2948,35.0737,352.6582],[-1.2968,35.0783,324.7699],[-1.2821,35.0827,373.0476],[-1.2659,35.0922,292.1995],[-1.2663,35.099,202.7283],[-1.257,35.1072,205.7834],[-1.2408,35.1113,304.0929],[-1.2371,35.1088,385.1488],[-1.2312,35.1106,445.3945],[-1.2119,35.1233,526.9075],[-1.2171,35.1384,531.9357],[-1.2118,35.1543,600.5845],[-1.2086,35.1583,573.0209],[-1.2066,35.166,504.3304],[-1.2023,35.1724,482.651],[-1.2062,35.1792,444.5688],[-1.2169,35.186,403.8202],[-1.2216,35.1804,464.4897],[-1.2338,35.1787,570.0814],[-1.245,35.1863,477.3732],[-1.2524,35.2008,386.8315],[-1.2471,35.2044,395.36],[-1.2529,35.2063,445.7032],[-1.2645,35.2046,328.9794],[-1.271,35.2055,303.6663]]]]}}