{"type": "Feature","bbox": [1.9039,28.8977,4.0345,30.6006],"geometry": {"type": "MultiPolygon","coordinates": [[[[2.0408,28.8977,461.3924],[2.3201,28.9889,492.9891],[2.5,29.0451,581.6255],[2.7145,29.061,549.7855],[2.9988,29.0784,482.6474],[3.3291,29.2033,425.933],[3.3672,29.219,387.1691],[3.6672,29.7159,312.506],[3.6698,29.7281,321.3792],[3.6812,29.754,325.1379],[3.6789,29.7652,294.2822],[3.6914,29.7749,292.256],[3.7123,29.7859,296.0594],[3.7155,29.7915,303.0362],[3.7305,29.8016,297.7169],[3.7507,29.807,285.3661],[3.8168,29.9982,336.7361],[3.823,30.0003,337.0925],[3.8271,30.0098,335.439],[3.9997,30.5041,285.1161],[4.0345,30.5996,281.059],[4.0082,30.6006,281.4895],[3.5031,30.5889,348.4957],[2.9661,30.5747,421.5904],[2.9212,30.5725,413.0074],[2.9109,30.5659,380.1861],[2.8949,30.5594,381.738],[2.8784,30.5631,390.7343],[2.8422,30.5633,399.8749],[2.2973,30.5584,480.8272],[2.1462,30.5551,443.4511],[2.0245,30.5397,489.4477],[2.0039,30.383,428.4958],[1.9998,30.3808,428.3428],[1.9778,30.301,455.5218],[1.9039,30.0198,399.3863],[1.9094,29.999,395.6465],[1.9588,29.7458,408.3882],[2.0029,29.5406,544.7825],[2.0924,29.0892,439.5435],[2.0584,28.9718,469.2526],[2.0408,28.8977,461.3924]]]]}
,"properties": {"GID_2": "DZA.20.9_1","GID_0": "DZA","country": "Algeria","GID_1": "DZA.20_1","province": "Ghardaïa","NL_NAME_1": "ولايةغرداية","county": "HassiGara","VARNAME_2": "HassiElGaraa","NL_NAME_2": "NA","TYPE_2": "Commune","ENGTYPE_2": "Commune","CC_2": "4712","HASC_2": "DZ.GR.HG","name": "Hassi_Gara.county","area_km2": 27783.51,"hist_schema_id": "Elevation0-9000","hist_area_km2": {"275": 122.72,"300": 915.71,"325": 1956.89,"350": 2354.34,"375": 2766.01,"400": 4631.98,"425": 4248.1,"450": 2880.06,"475": 3130.38,"500": 2223.72,"525": 1145.68,"550": 916.61,"575": 491.31}}}