{"type": "Feature","bbox": [6.6375,34.7126,6.7722,34.8583],"geometry": {"type": "MultiPolygon","coordinates": [[[[6.728,34.8569,471.7361],[6.7237,34.8583,458.7753],[6.6905,34.8582,623.811],[6.6735,34.8546,663.8698],[6.6667,34.8449,509.8663],[6.6622,34.8419,354.7102],[6.6584,34.8336,266.8318],[6.6526,34.829,228.2697],[6.6495,34.822,222.4107],[6.6487,34.8156,177.5358],[6.6454,34.8126,151.9608],[6.6375,34.7943,117.4814],[6.6482,34.7989,126.3463],[6.6572,34.7956,130.013],[6.678,34.7971,144.1868],[6.6928,34.8001,144.8264],[6.7021,34.7948,151.2497],[6.7176,34.7806,139.0128],[6.7198,34.7682,129.0207],[6.7185,34.7617,124.2073],[6.7128,34.7566,116.6621],[6.7137,34.7497,112.4215],[6.7211,34.7387,107.6582],[6.7259,34.7274,103.5803],[6.7464,34.7162,94.481],[6.7565,34.7126,91.6648],[6.7637,34.7277,101.5613],[6.7674,34.7307,104.6636],[6.7673,34.7411,112.6567],[6.7722,34.7647,135.3352],[6.7341,34.761,129.437],[6.7345,34.7714,141.394],[6.7372,34.7763,149.3698],[6.7555,34.7966,186.8567],[6.7432,34.8215,231.1296],[6.7376,34.8263,238.299],[6.7257,34.8305,228.5694],[6.7154,34.8378,267.9872],[6.7112,34.8426,229.7577],[6.728,34.8569,471.7361]]]]}
,"properties": {"GID_2": "DZA.9.19_1","GID_0": "DZA","country": "Algeria","GID_1": "DZA.9_1","province": "Biskra","NL_NAME_1": "ولايةبسكرة","county": "KhenguetSidiNadji","VARNAME_2": "KhangatSidiNadji","NL_NAME_2": "NA","TYPE_2": "Commune","ENGTYPE_2": "Commune","CC_2": "733","HASC_2": "DZ.BS.KS","name": "Khenguet_Sidi_Nadji.county","area_km2": 78.94117,"hist_schema_id": "Elevation0-9000","hist_area_km2": {"100": 9.40936,"125": 15.3107,"150": 14.4162,"175": 9.67899,"200": 9.79967,"225": 7.46674,"250": 3.93315,"275": 1.6184,"300": 1.1833,"325": 0.60902,"350": 0.6612,"375": 0.6438,"400": 0.85259,"425": 0.62638,"450": 0.57419,"475": 0.46979,"500": 0.53938,"525": 0.41758,"550": 0.17399,"575": 0.17399,"600": 0.10439,"625": 0.15659,"650": 0.10439,"675": 0.0174}}}