{"type":"Feature","properties":{"GID_2":"DZA.35.7_1","GID_0":"DZA","country":"Algeria","GID_1":"DZA.35_1","province":"Relizane","NL_NAME_1":"ولايةغليزان","county":"BeniZentis","VARNAME_2":"NA","NL_NAME_2":"NA","TYPE_2":"Commune","ENGTYPE_2":"Commune","CC_2":"4830","HASC_2":"DZ.RE.BZ","name":"Beni_Zentis.county"},
"geometry":{"type": "MultiPolygon","coordinates": [[[[0.6119,36.1333,464.8498],[0.6142,36.1283,521.4072],[0.6053,36.1181,504.4618],[0.6106,36.1043,408.2838],[0.6155,36.1004,343.7905],[0.6189,36.0939,284.9363],[0.6181,36.0894,257.4457],[0.6152,36.0862,254.4054],[0.6162,36.0816,247.614],[0.6248,36.0781,383.001],[0.6294,36.0731,346.4684],[0.6331,36.0648,287.8104],[0.6368,36.0625,326.5967],[0.6494,36.0627,377.4985],[0.6619,36.0577,476.6645],[0.6505,36.0451,538.4126],[0.6391,36.0438,554.4832],[0.6353,36.0316,342.9671],[0.6457,36.0272,234.9793],[0.6507,36.023,166.7266],[0.6564,36.0269,206.0243],[0.6756,36.0323,91.6998],[0.6809,36.0356,87.0812],[0.6962,36.059,112.9272],[0.7063,36.0644,145.6397],[0.7126,36.0643,158.6527],[0.727,36.0725,180.5492],[0.7263,36.0778,255.2065],[0.7205,36.0864,220.1676],[0.7215,36.1108,354.4313],[0.7201,36.1206,455.2982],[0.717,36.1235,481.6255],[0.6915,36.1288,445.0275],[0.6793,36.1332,344.6706],[0.6697,36.149,274.0757],[0.6652,36.1509,292.359],[0.6614,36.155,234.8995],[0.6577,36.1505,237.1663],[0.6468,36.1496,367.9872],[0.621,36.1432,447.9642],[0.6119,36.1333,464.8498]]]]}}