{"type": "Feature","bbox": [7.3352,36.6282,7.5397,36.7919],"geometry": {"type": "MultiPolygon","coordinates": [[[[7.5169,36.6824,162.004],[7.5111,36.694,92.4539],[7.5109,36.6989,66.2325],[7.5146,36.7046,54.1349],[7.5321,36.7183,18.4016],[7.5336,36.725,13.888],[7.5366,36.7296,12.2751],[7.5397,36.7438,10.7803],[7.5334,36.7455,10.7364],[7.5228,36.7539,10.1775],[7.5106,36.7576,10.6602],[7.5015,36.7639,10.5361],[7.4969,36.7651,10.9984],[7.4945,36.7605,11.2175],[7.4818,36.7536,11.0454],[7.4759,36.753,10.8487],[7.4649,36.7568,10.4878],[7.4506,36.7555,10.6476],[7.4448,36.7578,10.5862],[7.4323,36.775,10.3908],[7.4227,36.78,10.9844],[7.4173,36.7897,11.2122],[7.4132999999999996,36.7919,12.1227],[7.4054,36.7918,12.3942],[7.3944,36.7867,12.9576],[7.3897,36.7823,13.9491],[7.3923,36.7755,15.4506],[7.4012,36.7668,16.7166],[7.4043,36.7613,19.1466],[7.4057,36.7463,33.5367],[7.3991,36.7264,78.3518],[7.392,36.7245,85.8734],[7.3853,36.7199,119.1788],[7.3734,36.7153,215.46],[7.3523,36.7141,190.9384],[7.3411,36.7085,198.4094],[7.3425,36.6931,116.6621],[7.3415,36.6805,225.1646],[7.3441,36.677,138.114],[7.3414,36.6718,178.5043],[7.3352,36.6692,140.4076],[7.3362,36.6623,201.3076],[7.3692,36.6559,358.3301],[7.39,36.6636,411.617],[7.3975,36.6635,408.8357],[7.4036,36.6614,392.4967],[7.4073,36.6407,583.5524],[7.4217,36.6282,718.8139],[7.4236,36.6396,494.1674],[7.4298,36.6515,262.6103],[7.4339,36.6551,340.1721],[7.4447,36.6549,270.0041],[7.4567,36.6626,180.9182],[7.4676,36.6669,169.0562],[7.4805,36.6664,150.2408],[7.485,36.6701,145.7771],[7.4861,36.6743,174.4265],[7.4902,36.6783,189.8553],[7.4964,36.6786,163.0662],[7.5016,36.6823,119.2957],[7.5169,36.6824,162.004]]]]}
,"properties": {"GID_2": "DZA.5.7_1","GID_0": "DZA","country": "Algeria","GID_1": "DZA.5_1","province": "Annaba","NL_NAME_1": "ولايةعنابة","county": "ElEulma","VARNAME_2": "Eulma","NL_NAME_2": "NA","TYPE_2": "Commune","ENGTYPE_2": "Commune","CC_2": "2304","HASC_2": "DZ.AN.EE","name": "El_Eulma.county","area_km2": 160.8624,"hist_schema_id": "Elevation0-9000","hist_area_km2": {"0": 11.3301,"25": 34.5732,"50": 13.5101,"75": 10.5888,"100": 11.253,"125": 12.3419,"150": 12.2914,"175": 12.139099999999999,"200": 9.1644,"225": 8.6377,"250": 6.4105,"275": 5.8327,"300": 4.2514,"325": 2.993,"350": 1.8028,"375": 1.0545,"400": 0.6634,"425": 0.4083,"450": 0.3232,"475": 0.2382,"500": 0.3232,"525": 0.1361,"550": 0.2042,"575": 0.1531,"600": 0.1191,"625": 0.051,"650": 0.051,"675": 0.017}}}