{"type": "Feature","bbox": [4.7751,36.2918,4.8755,36.3829],"geometry": {"type": "MultiPolygon","coordinates": [[[[4.7776,36.3394,443.3076],[4.7751,36.3312,527.5043],[4.7829,36.3163,614.8368],[4.8017,36.3095,800.7729],[4.8069,36.3029,913.9188],[4.8118,36.2918,1122.2339],[4.8166,36.2939,1071.36],[4.8255,36.2924,1022.5364],[4.8328,36.2934,975.7275],[4.8528,36.3015,1369.5365],[4.8622,36.298,1205.8945],[4.8732,36.2971,1330.6787],[4.8731,36.306399999999996,1306.8163],[4.8755,36.3136,1439.8643],[4.8707,36.325,1203.8066],[4.8703,36.339,884.7032],[4.8537,36.3527,728.9754],[4.8489,36.3586,738.7175],[4.844,36.3697,681.9468],[4.8449,36.3758,576.1974],[4.8304,36.3788,508.6111],[4.8195,36.3727,479.9966],[4.8063,36.3739,502.7587],[4.8023,36.3769,476.7333],[4.8025,36.3815,487.7927],[4.7977,36.3829,455.1908],[4.7925,36.3817,425.713],[4.7917,36.3597,607.4259],[4.7887,36.3534,590.9028],[4.7824,36.3511,441.22],[4.7819,36.3432,421.05],[4.7776,36.3394,443.3076]]]]}
,"properties": {"GID_2": "DZA.37.37_1","GID_0": "DZA","country": "Algeria","GID_1": "DZA.37_1","province": "Sétif","NL_NAME_1": "ولايةسطيف","county": "GuenzetTassameurt","VARNAME_2": "NA","NL_NAME_2": "NA","TYPE_2": "Commune","ENGTYPE_2": "Commune","CC_2": "1941","HASC_2": "#N/A","name": "Guenzet_Tassameurt.county","area_km2": 59.96778,"hist_schema_id": "Elevation0-9000","hist_area_km2": {"400": 0.06828,"425": 0.42685,"450": 0.71709,"475": 0.76836,"500": 0.92207,"525": 1.1611,"550": 1.45137,"575": 1.84412,"600": 1.74174,"625": 1.87837,"650": 2.40775,"675": 2.39078,"700": 2.44206,"725": 2.35667,"750": 2.64713,"775": 2.47631,"800": 2.27141,"825": 2.47644,"850": 2.152,"875": 2.08378,"900": 2.34002,"925": 2.25465,"950": 1.99855,"975": 1.63989,"1000": 1.38371,"1025": 1.19586,"1050": 1.0934,"1075": 1.14472,"1100": 1.17886,"1125": 0.78593,"1150": 0.68344,"1175": 0.85429,"1200": 0.75177,"1225": 0.83721,"1250": 0.75179,"1275": 1.05934,"1300": 0.87139,"1325": 0.93972,"1350": 1.0593,"1375": 0.66633,"1400": 0.44421,"1425": 0.42713,"1450": 0.39296,"1475": 0.37586,"1500": 0.15377}}}