{"type":"Feature","properties":{"GID_2":"DZA.33.14_1","GID_0":"DZA","country":"Algeria","GID_1":"DZA.33_1","province":"Ouargla","NL_NAME_1":"ورقلة","county":"Rouissat","VARNAME_2":"Ruwisiyat","NL_NAME_2":"NA","TYPE_2":"Commune","ENGTYPE_2":"Commune","CC_2":"3005","HASC_2":"DZ.OG.RO","name":"Rouissat.county"},
"geometry":{"type": "MultiPolygon","coordinates": [[[[4.2519,31.2206,236.4191],[4.5308,31.0826,175.5624],[5.1311,31.3525,159.5925],[5.3263,31.6454,144.6511],[5.3861,31.873,154.5965],[5.3943,31.9307,147.2395],[5.3582,31.9408,131.0722],[5.3581,31.9454,132.813],[5.3534,31.9448,133.3862],[5.35,31.9422,131.573],[5.3169,31.943,137.2739],[5.3203,31.9073,136.0353],[5.3282,31.8896,138.3339],[5.329,31.8805,137.7744],[5.3308,31.8764,138.6866],[5.3376,31.8754,138.1965],[5.3413,31.8699,160.8908],[5.3026,31.867,188.5491],[5.1799,31.8923,222.6095],[5.1735,31.8912,221.8401],[5.1274,31.9019,229.7545],[5.1092,31.9077,223.1824],[5.0879,31.9184,226.3662],[5.0161,31.9462,234.9791],[4.8535,31.9984,234.1559],[4.8465,31.9975,235.4227],[4.8184,32.006,232.9323],[4.7346,32.0181,251.5267],[4.7078,32.0234,255.2619],[4.6916,32.0299,250.6578],[4.6818,32.0315,254.2952],[4.6608,32.0457,256.4548],[4.6305,32.0705,260.5428],[4.5636,32.1349,272.4703],[4.529,32.1666,288.0011],[4.5003,32.1901,298.0919],[4.4944,32.1968,304.2739],[4.4645,32.2152,315.6096],[4.4622,32.2113,311.6163],[4.4334,32.0294,284.0281],[4.424,31.9119,284.0482],[4.4094,31.5503,260.1179],[4.2519,31.2206,236.4191]]]]}}