{"type": "Feature","bbox": [7.4167,35.881,7.5809,36.0588],"geometry": {"type": "MultiPolygon","coordinates": [[[[7.4842,35.8959,918.978],[7.4991,35.8951,901.9601],[7.5198,35.8837,884.5822],[7.5322,35.881,974.5035],[7.5382,35.8813,935.2273],[7.5247,35.8944,876.4567],[7.5229,35.9008,862.9442],[7.5238,35.9057,847.6647],[7.5282,35.9064,846.8812],[7.5406,35.9159,835.6733],[7.5492,35.9185,831.4312],[7.5514,35.9294,826.3781],[7.5495,35.9347,825.2454],[7.5417,35.9425,821.3188],[7.5267,35.9492,814.921],[7.5237,35.953,814.4547],[7.5382999999999996,35.9818,828.3904],[7.5427,35.9859,836.5354],[7.5534,35.9888,849.7491],[7.5656,35.9989,876.783],[7.5733,36.0002,883.9193],[7.5783,36.0033,883.8954],[7.5809,36.0075,879.5698],[7.5724,36.0148,862.8175],[7.5724,36.0307,869.2717],[7.5758,36.0336,868.9185],[7.5778,36.0393,876.3478],[7.5746,36.0432,880.9495],[7.5512,36.0588,980.2369],[7.5468,36.0581,994.4976],[7.5424,36.0528,984.1313],[7.531,36.0481,925.1217],[7.5295,36.037,864.8952],[7.5227,36.0345,852.6624],[7.5184,36.0304,829.9612],[7.508,36.0286,802.8077],[7.5035,36.0263,823.933],[7.491,36.0125,851.845],[7.4727,36.0028,849.2695],[7.4634,35.995,812.7609],[7.4583,35.9934,788.6403],[7.4447,35.9934,797.1852],[7.4332,35.9901,819.5565],[7.4234,35.9906,840.2548],[7.4169,35.9657,830.24],[7.4167,35.955,843.2662],[7.4197,35.9502,842.6886],[7.4271,35.9475,858.261],[7.4318,35.9435,847.8527],[7.43,35.9297,879.9266],[7.438,35.9141,919.8129],[7.4561,35.9102,890.9952],[7.4842,35.8959,918.978]]]]}
,"properties": {"GID_2": "DZA.40.18_1","GID_0": "DZA","country": "Algeria","GID_1": "DZA.40_1","province": "SoukAhras","NL_NAME_1": "ولايةسوقأهراس","county": "SafelElOuiden","VARNAME_2": "NA","NL_NAME_2": "NA","TYPE_2": "Commune","ENGTYPE_2": "Commune","CC_2": "4121","HASC_2": "DZ.SA.SO","name": "Safel_El_Ouiden.county","area_km2": 146.7355,"hist_schema_id": "Elevation0-9000","hist_area_km2": {"775": 0.1201,"800": 16.9357,"825": 53.4556,"850": 43.9416,"875": 20.1831,"900": 7.7584,"925": 3.0721,"950": 0.8405,"975": 0.3943,"1000": 0.0343}}}