{"type": "Feature","bbox": [2.592,36.2672,2.7742,36.3771],"geometry": {"type": "MultiPolygon","coordinates": [[[[2.592,36.3109,711.1592],[2.6128999999999998,36.3038,410.0695],[2.6107,36.2991,435.157],[2.5985,36.2901,472.8432],[2.5974,36.2849,504.6354],[2.5983,36.2731,653.5931],[2.6025,36.2701,677.0201],[2.6084,36.2673,635.6252],[2.6133,36.2672,574.0504],[2.6221,36.2736,500.9139],[2.6264,36.2742,485.2766],[2.631,36.2726,454.5294],[2.636,36.2738,452.68],[2.6388,36.277,426.8555],[2.6518,36.275,472.772],[2.6611,36.2768,481.7365],[2.6659,36.2803,476.4786],[2.6688,36.285,459.5878],[2.6653,36.2891,459.1495],[2.6614,36.2993,441.5237],[2.6657,36.3033,477.5652],[2.6706,36.3051,486.0309],[2.701,36.2972,746.1957],[2.7057,36.3004,774.4525],[2.7061,36.306,752.9691],[2.7095,36.3114,720.2509],[2.7211,36.3141,671.9568],[2.726,36.3129,699.7433],[2.7295,36.3243,521.5195],[2.7412,36.3328,446.0374],[2.7514,36.3371,445.1392],[2.7558,36.3372,467.1986],[2.7603,36.3342,399.0204],[2.767,36.3351,417.5659],[2.77,36.3425,411.1055],[2.768,36.3471,370.4425],[2.7707,36.3521,441.8844],[2.7672,36.3643,355.4833],[2.7742,36.3769,321.9297],[2.7683,36.3746,645.5402],[2.7441,36.3771,1225.9857],[2.7003,36.3737,1288.9619],[2.6948,36.3715,1232.1011],[2.6841,36.3606,1200.6927],[2.6739,36.3586,1019.2562],[2.6582,36.3504,865.5914],[2.6478,36.3477,797.1183],[2.6323,36.3348,425.3661],[2.6271,36.3361,384.4842],[2.6224,36.3324,484.6858],[2.6151,36.3296,707.2003],[2.6056,36.3239,804.7563],[2.5999,36.317,713.9468],[2.592,36.3109,711.1592]]]]}
,"properties": {"GID_2": "DZA.28.61_1","GID_0": "DZA","country": "Algeria","GID_1": "DZA.28_1","province": "Médéa","NL_NAME_1": "ولايةالمدية","county": "Tamezguida","VARNAME_2": "Tamesguida","NL_NAME_2": "NA","TYPE_2": "Commune","ENGTYPE_2": "Commune","CC_2": "2615","HASC_2": "DZ.MD.TM","name": "Tamezguida.county","area_km2": 98.23571,"hist_schema_id": "Elevation0-9000","hist_area_km2": {"300": 0.01707,"325": 0.10243,"350": 0.9564,"375": 3.29698,"400": 6.35554,"425": 9.44867,"450": 9.51747,"475": 7.56885,"500": 5.24471,"525": 4.85154,"550": 4.35609,"575": 4.03127,"600": 3.7408,"625": 3.41629,"650": 2.90378,"675": 2.90379,"700": 2.45956,"725": 2.32274,"750": 1.58833,"775": 1.38324,"800": 1.10999,"825": 1.29779,"850": 1.04167,"875": 1.26364,"900": 0.99042,"925": 0.95624,"950": 1.00748,"975": 0.88791,"1000": 0.87084,"1025": 0.93913,"1050": 0.70007,"1075": 0.63176,"1100": 0.87078,"1125": 0.6659,"1150": 0.63174,"1175": 0.83661,"1200": 0.71709,"1225": 0.88781,"1250": 0.68293,"1275": 0.61463,"1300": 0.54633,"1325": 0.47803,"1350": 0.54632,"1375": 0.4951,"1400": 0.44389,"1425": 0.4439,"1450": 0.4951,"1475": 0.25607,"1500": 0.25607,"1525": 0.10243,"1550": 0.08536,"1575": 0.01707}}}