{"type": "Feature","bbox": [1.2926,35.9367,1.5352,36.1437],"geometry": {"type": "MultiPolygon","coordinates": [[[[1.2942,36.0916,282.2739],[1.2926,36.086,279.291],[1.2956,36.0803,338.1484],[1.2967,36.0697,299.0342],[1.302,36.0651,372.153],[1.3063,36.0515,296.2965],[1.3134,36.0413,357.3031],[1.3201,36.05,394.9046],[1.3333,36.054,442.5659],[1.3554,36.0538,493.859],[1.3717,36.0463,552.6404],[1.378,36.0461,523.5599],[1.3832,36.0437,580.2194],[1.3864,36.0339,459.7112],[1.3963,36.0274,506.0995],[1.4018,36.018,542.9629],[1.419,36.0154,579.9933],[1.454,36.0015,514.6121],[1.4504,35.9922,472.2498],[1.464,35.991,609.9408],[1.4675,35.9876,707.4089],[1.4724,35.9859,743.8628],[1.4798,35.9783,761.873],[1.4853,35.9777,828.8449],[1.4894,35.9749,779.2826],[1.4856,35.9708,648.1213],[1.4855,35.9642,506.9222],[1.482,35.9609,458.3674],[1.4774,35.9586,451.9398],[1.4565,35.9546,361.8007],[1.4556,35.9408,411.3265],[1.4582,35.9367,532.181],[1.4896,35.9472,924.6171],[1.5068,35.9563,783.9357],[1.5078,35.9622,728.8489],[1.5133,35.9661,792.2939],[1.5162,35.972,767.0973],[1.5101,35.9838,789.4176],[1.5117,35.9891,770.2083],[1.5217,35.9871,718.0385],[1.5254,35.9846,670.844],[1.5317,35.9926,666.2869],[1.5352,36.0021,576.7653],[1.531,36.0117,500.6347],[1.5268,36.0139,493.8361],[1.5242,36.0175,517.7393],[1.5239,36.0219,517.1388],[1.527,36.0258,419.737],[1.5331,36.0444,398.8251],[1.5313,36.0507,384.7462],[1.5215,36.0557,355.173],[1.5162,36.0612,382.2083],[1.5144,36.0682,310.5252],[1.5087,36.0693,343.5954],[1.5044,36.0723,423.2382],[1.5004,36.0789,306.1667],[1.493,36.0796,292.9778],[1.4826,36.0782,448.797],[1.4705,36.0742,490.74],[1.4683,36.0693,498.2626],[1.4585,36.0782,426.2756],[1.4574,36.0832,452.2179],[1.4583,36.0924,440.4073],[1.4553,36.1021,409.9831],[1.4385,36.1148,300.9192],[1.4351,36.12,287.2231],[1.431,36.1217,259.3782],[1.4279,36.126,286.3882],[1.4341,36.1343,309.9597],[1.4235,36.1415,281.2422],[1.4164,36.1433,265.1692],[1.404,36.1437,250.808],[1.3978,36.1406,221.4601],[1.372,36.1384,175.6596],[1.362,36.1312,158.0994],[1.3555,36.1329,148.2196],[1.3502,36.1299,158.2641],[1.3486,36.1189,197.3152],[1.3499,36.1148,193.0834],[1.3492,36.1088,200.5897],[1.3432,36.1071,219.4926],[1.3309,36.1072,268.7163],[1.3178,36.1108,232.7001],[1.3127,36.108,209.07],[1.3072,36.097,374.6433],[1.2942,36.0916,282.2739]]]]}
,"properties": {"GID_2": "DZA.14.27_1","GID_0": "DZA","country": "Algeria","GID_1": "DZA.14_1","province": "Chlef","NL_NAME_1": "ولايةالشلف","county": "Sendjas","VARNAME_2": "NA","NL_NAME_2": "NA","TYPE_2": "Commune","ENGTYPE_2": "Commune","CC_2": "219","HASC_2": "DZ.CH.SE","name": "Sendjas.county","area_km2": 218.6623,"hist_schema_id": "Elevation0-9000","hist_area_km2": {"150": 0.5137,"175": 2.1407,"200": 6.2514,"225": 9.6261,"250": 11.9563,"275": 12.009,"300": 12.4395,"325": 12.6469,"350": 14.1044,"375": 14.1395,"400": 13.1978,"425": 13.2666,"450": 13.5761,"475": 12.0682,"500": 10.3552,"525": 7.9727,"550": 6.2928,"575": 4.5789,"600": 4.6477,"625": 4.3563,"650": 3.9962,"675": 3.7904,"700": 3.5505,"725": 3.3961,"750": 3.036,"775": 3.1905,"800": 2.6075,"825": 2.5217,"850": 1.9385,"875": 1.3039,"900": 0.9436,"925": 0.6348,"950": 0.4632,"975": 0.4117,"1000": 0.2059,"1025": 0.1372,"1050": 0.1544,"1075": 0.0858,"1100": 0.0343,"1125": 0.0515,"1150": 0.0515,"1175": 0.0172}}}