{"type":"Feature","properties":{"GID_2":"DZA.14.14_1","GID_0":"DZA","country":"Algeria","GID_1":"DZA.14_1","province":"Chlef","NL_NAME_1":"ولايةالشلف","county":"ElKarimia","VARNAME_2":"NA","NL_NAME_2":"NA","TYPE_2":"Commune","ENGTYPE_2":"Commune","CC_2":"204","HASC_2":"DZ.CH.EK","name":"El_Karimia.county"},
"geometry":{"type": "MultiPolygon","coordinates": [[[[1.6302,36.0992,322.7422],[1.6303,36.1043,367.7937],[1.6356,36.1133,390.0069],[1.6393,36.1248,481.2346],[1.6329,36.1247,473.5799],[1.6242,36.1208,456.9312],[1.6153,36.1244,361.317],[1.6025,36.1189,313.5305],[1.5943,36.1248,308.1095],[1.5847,36.1252,261.2564],[1.5874,36.1306,292.5282],[1.5857,36.1348,257.5266],[1.5719,36.1467,247.7001],[1.5768,36.1517,255.4741],[1.5703,36.1532,241.4544],[1.5673,36.1589,237.0991],[1.5315,36.1615,169.3444],[1.5276,36.1505,175.2655],[1.5222,36.1451,179.7776],[1.525,36.139,185.4073],[1.5357,36.1355,191.843],[1.5391,36.1246,222.2928],[1.543,36.1191,243.5561],[1.5431,36.1113,221.3412],[1.5483,36.1079,228.5308],[1.5485,36.0892,284.7281],[1.5468,36.0726,506.9547],[1.5324,36.0733,400.9075],[1.5219,36.0685,357.5737],[1.5182,36.0705,352.7399],[1.5144,36.0682,310.5252],[1.5162,36.0612,382.2083],[1.5215,36.0557,355.173],[1.5313,36.0507,384.7462],[1.5331,36.0444,398.8251],[1.527,36.0258,419.737],[1.5239,36.0219,517.1388],[1.5242,36.0175,517.7393],[1.5268,36.0139,493.8361],[1.531,36.0117,500.6347],[1.5352,36.0021,576.7653],[1.5317,35.9926,666.2869],[1.5362,35.9941,711.574],[1.5401,35.9977,660.9333],[1.5474,36.0133,624.399],[1.5518,36.0173,598.3726],[1.5553,36.0303,613.8782],[1.5482,36.0398,515.9872],[1.5432,36.0505,434.9721],[1.5535,36.0596,524.423],[1.5699,36.0551,528.2068],[1.5787,36.0479,565.7643],[1.5829,36.0478,551.7284],[1.5943,36.06,365.0998],[1.5989,36.0618,326.2035],[1.605,36.0611,266.7062],[1.6087,36.0588,341.3663],[1.6101,36.051,441.1901],[1.6156,36.0488,401.4488],[1.6227,36.0491,391.6644],[1.634,36.0453,440.1382],[1.6411,36.0463,469.621],[1.6484,36.0503,559.7366],[1.6541,36.0495,555.2642],[1.6512,36.0576,654.0045],[1.6288,36.0833,420.3921],[1.627,36.0954,297.4578],[1.6302,36.0992,322.7422]]]]}}