{"type": "Feature","bbox": [4.6327,36.335,4.7927,36.4276],"geometry": {"type": "MultiPolygon","coordinates": [[[[4.7288,36.422,297.1143],[4.7242,36.4011,536.8643],[4.7219,36.3961,559.2762],[4.7147,36.3877,894.6946],[4.7094,36.3853,1034.9468],[4.7046,36.3867,1095.7449],[4.7004,36.3858,1103.3643],[4.6964,36.3817,856.5452],[4.6854,36.3751,736.9827],[4.6799,36.3745,618.2042],[4.6783,36.37,694.6874],[4.6745,36.3675,693.3356],[4.6586,36.3596,573.6695],[4.6527,36.3603,501.122],[4.6327,36.3582,415.4304],[4.6352,36.3532,469.6962],[4.6427,36.348,484.3268],[4.6482,36.3384,541.6326],[4.6554,36.3395,532.0822],[4.6683,36.3508,579.6029],[4.6834,36.3579,614.3185],[4.6921,36.3643,693.5976],[4.7038,36.3645,737.6411],[4.7148,36.36,805.4695],[4.7234,36.3532,944.4937],[4.7175,36.3368,1155.4984],[4.7389,36.3374,1012.7722],[4.7566,36.335,860.8295],[4.7703,36.3362,552.4105],[4.7776,36.3394,443.3076],[4.7819,36.3432,421.05],[4.7824,36.3511,441.22],[4.7887,36.3534,590.9028],[4.7917,36.3597,607.4259],[4.7927,36.3957,566.7996],[4.7893,36.4031,557.8199],[4.7729,36.4131,734.864],[4.7674,36.4145,644.7021],[4.7636,36.4193,507.0182],[4.7624,36.4247,551.4727],[4.7515,36.4255,477.3302],[4.7447,36.4276,443.0296],[4.7304,36.4275,316.7678],[4.7288,36.422,297.1143]]]]}
,"properties": {"GID_2": "DZA.11.16_1","GID_0": "DZA","country": "Algeria","GID_1": "DZA.11_1","province": "BordjBouArréridj","NL_NAME_1": "ولايةبرجبوعريريج","county": "ElMain","VARNAME_2": "NA","NL_NAME_2": "NA","TYPE_2": "Commune","ENGTYPE_2": "Commune","CC_2": "3416","HASC_2": "DZ.BB.EN","name": "El_Main.county","area_km2": 70.92952,"hist_schema_id": "Elevation0-9000","hist_area_km2": {"300": 0.83604,"325": 2.09881,"350": 2.28679,"375": 2.61127,"400": 3.22603,"425": 3.27724,"450": 3.14069,"475": 3.19192,"500": 3.75527,"525": 4.0288,"550": 3.38023,"575": 3.75581,"600": 3.56815,"625": 3.43155,"650": 2.73165,"675": 2.57793,"700": 2.42431,"725": 1.91214,"750": 2.11705,"775": 1.82685,"800": 2.16824,"825": 1.92926,"850": 1.7244,"875": 1.72433,"900": 1.53657,"925": 1.51945,"950": 1.36584,"975": 0.99023,"1000": 0.75124,"1025": 0.49513,"1050": 0.30732,"1075": 0.15364,"1100": 0.08534}}}