{"type":"Feature","properties":{"GID_2":"DZA.7.14_1","GID_0":"DZA","country":"Algeria","GID_1":"DZA.7_1","province":"Béchar","NL_NAME_1":"ولايةبشار","county":"MechraaHouariBoumediene","VARNAME_2":"NA","NL_NAME_2":"NA","TYPE_2":"Commune","ENGTYPE_2":"Commune","CC_2":"809","HASC_2":"DZ.BC.MH","name":"Mechraa_Houari_Boumediene.county"},
"geometry":{"type": "MultiPolygon","coordinates": [[[[-2.7728,30.9939,577.7238],[-2.7788,30.9934,577.8391],[-2.7794,30.9865,577.6252],[-2.7746,30.9685,578.6123],[-2.7761,30.9628,579.7079],[-2.8068,30.9508,593.043],[-2.8268,30.939,607.5831],[-2.8333,30.9386,613.8085],[-2.8395,30.9359,623.4313],[-2.845,30.9284,624.682],[-2.8532,30.9219,628.942],[-2.8639,30.917,644.4146],[-2.8693,30.9094,661.9299],[-2.8871,30.9098,699.1613],[-2.9409,30.9057,713.9181],[-3.0144,30.8974,736.4407],[-3.0394,30.9038,746.0205],[-3.045,30.9035,747.9975],[-3.0546,30.8962,750.5587],[-3.0671,30.8974,755.7513],[-3.0807,30.8947,760.2621],[-3.1114,30.8853,764.0842],[-3.124,30.8776,766.3342],[-3.1354,30.8759,769.6884],[-3.163,30.8757,773.7645],[-3.19,30.8624,776.4233],[-3.2197,30.8544,777.9492],[-3.2411,30.8411,778.9023],[-3.2491,30.8338,777.3795],[-3.2577,30.8182,772.2768],[-3.2709,30.8037,769.6542],[-3.2992,30.7568,761.8804],[-3.3148,30.7346,757.2245],[-3.3226,30.7186,753.7465],[-3.3387,30.7044,750.3256],[-3.3486,30.6904,747.0505],[-3.3636,30.6627,743.464],[-3.3861,30.6116,740.9445],[-3.4221,30.549,731.0672],[-3.4363,30.5191,727.5879],[-3.4671,30.4691,723.3199],[-3.5103,30.4223,716.0338],[-3.5206,30.4134,709.4701],[-3.5552,30.3893,701.473],[-3.5791,30.3624,689.2207],[-3.5799,30.356,686.1577],[-3.5608,30.359,698.5992],[-3.0985,30.4706,676.0763],[-2.7914,30.5272,642.1162],[-2.5737,30.6921,554.202],[-2.5532,30.709,541.2012],[-2.5655,30.7287,542.5638],[-2.5833,30.7429,544.1028],[-2.6008,30.7522,546.8996],[-2.6306,30.7783,550.2204],[-2.6366,30.778,550.7606],[-2.6434,30.7813,551.9329],[-2.6572,30.8015,553.58],[-2.655,30.8074,554.821],[-2.6558,30.8129,555.2853],[-2.6593,30.8193,555.9067],[-2.6614,30.8353,556.9542],[-2.6645,30.8414,557.8213],[-2.6744,30.848,559.137],[-2.6788,30.8582,559.9884],[-2.6955,30.8749,561.9998],[-2.7114,30.8816,565.1211],[-2.7206,30.9019,565.2281],[-2.7291,30.915,568.2183],[-2.7333,30.926,568.4716],[-2.7339,30.9352,571.4387],[-2.7406,30.9571,572.6387],[-2.7438,30.9633,573.5509],[-2.7546,30.9761,575.0723],[-2.7656,30.9815,575.9212],[-2.7728,30.9939,577.7238]]]]}}