{"type": "Feature","bbox": [6.7943,36.7862,6.9244,36.8609],"geometry": {"type": "MultiPolygon","coordinates": [[[[6.7997,36.8523,469.6205],[6.7943,36.8358,471.2798],[6.798,36.8311,535.9807],[6.8277,36.8273,119.221],[6.8429,36.8146,139.8691],[6.8408,36.8026,245.8593],[6.8426,36.7984,210.0614],[6.8413,36.793,288.3712],[6.8381,36.7884,265.5367],[6.8431,36.7862,327.487],[6.8624,36.7864,205.7935],[6.8666,36.7901,151.3514],[6.8865,36.7947,205.7536],[6.8954,36.7998,193.161],[6.9019,36.8002,186.7998],[6.9244,36.8104,123.9383],[6.9219,36.8157,264.8839],[6.9118,36.8264,246.5475],[6.9136,36.8398,140.5817],[6.9105,36.8459,53.4735],[6.9043,36.8481,28.1547],[6.8921,36.8421,15.5105],[6.8877,36.8428,32.5397],[6.8768,36.849,201.7224],[6.8727,36.8537,257.4582],[6.8715,36.858,309.5164],[6.8678,36.8609,287.1064],[6.867,36.856,247.5083],[6.8608,36.8527,129.9784],[6.845,36.8486,205.6847],[6.8354,36.8381,150.4258],[6.8339,36.8463,152.4009],[6.8229,36.8563,282.4673],[6.8185,36.8575,352.5187],[6.7997,36.8523,469.6205]]]]}
,"properties": {"GID_2": "DZA.39.17_1","GID_0": "DZA","country": "Algeria","GID_1": "DZA.39_1","province": "Skikda","NL_NAME_1": "سكيكدة","county": "ElHadaiek","VARNAME_2": "NA","NL_NAME_2": "NA","TYPE_2": "Commune","ENGTYPE_2": "Commune","CC_2": "2103","HASC_2": "DZ.SK.ED","name": "El_Hadaiek.county","area_km2": 51.45855,"hist_schema_id": "Elevation0-9000","hist_area_km2": {"25": 3.97098,"50": 4.1919,"75": 4.76896,"100": 4.98973,"125": 5.8895,"150": 5.39741,"175": 5.38035,"200": 4.44693,"225": 3.54727,"250": 2.20637,"275": 1.66322,"300": 1.25589,"325": 0.62794,"350": 0.54308,"375": 0.35632,"400": 0.27148,"425": 0.33936,"450": 0.25452,"475": 0.32239,"500": 0.30541,"525": 0.4072,"550": 0.28843,"575": 0.03393}}}