{"type":"Feature","properties":{"GID_2":"DZA.26.17_1","GID_0":"DZA","country":"Algeria","GID_1":"DZA.26_1","province":"M'Sila","NL_NAME_1":"ولايةالمسيلة","county":"ElHouamed","VARNAME_2":"NA","NL_NAME_2":"NA","TYPE_2":"Commune","ENGTYPE_2":"Commune","CC_2":"2826","HASC_2":"DZ.MS.ED","name":"El_Houamed.county"},
"geometry":{"type": "MultiPolygon","coordinates": [[[[4.7419,35.1771,476.8079],[4.7467,35.1915,479.3938],[4.7469,35.1963,466.7576],[4.7207,35.1989,523.8405],[4.7051,35.1989,502.4296],[4.68,35.1939,535.2477],[4.6683,35.238,498.019],[4.6651,35.2437,573.7782],[4.6601,35.2474,616.4924],[4.6586,35.2405,515.5547],[4.6528,35.2399,519.4567],[4.6503,35.2328,504.748],[4.6416,35.2333,529.4933],[4.6433,35.2379,607.935],[4.6468,35.2415,629.8558],[4.645,35.2458,690.5183],[4.6397,35.2469,636.4387],[4.6308,35.2448,539.6005],[4.6268,35.2517,734.6157],[4.6203,35.2537,589.7033],[4.6175,35.2394,531.8983],[4.6145,35.2357,518.0671],[4.5927,35.2301,519.831],[4.5654,35.2303,533.8508],[4.5494,35.2211,599.7212],[4.5392,35.2185,572.0589],[4.5174,35.2053,616.6868],[4.5111,35.2048,603.5548],[4.4896,35.2114,558.0605],[4.4765,35.2119,553.9744],[4.4543,35.2166,522.1829],[4.4488,35.2193,518.2656],[4.4414,35.219,506.2273],[4.4359,35.2212,503.5573],[4.4329,35.2264,492.2406],[4.4334,35.2385,478.1424],[4.4269,35.2541,465.0828],[4.4158,35.2623,458.5214],[4.3934,35.2759,450.834],[4.3823,35.2739,449.6175],[4.3488,35.2814,454.5721],[4.2958,35.2698,470.496],[4.2928,35.2743,467.4579],[4.2886,35.2675,474.0756],[4.2928,35.2506,486.0643],[4.2926,35.2434,487.4673],[4.2903,35.2389,489.8993],[4.285,35.2349,497.1148],[4.2812,35.2289,503.6926],[4.281,35.222,524.7473],[4.2756,35.2122,534.2211],[4.2576,35.2082,556.871],[4.2569,35.2019,569.6459],[4.2471,35.1966,581.3268],[4.2478,35.1871,597.1941],[4.2455,35.1813,615.3151],[4.2472,35.1753,616.8585],[4.2456,35.1708,645.4642],[4.3114,35.1672,639.9496],[4.3212,35.169,623.0687],[4.3416,35.1699,647.1727],[4.3522,35.1682,688.5471],[4.3777,35.1705,618.7389],[4.3705,35.1599,679.8383],[4.3695,35.1546,703.0016],[4.373,35.1511,709.178],[4.3745,35.1469,730.0874],[4.3753,35.1333,764.4799],[4.3809,35.1231,793.8206],[4.391,35.1144,832.6975],[4.3942,35.1072,844.1169],[4.3912,35.0959,875.9937],[4.396,35.0849,927.0778],[4.4009,35.0811,995.1526],[4.4014,35.055,1237.4839],[4.4296,35.0521,995.5582],[4.4358,35.0535,981.4971],[4.4514,35.0611,946.3153],[4.489,35.0718,882.5834],[4.5864,35.076,669.7823],[4.64,35.0739,656.2046],[4.6991,35.0789,575.1753],[4.7099,35.0766,566.9829],[4.7488,35.0787,546.1388],[4.761,35.0937,534.5352],[4.763,35.1003,526.8351],[4.7632,35.1062,524.7489],[4.7595,35.1199,517.0994],[4.7618,35.1331,512.4606],[4.7551,35.1459,506.1544],[4.7493,35.1482,495.589],[4.7477,35.1535,492.7513],[4.7485,35.1593,501.1481],[4.7422,35.1702,488.0002],[4.7419,35.1771,476.8079]]]]}}