{"type": "Feature","bbox": [4.1626,35.8196,4.5292,36.0411],"geometry": {"type": "MultiPolygon","coordinates": [[[[4.5263,35.9323,982.5836],[4.522,35.936,975.538],[4.5204,35.9427,994.1108],[4.5134,35.9512,1014.9851],[4.5129,35.9571,1028.8987],[4.5015,35.9651,1055.0664],[4.5012,35.97,1056.9517],[4.5061,35.973,1074.9353],[4.5076,35.9787,1090.4883],[4.4941,36.0125,1501.9443],[4.491,36.0166,1507.5735],[4.4925,36.0312,1704.272],[4.4913,36.0372,1676.7452],[4.4808,36.0407,1619.6145],[4.4713,36.0411,1676.1642],[4.4671,36.038,1738.9905],[4.4521,36.0354,1755.0544],[4.4431,36.0303,1846.041],[4.4405,36.0241,1802.205],[4.4251,36.0161,1716.9751],[4.422,36.0109,1587.4873],[4.4159,36.0076,1525.7556],[4.407,36.0105,1464.5912],[4.3955,36.007,1428.0721],[4.3911,36.0041,1407.3047],[4.3865,35.995,1201.1306],[4.375,35.995,1357.511],[4.3646,35.9865,1369.3901],[4.3506,35.987,1282.2268],[4.3451,35.9853,1164.1025],[4.3404,35.9866,1223.0576],[4.3292,35.9844,1203.064],[4.3162,35.9897,1155.4103],[4.3005,35.9908,1060.9487],[4.2963,35.9929,1067.5482],[4.2916,35.9919,1014.4005],[4.2929,35.9979,1015.3907],[4.284,36.0054,1061.3799],[4.2813,36.0005,1033.6652],[4.277,36.0028,1037.7463],[4.2743,35.9991,1028.0131],[4.2695,35.9992,999.033],[4.265,36.0016,996.9801],[4.2666,35.9855,961.2584],[4.2644,35.971,1020.6902],[4.251,35.976,1054.4521],[4.2365,35.9634,884.7706],[4.2335,35.9486,894.7452],[4.2401,35.9461,848.0548],[4.2401,35.9363,825.0629],[4.2065,35.91,739.9977],[4.1835,35.9023,705.5388],[4.1697,35.8997,672.576],[4.1638,35.8902,647.0905],[4.1626,35.8841,656.8531],[4.1709,35.8826,690.5837],[4.2038,35.883,867.8012],[4.2326,35.8758,868.3238],[4.2483,35.8737,818.7184],[4.2569,35.8706,849.0242],[4.288,35.8768,1003.8167],[4.2999,35.8737,982.5972],[4.3103,35.8685,874.6069],[4.3152,35.8714,982.8363],[4.3185,35.8765,1042.3439],[4.3256,35.8825,1155.4684],[4.3318,35.8848,1208.2072],[4.3442,35.8833,1113.0125],[4.3633,35.8768,1035.1914],[4.3661,35.8716,970.229],[4.3579,35.8644,993.8461],[4.364,35.8413,663.6667],[4.3565,35.8283,621.2571],[4.3591,35.8237,614.4388],[4.3625,35.8196,624.0295],[4.3885,35.8214,647.3014],[4.4189,35.8262,617.67],[4.4146,35.8418,630.7437],[4.4148,35.8486,628.4086],[4.4178,35.8532,695.2761],[4.44,35.8587,756.7316],[4.4391,35.869,699.0637],[4.4444,35.8711,698.7694],[4.4607,35.8889,865.6152],[4.4589,35.899,1032.4059],[4.4536,35.9057,1053.6088],[4.4584,35.9094,1079.6509],[4.4637,35.91,1062.6064],[4.4818,35.9168,1106.0869],[4.4939,35.9176,999.1082],[4.4995,35.9202,1095.8688],[4.5051,35.9261,1071.9617],[4.5112,35.9281,1026.6888],[4.5247,35.9245,962.5469],[4.5292,35.9288,959.3943],[4.5263,35.9323,982.5836]]]]}
,"properties": {"GID_2": "DZA.26.18_1","GID_0": "DZA","country": "Algeria","GID_1": "DZA.26_1","province": "M'Sila","NL_NAME_1": "ولايةالمسيلة","county": "HammamDalaa","VARNAME_2": "HammamDhalaa|Hamma-mDhala`a","NL_NAME_2": "NA","TYPE_2": "Commune","ENGTYPE_2": "Commune","CC_2": "2803","HASC_2": "DZ.MS.HD","name": "Hammam_Dalaa.county","area_km2": 382.1676,"hist_schema_id": "Elevation0-9000","hist_area_km2": {"600": 0.3954,"625": 4.916,"650": 11.4118,"675": 13.4361,"700": 14.3955,"725": 12.6244,"750": 19.4068,"775": 21.4668,"800": 21.1042,"825": 22.8878,"850": 22.4045,"875": 23.3983,"900": 23.6036,"925": 22.2637,"950": 18.8467,"975": 17.5585,"1000": 17.0948,"1025": 15.5839,"1050": 13.8158,"1075": 9.3021,"1100": 6.6759,"1125": 5.0454,"1150": 4.3074,"1175": 3.4149,"1200": 3.741,"1225": 2.3676,"1250": 1.8355,"1275": 1.6125,"1300": 1.9726,"1325": 1.801,"1350": 1.6981,"1375": 1.5951,"1400": 1.3721,"1425": 1.5093,"1450": 1.595,"1475": 1.4406,"1500": 1.3206,"1525": 1.2691,"1550": 1.0976,"1575": 1.1318,"1600": 1.1832,"1625": 1.0117,"1650": 1.166,"1675": 1.3375,"1700": 1.8175,"1725": 1.1659,"1750": 0.7716,"1775": 0.6173,"1800": 0.2572,"1825": 0.12}}}