{"type":"Feature","properties":{"GID_2":"DZA.48.36_1","GID_0":"DZA","country":"Algeria","GID_1":"DZA.48_1","province":"Tlemcen","NL_NAME_1":"تلمسان","county":"Nedroma","VARNAME_2":"Nidrūmā","NL_NAME_2":"NA","TYPE_2":"Commune","ENGTYPE_2":"Commune","CC_2":"1340","HASC_2":"DZ.TL.NE","name":"Nedroma.county"},
"geometry":{"type": "MultiPolygon","coordinates": [[[[-1.6786,35.0899,740.9691],[-1.6764,35.095,687.5627],[-1.6813,35.0978,524.7416],[-1.6913,35.0923,424.3815],[-1.6945,35.0955,453.4646],[-1.7033,35.1135,272.3536],[-1.7068,35.1095,316.3138],[-1.7168,35.104,437.7982],[-1.7196,35.098,382.3177],[-1.735,35.0943,306.764],[-1.7477,35.0954,195.5601],[-1.7483,35.0893,268.7896],[-1.7636,35.0853,156.039],[-1.764,35.0806,188.184],[-1.7731,35.0743,245.8892],[-1.7681,35.0711,248.3301],[-1.7633,35.063,130.2179],[-1.767,35.0602,114.0351],[-1.7718,35.0581,109.6373],[-1.7775,35.0584,106.9721],[-1.7887,35.0621,121.1651],[-1.7991,35.0629,98.5012],[-1.8055,35.0587,84.9885],[-1.8026,35.0487,133.0302],[-1.8033,35.0425,155.8871],[-1.8066,35.0323,187.6341],[-1.8118,35.0298,215.0273],[-1.7956,35.0154,246.8905],[-1.7856,35.0104,303.0525],[-1.7743,34.9974,478.5386],[-1.7699,34.9944,516.8541],[-1.7622,34.9814,738.1614],[-1.7585,34.9785,770.7122],[-1.7407,34.9813,966.6005],[-1.7262,34.9882,964.4414],[-1.7234,34.9921,874.1226],[-1.7231,35.0161,571.3818],[-1.7255,35.0203,550.1127],[-1.7154,35.0243,549.647],[-1.7043,35.0392,609.2476],[-1.7069,35.0431,535.3247],[-1.7119,35.0447,602.098],[-1.7146,35.0513,430.9059],[-1.7153,35.0581,327.4464],[-1.7091,35.0707,495.5565],[-1.6983,35.0778,614.2301],[-1.6848,35.0823,622.5644],[-1.6801,35.0856,627.4917],[-1.6786,35.0899,740.9691]]]]}}