{"type":"Feature","properties":{"GID_2":"DZA.38.18_1","GID_0":"DZA","country":"Algeria","GID_1":"DZA.38_1","province":"SidiBelAbbès","NL_NAME_1":"ولايةسيديبلعباس","county":"HassiZehana","VARNAME_2":"HassiZahana","NL_NAME_2":"NA","TYPE_2":"Commune","ENGTYPE_2":"Commune","CC_2":"2220","HASC_2":"DZ.SB.HZ","name":"Hassi_Zehana.county"},
"geometry":{"type": "MultiPolygon","coordinates": [[[[-0.8536,35.0375,610.7112],[-0.8367,35.0472,619.8328],[-0.8454,35.0536,611.2078],[-0.8589,35.068,613.6376],[-0.8681,35.0713,623.7104],[-0.8827,35.0806,636.4313],[-0.9027,35.0884,654.3953],[-0.9257,35.077,648.8906],[-0.9379,35.0737,612.0225],[-0.9336,35.0684,653.1581],[-0.9407,35.065,642.8502],[-0.9408,35.0561,604.0797],[-0.9125,35.0537,670.6191],[-0.9136,35.0475,673.8646],[-0.9346,34.9992,688.7234],[-0.8759,34.9702,695.1956],[-0.8611,34.9692,675.9674],[-0.8634,35.0022,639.2512],[-0.868,35.0072,640.2689],[-0.8638,35.0132,631.2172],[-0.8726,35.0253,625.947],[-0.8779,35.0291,622.2471],[-0.868,35.0306,619.1906],[-0.8536,35.0375,610.7112]]]]}}