{"type":"Feature","properties":{"GID_2":"DZA.26.35_1","GID_0":"DZA","country":"Algeria","GID_1":"DZA.26_1","province":"M'Sila","NL_NAME_1":"ولايةالمسيلة","county":"OuledMansour","VARNAME_2":"NA","NL_NAME_2":"NA","TYPE_2":"Commune","ENGTYPE_2":"Commune","CC_2":"2828","HASC_2":"DZ.MS.OM","name":"Ouled_Mansour.county"},
"geometry":{"type": "MultiPolygon","coordinates": [[[[4.4189,35.8262,617.67],[4.3885,35.8214,647.3014],[4.3625,35.8196,624.0295],[4.3516,35.8154,587.7414],[4.3393,35.8152,578.2726],[4.3352,35.8132,582.5387],[4.3335,35.8028,574.4149],[4.3347,35.7935,547.4728],[4.3339,35.7677,513.1556],[4.3205,35.7427,498.2263],[4.3035,35.7266,473.6908],[4.3015,35.7168,466.4394],[4.3124,35.6923,454.2473],[4.3109,35.6854,450.2548],[4.3129,35.6799,448.803],[4.3105,35.6737,446.4524],[4.3109,35.6632,442.4092],[4.3164,35.6595,441.4387],[4.3181,35.654,439.6645],[4.3296,35.6461,435.8557],[4.3315,35.6416,436.1348],[4.3371,35.6365,449.2621],[4.3516,35.6388,432.5716],[4.3803,35.652,444.8878],[4.4323,35.6493,441.6061],[4.4361,35.6842,477.6331],[4.4422,35.6946,470.3083],[4.4427,35.7049,478.0842],[4.4497,35.7106,487.6829],[4.458,35.7298,506.1548],[4.4829,35.7339,497.1798],[4.4861,35.7473,499.4843],[4.499,35.7574,513.9776],[4.503,35.7627,520.2358],[4.5034,35.778,534.3077],[4.498,35.7873,546.0806],[4.5005,35.7927,553.3148],[4.4943,35.8092,578.136],[4.4803,35.8126,590.2993],[4.4693,35.8193,617.1793],[4.4582,35.8224,623.8385],[4.4436,35.8227,616.4401],[4.4189,35.8262,617.67]]]]}}