{"type":"Feature","properties":{"GID_2":"DZA.6.14_1","GID_0":"DZA","country":"Algeria","GID_1":"DZA.6_1","province":"Batna","NL_NAME_1":"ولايةباتنة","county":"Chemora","VARNAME_2":"NA","NL_NAME_2":"NA","TYPE_2":"Commune","ENGTYPE_2":"Commune","CC_2":"536","HASC_2":"DZ.BT.CM","name":"Chemora.county"},
"geometry":{"type": "MultiPolygon","coordinates": [[[[6.569,35.677,1043.9878],[6.5639,35.6728,1078.3811],[6.5588,35.6708,1165.3285],[6.5509,35.6707,1198.0508],[6.5458,35.6686,1199.6086],[6.5296,35.6582,1442.0181],[6.5169,35.6537,1440.281],[6.511,35.6488,1393.9204],[6.5045,35.6467,1479.5997],[6.4944,35.6386,1514.4619],[6.489,35.6375,1546.4783],[6.4806,35.631,1652.4004],[6.4696,35.6282,1622.6383],[6.4572,35.6209,1536.4182],[6.4549,35.6165,1451.1066],[6.4638,35.5994,1250.5312],[6.474,35.6,1194.4126],[6.4864,35.5962,1107.0947],[6.4957,35.5879,1050.4565],[6.5134,35.5844,1010.7227],[6.5237,35.5855,977.6729],[6.5287,35.5838,966.8779],[6.5326,35.5797,954.6207],[6.5391,35.578,946.9802],[6.5617,35.5756,926.5267],[6.5583,35.5701,931.6127],[6.5606,35.5616,941.8718],[6.5689,35.5575,956.7183],[6.5802,35.5669,974.2019],[6.5935,35.5618,1011.1122],[6.5993,35.568,1020.8929],[6.6015,35.5731,992.1368],[6.6066,35.577,972.8197],[6.6248,35.5826,937.5261],[6.6299,35.5825,923.3194],[6.6432,35.5747,956.0386],[6.6667,35.5676,923.013],[6.6799,35.5752,914.8087],[6.6955,35.5919,872.1642],[6.7193,35.6126,861.8766],[6.7399,35.6333,861.056],[6.7431,35.6379,862.2173],[6.7424,35.6451,860.6629],[6.747,35.6479,870.9474],[6.7684,35.6497,859.5312],[6.7711,35.6555,884.5566],[6.7646,35.6642,975.1713],[6.7644,35.6709,1163.0216],[6.7756,35.6722,953.429],[6.7705,35.6828,861.4966],[6.7608,35.6812,885.1371],[6.7553,35.6831,871.4255],[6.7483,35.6806,862.4169],[6.7468,35.6765,941.2905],[6.7387,35.6788,864.1146],[6.7377,35.6878,852.6932],[6.7189,35.6835,860.6371],[6.7071,35.6828,849.6645],[6.7012,35.6842,848.2035],[6.6747,35.7032,849.0138],[6.6686,35.7041,849.4962],[6.6619,35.7037,851.3092],[6.6549,35.701,852.5528],[6.648,35.6931,855.8661],[6.6186,35.6808,860.3059],[6.6083,35.6829,857.4324],[6.6016,35.6888,853.8589],[6.569,35.677,1043.9878]]]]}}