{"type":"Feature","properties":{"GID_2":"DZA.34.2_1","GID_0":"DZA","country":"Algeria","GID_1":"DZA.34_1","province":"OumelBouaghi","NL_NAME_1":"ولايةأمالبواقي","county":"AinBeida","VARNAME_2":"`AynBaydā","NL_NAME_2":"NA","TYPE_2":"Commune","ENGTYPE_2":"Commune","CC_2":"402","HASC_2":"DZ.OB.AB","name":"Ain_Beida.county"},
"geometry":{"type": "MultiPolygon","coordinates": [[[[7.4112,35.8163,1050.7183],[7.4046,35.8173,1023.4124],[7.4046,35.8242,1011.1402],[7.3994,35.8255,1016.3732],[7.388,35.8224,990.7174],[7.3778,35.8228,975.2714],[7.3736,35.8181,971.7139],[7.3581,35.8305,948.8518],[7.3405,35.823,934.3372],[7.3339,35.822,931.4376],[7.3184,35.8267,932.4082],[7.3076,35.8278,929.1997],[7.3082,35.822,930.5004],[7.3322,35.803,929.3456],[7.3311,35.7973,927.8409],[7.333,35.7878,921.6674],[7.329,35.7837,919.9824],[7.333,35.7811,920.805],[7.3436,35.7786,927.0431],[7.3545,35.7723,940.906],[7.3726,35.7737,993.5416],[7.3789,35.77,999.8771],[7.3863,35.7603,963.5225],[7.3991,35.7649,1023.1567],[7.4062,35.7626,1051.4276],[7.4311,35.7655,1097.2993],[7.4342,35.7725,1051.3813],[7.4328,35.7801,1119.4747],[7.4253,35.7982,1098.4033],[7.4186,35.8052,1048.5078],[7.4112,35.8163,1050.7183]]]]}}