{"type": "Feature","bbox": [8.0042,36.1938,8.1697,36.3499],"geometry": {"type": "MultiPolygon","coordinates": [[[[8.1697,36.3438,394.8427],[8.1639,36.3461,482.361],[8.1596,36.3459,612.6332],[8.1447,36.3417,702.035],[8.134,36.3459,836.6865],[8.1225,36.3468,938.9796],[8.116,36.3499,1008.8871],[8.1086,36.3495,1013.8389],[8.0886,36.3429,697.6739],[8.0778,36.3492,978.114],[8.0697,36.3473,1099.0494],[8.0516,36.339,963.5266],[8.0479,36.3355,947.2177],[8.048,36.3304,828.0079],[8.0521,36.3263,687.8411],[8.0686,36.3191,505.9344],[8.0694,36.313,453.0039],[8.064,36.3139,458.654],[8.0489,36.3031,475.6575],[8.0439,36.3027,463.9966],[8.0407,36.2997,482.314],[8.0342,36.2985,477.8975],[8.0297,36.3005,479.4296],[8.0189,36.2996,478.8249],[8.0105,36.2954,548.2383],[8.0054,36.2901,542.062],[8.0042,36.2743,548.1443],[8.0112,36.2671,515.7086],[8.014,36.2611,561.6178],[8.014,36.2546,559.5181],[8.012,36.2495,583.7431],[8.0182,36.2363,797.28],[8.0237,36.2322,923.7271],[8.042,36.2314,736.1943],[8.0604,36.2242,692.4025],[8.0657,36.2253,696.166],[8.0893,36.2085,692.324],[8.1047,36.1938,716.8294],[8.1184,36.2106,690.8444],[8.1374,36.2192,712.7795],[8.1383,36.2248,719.1097],[8.1575,36.2458,843.3226],[8.156,36.2503,891.4059],[8.149,36.2575,840.2676],[8.1428,36.2603,908.6651],[8.1328,36.2613,923.9726],[8.1338,36.267,925.4127],[8.1446,36.2756,978.2851],[8.1494,36.2767,1011.9235],[8.1507,36.2813,921.2604],[8.1489,36.2861,889.8206],[8.152,36.2954,872.9373],[8.1442,36.3043,646.4077],[8.1391,36.3067,578.4014],[8.137,36.3112,498.0213],[8.1382,36.3161,450.5807],[8.1594,36.3322,415.2052],[8.1697,36.3438,394.8427]]]]}
,"properties": {"GID_2": "DZA.40.13_1","GID_0": "DZA","country": "Algeria","GID_1": "DZA.40_1","province": "SoukAhras","NL_NAME_1": "ولايةسوقأهراس","county": "Ouillen","VARNAME_2": "Quillen","NL_NAME_2": "NA","TYPE_2": "Commune","ENGTYPE_2": "Commune","CC_2": "4119","HASC_2": "DZ.SA.OU","name": "Ouillen.county","area_km2": 153.0619,"hist_schema_id": "Elevation0-9000","hist_area_km2": {"400": 0.4953,"425": 2.6309,"450": 5.1254,"475": 4.9205,"500": 5.0745,"525": 5.7069,"550": 5.9979,"575": 6.8526,"600": 7.5026,"625": 7.7081,"650": 7.9136,"675": 10.4626,"700": 12.9096,"725": 11.9507,"750": 10.7024,"775": 8.6841,"800": 7.4016,"825": 6.7348,"850": 5.6236,"875": 4.5295,"900": 3.8628999999999998,"925": 2.5979,"950": 1.9654,"975": 1.504,"1000": 1.5553,"1025": 1.2477,"1050": 0.9914,"1075": 0.2734,"1100": 0.0512,"1125": 0.0683,"1150": 0.0171}}}