{"type": "Feature","bbox": [0.2523,34.8844,0.4771,35.0745],"geometry": {"type": "MultiPolygon","coordinates": [[[[0.2875,35.0591,801.6334],[0.277,35.0483,946.8485],[0.2799,35.0426,985.6492],[0.2732,35.0402,954.9885],[0.2673,35.0353,750.902],[0.253,35.0285,661.0225],[0.2588,35.0192,672.3971],[0.259,35.0123,675.1546],[0.2568,35.0057,684.7703],[0.258,35.0007,690.8671],[0.2523,34.9935,703.7291],[0.2541,34.9825,721.5981],[0.2598,34.9681,759.0579],[0.2664,34.9604,791.3351],[0.2683,34.9535,848.5818],[0.2737,34.9491,915.4033],[0.2741,34.9441,931.0628],[0.2719,34.9354,977.9869],[0.2764,34.9303,991.158],[0.2762,34.9245,999.8534],[0.2827,34.9003,1045.811],[0.2774,34.8958,1052.7698],[0.2819,34.892,1040.1497],[0.2982,34.8909,1048.5219],[0.306,34.887,1059.2638],[0.3143,34.885,1090.6136],[0.3491,34.8889,1195.1633],[0.3641,34.8844,1200.8414],[0.3746,34.8903,1167.9749],[0.3853,34.8862,1038.4099],[0.4028,34.8951,1007.61],[0.4546,34.8971,1107.4131],[0.4594,34.8985,1091.9659],[0.4639,34.904,1104.9159],[0.4771,34.9063,1106.564],[0.4574,34.9345,1042.0514],[0.4527,34.9374,1040.0042],[0.4479,34.9368,1035.885],[0.4438,34.9393,1034.1847],[0.4377,34.9481,1024.9463],[0.4243,34.9418,1035.797],[0.4071,34.9543,1039.9543],[0.4068,34.9664,910.8223],[0.4043,34.9723,783.5116],[0.3974,34.9803,945.0288],[0.4002,34.9944,863.5121],[0.3953,35.0111,865.1105],[0.3982,35.025,741.328],[0.4012,35.031,708.2018],[0.4157,35.0377,795.1304],[0.4086,35.0407,825.0817],[0.3949,35.0504,739.6104],[0.3893,35.052,690.4392],[0.3831,35.0505,688.5768],[0.3767,35.0458,765.9853],[0.3669,35.0432,803.158],[0.3572,35.0486,854.1193],[0.3321,35.0745,755.9257],[0.2957,35.0571,886.8723],[0.2875,35.0591,801.6334]]]]}
,"properties": {"GID_2": "DZA.36.3_1","GID_0": "DZA","country": "Algeria","GID_1": "DZA.36_1","province": "Saïda","NL_NAME_1": "ولايةسعيدة","county": "AinSoltane","VARNAME_2": "NA","NL_NAME_2": "NA","TYPE_2": "Commune","ENGTYPE_2": "Commune","CC_2": "2016","HASC_2": "DZ.SD.AS","name": "Ain_Soltane.county","area_km2": 259.5588,"hist_schema_id": "Elevation0-9000","hist_area_km2": {"650": 0.0868,"675": 3.2115,"700": 8.4549,"725": 9.0806,"750": 8.4903,"775": 10.9222,"800": 10.2805,"825": 10.264099999999999,"850": 8.6833,"875": 8.5272,"900": 8.7881,"925": 9.5526,"950": 9.0495,"975": 24.4453,"1000": 37.0127,"1025": 35.5458,"1050": 24.6676,"1075": 15.7158,"1100": 9.1458,"1125": 2.5214,"1150": 1.5477,"1175": 1.4434,"1200": 1.3217,"1225": 0.8}}}