{"type":"Feature","properties":{"GID_2":"DZA.46.13_1","GID_0":"DZA","country":"Algeria","GID_1":"DZA.46_1","province":"Tissemsilt","NL_NAME_1":"ولايةتسمسيلت","county":"Maacem","VARNAME_2":"NA","NL_NAME_2":"NA","TYPE_2":"Commune","ENGTYPE_2":"Commune","CC_2":"3817","HASC_2":"DZ.TS.MA","name":"Maacem.county"},
"geometry":{"type": "MultiPolygon","coordinates": [[[[1.5032,35.6031,592.7275],[1.5141,35.5975,666.0567],[1.5211,35.5961,787.6414],[1.5499,35.5998,653.5661],[1.5554,35.6111,647.15],[1.5628,35.6081,774.8948],[1.5703,35.6112,654.5869],[1.5771,35.6101,658.1657],[1.5841,35.6045,671.7469],[1.589,35.6051,702.9402],[1.588,35.6179,730.5454],[1.5838,35.6222,793.8],[1.5785,35.6243,814.7493],[1.5802,35.6288,918.9186],[1.5919,35.6397,1034.7991],[1.5972,35.6496,1034.6226],[1.6032,35.6553,1159.1323],[1.6014,35.6671,896.0927],[1.6052,35.6719,784.1177],[1.6044,35.6797,675.4939],[1.5958,35.674,717.9886],[1.584,35.6744,735.4604],[1.5803,35.679,711.3121],[1.5741,35.6781,694.1824],[1.5682,35.6806,736.3173],[1.5562,35.6804,743.3209],[1.5511,35.6858,836.857],[1.546,35.6859,959.1765],[1.5359,35.6784,977.5851],[1.5346,35.6738,941.2987],[1.5309,35.6706,1023.6923],[1.5292,35.6665,1071.801],[1.5263,35.6543,800.6431],[1.5207,35.6502,763.5053],[1.5139,35.6481,804.8854],[1.5091,35.6503,871.4163],[1.5047,35.6551,903.2572],[1.5001,35.6551,944.6158],[1.4999,35.6445,812.265],[1.4959,35.6417,909.1851],[1.5038,35.6313,708.3899],[1.5021,35.6173,628.482],[1.5032,35.6031,592.7275]]]]}}