{"type": "Feature","bbox": [4.4746,36.5351,4.5406,36.5849],"geometry": {"type": "MultiPolygon","coordinates": [[[[4.51,36.5435,1485.8625],[4.5152,36.548,1449.7742],[4.5172,36.5533,1498.4335],[4.5314,36.5628,1331.9749],[4.5406,36.5768,1317.6086],[4.527,36.5846,1026.531],[4.5123,36.5797,811.855],[4.5032,36.5801,688.024],[4.4905,36.5849,605.0647],[4.4887,36.5798,656.8987],[4.4772,36.5671,1143.4845],[4.4746,36.5575,1396.5636],[4.4754,36.5431,1482.1764],[4.4793,36.5403,1595.5413],[4.4811,36.5351,1654.0585],[4.4929,36.5361,1575.4905],[4.51,36.5435,1485.8625]]]]}
,"properties": {"GID_2": "DZA.47.23_1","GID_0": "DZA","country": "Algeria","GID_1": "DZA.47_1","province": "TiziOuzou","NL_NAME_1": "ولايةغليزان","county": "Beni-Zikki","VARNAME_2": "BeniZiki","NL_NAME_2": "NA","TYPE_2": "Commune","ENGTYPE_2": "Commune","CC_2": "1546","HASC_2": "DZ.TO.BK","name": "Beni-Zikki.county","area_km2": 20.50402,"hist_schema_id": "Elevation0-9000","hist_area_km2": {"575": 0.0681,"600": 0.10215,"625": 0.20431,"650": 0.18729,"675": 0.13621,"700": 0.23837,"725": 0.18729,"750": 0.23837,"775": 0.1873,"800": 0.20432,"825": 0.2554,"850": 0.28946,"875": 0.23838,"900": 0.28946,"925": 0.45975,"950": 0.30649,"975": 0.61302,"1000": 0.57895,"1025": 0.5449,"1050": 0.83441,"1075": 0.74928,"1100": 0.78335,"1125": 0.76634,"1150": 0.78339,"1175": 0.83447,"1200": 0.76635,"1225": 0.88557,"1250": 0.88555,"1275": 0.71529,"1300": 0.52796,"1325": 0.49391,"1350": 0.57906,"1375": 0.90267,"1400": 0.59609,"1425": 0.6302,"1450": 0.71538,"1475": 0.64724,"1500": 0.52802,"1525": 0.49394,"1550": 0.22143,"1575": 0.35769,"1600": 0.1533,"1625": 0.15329,"1650": 0.11923,"1675": 0.0511}}}