{"type": "Feature","bbox": [-1.1875,35.5523,-1.0282,35.6396],"geometry": {"type": "MultiPolygon","coordinates": [[[[-1.0574,35.6377,5.2786],[-1.0648,35.6396,27.5847],[-1.071,35.6374,0.0],[-1.069,35.6325,0.0],[-1.0819,35.6335,0.0],[-1.0944,35.6286,24.6788],[-1.1144,35.6167,0.0],[-1.126,35.6052,29.6583],[-1.1352,35.6001,0.0],[-1.1497,35.5849,21.4777],[-1.1532,35.5773,0.0],[-1.1578,35.5733,3.2935],[-1.1632,35.5743,0.0],[-1.1753,35.5806,0.0],[-1.1815,35.5808,11.5331],[-1.1875,35.5773,11.689],[-1.1705,35.5618,199.6022],[-1.1509,35.5528,227.7423],[-1.1354,35.5523,238.5958],[-1.1301,35.5542,224.4693],[-1.1122,35.5619,234.6422],[-1.1057,35.5714,254.6502],[-1.1009,35.5697,268.0705],[-1.1005,35.5649,245.6368],[-1.0961,35.5637,237.7652],[-1.089,35.5648,234.9467],[-1.0914,35.5717,249.0476],[-1.0883,35.5763,218.4471],[-1.0829,35.5778,199.062],[-1.0802,35.5827,211.3957],[-1.0801,35.5879,228.6468],[-1.0765,35.5922,196.1992],[-1.0648,35.5969,245.9854],[-1.0567,35.5969,301.2079],[-1.0399,35.6058,180.1695],[-1.0282,35.6087,137.9784],[-1.0328,35.6131,132.8195],[-1.0486,35.6209,118.4592],[-1.0398,35.63,113.1959],[-1.0406,35.6348,91.5949],[-1.0456,35.6376,27.2227],[-1.0515,35.6365,13.7496],[-1.0574,35.6377,5.2786]]]]}
,"properties": {"GID_2": "DZA.3.8_1","GID_0": "DZA","country": "Algeria","GID_1": "DZA.3_1","province": "AïnTémouchent","NL_NAME_1": "ولايةعينتموشنت","county": "BouZedjar","VARNAME_2": "Bouzedjar","NL_NAME_2": "NA","TYPE_2": "Commune-Cotiere","ENGTYPE_2": "Commune-Cotiere","CC_2": "4605","HASC_2": "DZ.AT.BZ","name": "Bou_Zedjar.county","area_km2": 57.67012,"hist_schema_id": "Elevation0-9000","hist_area_km2": {"0": 2.2927399999999998,"25": 3.05163,"50": 3.82754,"75": 3.36213,"100": 3.50004,"125": 4.86166,"150": 3.67234,"175": 3.72414,"200": 8.05151,"225": 9.36163,"250": 7.79304,"275": 2.41343,"300": 1.31009,"325": 0.32753,"350": 0.0862,"375": 0.03448}}}