{"type": "Feature","bbox": [1.1587,34.6352,1.2929,35.0263],"geometry": {"type": "MultiPolygon","coordinates": [[[[1.1805,34.8616,1093.4589],[1.1829,34.8507,1091.1259],[1.1872,34.841,1098.1405],[1.1892,34.8097,1069.4829],[1.2106,34.7594,1043.3778],[1.2195,34.7317,1028.2474],[1.2051,34.7099,1018.6062],[1.1961,34.6917,1010.5196],[1.195,34.646,998.0657],[1.1968,34.6352,999.6494],[1.2219,34.6611,1029.9741],[1.2226,34.7003,1033.4165],[1.2395,34.7199,1037.2698],[1.2414,34.7485,1045.4285],[1.24,34.7529,1034.3823],[1.2513,34.7677,1038.061],[1.2526,34.7741,1046.1777],[1.2514,34.7805,1044.074],[1.2536,34.7902,1053.7048],[1.2696,34.805,1057.0824],[1.2828,34.8242,1056.5837],[1.2855,34.8386,1061.0637],[1.2843,34.8432,1062.7864],[1.2763,34.8643,1075.3156],[1.2694,34.873,1080.9987],[1.275,34.8779,1092.9318],[1.2831,34.8821,1092.9706],[1.282,34.8926,1090.2823],[1.2861,34.9097,1099.6128],[1.2863,34.9172,1098.1609],[1.2929,34.9402,1105.457],[1.2855,34.9428,1120.8245],[1.2837,34.9676,1126.9506],[1.2816,34.9732,1146.7837],[1.2505,34.9758,1148.8346],[1.2415,34.9823,1183.577],[1.238,35.0125,1184.0918],[1.2335,35.0135,1187.3824],[1.22,35.0116,1204.073],[1.2132,35.0127,1210.8083],[1.194,35.0244,1238.6686],[1.1879,35.0263,1244.7737],[1.1708,35.019,1237.0747],[1.1641,35.0009,1225.235],[1.1587,34.9971,1215.7831],[1.1596,34.9922,1210.3585],[1.1805,34.9506,1166.4658],[1.1589,34.9231,1142.7397],[1.1768,34.8881,1124.8707],[1.1805,34.8616,1093.4589]]]]}
,"properties": {"GID_2": "DZA.43.19_1","GID_0": "DZA","country": "Algeria","GID_1": "DZA.43_1","province": "Tiaret","NL_NAME_1": "ولايةتيارت","county": "Medrissa","VARNAME_2": "NA","NL_NAME_2": "NA","TYPE_2": "Commune","ENGTYPE_2": "Commune","CC_2": "1408","HASC_2": "DZ.TR.MI","name": "Medrissa.county","area_km2": 269.2603,"hist_schema_id": "Elevation0-9000","hist_area_km2": {"1000": 5.3889,"1025": 20.3399,"1050": 30.9788,"1075": 40.9679,"1100": 48.647,"1125": 50.9232,"1150": 28.1369,"1175": 24.0786,"1200": 14.086,"1225": 5.5049,"1250": 0.2084}}}