{"type":"Feature","properties":{"GID_2":"DZA.11.19_1","GID_0":"DZA","country":"Algeria","GID_1":"DZA.11_1","province":"BordjBouArréridj","NL_NAME_1":"ولايةبرجبوعريريج","county":"Hasnaoua","VARNAME_2":"NA","NL_NAME_2":"NA","TYPE_2":"Commune","ENGTYPE_2":"Commune","CC_2":"3419","HASC_2":"DZ.BB.HS","name":"Hasnaoua.county"},
"geometry":{"type": "MultiPolygon","coordinates": [[[[4.8464,36.1209,849.7852],[4.8493,36.1241,845.1289],[4.8509,36.1298,831.0786],[4.8617,36.1358,878.785],[4.8674,36.1337,916.89],[4.8744,36.1354,912.2258],[4.8754,36.141,853.39],[4.8803,36.1436,852.8348],[4.8865,36.1442,842.9362],[4.8941,36.1482,817.5008],[4.8979,36.1521,828.3846],[4.9012,36.1692,870.9735],[4.8936,36.1767,831.7334],[4.8887,36.1845,820.6771],[4.8859,36.1912,873.9421],[4.8871,36.197,906.9365],[4.8765,36.2017,905.994],[4.8708,36.2006,826.9601],[4.867,36.1979,810.7021],[4.863,36.2022,851.9541],[4.8636,36.2101,868.1996],[4.8576,36.2215,902.571],[4.8506,36.2228,951.0303],[4.8371,36.2203,829.7883],[4.8258,36.2135,737.4287],[4.8271,36.208,743.6476],[4.8221,36.2059,743.4046],[4.8071,36.2051,772.5621],[4.8031,36.2014,784.822],[4.798,36.193,844.0222],[4.788,36.1906,887.0569],[4.7735,36.192,1002.7236],[4.7709,36.1963,951.6122],[4.7611,36.2004,923.8367],[4.7523,36.2107,817.2599],[4.7461,36.2096,872.1458],[4.7326,36.2109,1010.4639],[4.7222,36.2131,1017.9039],[4.7163,36.2163,935.568],[4.7106,36.216,1050.7672],[4.7123,36.2044,1071.705],[4.7097,36.1966,1040.1626],[4.712,36.19,1018.5651],[4.7209,36.1753,1179.6438],[4.7335,36.1757,1181.1221],[4.7465,36.1662,1210.7925],[4.7586,36.1603,1380.8087],[4.7626,36.1555,1359.9586],[4.7714,36.1522,1388.7749],[4.7695,36.1456,1254.3768],[4.7711,36.1405,1148.4255],[4.7799,36.1257,1007.8811],[4.7855,36.1197,982.7423],[4.785,36.1095,977.9749],[4.7993,36.1031,958.9934],[4.8095,36.1028,969.2822],[4.8135,36.1086,999.1811],[4.8278,36.1137,987.7926],[4.8303,36.1181,949.2303],[4.8349,36.1199,904.9081],[4.8464,36.1209,849.7852]]]]}}