{"type":"Feature","properties":{"GID_2":"DZA.5.5_1","GID_0":"DZA","country":"Algeria","GID_1":"DZA.5_1","province":"Annaba","NL_NAME_1":"ولايةعنابة","county":"Chorfa","VARNAME_2":"Cheurfa","NL_NAME_2":"NA","TYPE_2":"Commune","ENGTYPE_2":"Commune","CC_2":"2307","HASC_2":"DZ.AN.CR","name":"Chorfa.county"},
"geometry":{"type": "MultiPolygon","coordinates": [[[[7.6164,36.7227,30.6269],[7.6211,36.7352,26.15],[7.6186,36.7477,19.8144],[7.6228,36.7537,17.9603],[7.6226,36.758,17.0718],[7.6296,36.7671,14.3348],[7.6315,36.773,13.1725],[7.6376,36.7799,11.3566],[7.6228,36.7851,11.5772],[7.5988,36.7864,14.2076],[7.5914,36.7887,14.1085],[7.5842,36.7869,12.6436],[7.5673,36.7874,11.0107],[7.5635,36.7846,10.8411],[7.5561,36.7658,10.8974],[7.5482,36.752,10.8916],[7.5442,36.746,10.8808],[7.5397,36.7438,10.7803],[7.5366,36.7296,12.2751],[7.5336,36.725,13.888],[7.5321,36.7183,18.4016],[7.5146,36.7046,54.1349],[7.5109,36.6989,66.2325],[7.5111,36.694,92.4539],[7.5169,36.6824,162.004],[7.533,36.6789,185.7268],[7.5385,36.6753,228.9532],[7.5423,36.67,300.1684],[7.5484,36.6675,267.8953],[7.5609,36.6576,175.5246],[7.572,36.6564,231.386],[7.5904,36.6631,95.4623],[7.5956,36.6635,82.8373],[7.5998,36.6662,79.3181],[7.6027,36.6719,74.7792],[7.6023,36.6779,70.1266],[7.6074,36.6863,58.7844],[7.6088,36.6926,52.8788],[7.6128,36.6998,49.0695],[7.6109,36.7064,61.3719],[7.6164,36.7227,30.6269]]]]}}