{"type": "Feature","bbox": [-0.6579,35.0202,-0.5156,35.1809],"geometry": {"type": "MultiPolygon","coordinates": [[[[-0.582,35.1751,485.0786],[-0.5965,35.1809,477.6984],[-0.6046,35.174,477.6792],[-0.6167,35.1689,478.3375],[-0.6298,35.1701,480.5512],[-0.647,35.169,484.1825],[-0.6579,35.1543,496.0046],[-0.6474,35.1416,512.2485],[-0.6363,35.1394,512.8623],[-0.6349,35.1322,519.3235],[-0.6369,35.0904,576.3357],[-0.6356,35.0757,602.49],[-0.6303,35.0621,635.7766],[-0.6251,35.0273,713.1752],[-0.6186,35.0208,737.049],[-0.6138,35.0202,759.1898],[-0.6067,35.0249,805.8391],[-0.5969,35.0328,833.6133],[-0.5922,35.0392,859.4376],[-0.5727,35.0437,839.9651],[-0.5505,35.0439,808.4288],[-0.5314,35.047,757.678],[-0.5204,35.0465,733.5438],[-0.5156,35.0484,711.301],[-0.5242,35.0545,721.0602],[-0.5259,35.0594,709.5466],[-0.5303,35.0639,722.7586],[-0.5431,35.0671,681.1838],[-0.5575,35.0652,698.6987],[-0.5644,35.0662,712.5763],[-0.5749,35.0874,623.9388],[-0.5748,35.0925,606.8955],[-0.5776,35.0973,598.4988],[-0.5841,35.1007,598.8574],[-0.59,35.1106,576.0138],[-0.5879,35.1166,574.0546],[-0.5819,35.1192,555.9576],[-0.5791,35.1295,539.4999],[-0.5817,35.14,524.1255],[-0.5922,35.1591,492.8796],[-0.5885,35.1648,491.6242],[-0.588,35.1718,485.1649],[-0.582,35.1751,485.0786]]]]}
,"properties": {"GID_2": "DZA.38.6_1","GID_0": "DZA","country": "Algeria","GID_1": "DZA.38_1","province": "SidiBelAbbès","NL_NAME_1": "ولايةسيديبلعباس","county": "Amernas","VARNAME_2": "Amarnas","NL_NAME_2": "NA","TYPE_2": "Commune","ENGTYPE_2": "Commune","CC_2": "2212","HASC_2": "DZ.SB.AM","name": "Amernas.county","area_km2": 93.48346,"hist_schema_id": "Elevation0-9000","hist_area_km2": {"475": 4.74894,"500": 12.93187,"525": 7.33418,"550": 8.82679,"575": 9.33163,"600": 6.83516,"625": 6.02051,"650": 5.223,"675": 4.59879,"700": 5.48425,"725": 7.09878,"750": 6.26607,"775": 3.74936,"800": 2.63855,"825": 1.51025,"850": 0.76381,"875": 0.10415,"900": 0.01736}}}