{"type":"Feature","properties":{"GID_2":"DZA.39.29_1","GID_0":"DZA","country":"Algeria","GID_1":"DZA.39_1","province":"Skikda","NL_NAME_1":"سكيكدة","county":"OuledAttia","VARNAME_2":"NA","NL_NAME_2":"NA","TYPE_2":"Commune-Cotiere","ENGTYPE_2":"Commune-Cotiere","CC_2":"2113","HASC_2":"DZ.SK.OA","name":"Ouled_Attia.county"},
"geometry":{"type": "MultiPolygon","coordinates": [[[[6.4311,36.9691,1070.7207],[6.4287,36.9741,922.5756],[6.4291,36.9802,925.0857],[6.4159,36.9897,879.6082],[6.4116,36.9949,807.8155],[6.4135,37.0057,923.4921],[6.4107,37.0163,889.9933],[6.4026,37.0247,880.3387],[6.396,37.0159,660.4634],[6.3904,37.0129,585.684],[6.3838,37.0131,551.4204],[6.394,37.0273,884.3113],[6.3933,37.0316,940.6726],[6.3889,37.0317,916.3433],[6.3787,37.0371,701.9081],[6.3783,37.0429,685.6555],[6.3754,37.0483,659.7647],[6.3532,37.0619,353.3412],[6.3486,37.069,65.9302],[6.3369,37.0681,24.2942],[6.3243,37.055,12.7639],[6.3177,37.0504,0.0],[6.3152,37.0456,0.0],[6.3043,37.0392,0.0],[6.3143,37.0276,388.6384],[6.3093,37.0168,582.432],[6.3114,37.0118,656.6881],[6.3107,37.007,737.2107],[6.3052,37.0047,629.6187],[6.3062,37.0006,681.8379],[6.3119,36.9921,692.3008],[6.3099,36.9816,656.3774],[6.3142,36.9776,501.1356],[6.3103,36.9655,585.2029],[6.3177,36.9563,505.7338],[6.3338,36.9441,241.0078],[6.3403,36.9406,211.4274],[6.3527,36.9392,134.8737],[6.3858,36.9391,420.989],[6.3921,36.9409,460.9898],[6.4115,36.94,710.2065],[6.41,36.9586,934.2437],[6.4179,36.9655,1030.1625],[6.4311,36.9691,1070.7207]]]]}}