{"type":"Feature","properties":{"GID_2":"DZA.3.7_1","GID_0":"DZA","country":"Algeria","GID_1":"DZA.3_1","province":"AïnTémouchent","NL_NAME_1":"ولايةعينتموشنت","county":"BeniSaf","VARNAME_2":"Bani-Sa-f","NL_NAME_2":"NA","TYPE_2":"Commune-Cotiere","ENGTYPE_2":"Commune-Cotiere","CC_2":"4623","HASC_2":"DZ.AT.BS","name":"Beni_Saf.county"},
"geometry":{"type": "MultiPolygon","coordinates": [[[[-1.344,35.2604,249.5374],[-1.3403,35.2558,260.2942],[-1.336,35.2669,246.1374],[-1.3378,35.2803,228.7096],[-1.3428,35.2837,204.2064],[-1.3476,35.2922,183.1087],[-1.3381,35.2886,228.0477],[-1.3277,35.2904,194.0065],[-1.3223,35.2955,183.6884],[-1.321,35.3017,192.7177],[-1.3114,35.3076,151.1817],[-1.3101,35.3122,99.0267],[-1.3183,35.3134,138.3751],[-1.3365,35.3193,155.3209],[-1.3424,35.3218,147.7452],[-1.3481,35.3269,29.2769],[-1.3555,35.321,0.0],[-1.366,35.3226,0.0],[-1.3693,35.3195,0.0],[-1.3747,35.3174,0.0],[-1.3743,35.312,8.139],[-1.3853,35.3062,19.9996],[-1.3991,35.3021,0.0],[-1.4043,35.3025,0.0],[-1.4145,35.3004,95.1259],[-1.425,35.3037,53.7873],[-1.4375,35.3046,5.4452],[-1.4432,35.3075,0.0],[-1.4553,35.3068,38.8276],[-1.4601,35.3082,0.0],[-1.4646,35.3078,0.0],[-1.4688,35.2985,3.4133],[-1.463,35.2915,2.5978],[-1.4545,35.2858,118.4414],[-1.4521,35.2728,6.2373],[-1.4378,35.2749,12.8644],[-1.4355,35.269,15.916],[-1.4449,35.2566,10.7673],[-1.4389,35.2528,38.0392],[-1.4345,35.2475,15.2031],[-1.4302,35.2494,11.1878],[-1.4324,35.2563,84.2993],[-1.426,35.2633,156.5599],[-1.4219,35.2645,243.3333],[-1.4159,35.2636,293.7438],[-1.4164,35.2582,181.4231],[-1.412,35.2553,218.3053],[-1.4018,35.2568,280.3766],[-1.399,35.2606,322.6174],[-1.3784,35.261,215.7742],[-1.3651,35.2659,255.1479],[-1.3578,35.2657,258.0476],[-1.3518,35.2675,242.7788],[-1.344,35.2604,249.5374]]],
[[[-1.4816,35.3195,3.3547],[-1.4767,35.3202,36.5674],[-1.4798,35.3251,26.2123],[-1.4816,35.3195,3.3547]]]]}}