{"type":"Feature","properties":{"GID_2":"DZA.18.13_1","GID_0":"DZA","country":"Algeria","GID_1":"DZA.18_1","province":"ElOued","NL_NAME_1":"ولايةالوادي","county":"Kouinine","VARNAME_2":"NA","NL_NAME_2":"NA","TYPE_2":"Commune","ENGTYPE_2":"Commune","CC_2":"3907","HASC_2":"DZ.EO.KO","name":"Kouinine.county"},
"geometry":{"type": "MultiPolygon","coordinates": [[[[6.8738,33.4125,78.0043],[6.8669,33.462,64.8143],[6.8116,33.4623,65.5609],[6.8118,33.4167,75.1299],[6.6484,33.3742,93.4879],[6.6699,33.3183,92.4067],[6.7446,33.3664,99.0493],[6.8086,33.3701,78.9135],[6.8738,33.4125,78.0043]]]]}}