{"type": "Feature","bbox": [-0.4231,35.3587,-0.2519,35.5014],"geometry": {"type": "MultiPolygon","coordinates": [[[[-0.2519,35.4733,258.2434],[-0.2623,35.4823,344.6394],[-0.2624,35.4878,265.0024],[-0.2708,35.5014,489.196],[-0.2868,35.4973,493.3136],[-0.3226,35.4995,252.5498],[-0.3081,35.4898,291.7088],[-0.3001,35.4813,288.6592],[-0.3078,35.4675,355.5165],[-0.3237,35.4579,390.4019],[-0.3298,35.4495,414.4909],[-0.3449,35.4443,372.7201],[-0.3598,35.4438,349.5081],[-0.3752,35.4498,308.5005],[-0.3872,35.4519,328.7481],[-0.3929,35.4492,307.935],[-0.401,35.4418,325.2163],[-0.3999,35.436,351.95],[-0.402,35.4294,379.8926],[-0.408,35.4186,386.5049],[-0.4116,35.4155,371.1282],[-0.4095,35.4038,433.1571],[-0.4065,35.397,446.4713],[-0.4099,35.3932,484.9444],[-0.4195,35.3886,568.7067],[-0.4231,35.3745,569.2674],[-0.4223,35.3675,556.9942],[-0.4182,35.3634,514.6589],[-0.3995,35.3636,559.7522],[-0.3971,35.3587,526.52],[-0.3908,35.3624,549.5813],[-0.383,35.3624,526.7053],[-0.3803,35.3673,540.6146],[-0.3712,35.3655,527.5069],[-0.366,35.367,519.6848],[-0.3441,35.3597,396.6811],[-0.3428,35.3658,415.9389],[-0.3317,35.3737,312.4874],[-0.3299,35.3776,351.9724],[-0.3033,35.3962,404.2818],[-0.2752,35.4074,432.5597],[-0.2752,35.4119,451.3915],[-0.2774,35.4166,468.689],[-0.2781,35.4303,541.8391],[-0.2745,35.4335,497.8803],[-0.2725,35.4384,515.669],[-0.2856,35.4531,457.7452],[-0.2729,35.4518,529.5397],[-0.2681,35.4539,471.8226],[-0.2659,35.4591,397.696],[-0.2519,35.4733,258.2434]]]]}
,"properties": {"GID_2": "DZA.27.12_1","GID_0": "DZA","country": "Algeria","GID_1": "DZA.27_1","province": "Mascara","NL_NAME_1": "ولايةمعسكر","county": "ElGaada","VARNAME_2": "NA","NL_NAME_2": "NA","TYPE_2": "Commune","ENGTYPE_2": "Commune","CC_2": "2929","HASC_2": "DZ.MC.ED","name": "El_Gaada.county","area_km2": 121.37672,"hist_schema_id": "Elevation0-9000","hist_area_km2": {"250": 0.0518,"275": 0.37984,"300": 1.53661,"325": 4.17905,"350": 5.85442,"375": 7.8413,"400": 10.41611,"425": 10.81508,"450": 10.00356,"475": 10.88539,"500": 12.37073,"525": 12.54476,"550": 11.25106,"575": 9.92102,"600": 7.32837,"625": 4.9087,"650": 1.08891}}}