{"type":"Feature","properties":{"GID_2":"DZA.10.22_1","GID_0":"DZA","country":"Algeria","GID_1":"DZA.10_1","province":"Blida","NL_NAME_1":"البليدة","county":"OuledSlama","VARNAME_2":"Awla-dSalam","NL_NAME_2":"NA","TYPE_2":"Commune","ENGTYPE_2":"Commune","CC_2":"915","HASC_2":"DZ.BL.OS","name":"Ouled_Slama.county"},
"geometry":{"type": "MultiPolygon","coordinates": [[[[3.0909,36.5914,57.7811],[3.0914,36.5757,71.5716],[3.0973,36.5628,89.2945],[3.0978,36.5507,113.5285],[3.1069,36.5356,149.8164],[3.1082,36.5305,164.9562],[3.1064,36.5191,278.0074],[3.1104,36.5106,470.5605],[3.1095,36.502,575.7369],[3.1142,36.4871,921.5894],[3.1174,36.4842,867.8043],[3.13,36.4795,641.9547],[3.1353,36.4756,572.2783],[3.1369,36.4653,542.9222],[3.1444,36.4564,695.395],[3.1447,36.4512,744.5654],[3.1416,36.4384,1118.7759],[3.1511,36.4332,1161.5298],[3.1645,36.4336,1231.2151],[3.1769,36.4398,1033.3679],[3.1883,36.4414,694.051],[3.1875,36.4488,593.7095],[3.1785,36.4652,601.837],[3.1789,36.4701,477.866],[3.182,36.4764,457.5299],[3.19,36.4831,372.1406],[3.1957,36.4944,370.7038],[3.1877,36.4974,319.8778],[3.1842,36.5019,297.9068],[3.1875,36.5216,207.4497],[3.1712,36.5131,703.7155],[3.1699,36.5083,774.194],[3.1653,36.5049,830.9702],[3.1506,36.5055,886.4352],[3.1459,36.5071,869.5838],[3.1466,36.5131,658.1096],[3.1505,36.5184,514.4095],[3.145,36.5309,269.6736],[3.1456,36.5379,216.1736],[3.1387,36.5593,98.2183],[3.132,36.5695,86.2579],[3.1166,36.5814,73.8772],[3.101,36.5888,60.7794],[3.097,36.5938,56.6575],[3.0928,36.5961,55.7911],[3.0909,36.5914,57.7811]]]]}}