{"type": "Feature","bbox": [8.4824,36.774,8.5947,36.8555],"geometry": {"type": "MultiPolygon","coordinates": [[[[8.5222,36.7815,91.6166],[8.5287,36.7817,94.7492],[8.5355,36.7759,99.9461],[8.5427,36.7744,102.6305],[8.553,36.7761,109.485],[8.5567,36.7786,113.1201],[8.5635,36.7744,123.4638],[8.5706,36.776,129.9966],[8.576,36.774,142.5527],[8.5908,36.792,341.9446],[8.5695,36.7992,300.8806],[8.5801,36.8207,255.031],[8.5925,36.8313,272.3504],[8.5947,36.8361,348.6766],[8.5897,36.8424,454.688],[8.5565,36.8371,307.1599],[8.5523,36.8385,272.8746],[8.5369,36.8555,6.5796],[8.5012,36.8406,2.7772],[8.495,36.836,3.1211],[8.4929,36.8277,3.1464],[8.4824,36.8261,3.0298],[8.4849,36.8221,30.6542],[8.4896,36.8194,52.6363],[8.4929,36.8151,121.058],[8.5131,36.8113,141.201],[8.5232,36.8032,126.7826],[8.5279,36.802,108.8064],[8.5301,36.7969,101.0138],[8.5277,36.7924,99.3534],[8.5173,36.7832,88.4699],[8.5222,36.7815,91.6166]]]]}
,"properties": {"GID_2": "DZA.19.21_1","GID_0": "DZA","country": "Algeria","GID_1": "DZA.19_1","province": "ElTarf","NL_NAME_1": "ولايةالطارف","county": "RamlSouk","VARNAME_2": "NA","NL_NAME_2": "NA","TYPE_2": "Commune","ENGTYPE_2": "Commune","CC_2": "3624","HASC_2": "DZ.ET.RS","name": "Raml_Souk.county","area_km2": 49.32641,"hist_schema_id": "Elevation0-9000","hist_area_km2": {"0": 6.22789,"25": 3.75057,"50": 2.57963,"75": 1.95167,"100": 4.43092,"125": 6.26432,"150": 6.5358,"175": 3.92165,"200": 3.14065,"225": 2.2577,"250": 2.00293,"275": 1.71437,"300": 1.39185,"325": 0.91651,"350": 0.5261,"375": 0.52605,"400": 0.42423,"425": 0.40725,"450": 0.16969,"475": 0.13575,"500": 0.0509}}}