{"type":"Feature","properties":{"GID_2":"DZA.32.6_1","GID_0":"DZA","country":"Algeria","GID_1":"DZA.32_1","province":"Oran","NL_NAME_1":"ولايةوهران","county":"Bethioua","VARNAME_2":"NA","NL_NAME_2":"NA","TYPE_2":"Commune-Cotiere","ENGTYPE_2":"Commune-Cotiere","CC_2":"3107","HASC_2":"DZ.OR.BE","name":"Bethioua.county"},
"geometry":{"type": "MultiPolygon","coordinates": [[[[-0.1904,35.6945,4.2387],[-0.1998,35.7143,39.6325],[-0.2049,35.7212,132.7135],[-0.2042,35.7263,138.491],[-0.1973,35.7348,141.6065],[-0.2014,35.7406,158.1078],[-0.2068,35.7564,139.7298],[-0.2192,35.7735,112.8185],[-0.2099,35.7778,127.8689],[-0.2077,35.7839,137.1843],[-0.2101,35.7883,140.0588],[-0.2036,35.791,92.0124],[-0.2027,35.8022,2.0204],[-0.2424,35.8092,1.0648],[-0.2455,35.8137,0.0],[-0.2596,35.8185,0.0],[-0.2786,35.8191,3.6737],[-0.2742,35.8144,8.9519],[-0.2757,35.8077,56.9614],[-0.2794,35.804,58.3414],[-0.29,35.8005,58.587],[-0.2838,35.7844,67.2824],[-0.2789,35.7787,79.279],[-0.2732,35.7588,72.0172],[-0.2697,35.7544,74.0313],[-0.2593,35.7468,75.8177],[-0.26,35.7425,79.7939],[-0.2791,35.739,56.0],[-0.2835,35.7362,56.0],[-0.2937,35.7198,56.0],[-0.3086,35.7102,56.0],[-0.3098,35.7057,56.3767],[-0.3136,35.7006,56.0],[-0.3249,35.6939,56.7243],[-0.3302,35.695,58.3166],[-0.3281,35.6899,56.0],[-0.3387,35.6804,56.0],[-0.3461,35.6705,56.4265],[-0.3566,35.6602,56.0],[-0.3599,35.6544,59.5336],[-0.352,35.6553,63.2804],[-0.3422,35.6588,59.2415],[-0.3301,35.6586,89.2966],[-0.3118,35.6657,77.1348],[-0.3006,35.6728,82.3098],[-0.2946,35.6782,110.4972],[-0.2878,35.6877,73.6726],[-0.2715,35.7207,60.138],[-0.2573,35.7344,64.9643],[-0.2428,35.7194,161.4489],[-0.2358,35.7163,166.1124],[-0.2334,35.7101,163.8802],[-0.2295,35.7059,130.8996],[-0.209,35.7027,31.4613],[-0.2022,35.6918,14.1281],[-0.1904,35.6945,4.2387]]]]}}