{"type": "Feature","id": "2205","bbox": [0.49225,34.06893,2.62028,35.68981],"geometry": {"type": "Polygon","coordinates": [[[1.50149,35.59359,679.1078],[1.49234,35.59488,629.9348],[1.48583,35.6063,587.2623],[1.48196,35.62901,836.634],[1.47756,35.63979,806.7751],[1.46919,35.64803,740.6565],[1.45648,35.65571,804.789],[1.40015,35.67663,823.3442],[1.3738,35.68066,930.1733],[1.35933,35.6865,772.5485],[1.34646,35.68981,746.4836],[1.33375,35.68805,797.146],[1.32445,35.67731,615.0412],[1.3184,35.66304,729.2239],[1.30967,35.63328,549.5991],[1.30316,35.62351,503.9217],[1.29246,35.61765,437.2072],[1.27975,35.61907,596.7726],[1.26967,35.62266,706.8543],[1.24559,35.64733,736.2649],[1.20621,35.64568,680.1083],[1.18554,35.64023,463.2023],[1.13293,35.61439,595.6185],[1.09511,35.60408,732.0342],[1.04777,35.57897,696.333],[1.01873,35.57845,669.126],[1.01098,35.57504,674.2335],[1.00958,35.56832,600.7848],[1.01485,35.56109,600.6021],[1.02229,35.55403,680.2944],[1.02353,35.54667,714.4894],[1.01795,35.54424,731.1265],[1.01392,35.54434,713.4285],[1.00958,35.54682,716.7225],[1.00385,35.55186,695.4957],[0.99811,35.55457,663.8952],[0.9902,35.5569,691.9764],[0.97842,35.5562,586.9637],[0.97,35.55357,596.1629],[0.95946,35.54775,737.9934],[0.89011,35.48556,461.3126],[0.88406,35.4769,443.7821],[0.88204,35.46993,443.9026],[0.88499,35.45474,432.2523],[0.88111,35.4437,326.3768],[0.87367,35.43841,326.3139],[0.86608,35.43608,351.3714],[0.85812,35.43634,297.961],[0.84789,35.43799,290.8494],[0.82789,35.44347,292.7086],[0.82277,35.42487,319.4969],[0.82835,35.41841,376.5129],[0.83874,35.40998,433.8575],[0.87336,35.3928,434.8674],[0.88049,35.38637,500.8377],[0.87817,35.37474,503.4374],[0.86763,35.35805,493.2186],[0.81998,35.30611,584.8658],[0.8021,35.29046,616.6818],[0.77854,35.27937,1012.8312],[0.76412,35.27769,867.1958],[0.75048,35.28059,746.1238],[0.73616,35.28658,686.2435],[0.7002,35.29769,571.2235],[0.68433,35.29955,409.4507],[0.67441,35.29932,466.8123],[0.66061,35.29645,500.1883],[0.64604,35.29154,511.3073],[0.63157,35.28482,509.2288],[0.61777,35.27604,521.2302],[0.60413,35.26165,531.8499],[0.5925,35.24369,538.6708],[0.56563,35.19147,577.1956],[0.5138,35.1346,779.6047],[0.49225,35.08633,1003.9064],[0.62506,35.09592,645.1226],[0.65255,35.0898,659.9125],[0.65317,35.0682,673.5819],[0.6541,35.06546,736.049],[0.65627,35.06174,725.7156],[0.65937,35.05817,682.1827],[0.68356,35.04585,703.3816],[0.71802,35.03197,752.4683],[0.73833,35.02063,835.7013],[0.7542,35.00784,799.9164],[0.77451,34.98458,842.1769],[0.78164,34.9727,861.4051],[0.78505,34.95787,820.5781],[0.78303,34.94815,881.9415],[0.77404,34.93513,888.8347],[0.68154,34.86692,1015.1474],[0.66976,34.8555,1015.863],[0.66743,34.84221,1053.4053],[0.66836,34.82051,1019.2473],[0.67348,34.78938,1045.2104],[0.69353,34.73633,1078.0464],[0.85626,34.50213,994.0013],[0.85688,34.49986,990.7616],[0.85626,34.49743,989.811],[0.85393,34.49172,988.7608],[0.84773,34.48425,987.718],[0.83765,34.47725,987.8276],[0.77606,34.44953,1001.3628],[0.75761,34.43818,991.9277],[0.97372,34.38209,986.0],[1.01423,34.35537,986.0],[1.03196,34.33935,990.6175],[1.01733,34.2192,1034.1353],[1.01842,34.20228,1021.6406],[1.02369,34.19125,1021.2394],[1.03909,34.18882,1028.5869],[1.19298,34.19641,1089.4019],[1.23148,34.19189,1090.6252],[1.25055,34.18254,1112.3322],[1.26269,34.16686,1106.8645],[1.283,34.12575,1118.808],[1.33623,34.06893,1139.4786],[1.64158,34.25615,1187.6438],[1.65776,34.27238,1175.618],[1.66877,34.29729,1168.5836],[1.67481,34.31775,1167.2048],[1.69109,34.34581,1107.5291],[1.71641,34.37457,1100.9325],[1.7701,34.42358,1083.8433],[1.80623,34.44909,1126.9641],[1.83279,34.4643,1155.4469],[1.95784,34.49637,1065.4368],[1.9811,34.50699,1070.0493],[2.08755,34.58357,978.1425],[2.18083,34.62913,929.6885],[2.19587,34.64254,922.8215],[2.20408,34.65375,919.2052],[2.21173,34.66832,910.2192],[2.22057,34.67468,908.5435],[2.2384,34.67995,900.5822],[2.31503,34.69119,890.8519],[2.35772,34.69287,894.0171],[2.36996,34.7763,874.4843],[2.43906,34.8409,867.9579],[2.46029,34.87017,869.2338],[2.50701,34.97177,907.1599],[2.52344,34.9991,963.9204],[2.52639,35.0005,959.6536],[2.59682,35.01662,874.0501],[2.61191,35.02303,916.4688],[2.62028,35.03114,886.1327],[2.61672,35.04236,855.2836],[2.60416,35.05499,824.3621],[2.38707,35.19829,832.6457],[2.37932,35.20501,853.6222],[2.3757,35.21248,862.6266],[2.37663,35.2232,876.2916],[2.38195,35.23625,866.9019],[2.37932,35.25056,851.4562],[2.37368,35.26384,808.4158],[2.36004,35.28798,760.6406],[2.35322,35.29712,753.0829],[2.34624,35.3011,750.2956],[2.3278,35.30412,754.5674],[2.31875,35.3066,756.538],[2.30061,35.31531,749.4873],[2.29286,35.32131,747.0731],[2.28682,35.32927,753.2872],[2.28573,35.43908,788.2201],[2.24971,35.55961,828.3197],[2.15974,35.56026,866.7511],[2.11334,35.55494,850.5309],[2.0798,35.54403,859.7258],[2.07019,35.54429,856.9308],[2.06647,35.55163,860.6491],[2.06554,35.5615,858.9662],[2.06042,35.57147,861.0663],[2.05019,35.57535,862.775],[1.94901,35.57235,830.4736],[1.85883,35.55587,818.5171],[1.74494,35.55194,844.1084],[1.72866,35.55364,863.4091],[1.71719,35.55876,947.4494],[1.71161,35.56382,856.8194],[1.70634,35.57284,805.2055],[1.69977,35.57886,824.9485],[1.69202,35.58049,791.1134],[1.68334,35.57416,782.0807],[1.67187,35.55395,878.2944],[1.65807,35.54793,867.3798],[1.63461,35.55047,836.8066],[1.60903,35.56605,750.6793],[1.57627,35.59679,698.0433],[1.55906,35.6061,819.15],[1.53441,35.60284,686.5269],[1.51529,35.59666,654.9681],[1.50149,35.59359,679.1078]]]}
,"properties": {"ISO3166-1-Alpha-3": "DZA","country": "Algeria","fill": "#0F0","name": "Tiaret","area_km2": 20279.78,"hist_schema_id": "Elevation0-9000","hist_area_km2": {"275": 0.86,"300": 2.8,"325": 7.63,"350": 11.32,"375": 14.96,"400": 19.22,"425": 24.13,"450": 30.88,"475": 39.5,"500": 58.23,"525": 87.17,"550": 117.58,"575": 130.15,"600": 141.42,"625": 180.97,"650": 193.42,"675": 199.49,"700": 207.77,"725": 193.1,"750": 209.5,"775": 432.76,"800": 713.31,"825": 821.21,"850": 839.76,"875": 817.5,"900": 912.65,"925": 863.35,"950": 726.59,"975": 1193.93,"1000": 1446.62,"1025": 2171.22,"1050": 1865.79,"1075": 1474.62,"1100": 1055.36,"1125": 735.44,"1150": 584.02,"1175": 477.19,"1200": 351.42,"1225": 250.82,"1250": 157.95,"1275": 130.81,"1300": 119.31,"1325": 125.86,"1350": 93.57,"1375": 31.59,"1400": 7.67,"1425": 5.34,"1450": 3.42,"1475": 0.55}}}