{"type":"Feature","properties":{"GID_1":"DZA.43_1","GID_0":"DZA","country":"Algeria","province":"Tiaret","VARNAME_1":"Tendouf|Tihert","NL_NAME_1":"ولايةتيارت","TYPE_1":"Wilaya","ENGTYPE_1":"Province","CC_1":"14","HASC_1":"DZ.TR","ISO_1":"DZ-14","name":"Tiaret.province"},
"geometry":{"type": "MultiPolygon","coordinates": [[[[1.2358,34.2037,1096.2362],[1.2731,34.2061,1088.448],[1.276,34.2016,1091.248],[1.277,34.1952,1106.2881],[1.2713,34.1849,1092.2855],[1.2739,34.1812,1094.9637],[1.2697,34.1761,1096.0842],[1.2737,34.1712,1099.5109],[1.2749,34.1613,1103.0732],[1.2792,34.1568,1105.4166],[1.2837,34.1469,1105.3716],[1.2855,34.1336,1109.0234],[1.291,34.1317,1110.6403],[1.2972,34.1223,1116.2594],[1.306,34.1137,1118.2631],[1.312,34.1112,1128.374],[1.3134,34.0972,1125.7284],[1.3225,34.0864,1134.024],[1.3343,34.0786,1135.3828],[1.3357,34.0744,1137.4183],[1.3441,34.0756,1146.4293],[1.3524,34.0792,1165.0361],[1.3783,34.0928,1191.4404],[1.4327,34.1284,1167.7035],[1.4272,34.1306,1170.8296],[1.4104,34.1564,1164.6588],[1.4017,34.1804,1162.9546],[1.4111,34.1857,1160.3047],[1.4783,34.2047,1142.637],[1.5772,34.2686,1128.8453],[1.5905,34.2249,1187.291],[1.613,34.2357,1184.9965],[1.6186,34.2366,1183.5262],[1.6282,34.243,1174.2637],[1.6614,34.2591,1190.6257],[1.6681,34.2644,1185.9922],[1.6757,34.3207,1162.8076],[1.6845,34.3564,1103.6921],[1.694,34.3654,1100.2786],[1.6971,34.3704,1102.4883],[1.698,34.3779,1095.3907],[1.7696,34.438,1081.3698],[1.8229,34.4679,1132.3458],[1.8381,34.4659,1145.7555],[1.8509,34.4698,1146.8088],[1.8538,34.4731,1166.0034],[1.866,34.4793,1140.7823],[1.8718,34.4781,1148.8513],[1.8783,34.4806,1141.2395],[1.884,34.4794,1101.313],[1.887,34.4836,1136.1283],[1.8931,34.4831,1129.8877],[1.8981,34.4861,1119.8917],[1.9275,34.4861,1115.3082],[1.9442,34.4909,1101.5593],[1.9542,34.4965,1061.5453],[2.0003,34.5068,1083.3546],[2.0258,34.5483,1007.4673],[2.1111,34.6063,965.3032],[2.1755,34.6272,931.1138],[2.1921,34.6363,923.5432],[2.2043,34.6405,922.3859],[2.2243,34.6798,904.5053],[2.2584,34.6847,896.9327],[2.3653,34.6948,896.2155],[2.3723,34.7069,908.1425],[2.3707,34.7143,900.6003],[2.3667,34.7207,884.8397],[2.3645,34.7333,892.1686],[2.3598,34.7892,868.9285],[2.4292,34.8067,877.6821],[2.4447,34.8313,869.9116],[2.4615,34.8541,870.3009],[2.4749,34.8817,872.0177],[2.4983,34.9834,885.2563],[2.5012,34.9893,961.9112],[2.5234,35.0008,914.3287],[2.5465,35.0086,910.3903],[2.5915,35.0062,876.4503],[2.6034,35.0077,937.3598],[2.6331,35.0331,994.1011],[2.6517,35.0362,1095.9441],[2.5848,35.087,814.4312],[2.5942,35.0992,793.4734],[2.627,35.1585,801.9466],[2.6358,35.1698,792.8206],[2.6394,35.1737,782.4043],[2.6543,35.1813,788.5966],[2.6677,35.1835,791.4929],[2.6648,35.1898,778.3462],[2.6566,35.1991,768.0828],[2.6563,35.2065,763.6459],[2.6706,35.2413,786.4524],[2.6408,35.2374,765.3271],[2.6342,35.2386,757.9689],[2.6132,35.2444,745.718],[2.5878,35.26,746.7867],[2.5779,35.2726,728.9533],[2.5683,35.2798,725.4596],[2.5743,35.2901,718.3561],[2.5725,35.2951,717.454],[2.5741,35.3011,717.2874],[2.565,35.308,716.9813],[2.5588,35.3172,713.3029],[2.5406,35.325,711.738],[2.5257,35.3337,709.3058],[2.5022,35.3109,756.1368],[2.481,35.3127,751.451],[2.4635,35.2843,826.5478],[2.4466,35.2835,857.5753],[2.4351,35.2774,846.6497],[2.4078,35.2519,1063.8334],[2.4027,35.2451,989.6596],[2.3965,35.2463,959.3969],[2.3956,35.2514,899.3383],[2.3798,35.2705,804.2437],[2.3713,35.2869,769.349],[2.3586,35.3055,748.9581],[2.3473,35.3151,743.373],[2.3345,35.314,749.7234],[2.3294,35.317,755.2079],[2.3198,35.3187,759.3282],[2.3104,35.3227,740.3815],[2.3009,35.3328,753.3345],[2.272,35.3386,767.9598],[2.0976,35.4378,823.3326],[2.0511,35.4658,833.1172],[2.0447,35.4683,830.7679],[2.0393,35.4671,830.9869],[2.0295,35.4754,833.8545],[2.0183,35.4927,837.3674],[2.0146,35.4949,837.3169],[2.0138,35.5063,840.7725],[2.0166,35.5303,844.0498],[2.0265,35.5373,848.351],[2.0554,35.5353,845.1478],[2.0792,35.5422,857.4098],[2.0852,35.5677,862.4761],[2.0817,35.5777,870.1539],[2.042,35.576,862.2422],[2.0254,35.5723,853.3353],[2.0199,35.5727,851.3669],[2.0127,35.5774,848.5344],[2.0102,35.583,859.8105],[2.0123,35.5875,869.944],[2.0286,35.5914,865.9734],[2.0333,35.5941,856.2955],[2.0374,35.6049,781.9679],[2.032,35.6066,776.1909],[2.0274,35.6063,778.1691],[2.0175,35.5998,783.6916],[2.0037,35.5991,783.4377],[1.9979,35.5955,786.8719],[1.9925,35.5967,788.799],[1.9866,35.5935,789.9108],[1.9837,35.5841,804.424],[1.9752,35.579,803.1642],[1.9704,35.5686,809.1384],[1.966,35.5655,796.6237],[1.9541,35.5633,798.3604],[1.9483,35.5648,799.5282],[1.9329,35.5641,808.5],[1.9268,35.5629,808.7158],[1.9157,35.556399999999996,808.5],[1.9084,35.5566,809.7954],[1.903,35.5541,809.1001],[1.8892,35.5517,814.0176],[1.8793,35.5535,808.671],[1.8584,35.554,810.8195],[1.8477,35.5495,811.6483],[1.8286,35.5506,817.3312],[1.8184,35.5473,816.635],[1.8042,35.5534,819.5955],[1.7978,35.5529,820.9216],[1.7905,35.555,823.1019],[1.7836,35.5533,827.6483],[1.7547,35.5548,832.1418],[1.7437,35.5515,835.8983],[1.7411,35.5404,840.4072],[1.7372,35.5377,840.2281],[1.7326,35.539,847.0533],[1.7307,35.5456,856.9929],[1.7269,35.5497,880.0537],[1.7246,35.5543,912.2535],[1.7249,35.5611,897.8007],[1.7227,35.5656,888.7639],[1.7167,35.5697,837.6006],[1.6939,35.5742,787.4345],[1.6926,35.569,800.2579],[1.6991,35.5556,893.3569],[1.6979,35.5467,942.123],[1.6832,35.5373,930.9669],[1.6802,35.5405,940.4801],[1.6663,35.5419,894.1816],[1.6608,35.5442,861.7808],[1.6502,35.5426,832.5382],[1.6366,35.5461,796.0318],[1.6309,35.5598,814.535],[1.6016,35.5778,723.7617],[1.6028,35.5844,809.7297],[1.5988,35.5886,771.9893],[1.6012,35.5998,705.1187],[1.5983,35.6061,705.088],[1.5886,35.6111,754.1616],[1.589,35.6051,702.9402],[1.5841,35.6045,671.7469],[1.5771,35.6101,658.1657],[1.5703,35.6112,654.5869],[1.5628,35.6081,774.8948],[1.5554,35.6111,647.15],[1.5499,35.5998,653.5661],[1.5452,35.5983,719.1984],[1.5211,35.5961,787.6414],[1.5086,35.5997,654.9465],[1.5032,35.6031,592.7275],[1.5021,35.6173,628.482],[1.5038,35.6313,708.3899],[1.4959,35.6417,909.1851],[1.4999,35.6445,812.265],[1.5001,35.6551,944.6158],[1.4927,35.6619,984.9426],[1.4815,35.6662,866.4257],[1.4767,35.6702,921.7805],[1.4486,35.6698,1094.1393],[1.4374,35.6681,1155.3489],[1.4379,35.6757,1087.8029],[1.4357,35.6855,891.6787],[1.4294,35.6868,793.5381],[1.4232,35.6832,775.8131],[1.4195,35.6786,729.6304],[1.4122,35.6758,691.7717],[1.4005,35.6856,717.8476],[1.3935,35.6848,771.7852],[1.3849,35.689,892.4248],[1.3841,35.6951,994.4108],[1.3804,35.6986,1015.9048],[1.3741,35.701,940.5056],[1.3661,35.7087,1010.8199],[1.3508,35.7105,1035.4556],[1.3416,35.7039,1015.648],[1.3418,35.6899,810.0112],[1.3378,35.6786,785.5752],[1.3427,35.6736,627.7947],[1.3491,35.6716,607.8644],[1.3453,35.662,566.8597],[1.3358,35.6518,677.3894],[1.3415,35.6484,534.645],[1.3432,35.6389,659.0276],[1.324,35.622,495.4542],[1.3052,35.6329,565.4452],[1.2993,35.6335,468.0554],[1.2957,35.6299,484.0057],[1.2902,35.6313,510.395],[1.2802,35.653,667.0472],[1.2713,35.6618,683.9719],[1.269,35.667,555.9098],[1.2697,35.6716,539.4233],[1.2642,35.6794,469.5378],[1.2574,35.6864,425.7194],[1.247,35.6858,419.677],[1.2296,35.6817,371.5011],[1.2257,35.6794,390.6151],[1.219,35.664,647.9194],[1.1889,35.6628,573.04],[1.1807,35.6554,456.7335],[1.1814,35.6506,516.0318],[1.1765,35.6455,393.9256],[1.1708,35.6356,430.334],[1.1609,35.6263,627.042],[1.1344,35.624,632.4895],[1.1292,35.6215,583.9503],[1.1237,35.6223,563.9216],[1.1233,35.6323,395.2383],[1.1179,35.6334,434.3918],[1.1074,35.6269,467.676],[1.1026,35.6267,476.7097],[1.0959,35.6289,513.7533],[1.0867,35.6255,532.9797],[1.07,35.632,746.2634],[1.0654,35.6323,854.6919],[1.0636,35.628,850.1369],[1.0639,35.6044,730.9573],[1.055,35.597,701.5674],[1.0348,35.5986,712.622],[1.022,35.6026,770.8591],[1.0126,35.5999,768.6354],[1.0157,35.5937,747.1198],[1.016,35.5733,681.762],[1.0123,35.5683,613.0767],[0.9854,35.5726,573.9122],[0.9576,35.565,558.813],[0.9537,35.5608,571.6586],[0.9542,35.5541,663.4703],[0.9519,35.5481,768.8561],[0.9537,35.5423,847.8647],[0.9409,35.5388,723.3839],[0.9274,35.5402,657.0991],[0.9222,35.5362,677.0332],[0.9267,35.529,792.9088],[0.9146,35.5259,803.7803],[0.9107,35.5234,752.4487],[0.9119,35.5179,664.4674],[0.9108,35.5134,598.5969],[0.9023,35.5057,599.2526],[0.8925,35.4812,404.3988],[0.8867,35.4781,396.757],[0.8778,35.4655,395.6965],[0.875,35.4539,345.6668],[0.8679,35.4501,325.9455],[0.8609,35.4514,423.0841],[0.8559,35.4501,345.1815],[0.8514,35.4505,352.0032],[0.8503,35.4552,354.7477],[0.845,35.4522,356.0526],[0.838,35.4549,348.7977],[0.8321,35.4455,296.3865],[0.8327,35.4403,279.5363],[0.837,35.4337,382.4754],[0.8577,35.4224,422.3441],[0.8692,35.4211,407.7648],[0.8756,35.4182,333.8555],[0.8847,35.4103,437.7943],[0.8919,35.4017,532.623],[0.902,35.3834,568.6208],[0.8968,35.3778,481.0375],[0.8889,35.3737,501.3274],[0.8822,35.3726,520.8416],[0.8725,35.375,486.0534],[0.8692,35.3718,448.2768],[0.8663,35.3675,454.9046],[0.863,35.335,558.2274],[0.8548,35.3266,788.971],[0.8383,35.321,497.4691],[0.8376,35.3109,491.9691],[0.831,35.3,604.2318],[0.8303,35.2933,599.0426],[0.8039,35.2788,812.2817],[0.7971,35.2799,830.9095],[0.7874,35.2864,843.9291],[0.7826,35.2918,973.0546],[0.7774,35.2799,1012.8312],[0.7726,35.2804,974.7449],[0.7583,35.2868,960.1757],[0.7131,35.3005,548.2156],[0.7081,35.3033,506.1763],[0.7059,35.3071,510.7908],[0.6971,35.3109,483.869],[0.6858,35.3087,455.342],[0.6797,35.3114,407.8571],[0.675,35.3077,443.3436],[0.6534,35.3011,496.3517],[0.6448,35.2932,510.3283],[0.6309,35.2888,518.4191],[0.6277,35.2834,507.3246],[0.6213,35.2794,520.9744],[0.63,35.272,485.754],[0.6241,35.2708,503.1523],[0.6196,35.2677,517.9813],[0.6208,35.2624,509.7759],[0.6259,35.2594,492.3271],[0.6091,35.2534,521.1069],[0.6037,35.2498,536.9871],[0.5993,35.2461,536.6213],[0.5971,35.2395,532.8477],[0.5951,35.2275,549.29],[0.5961,35.222,561.9955],[0.6082,35.2107,530.9938],[0.6005,35.208,537.3986],[0.5926,35.1916,546.948],[0.588,35.1909,550.9171],[0.5798,35.1817,567.0122],[0.5696,35.1759,575.1767],[0.5521,35.1727,593.1559],[0.5381,35.1652,613.5762],[0.51,35.1281,983.7463],[0.5033,35.1166,924.3083],[0.4916,35.1094,864.4089],[0.4873,35.095,884.554],[0.4949,35.097,919.3754],[0.5079,35.0965,942.4993],[0.5282,35.1021,988.8086],[0.5868,35.1095,656.5594],[0.6124,35.1068,629.5941],[0.6239,35.1107,632.1959],[0.6282,35.1108,636.75],[0.6323,35.1135,640.7864],[0.6393,35.114,640.7938],[0.6445,35.1126,638.4803],[0.6447,35.1075,642.1746],[0.6488,35.0987,655.8726],[0.655,35.0953,701.9344],[0.6538,35.089,662.0595],[0.6565,35.0751,682.7581],[0.6667,35.0675,844.9979],[0.6951,35.0635,806.6666],[0.7109,35.0568,824.8173],[0.7152,35.0517,796.6824],[0.722,35.0511,825.4611],[0.7238,35.0471,862.9291],[0.7279,35.0435,843.9409],[0.7407,35.0352,816.6205],[0.7485,35.0175,829.0578],[0.7606,35.0018,767.3854],[0.7795,34.985,839.6562],[0.7884,34.9718,871.4168],[0.7882,34.9661,843.5916],[0.7978,34.9574,866.6369],[0.796,34.9518,825.8759],[0.7892,34.9507,821.1765],[0.7795,34.9437,863.8832],[0.7254,34.8999,973.1443],[0.6747,34.8782,1043.1648],[0.6515,34.8654,1097.1469],[0.654,34.8595,1079.4542],[0.6683,34.8451,1054.7241],[0.6774,34.8289,1013.1447],[0.676,34.8224,1026.1055],[0.6707,34.8203,1025.7424],[0.6648,34.8128,1033.1947],[0.6685,34.8013,1056.2115],[0.6679,34.7928,1050.4116],[0.6634,34.7867,1114.6152],[0.6605,34.7632,1080.4087],[0.6665,34.7431,1076.8511],[0.6744,34.738,1106.8297],[0.6776,34.7263,1107.8994],[0.694,34.7111,1124.8413],[0.7431,34.6445,1045.2423],[0.7929,34.6626,1062.8768],[0.7948,34.6562,1062.0446],[0.7943,34.643,1058.6606],[0.8048,34.6275,1082.2325],[0.8139,34.6173,1078.1819],[0.8031,34.6148,1097.0459],[0.7791,34.596,1072.3888],[0.7942,34.5754,1038.3872],[0.8694,34.552,986.1602],[0.9344,34.5286,986.0],[0.8574,34.415,986.4835],[1.0441,34.3838,987.9623],[1.0376,34.3393,995.4771],[1.0282,34.2918,1039.9746],[1.0136,34.1932,1032.8496],[1.1018,34.1982,1055.9163],[1.1398,34.1966,1100.7645],[1.1766,34.2019,1104.8384],[1.2358,34.2037,1096.2362]]]]}}