{"type":"Feature","properties":{"GID_2":"DZA.10.17_1","GID_0":"DZA","country":"Algeria","GID_1":"DZA.10_1","province":"Blida","NL_NAME_1":"البليدة","county":"Larbaa","VARNAME_2":"al-Arba`a","NL_NAME_2":"NA","TYPE_2":"Commune","ENGTYPE_2":"Commune","CC_2":"917","HASC_2":"DZ.BL.LA","name":"Larbaa.county"},
"geometry":{"type": "MultiPolygon","coordinates": [[[[3.1489,36.6515,30.3943],[3.1507,36.6377,38.5904],[3.1452,36.6346,37.6607],[3.1373,36.626,42.1853],[3.1278,36.6207,44.5496],[3.1331,36.6067,56.5872],[3.1253,36.6005,58.9347],[3.1258,36.5957,62.4263],[3.1225,36.5918,65.1537],[3.1236,36.5866,69.1087],[3.1177,36.5873,67.1737],[3.1125,36.5838,69.4578],[3.132,36.5695,86.2579],[3.1387,36.5593,98.2183],[3.1456,36.5379,216.1736],[3.145,36.5309,269.6736],[3.1505,36.5184,514.4095],[3.1466,36.5131,658.1096],[3.1459,36.5071,869.5838],[3.1506,36.5055,886.4352],[3.1653,36.5049,830.9702],[3.1699,36.5083,774.194],[3.1712,36.5131,703.7155],[3.1875,36.5216,207.4497],[3.1899,36.5265,394.3392],[3.1978,36.5334,649.9835],[3.1996,36.5398,455.4386],[3.2056,36.5429,638.1378],[3.2089,36.5465,671.0739],[3.2092,36.5539,365.1958],[3.2197,36.5547,481.521],[3.2206,36.5643,515.1066],[3.2272,36.5665,349.8269],[3.2328,36.572,304.8954],[3.2318,36.5768,268.0946],[3.2263,36.5801,214.4651],[3.2209,36.5811,223.7962],[3.2161,36.5785,192.5053],[3.2007,36.5757,164.7114],[3.1876,36.5772,148.3222],[3.1843,36.5814,98.8224],[3.1849,36.5955,71.9387],[3.1888,36.6141,50.8997],[3.1922,36.6206,47.8472],[3.2,36.6274,43.6948],[3.1996,36.6341,40.3136],[3.1947,36.6523,32.5854],[3.1883,36.653,31.4353],[3.1833,36.6512,33.0082],[3.1782,36.642,36.9614],[3.1489,36.6515,30.3943]]]]}}