{"type":"Feature","properties":{"GID_2":"DZA.29.18_1","GID_0":"DZA","country":"Algeria","GID_1":"DZA.29_1","province":"Mila","NL_NAME_1":"ولايةميلة","county":"OuedAthmenia","VARNAME_2":"OuedAthmania|WādīAthmānīyah","NL_NAME_2":"NA","TYPE_2":"Commune","ENGTYPE_2":"Commune","CC_2":"4304","HASC_2":"DZ.ML.OA","name":"Oued_Athmenia.county"},
"geometry":{"type": "MultiPolygon","coordinates": [[[[6.4364,36.3115,1221.7349],[6.4267,36.314,1100.0472],[6.4249,36.3186,1083.7654],[6.4258,36.3232,999.6924],[6.4067,36.3305,957.4359],[6.396,36.331,979.0919],[6.3859,36.3335,1021.145],[6.3822,36.3359,993.478],[6.3795,36.3451,989.5597],[6.3815,36.3549,923.8969],[6.3747,36.3576,997.206],[6.3592,36.3543,1063.2954],[6.3452,36.3544,1070.7074],[6.3396,36.3528,1011.8253],[6.3282,36.343,890.8112],[6.3042,36.3371,943.2965],[6.2849,36.3446,921.0255],[6.2814,36.3498,877.2494],[6.2747,36.3498,876.6849],[6.2622,36.3414,840.0],[6.247,36.3359,806.6171],[6.2365,36.3345,823.998],[6.2345,36.3303,883.4167],[6.2286,36.3279,904.0533],[6.2255,36.3224,948.4271],[6.2264,36.3021,865.6827],[6.2243,36.297,864.9507],[6.2254,36.2929,872.4076],[6.2345,36.286,819.7059],[6.2027,36.2831,910.4708],[6.2067,36.2701,861.3621],[6.2271,36.2598,795.8928],[6.2258,36.2416,843.7331],[6.2223,36.2387,871.9078],[6.2121,36.2373,908.5424],[6.2045,36.2301,1064.6001],[6.2056,36.2252,1079.4856],[6.2112,36.2218,1007.9191],[6.2283,36.2247,825.6722],[6.2524,36.235,786.8523],[6.2608,36.2228,723.6031],[6.2626,36.2178,722.9677],[6.2949,36.1825,855.0286],[6.3227,36.1735,865.8719],[6.3287,36.1798,797.1651],[6.3401,36.1836,800.6391],[6.3462,36.1882,803.5395],[6.3494,36.1932,798.7627],[6.3545,36.1948,776.7613],[6.3619,36.1957,765.9694],[6.3754,36.1852,718.7916],[6.3869,36.1954,698.1414],[6.3776,36.2173,665.3995],[6.3784,36.2245,660.9141],[6.3845,36.2284,658.407],[6.3902,36.2275,658.7749],[6.3952,36.223,652.0684],[6.3997,36.224,650.4972],[6.4117,36.2285,647.9573],[6.4268,36.2401,677.0153],[6.4238,36.2557,666.703],[6.419,36.2579,679.9613],[6.4165,36.2632,703.3434],[6.4113,36.2662,733.1787],[6.4087,36.2707,781.9907],[6.4072,36.2854,920.6523],[6.4102,36.2897,1110.5756],[6.4199,36.2942,1154.2891],[6.4273,36.3003,1083.2388],[6.4344,36.3075,1179.543],[6.4364,36.3115,1221.7349]]]]}}