{"type": "Feature","bbox": [7.2292,34.5025,7.6488,35.1633],"geometry": {"type": "MultiPolygon","coordinates": [[[[7.2458,34.8773,605.6311],[7.2492,34.8734,595.8889],[7.2593,34.8984,873.9788],[7.2674,34.9102,909.7289],[7.2736,34.9292,1030.7098],[7.2817,34.9364,1008.0042],[7.2998,34.9476,1075.9485],[7.3072,34.9584,1160.5254],[7.3078,34.9652,1300.8159],[7.3203,34.9669,1295.0645],[7.3459,34.9519,1363.6342],[7.3679,34.9594,1357.0129],[7.3711,34.9556,1252.7883],[7.3706,34.9397,1213.9211],[7.3924,34.9095,919.2687],[7.3953,34.8954,892.569],[7.3997,34.8843,846.723],[7.3981,34.8696,785.841],[7.4021,34.8643,827.9877],[7.3943,34.8438,774.5316],[7.39,34.8366,789.0577],[7.3793,34.8253,752.7725],[7.3769,34.8185,736.2672],[7.3769,34.8116,720.8985],[7.3726,34.807,688.5725],[7.3732,34.8006,673.8047],[7.3655,34.7935,641.7519],[7.3637,34.7889,623.5414],[7.3683,34.7734,658.5307],[7.3906,34.7514,673.2379],[7.3902,34.7364,475.4448],[7.3945,34.7266,406.5239],[7.3916,34.7061,394.6159],[7.3869,34.6894,359.6577],[7.4032,34.6848,333.8737],[7.4175,34.6772,315.6799],[7.4237,34.6676,310.1693],[7.4397,34.6289,287.6378],[7.4441,34.5945,269.0818],[7.4464,34.5595,270.3146],[7.4455,34.5458,330.1175],[7.4469,34.5117,241.6707],[7.457,34.5025,190.6816],[7.4716,34.5045,203.4688],[7.4757,34.5065,209.2104],[7.4779,34.5115,207.3783],[7.484,34.5088,219.6565],[7.4973,34.5174,232.1573],[7.5001,34.5247,247.5746],[7.5078,34.5335,250.44],[7.5126,34.5368,243.0769],[7.5191,34.5347,254.2453],[7.5207,34.5298,263.6872],[7.5283,34.5279,271.5427],[7.5601,34.5362,294.6355],[7.5649,34.5361,295.2784],[7.5868,34.5428,342.4806],[7.5867,34.6059,375.9369],[7.5896,34.6198,389.3923],[7.5945,34.6304,398.6083],[7.5952,34.6375,405.2201],[7.5993,34.6483,390.6238],[7.601,34.6662,404.5042],[7.6006,34.6728,413.7736],[7.596,34.6874,483.6413],[7.5986,34.6927,445.0884],[7.6135,34.7008,490.4875],[7.6162,34.7058,485.466],[7.6146,34.7114,481.6738],[7.6179,34.7157,482.1567],[7.624,34.7203,496.3648],[7.6282,34.7184,506.7044],[7.6327,34.7192,520.2904],[7.636,34.7238,579.1067],[7.636,34.7297,526.8434],[7.6415,34.7308,580.5678],[7.6432,34.7357,550.0874],[7.6433,34.7417,569.681],[7.6342,34.7576,669.1847],[7.6292,34.7599,589.9598],[7.6257,34.7643,593.4839],[7.6153,34.766,628.37],[7.6156,34.7781,663.03],[7.607,34.7828,711.4406],[7.5979,34.7922,696.0062],[7.5967,34.7983,699.2537],[7.5934,34.8036,713.3625],[7.5952,34.8078,725.7186],[7.6048,34.8141,741.8755],[7.6078,34.8258,740.7961],[7.6102,34.8297,724.5425],[7.6248,34.8465,760.2707],[7.6339,34.8542,772.0886],[7.6384,34.8697,812.5103],[7.6488,34.8869,806.7714],[7.6484,34.8978,819.9679],[7.6366,34.9161,879.4742],[7.6271,34.9247,930.8502],[7.6218,34.9267,896.1804],[7.6212,34.9318,929.0629],[7.6031,34.9542,1018.9442],[7.5903,34.9578,1037.9744],[7.5854,34.9613,1073.2969],[7.5784,34.9695,1173.4769],[7.5735,34.9715,1105.0928],[7.5653,34.9714,1079.9846],[7.5548,34.9741,1069.5247],[7.5409,34.9833,1023.3616],[7.5281,34.9858,921.0117],[7.5239,34.9884,855.126],[7.5178,35.0027,1027.8098],[7.5077,35.0158,1192.4132],[7.5103,35.0205,1114.9524],[7.5081,35.0384,1194.4808],[7.4983,35.0457,1233.894],[7.4708,35.0439,1279.8195],[7.4727,35.0551,1172.7848],[7.4716,35.0611,1132.621],[7.4662,35.073,1111.4528],[7.4565,35.0842,1177.6235],[7.4699,35.0952,1158.2817],[7.4931,35.1086,1075.7039],[7.497,35.1121,1073.6201],[7.5001,35.1192,1147.3704],[7.4759,35.1427,1054.874],[7.4697,35.1621,1059.7987],[7.4634,35.1607,1058.8533],[7.4375,35.1633,1104.976],[7.3656,35.0734,1187.4199],[7.3553,35.0733,1062.0122],[7.3142,35.0551,1018.361],[7.3098,35.0525,1021.9107],[7.3002,35.0414,1025.6293],[7.2886,35.0199,1180.5055],[7.288,35.0029,1041.6378],[7.2856,34.9969,1084.8129],[7.2703,34.9925,1189.9922],[7.2657,34.989,1190.2178],[7.2672,34.9834,984.184],[7.2639,34.9788,998.5523],[7.2529,34.9714,907.9984],[7.2462,34.9629,909.0346],[7.2442,34.9578,917.9561],[7.242,34.9463,929.1166],[7.2439,34.9359,824.5767],[7.2367,34.9244,814.9585],[7.236,34.9182,778.9406],[7.2292,34.903,847.785],[7.2336,34.8968,745.6129],[7.2338,34.8907,720.6351],[7.2361,34.8868,696.8759],[7.2458,34.8773,605.6311]]],
[[[7.2535,34.871,611.5016],[7.2492,34.8734,595.8889],[7.2488,34.8687,566.7936],[7.2551,34.8614,555.9017],[7.2625,34.8464,490.9372],[7.2608,34.8326,508.883],[7.2634,34.8289,490.6987],[7.2661,34.8327,559.0941],[7.2666,34.8398,581.0589],[7.2704,34.8448,632.0553],[7.269,34.8506,740.2993],[7.2705,34.8564,609.1788],[7.264,34.8698,806.3507],[7.2577,34.8671,595.2668],[7.2535,34.871,611.5016]]]]}
,"properties": {"GID_2": "DZA.42.26_1","GID_0": "DZA","country": "Algeria","GID_1": "DZA.42_1","province": "Tébessa","NL_NAME_1": "ولايةتبسة","county": "StahGuentis","VARNAME_2": "NA","NL_NAME_2": "NA","TYPE_2": "Commune","ENGTYPE_2": "Commune","CC_2": "1204","HASC_2": "DZ.TB.SG","name": "Stah_Guentis.county","area_km2": 1272.1367,"hist_schema_id": "Elevation0-9000","hist_area_km2": {"200": 1.4327,"225": 3.9655,"250": 12.1542,"275": 28.4399,"300": 47.2648,"325": 59.3308,"350": 48.6222,"375": 32.7847,"400": 28.7353,"425": 26.796,"450": 20.7263,"475": 14.7272,"500": 12.1639,"525": 11.744,"550": 10.3316,"575": 8.4318,"600": 8.1697,"625": 8.4831,"650": 10.7636,"675": 17.223,"700": 26.119,"725": 34.0198,"750": 49.4891,"775": 57.5245,"800": 52.555,"825": 47.1532,"850": 43.3747,"875": 36.6384,"900": 30.1995,"925": 27.2186,"950": 20.2561,"975": 21.1027,"1000": 21.7577,"1025": 30.4201,"1050": 34.8185,"1075": 35.6132,"1100": 39.2057,"1125": 36.4582,"1150": 38.3349,"1175": 33.2512,"1200": 28.8611,"1225": 23.8274,"1250": 21.4833,"1275": 24.6434,"1300": 21.1359,"1325": 12.7482,"1350": 6.8433,"1375": 3.1436,"1400": 1.2333,"1425": 0.3475,"1450": 0.0695}}}