{"type": "Feature","bbox": [5.2444,35.7442,5.424,35.9053],"geometry": {"type": "MultiPolygon","coordinates": [[[[5.4222,35.9053,1351.9723],[5.4032,35.9003,1320.9042],[5.3826,35.9034,1078.4387],[5.3778,35.9019,1052.0728],[5.3712,35.894,1073.4089],[5.3638,35.8935,1093.6797],[5.3587,35.8897,1086.1902],[5.3571,35.8836,982.8427],[5.3516,35.8772,998.9152],[5.3498,35.8696,968.8478],[5.3367,35.8645,948.8348],[5.2947,35.8696,971.7369],[5.2823,35.8736,993.8044],[5.2738,35.8667,1136.9697],[5.2529,35.8672,1036.1052],[5.2476,35.8643,1047.7134],[5.2451,35.8602,1064.4353],[5.2444,35.8545,1090.625],[5.2579,35.8484,1135.1333],[5.2679,35.8471,1132.0863],[5.2792,35.8321,980.9054],[5.2871,35.8284,988.3374],[5.3006,35.8295,1024.3953],[5.3027,35.8258,1026.3484],[5.3077,35.8255,992.7703],[5.312,35.823,982.8462],[5.3148,35.8054,1035.8262],[5.3196,35.8027,1055.5951],[5.3371,35.7982,1107.0204],[5.3413,35.7954,1075.2434],[5.3418,35.7836,1184.0254],[5.3506,35.7794,1281.848],[5.3574,35.766,1385.7695],[5.3588,35.759,1424.2466],[5.3555,35.7461,1445.2122],[5.3658,35.7442,1443.5631],[5.3872,35.7465,1540.0714],[5.4003,35.75,1507.2356],[5.4117,35.7549,1599.3259],[5.4131,35.7634,1448.354],[5.4103,35.7742,1252.5912],[5.4048,35.7775,1189.6641],[5.4003,35.7828,1274.2482],[5.4019,35.7893,1226.5344],[5.4067,35.7946,1158.9348],[5.4022,35.8115,1196.4114],[5.4047,35.8165,1177.6487],[5.4165,35.8303,1082.7424],[5.4238,35.8461,1099.0253],[5.424,35.8539,1071.3027],[5.4182,35.8567,1134.2794],[5.4168,35.8714,1100.8367],[5.4123,35.8751,1090.2061],[5.4127,35.8815,1113.5739],[5.4222,35.8895,1352.1597],[5.424,35.9,1269.8407],[5.4222,35.9053,1351.9723]]]]}
,"properties": {"GID_2": "DZA.37.53_1","GID_0": "DZA","country": "Algeria","GID_1": "DZA.37_1","province": "Sétif","NL_NAME_1": "ولايةسطيف","county": "SalahBey","VARNAME_2": "SalahBay","NL_NAME_2": "NA","TYPE_2": "Commune","ENGTYPE_2": "Commune","CC_2": "1939","HASC_2": "DZ.SF.SB","name": "Salah_Bey.county","area_km2": 139.7851,"hist_schema_id": "Elevation0-9000","hist_area_km2": {"950": 9.7782,"975": 22.566,"1000": 13.9039,"1025": 12.1507,"1050": 11.3083,"1075": 11.3257,"1100": 8.7135,"1125": 6.8406,"1150": 6.4119,"1175": 4.573,"1200": 3.9026,"1225": 3.0607,"1250": 2.9748,"1275": 3.1469,"1300": 2.5279,"1325": 2.4589,"1350": 1.737,"1375": 1.4621,"1400": 1.8408,"1425": 1.8924,"1450": 1.9269,"1475": 1.5829,"1500": 1.256,"1525": 1.2044,"1550": 0.9464,"1575": 0.2581,"1600": 0.0344}}}