{"type": "Feature","bbox": [4.4126,36.4235,4.5145,36.5304],"geometry": {"type": "MultiPolygon","coordinates": [[[[4.5069,36.4719,515.6569],[4.5031,36.4771,494.0939],[4.4991,36.4893,646.4043],[4.4954,36.494,715.9441],[4.4939,36.5009,827.0645],[4.4839,36.5058,819.9091],[4.4718,36.5062,985.8776],[4.472,36.5129,1109.6451],[4.4744,36.5182,1165.7507],[4.4726,36.5304,1577.2333],[4.4677,36.5285,1541.9133],[4.4597,36.5182,1413.0496],[4.4572,36.512,1436.978],[4.4529,36.5076,1431.853],[4.4513,36.4975,1497.0293],[4.4451,36.4983,1475.229],[4.4429,36.4937,1493.0712],[4.4386,36.4914,1511.4161],[4.418,36.4907,1720.2332],[4.4126,36.487,1684.2185],[4.4154,36.4775,1458.823],[4.4337,36.4609,1331.249],[4.4415,36.4554,1238.3108],[4.4466,36.4542,1251.6177],[4.4542,36.4465,1055.6233],[4.464,36.4404,784.4207],[4.4741,36.4237,294.8268],[4.4829,36.4235,212.1645],[4.4897,36.4268,200.6682],[4.4956,36.435,228.0869],[4.5078,36.444,230.5026],[4.5134,36.4539,259.482],[4.5145,36.4602,279.0238],[4.5069,36.4719,515.6569]]]]}
,"properties": {"GID_2": "DZA.8.26_1","GID_0": "DZA","country": "Algeria","GID_1": "DZA.8_1","province": "Béjaïa","NL_NAME_1": "بجاية","county": "Ighrem","VARNAME_2": "Ighram","NL_NAME_2": "NA","TYPE_2": "Commune","ENGTYPE_2": "Commune","CC_2": "615","HASC_2": "DZ.BJ.IG","name": "Ighrem.county","area_km2": 52.00156,"hist_schema_id": "Elevation0-9000","hist_area_km2": {"200": 0.03412,"225": 0.52879,"250": 1.09158,"275": 1.14269,"300": 0.90391,"325": 0.86978,"350": 1.00619,"375": 1.09145,"400": 1.14259,"425": 1.07437,"450": 1.36421,"475": 1.12551,"500": 1.27891,"525": 1.24476,"550": 0.83555,"575": 1.09126,"600": 0.97193,"625": 1.12537,"650": 1.26174,"675": 0.81844,"700": 1.04009,"725": 0.90366,"750": 1.12523,"775": 0.86957,"800": 0.93773,"825": 0.97182,"850": 0.86954,"875": 0.81838,"900": 1.14231,"925": 0.76722,"950": 0.97176,"975": 1.02292,"1000": 1.02298,"1025": 1.15928,"1050": 1.03996,"1075": 0.88648,"1100": 0.7672,"1125": 1.21038,"1150": 1.0399,"1175": 0.97172,"1200": 1.19332,"1225": 1.00578,"1250": 1.19329,"1275": 0.90338,"1300": 1.00563,"1325": 0.93751,"1350": 0.92044,"1375": 0.95448,"1400": 0.80108,"1425": 0.83517,"1450": 0.66475,"1475": 0.34091,"1500": 0.42611,"1525": 0.30681,"1550": 0.27274,"1575": 0.11931,"1600": 0.15341,"1625": 0.17046,"1650": 0.10227,"1675": 0.08523,"1700": 0.06818}}}