{"type":"Feature","properties":{"ISO3166-1-Alpha-3":"DZA","country":"Algeria","fill":"#F00","id":"2214","name":"M'Sila"},
"geometry":{"type": "Polygon","coordinates": [[[4.14965,35.99501,1361.7456],[4.13632,35.99563,1383.6121],[4.11193,36.00008,1239.1619],[4.11053,36.00132,1207.4512],[4.10789,36.01039,1011.0953],[4.10448,36.01695,998.6617],[4.09999,36.02245,1061.923],[4.08433,36.02909,1105.6864],[4.04583,35.94706,817.8364],[4.03994,35.90923,763.5258],[4.04211,35.89525,663.6887],[4.0418,35.87972,647.4274],[4.03513,35.87081,613.5756],[4.02227,35.86685,614.9597],[4.00552,35.8712,640.3348],[3.9678,35.88773,680.0399],[3.95416,35.89076,679.8867],[3.94093,35.88975,662.0998],[3.92542,35.88406,770.8416],[3.89209,35.86629,736.8522],[3.87266,35.86112,678.0576],[3.8508,35.86197,637.7426],[3.83122,35.86897,656.4208],[3.81649,35.87957,658.973],[3.80533,35.89021,672.6488],[3.79556,35.89786,702.9559],[3.78409,35.90334,692.0234],[3.77148,35.9074,676.6171],[3.75985,35.91228,695.4945],[3.73985,35.92783,718.2971],[3.73551,35.92998,726.0173],[3.70647,35.93228,756.0949],[3.62844,35.92279,712.6764],[3.62906,35.91068,704.8859],[3.63387,35.88954,668.4359],[3.63092,35.88039,669.4363],[3.62549,35.87112,672.0435],[3.61185,35.85543,670.9025],[3.6087,35.83737,662.2779],[3.60265,35.8321,665.9465],[3.56359,35.81947,666.2883],[3.5409,35.80394,667.9531],[3.53671,35.79223,684.8148],[3.53935,35.77795,655.1298],[3.55098,35.75381,637.0015],[3.55552,35.73999,642.5615],[3.55739,35.72459,635.9513],[3.55599,35.69175,647.587],[3.55144,35.6787,646.2321],[3.54323,35.6724,647.9462],[3.52369,35.68516,648.2419],[3.51207,35.69596,643.3132],[3.50261,35.70873,646.3356],[3.49279,35.72609,676.1329],[3.48023,35.74433,712.7863],[3.43228,35.7966,707.0664],[3.42065,35.8035,708.4332],[3.41104,35.80593,721.9398],[3.40096,35.80019,716.2975],[3.39429,35.79384,715.3069],[3.37952,35.7512,703.2289],[3.43693,35.67198,652.5768],[3.44969,35.65912,658.1158],[3.52137,35.60961,684.4855],[3.5364,35.6024,687.3127],[3.56033,35.58734,703.5945],[3.68043,35.49556,856.9759],[3.69004,35.48507,764.6614],[3.69593,35.47205,763.1896],[3.69717,35.45339,748.9642],[3.695,35.43698,776.9123],[3.69035,35.42115,840.1812],[3.68306,35.40905,857.53],[3.67516,35.40079,860.8907],[3.66611,35.39296,830.6486],[3.65991,35.3842,824.0549],[3.65759,35.37415,812.8181],[3.65976,35.35877,832.2405],[3.66942,35.32069,765.8073],[3.66942,35.30645,754.0],[3.66487,35.2949,754.0],[3.65526,35.28498,754.0],[3.47357,35.15796,754.0],[3.47667,35.14793,762.2474],[3.52276,35.06845,1115.8082],[3.53284,35.05445,1438.856],[3.54044,35.05218,1364.2413],[3.55129,35.05375,1409.344],[3.58808,35.06773,1220.1251],[3.60095,35.06923,1179.0286],[3.60808,35.06597,1116.0393],[3.60948,35.05701,1102.3988],[3.60482,35.04789,1093.1333],[3.5963,35.03828,1070.7963],[3.58622,35.02882,1071.406],[3.57754,35.01895,1076.801],[3.57273,35.01052,1051.9551],[3.5718,35.00523,1063.558],[3.57211,35.00169,1058.9926],[3.57273,34.99983,1056.4366],[3.57738,34.98867,1035.4562],[3.59087,34.96386,1040.5095],[3.59506,34.95306,1046.6566],[3.59583,34.94218,1056.2025],[3.59087,34.92213,1081.8717],[3.59056,34.91154,1102.1245],[3.59366,34.89921,1113.713],[3.59924,34.88632,1112.6023],[3.60963,34.87224,1094.0577],[3.62441,34.86141,1167.6603],[3.64332,34.85038,1129.2626],[3.64983,34.84304,1150.1398],[3.65247,34.83325,1178.9258],[3.65418,34.82054,1222.7711],[3.65883,34.80558,1294.7102],[3.67113,34.79028,1137.4458],[3.68818,34.78351,1120.269],[3.70601,34.78315,1136.3453],[3.73892,34.79033,1118.0984],[3.7552,34.7908,1131.1541],[3.90605,34.76263,1287.4834],[3.91442,34.7586,1284.5403],[3.91953,34.75191,1260.7753],[3.92046,34.74039,1155.6981],[3.91829,34.70951,1076.6115],[3.91845,34.69215,1046.8184],[3.92108,34.67266,1025.3744],[3.96454,34.54502,1208.3625],[3.97958,34.51686,1106.6669],[4.02986,34.45795,843.7558],[4.03637,34.44193,805.2521],[4.03947,34.42358,899.765],[4.03963,34.40555,805.2696],[4.03808,34.3871,758.0458],[4.0387,34.37162,755.2762],[4.04769,34.35408,679.0989],[4.06852,34.33455,671.7438],[4.1543,34.28705,528.9752],[4.16949,34.27393,510.5524],[4.1976,34.24119,459.2049],[4.21373,34.2322,435.3265],[4.28561,34.23646,457.3845],[4.2977,34.239,446.9249],[4.31274,34.24414,443.3672],[4.31646,34.25179,430.7904],[4.31476,34.26308,423.7334],[4.30731,34.27414,415.4049],[4.29352,34.28587,423.1014],[4.28215,34.2978,420.1846],[4.2668,34.32876,473.1296],[4.24215,34.35824,519.0414],[4.23037,34.37671,544.6985],[4.20706,34.46549,642.741],[4.20102,34.4765,669.3383],[4.19295,34.4842,670.0759],[4.1866,34.49283,690.7327],[4.18443,34.5082,728.0345],[4.19574,34.52575,706.2066],[4.23316,34.5628,738.036],[4.2468,34.58047,745.8175],[4.25858,34.60621,847.5424],[4.27331,34.62585,951.8239],[4.34705,34.68964,852.4385],[4.36504,34.70858,920.8056],[4.39465,34.74659,859.949],[4.41408,34.76232,842.7488],[4.4347,34.77266,899.2913],[4.45273,34.77522,963.3578],[4.47071,34.77442,1027.9814],[4.50017,34.77013,967.6861],[4.51309,34.76995,946.2251],[4.52875,34.77227,879.8152],[4.56973,34.78271,891.2335],[4.61531,34.78863,769.9292],[4.70114,34.81338,858.5765],[4.71664,34.8155,868.4125],[4.74336,34.81167,865.4044],[4.75948,34.81307,756.9073],[4.78692,34.82069,708.3744],[4.79922,34.8216,675.3063],[4.81565,34.81955,535.1384],[4.83209,34.81924,480.3967],[4.93281,34.83891,438.0546],[4.95952,34.84994,521.8187],[5.00122,34.87436,596.299],[5.02841,34.9002,523.4875],[5.04112,34.91864,510.7896],[5.04391,34.93725,474.9743],[5.03864,35.08331,612.8753],[5.02918,35.08192,604.9897],[5.01368,35.08308,573.8692],[5.00433,35.08546,650.1224],[4.99983,35.08747,678.8804],[4.99533,35.09127,600.0512],[4.98355,35.10783,606.9819],[4.97627,35.11501,656.3786],[4.9682,35.12158,744.2715],[4.9466,35.13351,667.3991],[4.92505,35.1422,623.6016],[4.89989,35.14902,580.3449],[4.87338,35.1532,575.0525],[4.79876,35.15811,616.6857],[4.78899,35.16173,574.0207],[4.78243,35.16687,559.077],[4.77902,35.17284,560.4439],[4.777,35.18064,635.6495],[4.78274,35.1917,522.3559],[4.79814,35.20705,508.0318],[4.83612,35.23395,446.0222],[4.86547,35.2626,456.9775],[4.88175,35.28343,474.1125],[4.88888,35.29986,419.9443],[4.90056,35.35355,392.5],[4.90335,35.37975,392.0],[4.90149,35.41554,392.0],[4.89617,35.45153,392.0],[4.87679,35.51093,392.0],[4.87648,35.51915,392.0],[4.8802,35.5254,395.8528],[4.88702,35.52817,402.3067],[4.89663,35.52657,404.0456],[4.90521,35.52259,401.6484],[4.91358,35.51675,405.1448],[4.93203,35.49882,405.9164],[4.93637,35.49577,405.5547],[4.94846,35.49081,405.3274],[4.96324,35.48879,412.0703],[4.9865,35.4983,422.6385],[4.99022,35.5014,424.4427],[4.99859,35.51047,432.1302],[5.00681,35.51473,436.4387],[5.02298,35.52067,445.8337],[5.04608,35.52295,453.41],[5.10582,35.52222,457.4382],[5.12365,35.5184,462.5656],[5.13936,35.51204,468.0496],[5.15594,35.50734,472.7037],[5.17377,35.51034,480.6311],[5.21041,35.52874,533.4725],[5.23522,35.53535,547.359],[5.26441,35.55003,569.6332],[5.3797,35.63292,799.3976],[5.22622,35.66402,793.8973],[5.1994,35.6772,804.7811],[5.18421,35.68991,1064.9768],[5.17687,35.71056,1324.1561],[5.17083,35.71782,1355.9048],[5.10148,35.74102,1142.1122],[5.07962,35.75226,1351.7925],[5.06577,35.76208,1299.5261],[5.06034,35.76805,1077.9331],[5.05445,35.77733,1043.5991],[5.01662,35.7788,905.8828],[4.99967,35.78422,990.9073],[4.97642,35.79621,1136.7496],[4.95482,35.81378,1688.8431],[4.94521,35.81841,1760.9871],[4.92986,35.82055,1617.4326],[4.91823,35.82329,1455.1216],[4.90583,35.82939,1520.115],[4.89756,35.83631,1572.7937],[4.87508,35.86244,1580.4609],[4.86563,35.86954,1520.328],[4.85493,35.87316,1572.7656],[4.83829,35.87275,1659.6577],[4.80248,35.86629,1716.4479],[4.76274,35.8652,1818.6169],[4.74848,35.86352,1813.6345],[4.71897,35.85704,1684.1289],[4.64202,35.8283,869.7229],[4.62078,35.8236,777.5068],[4.5998,35.82179,653.3117],[4.49815,35.82371,640.5219],[4.48172,35.82603,635.7814],[4.46668,35.83228,697.0976],[4.44818,35.8489,682.943],[4.44524,35.85962,773.4505],[4.44927,35.8697,706.9705],[4.47924,35.89243,869.3153],[4.48777,35.90194,889.1263],[4.49304,35.91205,978.1309],[4.49784,35.92757,1024.0712],[4.50095,35.93099,1019.3967],[4.50606,35.93316,1029.0671],[4.52627,35.93527,988.8318],[4.53696,35.93791,983.7101],[4.54084,35.94215,952.8069],[4.54006,35.9483,964.3227],[4.53603,35.95514,950.5698],[4.52627,35.96799,1146.4258],[4.52146,35.97672,1221.0699],[4.51386,35.99512,1188.1062],[4.50844,36.01232,1459.9325],[4.50529,36.01925,1542.2257],[4.50064,36.02571,1574.7836],[4.49412,36.02845,1655.2115],[4.4825,36.02824,1595.3663],[4.46234,36.02163,1615.8564],[4.42493,36.00039,1308.0548],[4.40431,35.99222,1178.3799],[4.37914,35.99109,1227.1288],[4.3455,35.99362,1220.0981],[4.21481,36.01661,1305.5309],[4.18412,36.01403,1684.616],[4.17042,36.00922,1382.6228],[4.16345,36.004,1184.0101],[4.1619,35.99997,1104.5417],[4.16081,35.99873,1108.2114],[4.15709,35.9961,1175.3715],[4.14965,35.99501,1361.7456]]]}}