{"type": "Feature","bbox": [3.3708,34.2168,5.338,36.0415],"geometry": {"type": "MultiPolygon","coordinates": [[[[4.2383,34.5942,804.681],[4.2428,34.5978,840.7977],[4.2524,34.6107,878.126],[4.2513,34.6169,903.2427],[4.2429,34.619,960.4361],[4.2602,34.6358,1048.5865],[4.2671,34.6457,1137.1389],[4.2849,34.6561,1050.0609],[4.2839,34.6616,1014.6916],[4.2855,34.6681,939.2445],[4.3052,34.6522,877.9],[4.3239,34.6605,949.4245],[4.3583,34.6528,723.9955],[4.3923,34.6604,713.1508],[4.4417,34.666,656.2931],[4.5132,34.6648,685.8135],[4.5401,34.6736,597.6351],[4.56,34.6751,725.1152],[4.5616,34.6792,723.8867],[4.5691,34.6832,825.3909],[4.5745,34.6823,759.3254],[4.5812,34.6853,791.3573],[4.5819,34.6915,716.6335],[4.5849,34.6973,774.716],[4.5933,34.7047,723.3386],[4.6002,34.7066,745.4784],[4.6054,34.7064,744.3951],[4.6134,34.7028,774.8398],[4.6278,34.6884,859.3246],[4.6325,34.6927,838.1732],[4.6328,34.7019,800.0109],[4.6352,34.7064,790.015],[4.6397,34.707,803.1799],[4.6443,34.705,819.5443],[4.6614,34.7053,758.6404],[4.6663,34.703,797.5118],[4.6721,34.7043,739.7686],[4.6766,34.708,754.0291],[4.6755,34.7122,711.153],[4.6707,34.7159,629.3282],[4.6274,34.7375,605.0338],[4.6233,34.7411,616.27],[4.6199,34.7483,631.6828],[4.6207,34.7534,635.5582],[4.6282,34.7607,643.7651],[4.6324,34.7595,637.48],[4.6393,34.7654,639.5796],[4.6432,34.7632,637.2634],[4.6478,34.767,639.8069],[4.6537,34.7687,642.9982],[4.6656,34.761,632.5026],[4.6655,34.769,645.7233],[4.6696,34.7748,654.7322],[4.6742,34.7779,687.3701],[4.6852,34.7904,695.8248],[4.6944,34.7969,725.3101],[4.7016,34.8068,777.6069],[4.7097,34.8139,819.7],[4.7158,34.8127,972.418],[4.7226,34.8137,1033.9727],[4.7336,34.8184,1008.1733],[4.7467,34.8207,973.0565],[4.7598,34.8299,969.9803],[4.7665,34.8284,909.8236],[4.7816,34.8305,776.3252],[4.7995,34.8301,768.6462],[4.8087,34.8391,725.3281],[4.8393,34.8473,700.8416],[4.8536,34.8465,810.0372],[4.8595,34.8477,791.9791],[4.8645,34.8464,758.8829],[4.8686,34.843,751.1837],[4.8746,34.8431,729.2958],[4.8892,34.8492,608.5863],[4.8969,34.8508,578.2915],[4.9054,34.8614,571.1104],[4.9261,34.8587,483.5379],[4.9353,34.8636,469.9451],[4.9422,34.8704,491.8696],[4.9663,34.8723,555.9623],[4.9969,34.8945,567.1052],[4.9975,34.913,682.879],[5.0044,34.9334,555.6362],[5.0087,34.9357,572.0886],[5.0266,34.9312,513.4515],[5.0292,34.9356,537.3974],[5.0269,34.9402,496.6904],[5.0212,34.944,498.1367],[5.0076,34.946,509.7812],[5.0042,34.9499,519.2016],[5.0046,34.9581,514.5352],[5.0162,34.986,507.5126],[5.0109,34.9979,511.5894],[5.0064,35.0,498.1945],[5.0069,35.0124,518.4358],[5.0092,35.0174,528.8223],[5.0083,35.0219,538.0778],[5.0009,35.0369,597.0947],[5.0044,35.0397,618.0739],[5.0039,35.0768,576.5151],[5.0008,35.0811,577.7347],[4.9943,35.0847,621.7313],[4.9873,35.085,621.5674],[4.967,35.0926,641.1696],[4.9715,35.1111,683.0157],[4.8887,35.1412,728.285],[4.845,35.1452,706.4794],[4.7551,35.1459,506.1544],[4.7493,35.1482,495.589],[4.7477,35.1535,492.7513],[4.7485,35.1593,501.1481],[4.7422,35.1702,488.0002],[4.7419,35.1771,476.8079],[4.7475,35.1805,488.1147],[4.7591,35.1831,500.8165],[4.7934,35.2063,472.7755],[4.7984,35.2127,468.0177],[4.8253,35.208,500.3268],[4.8535,35.2344,466.6447],[4.8588,35.2539,442.3473],[4.8646,35.259,453.7489],[4.8693,35.266,505.0964],[4.8825,35.347,420.4518],[4.8899,35.3658,393.0834],[4.857,35.5363,396.2024],[4.8892,35.5169,394.7051],[4.8989,35.4996,394.6059],[4.9134,35.4823,396.0823],[4.9312,35.4789,393.544],[4.9467,35.4688,394.7891],[4.9507,35.4807,401.4969],[4.9575,35.4869,407.3205],[4.9645,35.4898,413.573],[4.9708,35.495,419.2202],[4.9732,35.5008,422.9956],[4.9859,35.5188,435.8105],[4.9931,35.5244,439.3484],[4.997,35.4949,423.2667],[5.0127,35.5063,433.8473],[5.0206,35.5065,434.6739],[5.024,35.5094,438.942],[5.0318,35.5186,448.9075],[5.0375,35.5297,454.8989],[5.0613,35.5269,464.5637],[5.0824,35.5206,461.9426],[5.0881,35.5287,466.6149],[5.0957,35.5188,458.6918],[5.1091,35.5092,450.9839],[5.1066,35.4999,445.8955],[5.1187,35.4865,442.5588],[5.1287,35.4921,447.627],[5.1351,35.4913,447.9474],[5.1359,35.4966,452.8578],[5.1404,35.501,458.237],[5.1616,35.5139,481.2702],[5.1683,35.5164,487.8924],[5.179,35.5107,485.7179],[5.185,35.51,487.4822],[5.1979,35.5127,495.8801],[5.2031,35.5176,505.3031],[5.2089,35.52,508.4467],[5.2159,35.5292,534.2505],[5.2159,35.5339,551.3073],[5.2234,35.5416,560.6605],[5.2299,35.5527,561.8212],[5.2369,35.5572,571.0819],[5.2541,35.5633,595.4325],[5.2647,35.5724,611.0801],[5.2778,35.5778,676.6572],[5.2871,35.5839,669.8773],[5.3006,35.5888,689.7748],[5.3337,35.6188,752.2441],[5.3372,35.625,760.9596],[5.338,35.6317,770.7321],[5.3133,35.6387,785.7352],[5.3087,35.6384,795.6538],[5.297,35.6326,751.5135],[5.2904,35.633,740.877],[5.2662,35.6423,773.864],[5.2615,35.645,780.8581],[5.2583,35.6494,799.0311],[5.2454,35.651,816.8881],[5.2193,35.6496,772.4028],[5.1778,35.6512,666.203],[5.1733,35.6536,678.9771],[5.1645,35.6687,742.9634],[5.1493,35.6859,728.522],[5.1511,35.6978,779.6848],[5.1636,35.6994,961.2372],[5.1678,35.7037,1164.3411],[5.1487,35.725,802.2558],[5.1423,35.7239,816.274],[5.1327,35.7195,1075.1428],[5.1259,35.7187,1161.8602],[5.1121,35.7201,1173.1223],[5.108,35.7236,1077.8148],[5.1022,35.7222,1055.7639],[5.0955,35.7176,907.2492],[5.0915,35.7209,895.1501],[5.0909,35.7265,934.7806],[5.0568,35.7439,1090.9399],[5.0534,35.7467,1077.9507],[5.0518,35.7514,1096.9819],[5.0445,35.7562,1029.5776],[5.0391,35.7588,949.5685],[5.0266,35.7604,887.1163],[5.0375,35.7665,1023.3752],[5.0418,35.7712,1038.4957],[5.0449,35.7772,1012.6638],[5.0443,35.7838,1061.5829],[5.0398,35.7852,1079.7679],[5.0175,35.7769,882.776],[5.0133,35.7734,878.143],[4.9972,35.7658,825.4165],[4.991,35.7648,832.7268],[4.9892,35.7713,853.5474],[4.9783,35.7682,907.9374],[4.9762,35.7614,850.4113],[4.9659,35.7674,882.5542],[4.9621,35.775,900.4697],[4.9585,35.7977,1394.4408],[4.9585,35.8111,1637.3491],[4.9534,35.8156,1690.0511],[4.941,35.8205,1677.6958],[4.9381,35.8175,1729.7882],[4.9375,35.8132,1686.8534],[4.9327,35.8112,1715.1151],[4.9152,35.8146,1581.1195],[4.9071,35.8144,1727.7706],[4.9031,35.8121,1803.6672],[4.8906,35.8303,1618.5248],[4.8856,35.8323,1638.1163],[4.8833,35.8375,1584.1438],[4.8789,35.8406,1584.5439],[4.8753,35.8478,1610.0334],[4.8688,35.853,1623.8082],[4.862,35.8627,1724.2136],[4.8483,35.8713,1618.7471],[4.8446,35.877,1648.0386],[4.838,35.8771,1670.3418],[4.8324,35.8749,1691.2296],[4.8311,35.8694,1688.679],[4.8228,35.8628,1735.7297],[4.8129,35.8683,1760.2511],[4.7821,35.8688,1754.5155],[4.7731,35.8668,1742.5093],[4.7629,35.8622,1796.3878],[4.7507,35.8616,1745.39],[4.7388,35.8507,1809.2273],[4.7324,35.8505,1809.0828],[4.7278,35.8546,1741.0597],[4.713,35.8599,1598.1348],[4.6827,35.8411,1467.2671],[4.6719,35.8392,1303.2056],[4.666,35.8407,1329.5035],[4.654,35.8368,1204.8534],[4.6445,35.831,891.096],[4.6433,35.8259,837.6583],[4.64,35.8217,810.0847],[4.6348,35.8193,826.4703],[4.6251,35.8188,756.4983],[4.6204,35.8093,666.2515],[4.6115,35.8028,654.5819],[4.5911,35.8085,651.5688],[4.5907,35.8135,620.4646],[4.5811,35.8321,677.7169],[4.5995,35.8545,711.1337],[4.6062,35.8655,641.7569],[4.6007,35.8741,646.2302],[4.5924,35.871,649.3778],[4.5663,35.8658,746.9553],[4.5381,35.8485,690.3665],[4.5459,35.8402,708.0271],[4.5468,35.8351,688.0922],[4.5428,35.8318,647.3993],[4.5453,35.8261,615.2645],[4.55,35.8216,580.0083],[4.551,35.8131,548.659],[4.5305,35.8197,616.7995],[4.4984,35.8115,579.0267],[4.4943,35.8092,578.136],[4.4803,35.8126,590.2993],[4.4693,35.8193,617.1793],[4.4582,35.8224,623.8385],[4.4436,35.8227,616.4401],[4.4189,35.8262,617.67],[4.4146,35.8418,630.7437],[4.4148,35.8486,628.4086],[4.4178,35.8532,695.2761],[4.44,35.8587,756.7316],[4.4391,35.869,699.0637],[4.4444,35.8711,698.7694],[4.4607,35.8889,865.6152],[4.4589,35.899,1032.4059],[4.4536,35.9057,1053.6088],[4.4584,35.9094,1079.6509],[4.4637,35.91,1062.6064],[4.4818,35.9168,1106.0869],[4.4939,35.9176,999.1082],[4.4995,35.9202,1095.8688],[4.5051,35.9261,1071.9617],[4.5112,35.9281,1026.6888],[4.5247,35.9245,962.5469],[4.5292,35.9288,959.3943],[4.522,35.936,975.538],[4.5204,35.9427,994.1108],[4.5134,35.9512,1014.9851],[4.5129,35.9571,1028.8987],[4.5015,35.9651,1055.0664],[4.5012,35.97,1056.9517],[4.5061,35.973,1074.9353],[4.5076,35.9787,1090.4883],[4.4941,36.0125,1501.9443],[4.491,36.0166,1507.5735],[4.4925,36.0312,1704.272],[4.4913,36.0372,1676.7452],[4.4766,36.0415,1674.9946],[4.4713,36.0411,1676.1642],[4.4671,36.038,1738.9905],[4.4521,36.0354,1755.0544],[4.4431,36.0303,1846.041],[4.4405,36.0241,1802.205],[4.4251,36.0161,1716.9751],[4.422,36.0109,1587.4873],[4.4159,36.0076,1525.7556],[4.407,36.0105,1464.5912],[4.3955,36.007,1428.0721],[4.3911,36.0041,1407.3047],[4.3865,35.995,1201.1306],[4.375,35.995,1357.511],[4.3646,35.9865,1369.3901],[4.3506,35.987,1282.2268],[4.3451,35.9853,1164.1025],[4.3404,35.9866,1223.0576],[4.3292,35.9844,1203.064],[4.3162,35.9897,1155.4103],[4.3005,35.9908,1060.9487],[4.2963,35.9929,1067.5482],[4.2916,35.9919,1014.4005],[4.2929,35.9979,1015.3907],[4.284,36.0054,1061.3799],[4.2813,36.0005,1033.6652],[4.277,36.0028,1037.7463],[4.2743,35.9991,1028.0131],[4.2695,35.9992,999.033],[4.2566,36.0071,1065.9551],[4.245,36.0013,1053.5771],[4.2409,36.0034,1113.9747],[4.2372,36.0073,1208.2371],[4.237,36.0117,1210.7938],[4.2303,36.0173,1346.5939],[4.2191,36.022,1532.4399],[4.1997,36.0241,1597.1523],[4.1843,36.0224,1751.0775],[4.1701,36.0232,1781.9839],[4.1455,36.0187,1535.0894],[4.1411,36.0147,1494.054],[4.1446,36.0087,1344.1045],[4.138,35.9982,1423.2319],[4.1279,35.9973,1421.3164],[4.1242,35.9941,1245.8107],[4.1105,35.9974,1260.1162],[4.089,35.9986,951.6165],[4.091,36.021,1085.8473],[4.0832,36.0322,1168.2227],[4.0691,36.0386,1026.5675],[4.0639,36.0364,1071.582],[4.0656,36.0318,1117.886],[4.0628,36.0229,993.7423],[4.0672,36.0162,977.693],[4.0577,36.009,876.1559],[4.0557,36.004,851.7307],[4.0495,35.9969,846.5855],[4.0425,35.9724,779.4023],[4.0427,35.9601,733.534],[4.0397,35.9515,719.0196],[4.0291,35.9357,703.7065],[4.0282,35.9256,685.7272],[4.0195,35.9209,675.2689],[4.0152,35.9158,682.9284],[4.0158,35.9085,665.1829],[4.0188,35.9017,646.0862],[4.0351,35.8813,629.5009],[4.0332,35.8769,626.6873],[4.037,35.874,624.604],[4.0323,35.8601,606.9753],[3.9847,35.868899999999996,636.0706],[3.9386,35.8929,670.5748],[3.928,35.8885,717.2631],[3.9187,35.8941,684.7152],[3.9126,35.8952,755.1619],[3.9025,35.8898,772.8123],[3.8938,35.8788,859.2192],[3.8917,35.8728,809.2262],[3.8584,35.861,646.5613],[3.8536,35.8572,638.3674],[3.8504,35.852,628.4539],[3.8431,35.8552,634.8433],[3.8391,35.8628,653.951],[3.8325,35.8653,662.9572],[3.822,35.8634,641.9259],[3.8155,35.8546,631.0118],[3.7936,35.868899999999996,646.8226],[3.792,35.873,653.4019],[3.7992,35.8829,678.587],[3.7974,35.8903,682.8185],[3.7751,35.898,671.6666],[3.7735,35.902,673.9559],[3.7664,35.9022,690.8241],[3.7614,35.8983,688.1544],[3.7565,35.8973,684.1238],[3.7477,35.9012,684.8055],[3.7373,35.9118,697.1874],[3.731,35.9153,703.7039],[3.7173,35.9357,730.1273],[3.6456,35.9439,787.9529],[3.6398,35.9406,755.8077],[3.6331,35.933,715.2397],[3.6365,35.9287,704.0424],[3.6363,35.9244,699.2767],[3.6315,35.9144,689.6482],[3.6238,35.9126,684.2751],[3.6196,35.915,687.2883],[3.6087,35.9123,714.5577],[3.6211,35.8996,682.7609],[3.63,35.8821,666.0293],[3.5978,35.8806,737.9057],[3.5804,35.868899999999996,738.6601],[3.575,35.8562,704.1761],[3.6001,35.85,672.0291],[3.6002,35.8412,669.7687],[3.5785,35.8395,691.5987],[3.5663,35.8418,708.7538],[3.5529,35.832,693.7415],[3.5426,35.8205,698.5938],[3.5357,35.8158,695.1484],[3.5279,35.8138,696.0451],[3.5122,35.8152,698.644],[3.5063,35.814,708.8887],[3.5176,35.8087,689.1783],[3.5205,35.805,681.3147],[3.5145,35.7912,666.2515],[3.5132,35.7827,664.9647],[3.5283,35.7708,649.3459],[3.5392,35.769,646.4547],[3.5425,35.7655,643.209],[3.5361,35.7623,647.7139],[3.5328,35.7495,673.5551],[3.5364,35.7317,658.0033],[3.5439,35.6513,665.0669],[3.5128,35.6775,652.536],[3.4705,35.7376,710.5389],[3.4615,35.7474,697.8293],[3.467,35.7617,675.1053],[3.4574,35.7644,676.5134],[3.4534,35.768,683.9161],[3.4538,35.7748,681.7287],[3.4478,35.7891,692.0416],[3.4442,35.7927,696.2747],[3.4406,35.7953,699.1754],[3.4239,35.7984,707.9659],[3.4238,35.8037,710.7385],[3.4177,35.8136,713.7227],[3.4022,35.8136,740.0204],[3.3981,35.817,742.3763],[3.3759,35.8076,738.7479],[3.3874,35.7841,715.0717],[3.3921,35.7797,711.4922],[3.3708,35.759,708.4286],[3.3838,35.7125,727.3029],[3.3878,35.7079,716.9429],[3.4721,35.6381,664.9312],[3.4751,35.6336,665.0455],[3.4813,35.6288,666.705],[3.6782,35.5086,820.4583],[3.684,35.4952,823.2548],[3.6941,35.4841,759.7715],[3.6896,35.4525,761.5068],[3.6823,35.4358,782.786],[3.688,35.4197,815.8698],[3.6877,35.4143,845.358],[3.6483,35.3907,915.0698],[3.6599,35.3507,825.7451],[3.6668,35.3152,755.2713],[3.6134,35.2801,754.0],[3.5981,35.2692,754.0],[3.5944,35.264,754.0],[3.5893,35.2604,754.0],[3.4594,35.176,754.0],[3.4637,35.1725,754.0],[3.4819,35.1306,761.4738],[3.4926,35.1172,760.2095],[3.4988,35.1044,789.8349],[3.5076,35.0922,841.2994],[3.5178,35.0827,907.0075],[3.519,35.0761,1036.3065],[3.5113,35.064,1117.2529],[3.5132,35.0577,1331.5033],[3.5302,35.0543,1467.4866],[3.5424,35.058,1482.2566],[3.5533,35.0563,1437.0144],[3.5594,35.0587,1364.7455],[3.5676,35.0706,1477.0283],[3.5797,35.0749,1422.6523],[3.5873,35.0755,1375.2311],[3.6004,35.0829,1349.3372],[3.5755,35.0234,1079.9874],[3.5494,35.0211,1100.0627],[3.5678,35.0065,1062.9587],[3.5654,35.0019,1060.8025],[3.5685,34.9785,1035.8502],[3.5817,34.9837,1037.4001],[3.5767,34.9755,1040.4274],[3.577,34.9564,1059.2892],[3.572,34.9398,1073.2382],[3.5648,34.936,1085.9835],[3.5722,34.9134,1115.2979],[3.5863,34.8909,1134.6621],[3.5681,34.8675,1227.8783],[3.6107,34.8671,1090.8616],[3.6355,34.8549,1176.468],[3.6264,34.8489,1174.0886],[3.6225,34.8439,1166.7498],[3.6301,34.8407,1145.7944],[3.6353,34.8272,1185.8171],[3.6395,34.8224,1214.2822],[3.6496,34.7999,1261.1353],[3.6386,34.8021,1266.377],[3.6409,34.7906,1210.0458],[3.6571,34.7887,1160.4679],[3.6986,34.8071,1200.3279],[3.7077,34.8083,1172.4441],[3.727,34.7903,1130.251],[3.8081,34.7798,1242.7122],[3.8225,34.7811,1205.322],[3.8913,34.7665,1232.2444],[3.9006,34.6612,1022.7148],[3.9211,34.6021,1062.1788],[3.917,34.5628,1180.0815],[3.9052,34.5229,1368.548],[3.9896,34.444,1156.166],[3.9809,34.4135,961.6469],[3.9742,34.3629,742.1204],[3.9929,34.3465,700.128],[3.9954,34.3421,692.738],[4.0,34.3401,689.2668],[4.0071,34.3332,673.5851],[4.0249,34.3266,655.1936],[4.0358,34.3244,642.1649],[4.043,34.3262,649.7745],[4.0472,34.3229,631.9205],[4.052,34.3243,649.5628],[4.056,34.3223,631.5822],[4.0548,34.3176,661.4766],[4.0619,34.3139,627.6367],[4.0644,34.3086,626.6477],[4.063,34.3045,597.6978],[4.0754,34.302,589.1757],[4.0922,34.2957,574.4147],[4.0953,34.2922,581.8461],[4.0961,34.2855,565.7757],[4.1026,34.2829,562.523],[4.1071,34.2784,549.0211],[4.1126,34.2758,549.7865],[4.1139,34.2705,542.5439],[4.1175,34.266,544.0719],[4.1107,34.258,524.4682],[4.1164,34.2576,521.1206],[4.1204,34.254,519.5129],[4.1179,34.2488,520.2376],[4.1207,34.2452,510.1759],[4.1325,34.2459,498.558],[4.1384,34.2442,510.0457],[4.1398,34.24,505.7079],[4.1384,34.2347,498.8714],[4.1399,34.2285,479.9111],[4.1538,34.2168,472.8853],[4.1666,34.222,454.413],[4.1719,34.2205,450.872],[4.1748,34.2315,471.2148],[4.1804,34.2368,461.8755],[4.1868,34.2388,440.0517],[4.1926,34.2381,438.8276],[4.2074,34.2277,434.6171],[4.2125,34.2277,442.264],[4.2177,34.232,433.3065],[4.2206,34.2401,438.0744],[4.2261,34.2423,428.7355],[4.2422,34.2387,429.5562],[4.2627,34.2391,425.4023],[4.2686,34.243,418.392],[4.271,34.2499,426.9307],[4.2705,34.2598,424.2182],[4.2733,34.2653,419.51369999999997],[4.2779,34.267,409.8275],[4.2881,34.2659,407.9315],[4.2959,34.2673,427.1475],[4.3016,34.2725,403.6409],[4.3011,34.2793,406.0451],[4.2776,34.285,413.0876],[4.2683,34.2937,423.2665],[4.2613,34.2973,445.7916],[4.2588,34.3027,441.4666],[4.2515,34.3035,448.2062],[4.2379,34.3106,444.2874],[4.233,34.319,451.953],[4.2206,34.3154,493.0176],[4.2186,34.32,479.8444],[4.2264,34.3277,502.5495],[4.2281,34.3333,497.682],[4.2333,34.3343,484.8674],[4.2339,34.3411,502.7557],[4.2301,34.3456,491.5153],[4.2244,34.3443,500.9318],[4.2183,34.346,501.5769],[4.2189,34.3525,516.1538],[4.2133,34.3557,508.3115],[4.2113,34.3675,538.9723],[4.205,34.3681,550.2085],[4.203,34.3723,533.2354],[4.2098,34.3738,551.7231],[4.2119,34.378,559.4144],[4.1906,34.3852,547.2522],[4.1815,34.391,560.1041],[4.1773,34.3968,573.7933],[4.1767,34.4038,590.6232],[4.1728,34.4071,582.9136],[4.1701,34.4182,587.3422],[4.1708,34.4384,610.2386],[4.1696,34.4542,634.3806],[4.173,34.4607,646.4894],[4.1723,34.4657,664.9778],[4.1684,34.4716,680.3649],[4.1629,34.4758,691.7819],[4.1604,34.488,700.0503],[4.1631,34.5011,731.1233],[4.1617,34.5118,748.5703],[4.158,34.5168,768.2034],[4.1384,34.5256,884.1397],[4.1435,34.5327,808.5765],[4.1498,34.5376,808.5639],[4.168,34.5471,829.7911],[4.1787,34.5501,848.724],[4.2017,34.5679,788.9033],[4.2061,34.5692,776.3688],[4.2095,34.5741,819.3788],[4.2383,34.5942,804.681]]]]}
,"properties": {"GID_1": "DZA.26_1","GID_0": "DZA","country": "Algeria","province": "M'Sila","VARNAME_1": "Msila","NL_NAME_1": "ولايةالمسيلة","TYPE_1": "Wilaya","ENGTYPE_1": "Province","CC_1": "28","HASC_1": "DZ.MS","ISO_1": "NA","name": "M'Sila.province","area_km2": 17935.03,"hist_schema_id": "Elevation0-9000","hist_area_km2": {"400": 1422.55,"425": 778.4,"450": 768.31,"475": 617.59,"500": 585.96,"525": 589.14,"550": 669.16,"575": 707.7,"600": 777.42,"625": 831.72,"650": 844.44,"675": 696.62,"700": 654.22,"725": 513.31,"750": 640.9,"775": 580.56,"800": 461.98,"825": 403.57,"850": 386.21,"875": 401.65,"900": 358.45,"925": 348.96,"950": 339.02,"975": 390.79,"1000": 402.52,"1025": 416.44,"1050": 377.62,"1075": 363.74,"1100": 329.88,"1125": 271.58,"1150": 227.48,"1175": 177.6,"1200": 130.0,"1225": 97.01,"1250": 73.92,"1275": 56.65,"1300": 42.85,"1325": 30.19,"1350": 21.88,"1375": 16.44,"1400": 13.56,"1425": 12.32,"1450": 11.98,"1475": 10.85,"1500": 10.35,"1525": 10.08,"1550": 9.83,"1575": 9.51,"1600": 8.46,"1625": 6.96,"1650": 6.15,"1675": 6.03,"1700": 5.67,"1725": 3.38,"1750": 2.4,"1775": 1.67,"1800": 1.1,"1825": 0.27}}}