{"type": "Feature","bbox": [7.4737,35.3212,7.8384,35.5818],"geometry": {"type": "MultiPolygon","coordinates": [[[[7.4737,35.4061,1003.486],[7.4822,35.4012,1013.549],[7.4941,35.3873,1037.9974],[7.499,35.3747,1058.4207],[7.4999,35.3644,1073.0227],[7.5162,35.3609,1105.8146],[7.5382999999999996,35.3694,1089.249],[7.5565,35.3734,1102.4934],[7.5699,35.3744,1104.7441],[7.5756,35.3733,1114.9824],[7.5856,35.3688,1154.6213],[7.5924,35.3614,1167.95],[7.6019,35.3545,1270.5085],[7.6049,35.349,1282.2478],[7.6226,35.3365,1223.0203],[7.6512,35.3237,1175.4036],[7.6693,35.3212,1166.5184],[7.6926,35.3417,1135.2848],[7.7102,35.3502,1107.3879],[7.6746,35.362,1152.7727],[7.648,35.3813,1191.6144],[7.6515,35.3869,1226.1188],[7.6596,35.3935,1202.5135],[7.6661,35.4093,1159.8455],[7.674,35.4181,1182.67],[7.6742,35.4232,1211.395],[7.6773,35.4295,1226.7588],[7.6876,35.4349,1197.611],[7.6993,35.4353,1213.8627],[7.707,35.4374,1208.7323],[7.7108,35.4406,1209.2329],[7.7173,35.4537,1219.198],[7.7373,35.46,1104.5369],[7.7437,35.4638,1085.45],[7.7468,35.4691,1067.9446],[7.7588,35.4738,1054.0569],[7.7654,35.4817,1026.5406],[7.7706,35.4842,1020.2737],[7.7941,35.4884,988.3669],[7.8037,35.4951,970.8354],[7.8144,35.4979,962.6528],[7.8245,35.4977,949.3251],[7.8384,35.5043,938.0859],[7.8335,35.513,964.2495],[7.8201,35.5197,1001.6123],[7.8095,35.5221,1037.3895],[7.7985,35.5273,1098.4971],[7.7876,35.5358,1320.0718],[7.7815,35.546,1322.9135],[7.7805,35.5504,1319.5046],[7.7802,35.5556,1242.8584],[7.7855,35.5772,1030.4702],[7.7809,35.5818,1007.9886],[7.7715,35.5736,1032.2314],[7.7496,35.5659,1010.5848],[7.7406,35.5596,1022.589],[7.7205,35.5534,1083.7834],[7.7045,35.5446,1048.9851],[7.6738,35.536,1044.2867],[7.6661,35.5274,1058.3574],[7.6624,35.5162,1129.0032],[7.6624,35.5063,1209.0525],[7.6591,35.5023,1256.401],[7.6537,35.5012,1155.0568],[7.6507,35.497,1215.1587],[7.61,35.4668,1084.3037],[7.5886,35.4466,1026.6724],[7.5813,35.4347,1040.8053],[7.5763,35.4302,1056.4258],[7.5537,35.4231,1065.3341],[7.5488,35.4269,1029.0264],[7.5256,35.418,1005.3887],[7.4737,35.4061,1003.486]]]]}
,"properties": {"GID_2": "DZA.42.18_1","GID_0": "DZA","country": "Algeria","GID_1": "DZA.42_1","province": "Tébessa","NL_NAME_1": "ولايةتبسة","county": "Guorriguer","VARNAME_2": "Gourigueur","NL_NAME_2": "NA","TYPE_2": "Commune","ENGTYPE_2": "Commune","CC_2": "1216","HASC_2": "DZ.TB.GU","name": "Guorriguer.county","area_km2": 304.7027,"hist_schema_id": "Elevation0-9000","hist_area_km2": {"925": 0.1036,"950": 1.5189,"975": 3.0378,"1000": 8.2204,"1025": 21.6269,"1050": 28.4175,"1075": 28.5911,"1100": 24.51,"1125": 24.0619,"1150": 29.8741,"1175": 25.3784,"1200": 21.7648,"1225": 20.4327,"1250": 17.1149,"1275": 14.937,"1300": 11.5,"1325": 8.9081,"1350": 7.1282,"1375": 5.3502,"1400": 1.8983,"1425": 0.2934,"1450": 0.0345}}}