{"type":"Feature","properties":{"GID_2":"DZA.10.25_1","GID_0":"DZA","country":"Algeria","GID_1":"DZA.10_1","province":"Blida","NL_NAME_1":"البليدة","county":"Soumaa","VARNAME_2":"Sūmā","NL_NAME_2":"NA","TYPE_2":"Commune","ENGTYPE_2":"Commune","CC_2":"911","HASC_2":"DZ.BL.SM","name":"Soumaa.county"},
"geometry":{"type": "MultiPolygon","coordinates": [[[[2.9027,36.5455,95.2021],[2.9046,36.5402,106.5638],[2.9049,36.5298,130.0617],[2.8995,36.5208,147.212],[2.8981,36.5083,183.1281],[2.8947,36.5037,203.1497],[2.8932,36.4926,310.6045],[2.9012,36.4874,408.1362],[2.8972,36.4768,577.7771],[2.897,36.4708,692.6262],[2.9021,36.4633,1129.8555],[2.91,36.4752,957.3229],[2.9146,36.4747,905.0009],[2.9167,36.4692,890.0566],[2.9239,36.4694,993.0771],[2.9329,36.4759,942.2278],[2.9315,36.4804,882.8543],[2.9269,36.4818,607.85],[2.9219,36.4857,569.9827],[2.9224,36.4966,325.9642],[2.9276,36.4989,442.7852],[2.9272,36.5042,276.1118],[2.9246,36.5092,257.5712],[2.9189,36.5124,180.694],[2.9218,36.5207,169.6321],[2.9341,36.5143,244.3656],[2.9405,36.5142,257.4969],[2.9454,36.5248,142.8947],[2.9485,36.5279,102.217],[2.9538,36.5294,94.571],[2.952,36.534,82.2965],[2.9371,36.5459,88.7255],[2.9358,36.5502,79.5936],[2.9294,36.5531,79.0271],[2.9141,36.5526,84.0287],[2.9082,36.5505,85.6662],[2.9027,36.5455,95.2021]]]]}}