{"type":"Feature","properties":{"GID_2":"DZA.38.35_1","GID_0":"DZA","country":"Algeria","GID_1":"DZA.38_1","province":"SidiBelAbbès","NL_NAME_1":"ولايةسيديبلعباس","county":"SidiAliBoussidi","VARNAME_2":"NA","NL_NAME_2":"NA","TYPE_2":"Commune","ENGTYPE_2":"Commune","CC_2":"2208","HASC_2":"DZ.SB.SI","name":"Sidi_Ali_Boussidi.county"},
"geometry":{"type": "MultiPolygon","coordinates": [[[[-0.8671,35.1391,717.7799],[-0.8718,35.1307,691.6022],[-0.8808,35.1069,643.2222],[-0.8916,35.1003,669.2698],[-0.9027,35.0884,654.3953],[-0.8827,35.0806,636.4313],[-0.864,35.0695,619.0499],[-0.8589,35.068,613.6376],[-0.843,35.0773,613.5002],[-0.8303,35.09,596.3293],[-0.8186,35.0914,587.9892],[-0.8021,35.0886,566.9889],[-0.7952,35.09,567.5988],[-0.7915,35.0955,576.1164],[-0.7768,35.0984,570.7155],[-0.7781,35.1028,567.3831],[-0.7704,35.1031,561.1614],[-0.7723,35.1163,553.8634],[-0.7913,35.122,565.3606],[-0.7977,35.1216,570.3766],[-0.8076,35.1368,601.2334],[-0.813,35.1413,606.1476],[-0.8569,35.1231,686.4053],[-0.8615,35.123,695.0944],[-0.8637,35.1328,703.1014],[-0.8671,35.1391,717.7799]]]]}}