{"type": "Feature","bbox": [3.1272,33.5918,3.9612,34.5073],"geometry": {"type": "MultiPolygon","coordinates": [[[[3.1592,34.2289,947.0685],[3.1537,34.2257,921.8625],[3.1316,34.1974,1022.1002],[3.1372,34.1904,945.024],[3.1272,34.1778,958.5403],[3.1298,34.1509,936.4686],[3.1276,34.0971,819.4673],[3.1343,34.089,814.7179],[3.1431,34.0821,811.3386],[3.1492,34.0862,809.2817],[3.1565,34.0886,807.2158],[3.188,34.0707,794.8455],[3.194,34.0686,791.3758],[3.2309,34.0748,792.7095],[3.2393,34.0717,800.794],[3.2261,34.0463,806.2109],[3.2072,34.0254,753.4652],[3.1864,34.0116,729.007],[3.1815,34.0129,788.0465],[3.1726,34.0038,773.9258],[3.1822,33.9904,731.4399],[3.2163,33.9763,707.1268],[3.2361,33.972,715.3264],[3.2796,33.9881,727.9319],[3.2958,33.9805,744.5206],[3.3426,33.9427,742.26],[3.3922,33.9194,670.2374],[3.4275,33.8755,646.2631],[3.4775,33.8313,647.7079],[3.6136,33.7851,699.905],[3.635,33.7721,689.2051],[3.6635,33.7307,712.3315],[3.8828,33.5918,712.1772],[3.9575,33.675,730.7382],[3.9612,33.6805,745.2258],[3.6195,33.8705,676.3489],[3.6351,33.8795,646.6515],[3.6019,33.9029,653.1769],[3.5789,33.9341,628.2871],[3.5647,33.929,622.8452],[3.5376,33.9829,654.4135],[3.5252,34.0253,680.9159],[3.5028,34.0641,785.2969],[3.5041,34.07,815.3553],[3.5102,34.0807,777.9882],[3.4707,34.1184,876.9995],[3.4227,34.1844,799.7723],[3.4134,34.1929,808.4257],[3.4089,34.195,811.2521],[3.3987,34.2083,798.173],[3.4253,34.2177,794.6249],[3.43,34.2213,801.5823],[3.4267,34.2398,805.6981],[3.431,34.2528,819.8972],[3.4313,34.2591,827.0079],[3.4281,34.2707,820.3335],[3.4322,34.2787,829.2762],[3.4354,34.2967,829.6227],[3.4337,34.3027,833.4331],[3.4198,34.3237,847.8886],[3.4185,34.3288,851.7043],[3.4232,34.3369,866.9199],[3.4227,34.348,865.9736],[3.4298,34.368,882.1353],[3.4297,34.3729,885.4896],[3.4241,34.3853,899.4236],[3.4244,34.3903,905.2865],[3.4338,34.4087,922.283],[3.4362,34.4265,949.319],[3.4356,34.4419,960.0989],[3.4414,34.4573,976.721],[3.4408,34.4684,986.9097],[3.4474,34.4835,1003.5679],[3.4453,34.4883,1003.0645],[3.4247,34.5073,1348.8083],[3.4166,34.5018,1283.1697],[3.4062,34.4881,1224.0258],[3.397,34.4668,1161.6295],[3.3787,34.4375,1157.3257],[3.3603,34.416,1100.4222],[3.3546,34.4013,1132.2045],[3.3278,34.369,1110.45],[3.3287,34.3317,1148.6243],[3.3272,34.3276,1137.3574],[3.303,34.3319,1093.5912],[3.293,34.3239,1095.241],[3.2821,34.3101,1023.7019],[3.2663,34.2948,1038.0931],[3.247,34.2817,1047.168],[3.22,34.2698,977.0694],[3.2125,34.269,1010.9656],[3.2114,34.2757,1027.3711],[3.1643,34.2309,973.6937],[3.1592,34.2289,947.0685]]]]}
,"properties": {"GID_2": "DZA.16.13_1","GID_0": "DZA","country": "Algeria","GID_1": "DZA.16_1","province": "Djelfa","NL_NAME_1": "ولايةالجلفة","county": "Deldoul","VARNAME_2": "NA","NL_NAME_2": "NA","TYPE_2": "Commune","ENGTYPE_2": "Commune","CC_2": "1729","HASC_2": "DZ.DJ.DE","name": "Deldoul.county","area_km2": 1843.512,"hist_schema_id": "Elevation0-9000","hist_area_km2": {"625": 35.365,"650": 203.256,"675": 152.38,"700": 109.377,"725": 176.919,"750": 188.992,"775": 65.532,"800": 176.057,"825": 195.114,"850": 148.28,"875": 89.003,"900": 77.7,"925": 68.112,"950": 51.855,"975": 34.683,"1000": 24.946,"1025": 13.44,"1050": 8.206,"1075": 5.074,"1100": 5.283,"1125": 4.775,"1150": 4.686,"1175": 2.57,"1200": 0.961,"1225": 0.577,"1250": 0.192,"1275": 0.122,"1300": 0.052}}}