{"type":"Feature","properties":{"GID_2":"DZA.28.39_1","GID_0":"DZA","country":"Algeria","GID_1":"DZA.28_1","province":"Médéa","NL_NAME_1":"ولايةالمدية","county":"OuedHarbil","VARNAME_2":"NA","NL_NAME_2":"NA","TYPE_2":"Commune","ENGTYPE_2":"Commune","CC_2":"2629","HASC_2":"DZ.MD.OH","name":"Oued_Harbil.county"},
"geometry":{"type": "MultiPolygon","coordinates": [[[[2.7065,36.21,854.5989],[2.7081,36.2156,778.8867],[2.7074,36.2204,684.8904],[2.7119,36.2243,553.9862],[2.7084,36.2269,559.0872],[2.6981,36.2263,544.8492],[2.6863,36.2311,563.9587],[2.6829,36.2351,603.7274],[2.6816,36.2395,574.0996],[2.6866,36.2491,608.7714],[2.6875,36.2594,683.22],[2.6818,36.2634,588.2319],[2.6803,36.2687,551.8682],[2.6729,36.2815,502.3855],[2.6688,36.285,459.5878],[2.6659,36.2803,476.4786],[2.6569,36.2756,450.0282],[2.645,36.2754,440.596],[2.6388,36.277,426.8555],[2.636,36.2738,452.68],[2.631,36.2726,454.5294],[2.6264,36.2742,485.2766],[2.6221,36.2736,500.9139],[2.6133,36.2672,574.0504],[2.6084,36.2673,635.6252],[2.6025,36.2701,677.0201],[2.5979,36.2656,870.1346],[2.6068,36.259,657.2372],[2.608,36.2546,677.2458],[2.603,36.2523,773.7579],[2.6012,36.2425,769.1892],[2.6033,36.2348,661.7181],[2.6002,36.2296,589.9183],[2.5999,36.2221,448.899],[2.5872,36.2134,418.7856],[2.5774,36.204,402.7622],[2.5957,36.1996,681.9855],[2.602,36.207,763.6437],[2.6153,36.212,698.4044],[2.6234,36.2066,801.6556],[2.6461,36.2094,539.3123],[2.6669,36.1976,712.2875],[2.6733,36.1978,597.3574],[2.6792,36.1955,689.934],[2.689,36.1997,743.387],[2.6893,36.2062,677.2485],[2.6942,36.2107,664.6194],[2.7065,36.21,854.5989]]]]}}