{"type":"Feature","properties":{"GID_2":"DZA.32.3_1","GID_0":"DZA","country":"Algeria","GID_1":"DZA.32_1","province":"Oran","NL_NAME_1":"ولايةوهران","county":"AinTurk","VARNAME_2":"NA","NL_NAME_2":"NA","TYPE_2":"Commune","ENGTYPE_2":"Commune","CC_2":"3109","HASC_2":"DZ.OR.AT","name":"Ain_Turk.county"},
"geometry":{"type": "MultiPolygon","coordinates": [[[[-0.7032,35.7372,32.8735],[-0.7032,35.7422,0.0],[-0.734,35.7375,0.0],[-0.7614,35.7454,18.7553],[-0.7871,35.7578,10.3757],[-0.7948,35.7642,0.0],[-0.7944,35.7708,28.4289],[-0.8002,35.7727,0.0],[-0.8131,35.7669,0.8512],[-0.8203,35.7667,10.4964],[-0.8197,35.7608,51.3299],[-0.8087,35.7375,58.5122],[-0.7845,35.7243,88.1145],[-0.7533,35.7107,249.6288],[-0.7498,35.7067,292.9067],[-0.7428,35.7043,428.9149],[-0.736,35.705,503.972],[-0.7272,35.7091,488.2125],[-0.7359,35.7156,301.6939],[-0.7391,35.7204,282.9993],[-0.7363,35.7245,255.7047],[-0.7032,35.7372,32.8735]]]]}}