{"type":"Feature","properties":{"GID_2":"DZA.11.4_1","GID_0":"DZA","country":"Algeria","GID_1":"DZA.11_1","province":"BordjBouArréridj","NL_NAME_1":"ولايةبرجبوعريريج","county":"Bendaoud","VARNAME_2":"BenDaoud","NL_NAME_2":"NA","TYPE_2":"Commune","ENGTYPE_2":"Commune","CC_2":"3406","HASC_2":"DZ.BB.BD","name":"Bendaoud.county"},
"geometry":{"type": "MultiPolygon","coordinates": [[[[4.2504,36.0047,1073.3087],[4.2491,36.0095,1185.1328],[4.2534,36.0121,1153.6378],[4.2506,36.0162,1236.9116],[4.2526,36.0254,1139.681],[4.2571,36.0354,968.3672],[4.2572,36.0412,939.4176],[4.2412,36.0605,1193.269],[4.2447,36.0768,959.7699],[4.2427,36.0827,868.5],[4.2395,36.0861,793.8649],[4.2446,36.0886,766.6691],[4.2445,36.0944,780.4932],[4.2389,36.1069,882.8092],[4.2152,36.0944,879.8655],[4.1983,36.0922,855.9802],[4.1932,36.0943,855.7081],[4.1755,36.0942,960.2643],[4.1477,36.0991,1030.9094],[4.1419,36.1062,1191.376],[4.1385,36.0992,1072.1384],[4.1427,36.0944,1003.1447],[4.1386,36.084,1083.6117],[4.1206,36.0691,1238.0317],[4.1074,36.0614,1515.8838],[4.1059,36.057,1443.2607],[4.0992,36.05,1460.4119],[4.0941,36.0473,1420.3795],[4.076,36.0455,1189.7487],[4.0713,36.0435,1142.9805],[4.0691,36.0386,1026.5675],[4.0832,36.0322,1168.2227],[4.091,36.021,1085.8473],[4.089,35.9986,951.6165],[4.0958,35.9973,1043.5189],[4.1105,35.9974,1260.1162],[4.1242,35.9941,1245.8107],[4.1279,35.9973,1421.3164],[4.138,35.9982,1423.2319],[4.1446,36.0087,1344.1045],[4.1411,36.0147,1494.054],[4.1455,36.0187,1535.0894],[4.1701,36.0232,1781.9839],[4.1843,36.0224,1751.0775],[4.1997,36.0241,1597.1523],[4.2191,36.022,1532.4399],[4.2341,36.015,1300.3662],[4.237,36.0117,1210.7938],[4.2372,36.0073,1208.2371],[4.2409,36.0034,1113.9747],[4.245,36.0013,1053.5771],[4.2504,36.0047,1073.3087]]]]}}