{"type":"Feature","properties":{"GID_2":"DZA.21.23_1","GID_0":"DZA","country":"Algeria","GID_1":"DZA.21_1","province":"Guelma","NL_NAME_1":"ولايةقالمة","county":"KalaatBousbaa","VARNAME_2":"GuelaatBousbaa","NL_NAME_2":"NA","TYPE_2":"Commune","ENGTYPE_2":"Commune","CC_2":"2418","HASC_2":"DZ.GL.KB","name":"Kalaat_Bousbaa.county"},
"geometry":{"type": "MultiPolygon","coordinates": [[[[7.5221,36.5368,684.7672],[7.5244,36.5436,823.2224],[7.5286,36.547,848.4989],[7.5299,36.5516,843.9943],[7.5169,36.5654,557.5795],[7.4878,36.5683,566.9512],[7.4821,36.5763,522.36],[7.4831,36.5817,505.9843],[7.4714,36.5852,555.0356],[7.4535,36.5768,540.2944],[7.4419,36.5731,504.0518],[7.4447,36.569,466.5571],[7.445,36.5547,525.0798],[7.451,36.5531,579.2584],[7.4593,36.536,370.5681],[7.4599,36.5289,300.7328],[7.4693,36.5217,496.0416],[7.4864,36.5168,295.5995],[7.492,36.5179,394.1192],[7.4971,36.5211,476.082],[7.5016,36.5193,506.9746],[7.5048,36.5235,643.5806],[7.5098,36.525,717.0797],[7.5144,36.5285,650.0877],[7.5221,36.5368,684.7672]]]]}}