{"type":"Feature","properties":{"GID_2":"DZA.47.57_1","GID_0":"DZA","country":"Algeria","GID_1":"DZA.47_1","province":"TiziOuzou","NL_NAME_1":"ولايةغليزان","county":"Tadmait","VARNAME_2":"Tadma`it","NL_NAME_2":"NA","TYPE_2":"Commune","ENGTYPE_2":"Commune","CC_2":"1564","HASC_2":"DZ.TO.TA","name":"Tadmait.county"},
"geometry":{"type": "MultiPolygon","coordinates": [[[[3.8661,36.761,81.1292],[3.8685,36.7539,55.9351],[3.8665,36.7461,53.1021],[3.8587,36.7408,61.1228],[3.8493,36.7262,173.2116],[3.8497,36.7206,242.9083],[3.8463,36.7168,365.2422],[3.8462,36.7101,438.8327],[3.8492,36.7025,661.8063],[3.8548,36.6984,767.3227],[3.8594,36.6976,810.8082],[3.8632,36.6929,710.4368],[3.8645,36.6866,448.1395],[3.8703,36.6844,377.9071],[3.8805,36.6738,248.4177],[3.8872,36.672,207.1664],[3.8957,36.675,170.004],[3.9025,36.6742,165.3575],[3.9048,36.6684,290.6798],[3.9098,36.6701,202.9185],[3.917,36.6698,126.679],[3.9225,36.6729,140.0179],[3.9247,36.6774,92.7062],[3.9309,36.6773,128.427],[3.935,36.6841,73.4506],[3.9407,36.6885,60.6817],[3.9447,36.6944,55.4743],[3.9465,36.7006,50.8337],[3.9174,36.7081,302.0612],[3.9138,36.7122,502.7682],[3.9201,36.7218,386.4998],[3.9312,36.7334,262.6042],[3.9358,36.7522,26.5733],[3.9308,36.7556,35.0692],[3.9103,36.753,23.0054],[3.9055,36.7546,17.3367],[3.8968,36.761,26.4993],[3.8933,36.7704,20.2164],[3.888,36.7707,79.5526],[3.8834,36.7675,71.3266],[3.8723,36.7659,172.9627],[3.8661,36.761,81.1292]]]]}}