{"type":"Feature","properties":{"GID_2":"DZA.37.14_1","GID_0":"DZA","country":"Algeria","GID_1":"DZA.37_1","province":"Sétif","NL_NAME_1":"ولايةسطيف","county":"Bazer-Sakra","VARNAME_2":"BazerSakra","NL_NAME_2":"NA","TYPE_2":"Commune","ENGTYPE_2":"Commune","CC_2":"1931","HASC_2":"DZ.SF.BS","name":"Bazer-Sakra.county"},
"geometry":{"type": "MultiPolygon","coordinates": [[[[5.6227,36.0276,939.3171],[5.6414,36.0217,950.4161],[5.6647,36.0185,950.0591],[5.7396,36.014,907.4568],[5.7464,36.0338,917.9727],[5.7462,36.046,932.8597],[5.7434,36.0654,921.4009],[5.7453,36.0929,929.9268],[5.7502,36.1052,935.8799],[5.7582,36.1108,940.5394],[5.7619,36.1209,950.6644],[5.7727,36.1388,968.0728],[5.7659,36.141,967.6876],[5.7549,36.1375,968.6602],[5.7396,36.1371,970.7878],[5.7354,36.1345,968.7095],[5.7219,36.132,963.3614],[5.7103,36.1379,952.4977],[5.7051,36.1342,945.4071],[5.7036,36.1279,938.8589],[5.6868,36.1311,933.0763],[5.6798,36.1309,932.6522],[5.6726,36.1284,930.9012],[5.6596,36.1293,941.8359],[5.6574,36.133,944.8754],[5.6575,36.1445,951.7919],[5.6219,36.1363,946.5221],[5.6157,36.1327,956.5176],[5.6054,36.1231,976.349],[5.6049,36.1157,996.3581],[5.6087,36.109,1005.6401],[5.6138,36.1086,997.9556],[5.6113,36.1038,990.116],[5.6163,36.0931,971.2886],[5.6121,36.0797,980.4353],[5.6151,36.0738,1157.015],[5.6095,36.0685,961.392],[5.6014,36.0639,944.2802],[5.6021,36.0585,938.7754],[5.6227,36.0276,939.3171]]]]}}