{"type": "Feature","bbox": [-0.7391,35.698,-0.659,35.7372],"geometry": {"type": "MultiPolygon","coordinates": [[[[-0.7272,35.7091,488.2125],[-0.7176,35.7109,500.5269],[-0.7054,35.7076,463.099],[-0.697,35.6991,316.5891],[-0.6914,35.698,414.2528],[-0.6618,35.7095,274.19],[-0.659,35.7136,40.9877],[-0.6658,35.7177,0.0],[-0.6716,35.7151,2.208],[-0.684,35.7158,0.0],[-0.6975,35.7209,1.6054],[-0.7029,35.7249,0.8039],[-0.7042,35.7312,0.0],[-0.7032,35.7372,32.8735],[-0.7363,35.7245,255.7047],[-0.7391,35.7204,282.9993],[-0.7359,35.7156,301.6939],[-0.7272,35.7091,488.2125]]]]}
,"properties": {"GID_2": "DZA.32.20_1","GID_0": "DZA","country": "Algeria","GID_1": "DZA.32_1","province": "Oran","NL_NAME_1": "ولايةوهران","county": "MersElKebir","VARNAME_2": "Mars-al-Kabīr","NL_NAME_2": "NA","TYPE_2": "Commune-Cotiere","ENGTYPE_2": "Commune-Cotiere","CC_2": "3115","HASC_2": "DZ.OR.MK","name": "Mers_El_Kebir.county","area_km2": 13.1175,"hist_schema_id": "Elevation0-9000","hist_area_km2": {"0": 1.70417,"25": 0.87789,"50": 0.98117,"75": 0.87792,"100": 0.89511,"125": 0.70579,"150": 0.80907,"175": 0.72301,"200": 0.8263,"225": 0.72303,"250": 0.6886,"275": 0.65419,"300": 0.55089,"325": 0.51648,"350": 0.39597,"375": 0.29267,"400": 0.27546,"425": 0.34433,"450": 0.13773,"475": 0.06886,"500": 0.06886}}}