{"type": "Feature","bbox": [-1.3439,34.8946,-1.2341,34.974],"geometry": {"type": "MultiPolygon","coordinates": [[[[-1.2466,34.933,592.2632],[-1.2519,34.9363,572.6559],[-1.2564,34.9369,577.9464],[-1.2595,34.9489,557.8939],[-1.2665,34.951,540.83989999999994],[-1.2758,34.9447,516.872],[-1.2833,34.9582,450.7297],[-1.2848,34.9672,411.9626],[-1.2896,34.971,392.0548],[-1.2956,34.9726,370.7216],[-1.305,34.9703,345.343],[-1.324,34.974,297.3831],[-1.3272,34.9701,298.9566],[-1.3253,34.9636,324.4357],[-1.329,34.9537,346.3226],[-1.3439,34.9349,485.919],[-1.309,34.9188,589.0835],[-1.3054,34.91,625.803],[-1.3022,34.9063,627.7557],[-1.2814,34.8954,645.5217],[-1.2767,34.8946,640.3373],[-1.2642,34.8959,668.6517],[-1.2581,34.8949,651.856],[-1.2538,34.9005,733.024],[-1.2341,34.9135,881.7264],[-1.236,34.9176,720.5264],[-1.2411,34.92,664.7073],[-1.236,34.9273,651.4747],[-1.2466,34.933,592.2632]]]]}
,"properties": {"GID_2": "DZA.48.21_1","GID_0": "DZA","country": "Algeria","GID_1": "DZA.48_1","province": "Tlemcen","NL_NAME_1": "تلمسان","county": "Chetouane","VARNAME_2": "Shatwān","NL_NAME_2": "NA","TYPE_2": "Commune","ENGTYPE_2": "Commune","CC_2": "1350","HASC_2": "DZ.TL.CH","name": "Chetouane.county","area_km2": 48.80899,"hist_schema_id": "Elevation0-9000","hist_area_km2": {"300": 0.20849,"325": 1.09468,"350": 1.37274,"375": 1.99829,"400": 2.81514,"425": 2.9021,"450": 2.71107,"475": 2.81549,"500": 2.79828,"525": 2.2944,"550": 3.56334,"575": 6.57105,"600": 7.73643,"625": 5.38968,"650": 1.91244,"675": 0.95621,"700": 0.48683,"725": 0.29558,"750": 0.24342,"775": 0.22603,"800": 0.15649,"825": 0.12171,"850": 0.10432,"875": 0.03477}}}