{"type":"Feature","properties":{"GID_2":"DZA.22.1_1","GID_0":"DZA","country":"Algeria","GID_1":"DZA.22_1","province":"Illizi","NL_NAME_1":"ولايةاليزي","county":"BordjElHaouasse","VARNAME_2":"BordjElHaoues","NL_NAME_2":"NA","TYPE_2":"Commune","ENGTYPE_2":"Commune","CC_2":"3305","HASC_2":"DZ.IL.BH","name":"Bordj_El_Haouasse.county"},
"geometry":{"type": "MultiPolygon","coordinates": [[[[9.0507,25.1471,1477.3206],[8.9993,25.2199,1444.1112],[8.9437,25.2786,1319.1431],[8.9038,25.3345,1311.9852],[8.8884,25.3419,1249.9482],[8.8754,25.358,1269.3121],[8.8741,25.3752,1272.8926],[8.876,25.381,1264.2284],[8.8807,25.3846,1244.1995],[8.8749,25.388,1208.6138],[8.8693,25.3941,1247.0159],[8.8684,25.402,1244.7311],[8.871,25.411,1232.9966],[8.8494,25.4291,1201.8396],[8.8476,25.4354,1211.9814],[8.6926,25.6412,894.5669],[8.6167,25.6482,942.9006],[8.4335,25.5656,1043.119],[8.4104,25.5506,975.4338],[8.4011,25.5472,971.6505],[8.395,25.5474,897.2379],[8.3795,25.5436,917.5684],[8.3728,25.5439,1025.9646],[8.366,25.5415,1115.2739],[8.3667,25.5357,1153.8262],[8.3694,25.5314,1160.2931],[8.3675,25.5265,1157.2418],[8.3485,25.5061,1168.7128],[8.3483,25.5015,1190.5061],[8.3514,25.4963,1227.7463],[8.3519,25.4905,1221.2649],[8.3485,25.4862,1210.8438],[8.3502,25.4729,1259.5417],[8.3332,25.4655,1188.3945],[8.2932,25.4674,1134.416],[8.265,25.4755,1219.4834],[8.2564,25.4756,1269.7224],[8.2495,25.4726,1220.8029],[8.2271,25.4683,1278.1143],[8.174,25.4545,1278.889],[8.1334,25.4506,1328.9459],[8.0193,25.3638,1422.3817],[8.0151,25.3505,1415.411],[7.9941,25.3414,1423.4883],[7.9861,25.3287,1427.5709],[7.9765,25.3189,1430.8452],[7.9647,25.2975,1440.3567],[7.9516,25.278,1457.7067],[7.9486,25.2423,1490.464],[7.9468,25.2369,1499.8486],[7.9414,25.2308,1502.1561],[7.9391,25.2164,1430.6309],[7.9346,25.213,1393.1313],[7.9165,25.2187,1361.6406],[7.9028,25.2139,1359.8634],[7.884,25.2143,1348.2983],[7.8567,25.2227,1325.5505],[7.8346,25.2274,1310.4214],[7.8222,25.2261,1307.8137],[7.7168,25.2331,1223.2366],[7.6881,25.2277,1222.5935],[7.6669,25.2179,1225.7018],[7.6563,25.2156,1228.608],[7.6342,25.2129,1233.8958],[7.6198,25.2136,1237.8879],[7.6097,25.2078,1240.9888],[7.5985,25.1971,1244.6801],[7.576,25.1881,1250.5991],[7.5668,25.1871,1254.2178],[7.5388,25.1912,1263.1188],[7.5213,25.1968,1270.1735],[7.511,25.2012,1273.6996],[7.4785,25.2238,1289.7915],[7.4587,25.2319,1299.4426],[7.2414,25.2657,1205.5101],[6.9996,25.3958,1237.0648],[6.5854,25.5524,1149.1118],[6.5836,25.5167,1036.7936],[6.6149,25.4903,1060.896],[6.6354,25.4661,1082.636],[6.6432,25.4632,1089.08],[6.6525,25.4571,1081.7798],[6.657,25.452,1082.1453],[6.6884,25.4023,1083.5685],[6.7067,25.3793,1082.3469],[6.7326,25.3397,1093.9037],[6.7482,25.328,1093.9716],[6.785,25.2772,1096.7473],[6.7963,25.259,1087.2971],[6.8108,25.2324,1081.0033],[6.8249,25.196,1091.2219],[6.8415,25.1329,1061.9797],[6.8527,25.1034,1059.9497],[6.8664,25.0842,1054.5955],[6.8801,25.0694,1053.17],[6.8947,25.0399,1063.2804],[6.8989,25.035,1064.905],[6.9097,25.0077,1064.1266],[6.9167,24.9983,1064.7903],[6.923,24.9944,1065.5839],[6.9316,24.9777,1067.442],[6.9471,24.957,1071.7976],[6.9874,24.8848,1098.7827],[6.9981,24.8548,1096.5834],[7.0006,24.8511,1097.8357],[7.0052,24.8486,1099.5151],[7.0152,24.8315,1107.1743],[7.0384,24.8085,1116.7115],[7.1182,24.7616,1148.0885],[7.1636,24.7523,1180.5271],[7.1939,24.7491,1182.4672],[7.2159,24.7567,1181.5458],[7.2564,24.7598,1188.6837],[7.2734,24.758,1175.8105],[7.3088,24.7477,1162.9816],[7.5315,24.424,1260.2958],[7.5284,24.408,1207.061],[7.514,24.2785,1097.3284],[7.5272,24.0426,1169.0449],[7.5353,23.8471,1510.3596],[7.7465,23.3533,1458.3418],[7.8705,23.3467,1237.8433],[7.9328,23.3409,1161.3878],[7.9438,23.3416,1154.4828],[7.9556,23.346,1144.8031],[7.9715,23.3487,1136.5151],[7.9962,23.3574,1121.6285],[8.0413,23.3796,1099.2655],[8.0664,23.3881,1087.8137],[8.109,23.4061,1068.488],[8.1257,23.4099,1062.5754],[8.1405,23.42,1056.2614],[8.1692,23.4458,1043.7339],[8.2066,23.47,1033.6768],[8.2228,23.4855,1024.1583],[8.2548,23.4998,1015.3113],[8.2806,23.5056,1008.0721],[8.3054,23.5257,999.4103],[8.3257,23.5291,994.6724],[8.3398,23.5334,990.5802],[8.3661,23.5435,982.5092],[8.3957,23.5592,973.6381],[8.4848,23.9998,957.5613],[8.4991,24.0817,1147.6091],[8.619,24.1413,929.3604],[8.8067,24.5415,995.3745],[8.8115,24.5589,1037.1694],[8.8213,24.584,1041.2209],[8.8235,24.5948,1074.2625],[8.8156,24.6235,1105.8223],[8.8162,24.6324,1117.6094],[8.8189,24.6407,1070.734],[8.8253,24.6484,1034.5061],[8.8271,24.657,1034.7261],[8.8249,24.6731,1090.7229],[8.8385,24.7129,1142.3735],[8.853,24.738,1148.8617],[8.8656,24.7547,1067.1991],[8.8654,24.7679,1071.2358],[8.8721,24.7836,1076.9059],[8.8796,24.7892,1079.136],[8.9006,24.7949,1087.7805],[8.9104,24.8061,1089.1699],[8.9161,24.821,1094.1147],[8.9145,24.8259,1096.1959],[8.9143,24.8494,1104.0364],[8.9242,24.8699,1112.8646],[8.9406,24.8862,1120.7051],[8.9438,24.8954,1123.3936],[8.948,24.9015,1125.6006],[8.9855,24.9376,1192.365],[8.9935,24.9537,1160.2703],[8.9982,24.9588,1250.4606],[9.0115,24.9993,1345.5609],[9.0507,25.1471,1477.3206]]]]}}