{"type": "Feature","bbox": [7.7232,36.5392,7.9725,36.6904],"geometry": {"type": "MultiPolygon","coordinates": [[[[7.8937,36.6904,254.806],[7.891,36.6847,350.5666],[7.8866,36.6824,254.1567],[7.8667,36.6819,128.7941],[7.861,36.6801,105.7117],[7.8524,36.674,147.7922],[7.8319,36.6683,247.6018],[7.8202,36.6754,194.0385],[7.7952,36.6672,172.3059],[7.7842,36.6608,76.4892],[7.7706,36.659,21.7797],[7.7653,36.66,22.4848],[7.7617,36.6661,21.6383],[7.7557,36.6666,20.7801],[7.7537,36.6618,23.9805],[7.7317,36.6635,26.9658],[7.7252,36.6622,29.568],[7.7232,36.6569,38.0373],[7.7443,36.639,57.6764],[7.7449,36.6308,92.8294],[7.7379,36.6217,184.6044],[7.7437,36.62,188.4209],[7.7641,36.6219,148.6043],[7.7739,36.5954,47.8764],[7.7728,36.5899,46.7483],[7.7794,36.5842,50.3411],[7.7782,36.565,95.8696],[7.7848,36.5558,168.7407],[7.7819,36.5505,213.1867],[7.7839,36.5463,270.6108],[7.7979,36.5392,303.344],[7.8038,36.5394,324.8423],[7.8177,36.5419,373.6919],[7.833,36.55,457.0584],[7.8507,36.5514,462.8815],[7.8552,36.549,464.0326],[7.8568,36.543,452.575],[7.8637,36.5408,488.5293],[7.8587,36.5526,432.9846],[7.8585,36.5589,373.5757],[7.8643,36.5601,398.2492],[7.8668,36.5671,353.7379],[7.872,36.571,318.4153],[7.8842,36.5748,341.5146],[7.8876,36.5776,291.1899],[7.9095,36.5803,223.7636],[7.9161,36.5846,205.793],[7.9214,36.5857,237.7066],[7.927,36.5846,149.3333],[7.9339,36.5879,189.0145],[7.942,36.5951,125.5425],[7.9527,36.5987,189.5605],[7.9725,36.6179,75.043],[7.9617,36.6226,162.5603],[7.9584,36.6261,216.1619],[7.9537,36.6362,400.286],[7.9481,36.6365,416.6084],[7.9383,36.6282,466.5917],[7.9327,36.6287,503.1207],[7.9285,36.6315,397.7053],[7.929,36.6441,166.527],[7.9162,36.6616,190.9703],[7.9148,36.6727,287.5342],[7.9188,36.6823,450.6766],[7.9131,36.6809,447.4009],[7.9062,36.6815,418.0409],[7.8956,36.6865,323.8184],[7.8937,36.6904,254.806]]]]}
,"properties": {"GID_2": "DZA.19.12_1","GID_0": "DZA","country": "Algeria","GID_1": "DZA.19_1","province": "ElTarf","NL_NAME_1": "ولايةالطارف","county": "Chihani","VARNAME_2": "NA","NL_NAME_2": "NA","TYPE_2": "Commune","ENGTYPE_2": "Commune","CC_2": "3614","HASC_2": "DZ.ET.CH","name": "Chihani.county","area_km2": 201.5726,"hist_schema_id": "Elevation0-9000","hist_area_km2": {"25": 11.1594,"50": 12.6423,"75": 9.494,"100": 10.2939,"125": 11.2981,"150": 12.2512,"175": 11.5705,"200": 11.0092,"225": 10.3628,"250": 10.7542,"275": 9.9546,"300": 9.5296,"325": 9.8706,"350": 11.0114,"375": 9.7699,"400": 8.9194,"425": 7.7625,"450": 6.6731,"475": 4.7668,"500": 4.4262,"525": 3.1837,"550": 2.3154,"575": 1.328,"600": 0.6639,"625": 0.4256,"650": 0.1362}}}