{"type":"Feature","properties":{"ISO3166-1-Alpha-3":"DZA","country":"Algeria","fill":"#00F","id":"2189","name":"Tamanghasset"},
"geometry":{"type": "Polygon","coordinates": [[[4.75049,28.46185,409.881],[3.81556,28.54591,472.2603],[2.986,29.12355,505.8726],[2.07934,29.03637,469.4939],[2.13411,28.49152,603.2356],[2.12078,28.29011,619.7699],[2.06554,28.0733,620.3116],[1.9394,26.80826,164.4282],[1.9318,26.78359,176.368],[1.92059,26.76041,182.0505],[1.90152,26.73604,177.6118],[1.85852,26.69377,155.0573],[1.82736,26.66946,188.7494],[1.76359,26.60944,152.2159],[1.75889,26.60657,152.5254],[1.75176,26.60401,152.6748],[1.64737,26.58964,145.7512],[1.63554,26.5867,146.1666],[1.62887,26.58396,145.553],[1.62081,26.57804,144.4709],[1.55828,26.49942,137.0737],[1.53141,26.47257,128.1473],[1.5142,26.46164,125.428],[1.48583,26.44857,125.1515],[1.40496,26.42702,124.7616],[1.39395,26.42578,123.8637],[1.25603,26.42679,122.5451],[1.24729,26.42591,121.6073],[1.21086,26.41456,128.6818],[1.19577,26.41338,123.3715],[1.14069,26.42035,122.4068],[1.06777,26.41552,121.6723],[1.05909,26.41291,121.5563],[1.05087,26.4088,121.3839],[0.98307,26.36356,124.4479],[0.90995,26.3394,136.711],[0.86437,26.31891,142.7945],[0.85517,26.31274,140.2309],[0.83564,26.2902,142.6447],[0.82541,26.26884,144.9641],[0.82742,26.25553,151.1005],[0.83874,26.24114,149.0121],[0.9238,26.16866,171.7836],[1.0811,25.97516,173.6259],[1.09123,25.95772,168.7705],[1.09914,25.93901,166.2106],[1.10518,25.91919,177.5412],[1.10859,25.89752,191.3448],[1.11169,25.83953,176.8705],[1.09712,25.74199,221.2885],[1.10456,25.71399,203.8922],[1.11712,25.6928,194.756],[1.28626,25.57596,190.1183],[1.29928,25.56513,188.4825],[1.30517,25.5558,189.8655],[1.30719,25.54139,192.3127],[1.30006,22.27011,399.325],[1.31902,22.23714,399.6186],[1.36899,22.1779,399.8178],[3.5732,20.969,582.521],[3.67764,20.87839,617.0804],[3.75148,20.77829,649.847],[3.78223,20.54942,641.1345],[3.79029,19.06271,443.8977],[3.79029,19.06116,442.906],[3.79029,19.06077,442.906],[3.88651,19.07863,435.9777],[4.05756,19.11044,430.0284],[4.22861,19.14224,414.4],[4.41723,19.17842,448.7987],[4.60585,19.21462,415.4809],[4.79447,19.25076,436.0929],[4.98319,19.28696,422.015],[5.08282,19.30601,409.472],[5.30183,19.34799,391.7003],[5.52083,19.3899,403.495],[5.62046,19.409,395.2983],[5.74934,19.4337,397.7116],[5.7943,19.4498,389.417],[5.83761,19.47863,387.4791],[5.91636,19.54628,394.6112],[5.97941,19.60054,401.6727],[6.04256,19.65474,406.0098],[6.1056,19.709,427.7783],[6.16865,19.76321,423.4216],[6.23169,19.81747,431.336],[6.29474,19.87168,421.241],[6.35778,19.92592,419.8508],[6.42093,19.98018,426.8968],[6.48377,20.03439,433.2658],[6.54692,20.08865,434.5682],[6.60996,20.14285,443.8174],[6.67296,20.19711,435.7672],[6.73611,20.25132,434.0652],[6.79905,20.30553,459.4072],[6.86209,20.35974,482.5248],[6.92514,20.414,471.9624],[6.98281,20.46361,494.0851],[7.02053,20.49544,512.4742],[7.09805,20.55875,519.0314],[7.16946,20.61699,510.2375],[7.24088,20.67517,500.698],[7.3123,20.73346,524.5708],[7.38361,20.79165,517.5299],[7.48273,20.87258,514.0666],[7.61378,20.94973,534.8838],[7.68189,20.98983,548.9215],[7.74979,21.02998,563.9133],[7.8179,21.07008,574.012],[7.88601,21.11024,613.8156],[7.95391,21.15039,633.4281],[8.02202,21.19049,642.6693],[8.09013,21.23059,674.3395],[8.15803,21.27074,649.675],[8.22614,21.31085,647.5736],[8.29425,21.35095,640.5842],[8.36226,21.39105,640.8349],[8.43027,21.43115,679.0538],[8.49837,21.4713,680.4462],[8.56638,21.51135,671.9265],[8.63449,21.5515,672.4435],[8.7025,21.59165,678.5592],[8.77061,21.63181,706.494],[8.83861,21.67191,718.1307],[8.90672,21.71206,717.5043],[8.97483,21.75211,721.5681],[9.04284,21.79226,712.105],[9.11084,21.83236,742.2357],[9.17895,21.87252,744.5284],[9.24696,21.91257,731.8271],[9.31497,21.95272,690.4231],[9.38308,21.99282,672.8612],[9.45108,22.03292,674.4158],[9.51909,22.07307,623.5378],[9.5872,22.11322,621.7369],[9.6552,22.15333,639.718],[9.72331,22.19343,641.6493],[9.79132,22.23358,635.5839],[9.85933,22.27368,665.0016],[9.92743,22.31378,702.7816],[9.99544,22.35388,716.2732],[10.06345,22.39403,670.4768],[10.13156,22.43414,698.7353],[10.19956,22.47424,665.7372],[10.26757,22.51434,666.0275],[10.33568,22.55454,667.8304],[10.40379,22.59464,662.455],[10.47169,22.63474,675.2717],[10.5398,22.6749,672.8661],[10.60781,22.71495,672.8723],[10.67581,22.75505,707.9304],[10.74392,22.7952,737.2985],[10.81203,22.83533,814.8693],[10.88004,22.87537,846.3279],[10.94815,22.91553,817.6003],[11.01626,22.95565,846.0466],[11.08437,22.99576,916.5887],[11.15227,23.03588,860.3326],[11.22038,23.07606,1024.4556],[11.28849,23.11616,922.9804],[11.35639,23.15626,898.0336],[11.4245,23.19641,1022.5089],[11.49261,23.23652,1102.0182],[11.56051,23.27659,924.9799],[11.62862,23.31672,890.0065],[11.69673,23.35684,829.3232],[11.76474,23.39695,812.2051],[11.83274,23.43705,813.8514],[11.90085,23.47717,757.1597],[11.96886,23.51735,1027.6699],[11.89238,23.66006,1028.7842],[11.82231,23.79064,1020.5225],[11.71014,24.00014,1066.3179],[11.70986,24.00014,1066.3179],[8.71247,24.00138,893.116],[8.69867,24.00347,894.176],[8.6917,24.006,895.403],[8.68162,24.01313,896.1992],[8.6532,24.0397,901.1714],[8.62653,24.06993,906.0742],[8.60266,24.10321,911.0981],[8.55951,24.18852,923.6153],[8.54788,24.20516,926.5129],[8.53589,24.21824,929.5013],[8.52814,24.22467,931.5114],[8.52132,24.22862,931.9209],[8.50938,24.23111,933.099],[8.49931,24.23196,934.0883],[8.47367,24.23134,937.2805],[8.39239,24.23971,952.9916],[8.30035,24.26544,960.9567],[8.294,24.26909,961.638],[8.2634,24.29449,967.0121],[8.25844,24.29689,968.0957],[8.2524,24.29839,968.6236],[8.23116,24.29963,971.7371],[8.22496,24.30082,972.3934],[8.20899,24.30707,974.8081],[8.1725,24.32859,979.0437],[8.09757,24.35012,991.0057],[8.07148,24.35402,1003.6858],[8.02182,24.35588,1002.5735],[7.95665,24.36668,1010.9224],[7.95371,24.36766,1011.5884],[7.9489,24.36991,1013.1712],[7.918,24.38792,1017.0723],[7.90653,24.39675,1021.8816],[7.88405,24.41877,1029.1367],[7.87505,24.42438,1027.3511],[7.85454,24.43388,1033.5721],[7.84291,24.44262,1035.6512],[7.78147,24.50034,1053.0884],[7.78038,24.50104,1049.8451],[7.77341,24.50445,1050.8491],[7.75026,24.51078,1055.1848],[7.74545,24.51266,1055.9126],[7.70261,24.53625,1066.6823],[7.69098,24.54656,1068.3857],[7.68153,24.55778,1068.042],[7.65564,24.58181,1075.3027],[7.64882,24.58664,1077.084],[7.63063,24.59716,1081.7938],[7.62504,24.59876,1082.2346],[7.61853,24.59909,1090.3748],[7.60551,24.59809,1086.2814],[7.59931,24.59814,1087.0612],[7.59311,24.60031,1087.4784],[7.58701,24.60398,1087.9135],[7.5729,24.61454,1099.1855],[7.56717,24.61752,1116.5103],[7.56174,24.61958,1112.0334],[7.54996,24.62276,1114.365],[7.5436,24.62524,1108.8491],[7.53771,24.62896,1112.6487],[7.52014,24.64379,1114.3097],[7.51099,24.64922,1104.9949],[7.50572,24.65113,1105.4728],[7.49952,24.65232,1106.7854],[7.4927,24.65255,1107.906],[7.45188,24.64966,1116.0602],[7.41291,24.65493,1119.8069],[7.36811,24.67004,1130.3074],[7.36217,24.67304,1132.3822],[7.35643,24.67692,1134.0281],[7.33845,24.69177,1144.7148],[7.32015,24.70276,1157.8815],[7.31411,24.70764,1160.6443],[7.30708,24.71493,1169.111],[7.29576,24.73053,1163.2191],[7.26584,24.7649,1189.3744],[7.23819,24.81045,1225.0028],[7.2244,24.82603,1228.2734],[7.20812,24.84096,1237.9413],[7.14357,24.88057,1237.6775],[7.12538,24.8951,1280.3206],[7.11376,24.90905,1289.6382],[7.10694,24.92259,1280.6901],[7.08611,25.00155,1127.6649],[7.0858,25.10919,1129.4453],[7.08818,25.12012,1133.3112],[7.09019,25.12666,1133.8503],[7.10926,25.1735,1229.9905],[7.11453,25.18208,1183.6292],[7.15923,25.23996,1187.8359],[7.16404,25.24833,1181.5464],[7.16791,25.25774,1177.25],[7.16977,25.26634,1178.6813],[7.17055,25.27533,1177.9691],[7.1707,25.28639,1178.9733],[7.16807,25.29789,1176.9868],[7.16373,25.30851,1246.6047],[7.15365,25.3259,1197.7322],[7.13841,25.34657,1253.3617],[7.10895,25.37303,1220.3035],[6.99552,25.50157,1224.1466],[6.98436,25.68972,1139.2931],[6.9733,25.73365,1000.8379],[6.95857,25.75982,1069.5671],[6.71187,25.82171,1134.7927],[6.68035,25.83478,1082.594],[6.6543,25.84855,1052.9022],[6.54676,25.88963,1094.0759],[6.53777,25.89491,1118.7911],[6.5308,25.90018,1097.0179],[6.5185,25.91144,1055.4296],[6.30735,26.1653,965.3283],[6.29954,26.17083,850.3234],[6.19531,26.21688,1009.0555],[6.18875,26.22111,1010.8105],[6.18348,26.22566,989.2955],[6.17883,26.23155,957.1981],[6.17511,26.24277,950.8989],[6.17309,26.25866,620.892],[6.17526,26.29064,650.5144],[6.17945,26.31209,738.2708],[6.18704,26.33532,675.077],[6.26993,26.51265,858.2355],[6.27443,26.52851,761.6566],[6.27536,26.53804,748.1942],[6.27489,26.55109,587.2183],[6.27133,26.5705,612.5063],[6.26187,26.59851,557.8228],[6.24291,26.62752,516.3585],[6.20632,26.65974,523.4218],[6.01,26.79503,621.4811],[5.96783,26.83412,764.5203],[5.95832,26.84611,740.667],[5.95336,26.85461,745.9984],[5.95042,26.86182,785.7055],[5.8404,27.20271,486.1547],[5.81575,27.32136,473.6779],[5.83745,27.40629,462.2905],[5.87239,27.4568,455.7263],[5.93538,27.50618,447.339],[6.01,27.55421,438.5032],[6.25784,27.76551,407.0276],[6.52661,27.85809,381.592],[6.56661,27.88809,406.1202],[6.54444,28.0094,377.7189],[6.5109,28.08986,367.9323],[6.45023,28.14172,389.6942],[5.95274,28.49079,352.9325],[4.75049,28.46185,409.881]]]}}