{"type":"Feature","properties":{"GID_2":"DZA.39.35_1","GID_0":"DZA","country":"Algeria","GID_1":"DZA.39_1","province":"Skikda","NL_NAME_1":"سكيكدة","county":"Skikda","VARNAME_2":"Sakīkdah","NL_NAME_2":"NA","TYPE_2":"Chef-Lieu-Wilaya","ENGTYPE_2":"Chef-Lieu-Wilaya","CC_2":"2101","HASC_2":"DZ.SK.SK","name":"Skikda.county"},
"geometry":{"type": "MultiPolygon","coordinates": [[[[6.8678,36.8609,287.1064],[6.8715,36.858,309.5164],[6.8727,36.8537,257.4582],[6.8768,36.849,201.7224],[6.8877,36.8428,32.5397],[6.8921,36.8421,15.5105],[6.9043,36.8481,28.1547],[6.9105,36.8459,53.4735],[6.9136,36.8398,140.5817],[6.9165,36.8434,117.5766],[6.9203,36.8546,84.8035],[6.9298,36.8613,9.5042],[6.9391,36.8599,8.0993],[6.9546,36.8516,9.5078],[6.9689,36.8502,35.7534],[6.9896,36.8693,81.2081],[7.0012,36.875,104.8378],[7.0089,36.8785,110.2595],[7.0281,36.8786,84.2956],[7.025,36.884,77.7281],[7.0181,36.8894,54.7378],[7.0165,36.8951,26.0413],[6.951,36.8825,2.9567],[6.9408,36.8831,0.4774],[6.935,36.8858,0.5116],[6.9317,36.8816,4.1462],[6.9266,36.8821,0.8595],[6.9074,36.8888,0.0],[6.8935,36.889,0.0],[6.8823,36.896,0.0],[6.8804,36.9016,0.595],[6.8842,36.9108,0.0],[6.8834,36.9162,26.8734],[6.8781,36.9168,36.5097],[6.87,36.911,97.4156],[6.8671,36.9061,112.3749],[6.8612,36.9023,222.9941],[6.8544,36.9014,252.6807],[6.8556,36.8963,267.0311],[6.8544,36.8867,360.6812],[6.8459,36.8805,368.6273],[6.8496,36.8757,359.0113],[6.8576,36.8702,363.5507],[6.8601,36.8647,319.545],[6.8678,36.8609,287.1064]]]]}}