{"type": "Feature","bbox": [5.4777,35.1243,5.8177,35.2855],"geometry": {"type": "MultiPolygon","coordinates": [[[[5.7508,35.2855,829.1979],[5.7223,35.277,768.3718],[5.7049,35.2669,806.4125],[5.6637,35.249,903.1256],[5.6368,35.2347,758.4333],[5.6193,35.2279,697.5856],[5.6147,35.2249,649.4771],[5.6124,35.2199,607.31],[5.6024,35.2089,570.1246],[5.5898,35.2055,566.1331],[5.5817,35.1991,533.5952],[5.5568,35.1936,491.261],[5.5277,35.1916,496.5373],[5.4963,35.1944,483.4005],[5.4777,35.2012,482.7707],[5.486,35.1727,451.6456],[5.4889,35.169,451.7245],[5.4996,35.1694,453.6588],[5.5239,35.1661,448.3366],[5.5422,35.1615,429.3174],[5.553,35.157,422.2488],[5.5623,35.1501,416.3753],[5.5711,35.1408,390.1926],[5.5783,35.132,381.0],[5.5817,35.1243,381.0],[5.6047,35.1367,388.4576],[5.6082,35.143,383.7665],[5.613,35.1468,387.7625],[5.6186,35.1468,389.7168],[5.6282,35.1536,411.7598],[5.6378,35.156,486.2584],[5.6537,35.165,542.735],[5.6803,35.1671,587.1451],[5.6867,35.1663,615.4351],[5.6912,35.1595,767.6526],[5.7,35.1598,803.3988],[5.7462,35.1733,860.8669],[5.7504,35.1773,999.8231],[5.7696,35.1841,1045.6108],[5.802,35.1895,1104.104],[5.8066,35.1917,1105.5308],[5.8063,35.216,1072.0432],[5.8075,35.2208,998.3907],[5.8109,35.225,1058.8348],[5.8105,35.235,975.8803],[5.8177,35.2454,996.6271],[5.8172,35.2523,967.1378],[5.8094,35.2549,976.8387],[5.8,35.2627,880.5051],[5.7956,35.2645,886.7118],[5.785,35.2648,833.47],[5.778,35.2691,730.4219],[5.7729,35.2792,708.8798],[5.7566,35.2776,632.5048],[5.7529,35.2809,635.4114],[5.7508,35.2855,829.1979]]]]}
,"properties": {"GID_2": "DZA.9.16_1","GID_0": "DZA","country": "Algeria","GID_1": "DZA.9_1","province": "Biskra","NL_NAME_1": "ولايةبسكرة","county": "ElKentara","VARNAME_2": "ElKantara","NL_NAME_2": "NA","TYPE_2": "Commune","ENGTYPE_2": "Commune","CC_2": "717","HASC_2": "DZ.BS.EK","name": "El_Kentara.county","area_km2": 239.3837,"hist_schema_id": "Elevation0-9000","hist_area_km2": {"375": 3.9186,"400": 7.6104,"425": 13.2772,"450": 17.6945,"475": 22.9079,"500": 23.2696,"525": 17.6542,"550": 14.2225,"575": 13.9783,"600": 12.9372,"625": 12.4692,"650": 10.1832,"675": 8.9536,"700": 8.1742,"725": 7.239,"750": 5.4381,"775": 4.5029,"800": 3.9315,"825": 3.2561,"850": 3.2216,"875": 3.0661,"900": 3.222,"925": 3.1871,"950": 3.1521,"975": 3.3947,"1000": 2.5633,"1025": 1.8187,"1050": 1.5934,"1075": 1.4723,"1100": 0.5198,"1125": 0.2946,"1150": 0.2426,"1175": 0.0173}}}