{"type":"Feature","properties":{"GID_2":"DZA.30.30_1","GID_0":"DZA","country":"Algeria","GID_1":"DZA.30_1","province":"Mostaganem","NL_NAME_1":"ولايةمستغانم","county":"Stidia","VARNAME_2":"NA","NL_NAME_2":"NA","TYPE_2":"Commune-Cotiere","ENGTYPE_2":"Commune-Cotiere","CC_2":"2704","HASC_2":"DZ.MG.ST","name":"Stidia.county"},
"geometry":{"type": "MultiPolygon","coordinates": [[[[0.0542,35.8307,142.2486],[0.0603,35.8371,145.1499],[0.0572,35.8419,158.708],[0.0429,35.8502,198.1752],[0.0372,35.8561,165.795],[0.028,35.8618,24.3264],[0.0051,35.8447,0.0],[-0.0221,35.8291,0.0],[-0.037,35.8224,1.7195],[-0.0512,35.8132,9.2341],[-0.0843,35.8015,0.0],[-0.0921,35.7955,22.6871],[-0.0765,35.7904,131.1234],[-0.0666,35.7925,130.622],[-0.0624,35.7905,117.4728],[-0.0586,35.7883,103.4645],[-0.0606,35.7793,85.2804],[-0.0563,35.7758,78.9124],[-0.0209,35.7826,109.4255],[0.0,35.7888,93.0407],[0.0116,35.7856,42.5866],[0.0173,35.7822,35.0967],[0.0247,35.7979,61.3377],[0.0259,35.8052,81.4222],[0.0135,35.8086,112.4561],[0.022,35.8117,116.6814],[0.0235,35.8163,118.3659],[0.0292,35.8218,126.9522],[0.0447,35.8305,132.0859],[0.0507,35.8332,137.1283],[0.0542,35.8307,142.2486]]]]}}