{"type": "Feature","bbox": [0.0372,35.7864,0.1483,35.9172],"geometry": {"type": "MultiPolygon","coordinates": [[[[0.1104,35.7866,31.3183],[0.1204,35.7864,35.1508],[0.1231,35.801,41.5963],[0.1213,35.807,45.2032],[0.1078,35.8187,89.7662],[0.1019,35.8366,274.0043],[0.1072,35.8399,317.7587],[0.1268,35.8448,227.5538],[0.1255,35.8499,248.2489],[0.1206,35.8537,256.4387],[0.1273,35.8668,223.9751],[0.1409,35.8686,206.4109],[0.1478,35.8717,202.382],[0.1483,35.8772,196.5748],[0.1429,35.8806,200.2781],[0.1152,35.9118,136.6147],[0.1137,35.9172,140.6699],[0.1055,35.9142,151.9779],[0.0927,35.9133,136.4641],[0.0935,35.9035,139.1262],[0.0955,35.8988,152.4562],[0.0928,35.8876,158.1234],[0.0869,35.8872,149.5716],[0.0766,35.882,170.6926],[0.07,35.873,189.4783],[0.0647,35.869,204.2125],[0.0534,35.8718,188.9706],[0.0481,35.8704,156.8178],[0.0453,35.8651,159.6306],[0.0372,35.8561,165.795],[0.0429,35.8502,198.1752],[0.0572,35.8419,158.708],[0.0603,35.8371,145.1499],[0.0542,35.8307,142.2486],[0.0593,35.8269,194.6633],[0.0679,35.8264,254.5989],[0.0737,35.8279,263.8008],[0.0796,35.8254,186.8951],[0.0931,35.8143,96.5938],[0.0979,35.8001,51.3484],[0.102,35.7973,45.452],[0.1104,35.7866,31.3183]]]]}
,"properties": {"GID_2": "DZA.30.11_1","GID_0": "DZA","country": "Algeria","GID_1": "DZA.30_1","province": "Mostaganem","NL_NAME_1": "ولايةمستغانم","county": "HassiMameche","VARNAME_2": "HassiMaameche|HassīMamash","NL_NAME_2": "NA","TYPE_2": "Commune","ENGTYPE_2": "Commune","CC_2": "2706","HASC_2": "DZ.MG.HM","name": "Hassi_Mameche.county","area_km2": 58.92367,"hist_schema_id": "Elevation0-9000","hist_area_km2": {"25": 1.13509,"50": 3.18125,"75": 1.61623,"100": 0.73928,"125": 4.4157,"150": 16.63064,"175": 7.38863,"200": 9.86255,"225": 5.73914,"250": 3.47149,"275": 2.26868,"300": 1.68436,"325": 0.79063}}}