{"type":"Feature","properties":{"GID_2":"DZA.21.30_1","GID_0":"DZA","country":"Algeria","GID_1":"DZA.21_1","province":"Guelma","NL_NAME_1":"ولايةقالمة","county":"OuedZenati","VARNAME_2":"WādīZināti","NL_NAME_2":"NA","TYPE_2":"Commune","ENGTYPE_2":"Commune","CC_2":"2404","HASC_2":"DZ.GL.OZ","name":"Oued_Zenati.county"},
"geometry":{"type": "MultiPolygon","coordinates": [[[[7.2269,36.2958,953.8578],[7.2191,36.3043,828.3285],[7.2183,36.3104,816.6286],[7.2206,36.3193,840.5054],[7.2264,36.3236,833.8469],[7.2343,36.3395,818.5549],[7.2287,36.3497,743.8547],[7.2257999999999996,36.345,796.1638],[7.2173,36.342,779.9745],[7.2116,36.3383,717.09],[7.2082,36.3329,682.4525],[7.2042,36.3313,692.909],[7.2027,36.3369,774.4579],[7.2033,36.347,795.3837],[7.1995,36.3499,798.0575],[7.18,36.3532,724.3251],[7.1692,36.3568,742.1354],[7.1526,36.3679,618.4547],[7.1442,36.3542,589.9759],[7.1295,36.3583,582.8107],[7.1221,36.3628,577.6171],[7.108,36.375,570.4353],[7.1034,36.3735,565.6188],[7.0908,36.3615,600.5476],[7.0882,36.3557,633.912],[7.0955,36.3466,652.9701],[7.0937,36.3373,699.1315],[7.0958,36.3314,743.7369],[7.0926,36.3219,818.7212],[7.0932,36.3146,875.3527],[7.0975,36.3079,947.4788],[7.1073,36.3026,875.6874],[7.1182,36.2887,693.8165],[7.1245,36.2837,663.0955],[7.1112,36.2724,688.5814],[7.1045,36.2689,680.6089],[7.1049,36.2625,780.9027],[7.1135,36.2587,781.6935],[7.1109,36.254,808.0469],[7.1103,36.2484,828.0734],[7.1228,36.2412,826.5771],[7.129,36.2337,822.1179],[7.1243,36.2241,833.3927],[7.1315,36.2228,821.0872],[7.1527,36.2251,811.1946],[7.1814,36.2241,836.1649],[7.1815,36.23,852.3613],[7.1795,36.2345,869.5199],[7.1806,36.2532,984.7195],[7.1848,36.2573,994.065],[7.1984,36.2619,1015.0453],[7.205,36.2625,1028.0552],[7.2165,36.268,1020.0799],[7.2161,36.2783,1111.3668],[7.2264,36.2896,1073.8186],[7.2269,36.2958,953.8578]]]]}}