{"type": "Feature","bbox": [2.0055,25.3587,3.9319,29.0784],"geometry": {"type": "MultiPolygon","coordinates": [[[[2.0055,28.4829,523.7565],[2.0232,28.4816,523.0439],[2.0242,28.4638,534.0249],[2.0331,28.4485,532.6483],[2.0389,28.4318,535.2825],[2.0551,28.4209,538.7358],[2.0753,28.4191,545.3773],[2.0957,28.4196,552.4429],[2.115,28.4144,594.8466],[2.1347,28.4146,562.8027],[2.1529,28.4081,565.5298],[2.1731,28.4061,572.3331],[2.1921,28.3998,588.3632],[2.2083,28.3896,599.7241],[2.2208,28.3755,592.8313],[2.2469,28.0695,587.4943],[2.2484,28.0161,461.7639],[2.2588,28.0008,435.1017],[2.2628,27.9874,431.0991],[2.2519,27.9722,423.6325],[2.2384,27.9588,422.3707],[2.2338,27.9417,422.6575],[2.245,27.8886,406.7655],[2.2474,27.8707,401.9851],[2.2483,27.8347,396.5214],[2.2421,27.8175,393.086],[2.2268,27.7846,388.0867],[2.2235,27.7487,381.9484],[2.2135,27.7348,379.4919],[2.1972,27.7252,381.991],[2.179,27.6931,375.3542],[2.1804,27.6754,376.5269],[2.1583,27.646,361.6003],[2.1525,27.6287,357.8786],[2.1393,27.6154,355.1054],[2.1341,27.5993,353.0596],[2.146,27.5852,348.5183],[2.1459,27.5673,345.7602],[2.1405,27.5499,341.8358],[2.1321,27.5335,339.1104],[2.1294,27.5164,336.0826],[2.1328,27.4989,333.7006],[2.1234,27.465,330.7166],[2.1024,27.4349,323.8163],[2.1114,27.4026,316.3474],[2.1177,27.3865,313.5262],[2.1202,27.3696,310.5305],[2.1151,27.3521,308.8944],[2.1165,27.3342,306.801],[2.1107,27.3172,303.4384],[2.0889,27.2882,298.675],[2.0844,27.2707,294.672],[2.0977,27.2631,295.8173],[2.1166,27.2572,288.4864],[2.1331,27.2476,288.9016],[2.17,27.237,280.8939],[2.1881,27.229,291.8764],[2.2027,27.2167,290.166],[2.2081,27.201,283.0656],[2.1897,27.0211,264.3253],[2.1952,26.9827,264.7712],[2.2057,26.7662,230.2573],[2.2089,26.7486,220.8936],[2.2652,26.6328,209.9657],[2.2748,26.6171,199.1629],[2.292,26.6081,199.1227],[2.331,26.5997,201.2942],[2.3709,26.5955,203.1383],[2.3902,26.5909,204.2943],[2.4061,26.58,205.872],[2.4236,26.5716,208.6973],[2.4433,26.5683,208.1247],[2.4816,26.5581,209.9327],[2.5015,26.5588,210.631],[2.5066,26.5455,226.9221],[2.5054,26.2565,242.6927],[2.5063,26.0037,241.0198],[2.5385,25.9597,259.0397],[2.558,25.9283,260.8314],[2.5637,25.9119,261.5193],[2.5603,25.8942,264.0877],[2.5665,25.8772,265.0938],[2.5817,25.8661,278.4734],[2.6165,25.8488,286.4109],[2.6363,25.8473,287.1459],[2.6474,25.8344,289.3452],[2.667,25.8032,294.2879],[2.6698,25.7854,307.8324],[2.6744,25.7314,313.8013],[2.6909,25.5144,334.099],[2.7034,25.4912,341.068],[2.7249,25.4909,336.2087],[2.9824,25.468,360.5905],[3.0821,25.4537,407.7758],[3.1212,25.4523,417.7317],[3.1399,25.455,413.493],[3.1575,25.4626,416.3453],[3.2065,25.4955,547.7623],[3.2271,25.5258,455.5612],[3.2327,25.5418,440.2008],[3.2479,25.5344,452.2184],[3.2605,25.5387,538.6316],[3.2703,25.5544,457.9855],[3.2772,25.5712,486.0631],[3.28,25.5891,614.3433],[3.2847,25.6062,506.758],[3.2974,25.6199,589.0649],[3.3161,25.6253,709.9343],[3.3316,25.6145,685.5746],[3.3512,25.6164,530.2316],[3.3693,25.6098,545.9703],[3.3838,25.5976,518.8701],[3.3885,25.5806,526.7641],[3.4015,25.4367,520.7054],[3.4097,25.4214,601.8671],[3.455,25.3793,501.7022],[3.4704,25.3679,507.5947],[3.486,25.3602,508.2498],[3.5018,25.3587,536.7214],[3.5176,25.3678,505.4329],[3.5507,25.3958,490.6274],[3.5686,25.4018,479.0374],[3.5876,25.4011,495.2572],[3.6475,25.3868,508.6985],[3.6671,25.3838,532.7358],[3.6858,25.3852,538.0611],[3.7031,25.3945,963.1794],[3.8705,25.524,676.342],[3.8869,25.5334,666.5773],[3.9136,25.5596,676.9056],[3.9243,25.5748,681.3942],[3.9319,25.5913,686.9529],[3.9306,25.6092,696.618],[3.9229,25.6258,714.3965],[3.912,25.6409,710.6645],[3.8979,25.6529,620.6603],[3.8688,25.7001,542.589],[3.8616,25.7168,525.3151],[3.8595,25.7347,534.062],[3.864,25.7521,527.5116],[3.8497,25.7645,508.3729],[3.8348,25.7718,511.2089],[3.8278,25.7876,505.4398],[3.825,25.8054,510.1743],[3.8179,25.8222,487.5701],[3.8171,25.8402,479.2381],[3.8205,25.8579,485.9421],[3.828,25.8746,446.1672],[3.8309,25.8922,432.395],[3.8337,25.928,423.5733],[3.8388,25.9451,430.629],[3.8543,25.956,452.3705],[3.8675,25.9869,449.7975],[3.8806,25.9995,399.5433],[3.8631,26.0195,385.024],[3.8575,26.0368,379.5532],[3.8577,26.0543,372.6191],[3.8686,26.0692,369.6977],[3.8611,26.0846,367.265],[3.8499,26.0994,365.2455],[3.833,26.1318,361.0379],[3.7968,26.1745,355.1834],[3.7924,26.192,352.0197],[3.7767,26.2246,403.2908],[3.7612,26.2359,360.4049],[3.7483,26.2492,336.5538],[3.752,26.2664,336.4942],[3.7623,26.2817,329.4149],[3.777,26.2939,324.9403],[3.7951,26.3015,465.357],[3.7787,26.4089,309.0399],[3.7671,26.4225,312.3802],[3.7567,26.4379,305.3241],[3.7484,26.4544,305.8703],[3.7426,26.4716,303.41],[3.7274,26.5422,303.1723],[3.7282,26.5602,320.8751],[3.7242,26.5778,352.6569],[3.713,26.5927,444.4915],[3.6978,26.6044,361.3643],[3.6636,26.6484,412.9554],[3.6429,26.699,325.82],[3.6363,26.7345,416.329],[3.6253,26.8241,366.8146],[3.6214,26.8404,403.496],[3.4319,26.9019,328.2628],[3.3529,26.9153,301.1095],[3.1534,26.9413,312.0317],[3.074,26.9533,284.9774],[3.0166,26.9711,349.3311],[2.9987,26.9734,373.1453],[2.8843,27.0088,328.3192],[2.8242,27.028,303.7758],[2.8063,27.0364,300.3369],[2.7939,27.0487,293.4299],[2.7856,27.0641,290.842],[2.7653,27.1137,291.0623],[2.7546,27.1488,289.5193],[2.7315,27.2391,279.2385],[2.7156,27.2938,288.6197],[2.7233,27.3087,291.0356],[2.7636,27.348,338.7969],[2.8087,27.3859,311.8677],[2.8714,27.4322,301.024],[2.8907,27.4363,305.5486],[2.9113,27.4351,306.4338],[2.9304,27.4382,308.3691],[2.9495,27.4438,311.0432],[2.9663,27.4538,313.4524],[2.9809,27.4662,319.6871],[2.9858,27.4827,319.168],[2.9855,27.5007,321.5474],[3.0169,27.5117,327.1849],[3.0518,27.5283,333.1724],[3.0703,27.5352,335.9448],[3.0818,27.5496,339.0504],[3.0908,27.5658,342.5152],[3.1029,27.5802,345.6216],[3.1188,27.5914,349.3714],[3.1305,27.6058,352.654],[3.1315,27.6418,357.0317],[3.1285,27.6597,360.1104],[3.1235,27.6769,362.9086],[3.1131,27.6919,365.5613],[3.0701,27.7289,374.3266],[3.0515,27.7347,377.1832],[3.0319,27.7382,381.3064],[3.0172,27.7502,386.6206],[3.0066,27.7653,388.4058],[3.0029,27.7829,390.7684],[3.0026,27.8005,394.5544],[3.005,27.8184,397.9634],[3.0026,27.8543,407.1332],[3.0049,27.8722,410.7211],[3.0099,27.8894,414.9254],[3.0199,27.905,417.5219],[3.033,27.9187,422.5054],[3.0509,27.9508,433.974],[3.0635,27.9649,441.7513],[3.0774,27.978,450.3196],[3.0941,27.9881,457.9474],[3.1453,28.0077,488.1399],[3.1559,28.023,498.4289],[3.1681,28.0581,540.3499],[3.1805,28.07,538.5527],[3.182,28.0857,578.006],[3.1767,28.1028,621.7356],[3.212,28.1179,661.848],[3.2256,28.1305,659.3283],[3.2367,28.144,644.5553],[3.2531,28.1529,631.7947],[3.2619,28.1687,627.7138],[3.291,28.1885,616.3496],[3.2945,28.1996,612.9409],[3.3251,28.2099,598.8827],[3.3419,28.2108,614.9929],[3.3448,28.2268,598.0522],[3.3644,28.2258,619.4955],[3.3779,28.2389,591.6024],[3.3971,28.2361,611.9316],[3.4108,28.2426,585.3795],[3.4496,28.2832,585.0979],[3.483,28.3026,600.6928],[3.5025,28.3062,584.4684],[3.5184,28.3164,565.2262],[3.5234,28.3332,558.7697],[3.539,28.3439,561.5107],[3.5576,28.3502,554.7848],[3.5895,28.3723,559.8089],[3.6432,28.3976,523.5991],[3.6774,28.4162,512.1753],[3.7094,28.4384,510.9349],[3.7181,28.4541,507.6832],[3.7302,28.4681,499.5779],[3.7612,28.4982,473.2538],[3.768,28.5138,500.3934],[3.1388,28.9757,496.8602],[3.0831,29.0184,507.4413],[2.9988,29.0784,482.6474],[2.7145,29.061,549.7855],[2.5,29.0451,581.6255],[2.3201,28.9889,492.9891],[2.0408,28.8977,461.3924],[2.0159,28.7288,579.5],[2.0055,28.4829,523.7565]]]]}
,"properties": {"GID_2": "DZA.41.7_1","GID_0": "DZA","country": "Algeria","GID_1": "DZA.41_1","province": "Tamanghasset","NL_NAME_1": "ولايةتمنراست","county": "InSalah","VARNAME_2": "`AynSalah","NL_NAME_2": "NA","TYPE_2": "Commune","ENGTYPE_2": "Commune","CC_2": "1108","HASC_2": "DZ.TM.IS","name": "In_Salah.county","area_km2": 44329.31,"hist_schema_id": "Elevation0-9000","hist_area_km2": {"200": 105.05,"225": 1153.31,"250": 2856.99,"275": 5228.45,"300": 4212.1,"325": 3111.56,"350": 1869.5,"375": 1371.27,"400": 1869.1,"425": 2002.15,"450": 1526.27,"475": 1463.22,"500": 1785.24,"525": 2002.29,"550": 1971.66,"575": 2342.77,"600": 3080.08,"625": 2179.97,"650": 1429.3,"675": 1163.83,"700": 682.08,"725": 237.54,"750": 99.96,"775": 87.69,"800": 81.35,"825": 79.3,"850": 70.98,"875": 62.28,"900": 50.65,"925": 43.44,"950": 38.65,"975": 30.7,"1000": 21.43,"1025": 11.26,"1050": 4.18,"1075": 2.14,"1100": 1.07,"1125": 0.46}}}