{"type":"Feature","properties":{"GID_2":"DZA.48.42_1","GID_0":"DZA","country":"Algeria","GID_1":"DZA.48_1","province":"Tlemcen","NL_NAME_1":"تلمسان","county":"SebbaaChioukh","VARNAME_2":"SebaaChioukh","NL_NAME_2":"NA","TYPE_2":"Commune","ENGTYPE_2":"Commune","CC_2":"1322","HASC_2":"DZ.TL.SC","name":"Sebbaa_Chioukh.county"},
"geometry":{"type": "MultiPolygon","coordinates": [[[[-1.3433,35.2021,217.9974],[-1.3537,35.2,131.787],[-1.3597,35.2044,152.6008],[-1.3649,35.2111,198.9039],[-1.3767,35.2108,140.798],[-1.387,35.2074,71.7498],[-1.3931,35.2084,49.2838],[-1.3989,35.2053,51.1239],[-1.3909,35.1947,86.5862],[-1.3992,35.1853,122.6316],[-1.4,35.1805,132.6181],[-1.3973,35.171,294.1443],[-1.4015,35.1533,535.9144],[-1.3995,35.147,390.1924],[-1.3944,35.1417,393.5261],[-1.3819,35.1338,390.5939],[-1.3837,35.128,321.7591],[-1.4086,35.1131,271.009],[-1.4135,35.0989,158.4247],[-1.408,35.1004,169.966],[-1.3967,35.1069,200.1541],[-1.3872,35.1143,253.7691],[-1.3719,35.1223,288.681],[-1.3648,35.129,318.0574],[-1.3525,35.1312,397.6706],[-1.3501,35.1348,462.4697],[-1.3369,35.1436,480.1014],[-1.3299,35.1518,457.3271],[-1.3167,35.1559,488.9639],[-1.3107,35.154,455.0634],[-1.305,35.1545,453.1617],[-1.3002,35.1583,509.4041],[-1.2929,35.1497,361.2999],[-1.2884,35.1529,408.4637],[-1.2845,35.1626,468.6041],[-1.2792,35.1665,538.597],[-1.2683,35.1675,499.2611],[-1.2633,35.1734,418.7881],[-1.2618,35.178,489.0511],[-1.2616,35.1837,483.6804],[-1.2679,35.1845,385.9261],[-1.2762,35.2006,314.4119],[-1.2872,35.2024,310.1269],[-1.293,35.2013,283.1234],[-1.2996,35.1988,318.9303],[-1.3025,35.1949,375.3505],[-1.3081,35.198,314.6658],[-1.3242,35.2014,251.6922],[-1.3361,35.2003,209.9836],[-1.3433,35.2021,217.9974]]]]}}