{"type":"Feature","properties":{"GID_2":"DZA.12.39_1","GID_0":"DZA","country":"Algeria","GID_1":"DZA.12_1","province":"Bouira","NL_NAME_1":"ولايةالبويرة","county":"Ridane","VARNAME_2":"NA","NL_NAME_2":"NA","TYPE_2":"Commune","ENGTYPE_2":"Commune","CC_2":"1032","HASC_2":"DZ.BU.RI","name":"Ridane.county"},
"geometry":{"type": "MultiPolygon","coordinates": [[[[3.5082,36.1185,1199.0941],[3.4996,36.112,1284.6316],[3.4907,36.1024,1288.425],[3.4837,36.1007,1259.7482],[3.4727,36.0939,1263.1681],[3.4621,36.0833,1271.6094],[3.4536,36.08,1311.8687],[3.4464,36.0654,1118.7766],[3.4278,36.0596,1068.6925],[3.4117,36.0623,1010.4154],[3.4094,36.066,940.8742],[3.4047,36.0668,920.585],[3.3985,36.0654,913.2502],[3.4042,36.0547,991.254],[3.4032,36.0495,922.9839],[3.4042,36.0441,938.3703],[3.4249,36.0327,1042.8104],[3.4395,36.0345,1028.1094],[3.4433,36.039,970.0854],[3.4549,36.0413,1192.3943],[3.4595,36.0404,1200.5972],[3.4657,36.0333,1189.4529],[3.4833,36.0336,1168.2484],[3.4971,36.0303,1210.8219],[3.5121,36.0227,1156.615],[3.522,36.0244,1230.7787],[3.5334,36.0228,1207.53],[3.5373,36.0325,954.4139],[3.5402,36.0472,916.1997],[3.545,36.0513,899.4153],[3.5447,36.056,951.6579],[3.5421,36.0595,970.2162],[3.543,36.0651,1046.5442],[3.5467,36.07,1120.5776],[3.5396,36.0735,1265.9387],[3.5385,36.0785,1299.4023],[3.5412,36.0949,1140.7949],[3.5402,36.0993,1189.0984],[3.5376,36.1038,1156.4539],[3.5188,36.1165,1287.239],[3.5082,36.1185,1199.0941]]]]}}