{"type": "Feature","bbox": [-0.554,35.1836,-0.3594,35.303],"geometry": {"type": "MultiPolygon","coordinates": [[[[-0.4059,35.1884,586.4338],[-0.3861,35.1965,647.6499],[-0.3839,35.2035,690.4889],[-0.3801,35.209,701.6906],[-0.3685,35.2143,738.8359],[-0.3694,35.2209,659.1864],[-0.3779,35.2296,612.8713],[-0.383,35.2298,625.2037],[-0.3877,35.2327,608.1213],[-0.3833,35.2363,610.7139],[-0.3721,35.237,660.5082],[-0.3664,35.2391,725.0865],[-0.3612,35.2431,689.2474],[-0.3594,35.2489,686.1882],[-0.36,35.2545,579.9753],[-0.3706,35.2604,526.4203],[-0.3757,35.2692,489.818],[-0.3724,35.2879,392.0089],[-0.3777,35.2958,389.0902],[-0.3888,35.303,336.5975],[-0.3992,35.2939,445.7593],[-0.4027,35.2968,419.6156],[-0.4086,35.2913,491.3949],[-0.4157,35.29,534.9203],[-0.4381,35.289,497.0713],[-0.4707,35.298,386.2192],[-0.4774,35.2956,405.1905],[-0.4795,35.2916,381.7455],[-0.4789,35.2679,442.5948],[-0.4844,35.2659,443.9382],[-0.502,35.2655,430.2469],[-0.5069,35.2678,421.7166],[-0.5213,35.25,473.5312],[-0.5278,35.2461,453.5142],[-0.534,35.2437,442.936],[-0.5534,35.2452,442.5536],[-0.554,35.24,458.8312],[-0.544,35.2213,519.3943],[-0.5379,35.2193,513.7591],[-0.5206,35.2177,535.9136],[-0.5055,35.2046,504.3824],[-0.4943,35.2086,528.0665],[-0.4927,35.2255,491.0328],[-0.4895,35.2284,479.3573],[-0.4797,35.2241,489.5952],[-0.4673,35.2112,511.7931],[-0.4522,35.2027,539.1752],[-0.4472,35.1872,554.9712],[-0.429,35.1836,567.884],[-0.4059,35.1884,586.4338]]]]}
,"properties": {"GID_2": "DZA.38.52_1","GID_0": "DZA","country": "Algeria","GID_1": "DZA.38_1","province": "SidiBelAbbès","NL_NAME_1": "ولايةسيديبلعباس","county": "Zerouala","VARNAME_2": "NA","NL_NAME_2": "NA","TYPE_2": "Commune","ENGTYPE_2": "Commune","CC_2": "2233","HASC_2": "DZ.SB.ZE","name": "Zerouala.county","area_km2": 133.6801,"hist_schema_id": "Elevation0-9000","hist_area_km2": {"325": 0.0173,"350": 0.1903,"375": 0.8999,"400": 2.4748,"425": 6.3176,"450": 21.1566,"475": 19.3061,"500": 16.6404,"525": 13.7492,"550": 11.238,"575": 10.4944,"600": 8.816,"625": 7.8812,"650": 6.738,"675": 4.0879,"700": 2.2866,"725": 0.9701,"750": 0.4157}}}