{"type": "Feature","bbox": [-0.0619,35.3758,0.1318,35.5217],"geometry": {"type": "MultiPolygon","coordinates": [[[[-0.0504,35.468,337.2995],[-0.049,35.4551,296.3489],[-0.0455,35.45,202.0094],[-0.0268,35.4381,150.7452],[-0.023,35.4321,225.6616],[-0.0031,35.4124,530.3356],[-0.0039,35.4069,476.0129],[-0.0075,35.4012,397.0624],[-0.0029,35.397,396.7537],[-0.0002,35.3902,510.4493],[-0.011,35.3799,404.1061],[-0.0087,35.3758,344.8593],[0.0037,35.3803,414.6133],[0.0145,35.3921,537.0596],[0.0208,35.3944,610.2649],[0.0239,35.3912,714.8694],[0.0253,35.3982,551.1644],[0.024,35.4037,538.6294],[0.0404,35.4121,372.8739],[0.0455,35.4153,339.1542],[0.048,35.4192,309.1517],[0.0532,35.4193,339.6003],[0.0607,35.4262,473.2528],[0.0698,35.4312,381.795],[0.0795,35.4343,436.4163],[0.0854,35.4444,340.6841],[0.0861,35.4493,319.4207],[0.0824,35.4525,337.9789],[0.0797,35.4578,354.1234],[0.0781,35.4666,353.4659],[0.0808,35.4722,234.6877],[0.0932,35.4742,281.9235],[0.1003,35.4723,344.3853],[0.1175,35.4758,349.5243],[0.1263,35.4812,389.3069],[0.1318,35.4954,332.4791],[0.1274,35.4988,220.1599],[0.1209,35.4985,205.4041],[0.1088,35.5068,168.8306],[0.0979,35.5118,174.4899],[0.0931,35.5118,148.5776],[0.0842,35.5159,135.915],[0.0727,35.5172,127.8657],[0.0706,35.5214,138.8871],[0.0549,35.5217,104.2268],[0.0481,35.5182,98.4376],[0.0503,35.5124,127.9297],[0.0432,35.5083,103.8722],[0.033,35.5052,112.9364],[0.0293,35.5089,252.3923],[0.0166,35.5081,321.3693],[0.0069,35.5119,345.0786],[-0.0147,35.5089,518.396],[-0.0233,35.5046,555.8007],[-0.0331,35.5035,549.109],[-0.041,35.4946,358.2836],[-0.0494,35.4908,350.3775],[-0.0547,35.4806,324.8544],[-0.0619,35.4789,318.7109],[-0.06,35.4726,329.1124],[-0.0556,35.4694,332.11],[-0.0504,35.468,337.2995]]]]}
,"properties": {"GID_2": "DZA.27.25_1","GID_0": "DZA","country": "Algeria","GID_1": "DZA.27_1","province": "Mascara","NL_NAME_1": "ولايةمعسكر","county": "Hacine","VARNAME_2": "NA","NL_NAME_2": "NA","TYPE_2": "Commune","ENGTYPE_2": "Commune","CC_2": "2904","HASC_2": "DZ.MC.HA","name": "Hacine.county","area_km2": 137.9065,"hist_schema_id": "Elevation0-9000","hist_area_km2": {"100": 2.2093,"125": 6.2841,"150": 8.322,"175": 8.702,"200": 7.9596,"225": 9.1856,"250": 8.9095,"275": 9.1516,"300": 9.9809,"325": 9.9809,"350": 9.8773,"375": 8.9453,"400": 7.754,"425": 6.9598,"450": 5.147,"475": 3.9383,"500": 3.1439,"525": 3.2306,"550": 2.3498,"575": 1.6588,"600": 1.0886,"625": 0.985,"650": 0.6048,"675": 0.5702,"700": 0.4147,"725": 0.2592,"750": 0.1037,"775": 0.1901}}}