{"type":"Feature","properties":{"GID_2":"DZA.23.28_1","GID_0":"DZA","country":"Algeria","GID_1":"DZA.23_1","province":"Jijel","NL_NAME_1":"ولايةجيجل","county":"ZiamaMansouria","VARNAME_2":"NA","NL_NAME_2":"NA","TYPE_2":"Commune-Cotiere","ENGTYPE_2":"Commune-Cotiere","CC_2":"1804","HASC_2":"DZ.JJ.ZM","name":"Ziama_Mansouria.county"},
"geometry":{"type": "MultiPolygon","coordinates": [[[[5.4274,36.6038,1057.3135],[5.4423,36.6033,1159.1379],[5.4526,36.6073,1246.4465],[5.4596,36.6062,1035.7379],[5.4659,36.6021,861.9097],[5.4726,36.5947,1148.9963],[5.4902,36.5919,998.8253],[5.4998,36.5955,892.0239],[5.5122,36.5959,719.1335],[5.524,36.5908,675.8268],[5.5566,36.6065,699.8558],[5.5569,36.6197,1304.9705],[5.5681,36.6331,512.8502],[5.5627,36.6462,265.2339],[5.5638,36.6526,154.5019],[5.5591,36.6564,156.4531],[5.5569,36.6611,192.3405],[5.5616,36.6724,330.3628],[5.5686,36.6743,219.4455],[5.5762,36.6814,203.3555],[5.5769,36.6989,107.9269],[5.5697,36.6998,62.1572],[5.561,36.7056,141.9523],[5.5493,36.7106,21.0851],[5.5413,36.7105,75.9859],[5.5392,36.7029,0.0],[5.5279,36.7016,26.5202],[5.5268,36.6952,13.9204],[5.5195,36.6906,0.0],[5.509,36.6873,6.6192],[5.5061,36.6823,15.9446],[5.5017,36.6794,4.3593],[5.4854,36.6742,0.0],[5.4786,36.6767,1.1198],[5.4765,36.6693,0.0],[5.4657,36.6651,8.8174],[5.4458,36.6625,0.0],[5.4412,36.6638,0.0],[5.438,36.667,15.9351],[5.4339,36.6641,6.1805],[5.4343,36.6576,0.0],[5.428,36.6536,42.8566],[5.4267,36.6456,284.582],[5.4376,36.6456,57.2748],[5.441,36.6425,250.9217],[5.4398,36.6378,189.4506],[5.4269,36.6227,464.6594],[5.4255,36.6185,485.0563],[5.4274,36.6038,1057.3135]]]]}}