{"type": "Feature","bbox": [3.9359,35.5034,4.2205,35.9018],"geometry": {"type": "MultiPolygon","coordinates": [[[[4.0266,35.8605,606.4353],[4.0107,35.847,593.8448],[4.0099,35.8412,588.3794],[4.0006,35.8381,585.7664],[3.9919,35.8241,584.7667],[3.9915,35.8111,582.1644],[4.0004,35.8055,573.5608],[3.9862,35.7959,566.475],[3.9756,35.7679,550.5801],[3.9709,35.7625,549.1694],[3.9512,35.7557,533.2219],[3.9524,35.7505,530.4451],[3.9634,35.7431,523.8975],[3.9616,35.7256,521.6565],[3.9566,35.7235,523.0425],[3.9485,35.7119,517.8008],[3.9623,35.7015,513.0185],[3.9577,35.698,520.6567],[3.9359,35.6972,519.3313],[3.9507,35.6867,557.8181],[3.9631,35.6016,650.6478],[3.9413,35.5034,662.313],[3.9626,35.5114,664.15],[3.9933,35.5123,614.6404],[4.0029,35.5086,639.8918],[4.0325,35.5509,593.3671],[4.0528,35.5736,564.9487],[4.1276,35.6236,479.8578],[4.1702,35.6542,488.9283],[4.1726,35.6827,469.8399],[4.1773,35.6846,465.3518],[4.1824,35.6802,463.5619],[4.1848,35.6741,461.7586],[4.1899,35.6718,459.1708],[4.2145,35.663,451.6148],[4.2205,35.6653,452.5104],[4.2129,35.6747,456.1264],[4.1984,35.6863,459.4724],[4.171,35.6961,467.4239],[4.164,35.7046,472.4354],[4.1613,35.7256,485.9509],[4.159,35.7301,487.6362],[4.1445,35.7455,497.5819],[4.1412,35.7547,503.2341],[4.1411,35.7608,509.3719],[4.145,35.7713,516.3021],[4.1581,35.7909,532.8106],[4.1597,35.7975,537.4835],[4.1339,35.8388,590.2374],[4.1239,35.8403,599.8066],[4.1088,35.8519,588.4314],[4.0988,35.8635,593.8838],[4.0965,35.8686,599.1906],[4.096,35.8745,615.4988],[4.1012,35.8895,630.523],[4.0958,35.9018,675.2347],[4.0901,35.8904,647.9711],[4.0733,35.8786,628.9697],[4.0883,35.8702,602.2974],[4.0795,35.8561,624.4884],[4.0743,35.8531,616.0591],[4.0541,35.8574,626.7921],[4.0266,35.8605,606.4353]]]]}
,"properties": {"GID_2": "DZA.26.41_1","GID_0": "DZA","country": "Algeria","GID_1": "DZA.26_1","province": "M'Sila","NL_NAME_1": "ولايةالمسيلة","county": "SidiHadjeres","VARNAME_2": "NA","NL_NAME_2": "NA","TYPE_2": "Commune","ENGTYPE_2": "Commune","CC_2": "2818","HASC_2": "DZ.MS.SH","name": "Sidi_Hadjeres.county","area_km2": 552.2347,"hist_schema_id": "Elevation0-9000","hist_area_km2": {"450": 4.7708,"475": 48.6637,"500": 118.8226,"525": 113.7286,"550": 109.344,"575": 82.2057,"600": 43.7953,"625": 21.4854,"650": 6.5089,"675": 2.1177,"700": 0.7748,"725": 0.0172}}}