{"type": "Feature","bbox": [4.5391,36.074,4.7855,36.2274],"geometry": {"type": "MultiPolygon","coordinates": [[[[4.785,36.1095,977.9749],[4.7855,36.1197,982.7423],[4.7799,36.1257,1007.8811],[4.7711,36.1405,1148.4255],[4.7695,36.1456,1254.3768],[4.7714,36.1522,1388.7749],[4.7626,36.1555,1359.9586],[4.7586,36.1603,1380.8087],[4.7465,36.1662,1210.7925],[4.7335,36.1757,1181.1221],[4.7209,36.1753,1179.6438],[4.712,36.19,1018.5651],[4.7097,36.1966,1040.1626],[4.7123,36.2044,1071.705],[4.7106,36.216,1050.7672],[4.7056,36.2148,1126.1606],[4.7004,36.2052,898.5693],[4.6941,36.2055,931.15],[4.6844,36.2101,776.1341],[4.6697,36.2082,928.4617],[4.6542,36.2092,855.3824],[4.6499,36.208,883.0244],[4.6448,36.2091,808.4],[4.6327,36.2165,894.6719],[4.6274,36.2155,914.5615],[4.6145,36.2165,910.3887],[4.6055,36.2245,974.4833],[4.5954,36.2274,1061.7828],[4.5875,36.2157,1066.6743],[4.587,36.1908,1205.1726],[4.593,36.176,1273.5269],[4.5906,36.1632,1470.2522],[4.5854,36.1579,1676.1659],[4.5788,36.1555,1484.8042],[4.5523,36.1526,850.4612],[4.5391,36.145,727.6146],[4.5414,36.1401,770.968],[4.5461,36.1372,784.5817],[4.553,36.1297,841.076],[4.5552,36.1241,819.5476],[4.5657,36.1219,836.4207],[4.5825,36.1223,900.6286],[4.5881,36.1165,996.4047],[4.5987,36.1136,1140.5918],[4.6024,36.1105,1217.8276],[4.6127,36.1104,1234.9065],[4.622,36.1055,1142.4404],[4.6277,36.1046,1117.538],[4.6355,36.0979,1065.9674],[4.6643,36.0918,978.4573],[4.6714,36.0916,974.4194],[4.6752,36.0877,961.543],[4.6766,36.0837,940.463],[4.688,36.0746,912.1227],[4.6924,36.074,919.2922],[4.6919,36.09,998.0485],[4.7012,36.0963,1018.6262],[4.7118,36.095,1001.8136],[4.7176,36.0968,992.8627],[4.7223,36.1009,979.4459],[4.7378,36.091,942.5066],[4.7412,36.0947,947.9487],[4.7391,36.1002,955.8214],[4.7452,36.1,962.3179],[4.7492,36.0979,953.2344],[4.749,36.108,971.6544],[4.7608,36.1077,965.0438],[4.779,36.1005,955.3776],[4.785,36.1095,977.9749]]]]}
,"properties": {"GID_2": "DZA.11.23_1","GID_0": "DZA","country": "Algeria","GID_1": "DZA.11_1","province": "BordjBouArréridj","NL_NAME_1": "ولايةبرجبوعريريج","county": "Medjana","VARNAME_2": "NA","NL_NAME_2": "NA","TYPE_2": "Commune","ENGTYPE_2": "Commune","CC_2": "3413","HASC_2": "DZ.BB.ME","name": "Medjana.county","area_km2": 199.3502,"hist_schema_id": "Elevation0-9000","hist_area_km2": {"725": 0.0342,"750": 0.0856,"775": 0.4107,"800": 0.9926,"825": 1.6601,"850": 1.9338,"875": 2.5158,"900": 3.5255,"925": 4.6386,"950": 7.122,"975": 15.3431,"1000": 19.9325,"1025": 20.89,"1050": 19.5186,"1075": 16.8809,"1100": 14.244,"1125": 12.2577,"1150": 10.4942,"1175": 8.0803,"1200": 7.2411,"1225": 5.7859,"1250": 5.3236,"1275": 4.6218,"1300": 2.9272,"1325": 2.0714,"1350": 1.5064,"1375": 1.5578,"1400": 1.3695,"1425": 1.4208,"1450": 1.01,"1475": 1.0442,"1500": 0.6505,"1525": 0.5478,"1550": 0.4622,"1575": 0.3766,"1600": 0.2397,"1625": 0.2739,"1650": 0.2568,"1675": 0.0856,"1700": 0.0171}}}