{"type":"Feature","properties":{"GID_2":"DZA.6.53_1","GID_0":"DZA","country":"Algeria","GID_1":"DZA.6_1","province":"Batna","NL_NAME_1":"ولايةباتنة","county":"Talkhamt","VARNAME_2":"Talkhemt","NL_NAME_2":"NA","TYPE_2":"Commune","ENGTYPE_2":"Commune","CC_2":"534","HASC_2":"DZ.BT.TL","name":"Talkhamt.county"},
"geometry":{"type": "MultiPolygon","coordinates": [[[[5.8825,35.7744,907.9651],[5.8637,35.7848,936.7232],[5.8597,35.782,947.8693],[5.8373,35.7748,1217.3267],[5.8281,35.7774,1183.557],[5.8233,35.7808,1067.9055],[5.809,35.7788,1215.5989],[5.7982,35.7754,1402.6921],[5.7767,35.7733,1645.9161],[5.7754,35.7838,1391.6909],[5.771,35.7881,1297.8777],[5.7607,35.7903,1234.8354],[5.7562,35.7896,1198.0225],[5.7393,35.7936,1146.9587],[5.7339,35.7919,1130.4116],[5.725,35.7923,1114.4539],[5.7191,35.7851,1148.5458],[5.722,35.773,1297.2441],[5.7187,35.7689,1332.4351],[5.7085,35.7636,1425.7522],[5.7046,35.7576,1406.6276],[5.6994,35.7534,1451.675],[5.6944,35.725,1488.943],[5.6896,35.7146,1529.3651],[5.6841,35.7071,1295.2081],[5.6859,35.7007,1123.7632],[5.6852,35.6925,1015.2346],[5.6809,35.6713,897.3122],[5.6863,35.6663,894.655],[5.6866,35.6603,896.5213],[5.6902,35.657,872.7244],[5.6975,35.6572,884.4177],[5.7022,35.6533,882.0377],[5.7123,35.6538,878.0373],[5.728,35.6612,906.8582],[5.7399,35.663,869.0347],[5.7814,35.6677,876.8671],[5.7945,35.666,870.025],[5.7999,35.6705,873.3683],[5.8016,35.684,895.1321],[5.8263,35.697,908.3777],[5.8412,35.7125,918.1696],[5.8429,35.7172,923.3482],[5.872,35.7466,914.626],[5.8781,35.7672,914.3384],[5.8825,35.7744,907.9651]]]]}}