{"type":"Feature","properties":{"GID_2":"DZA.36.12_1","GID_0":"DZA","country":"Algeria","GID_1":"DZA.36_1","province":"Saïda","NL_NAME_1":"ولايةسعيدة","county":"SidiAhmed","VARNAME_2":"NA","NL_NAME_2":"NA","TYPE_2":"Commune","ENGTYPE_2":"Commune","CC_2":"2012","HASC_2":"DZ.SD.SA","name":"Sidi_Ahmed.county"},
"geometry":{"type": "MultiPolygon","coordinates": [[[[0.4268,34.4088,1049.926],[0.4505,34.5331,1124.4393],[0.3958,34.5904,1147.2585],[0.3624,34.616,1236.3186],[0.3368,34.6291,1173.8186],[0.2824,34.6938,1189.3405],[0.2622,34.7028,1175.8296],[0.2579,34.7141,1181.3807],[0.246,34.7225,1194.4333],[0.2458,34.7269,1183.5562],[0.2286,34.733,1167.5511],[0.2199,34.7246,1165.9],[0.2032,34.7167,1156.092],[0.2037,34.7117,1152.9608],[0.1685,34.7133,1142.8367],[0.1622,34.7167,1140.8828],[0.1439,34.7221,1128.2383],[0.1429,34.7288,1087.2196],[0.1286,34.7437,1048.1599],[0.1242,34.7313,1144.7001],[0.1167,34.7247,1154.5194],[0.098,34.7227,1139.8136],[0.0807,34.7063,1156.9799],[0.0936,34.698,1140.1376],[0.0951,34.6914,1134.4805],[0.1012,34.6823,1123.7473],[0.096,34.6544,1116.8635],[0.0917,34.6508,1112.2115],[0.0897,34.6408,1118.3851],[0.0854,34.6355,1112.2449],[0.0696,34.6249,1108.0154],[0.066,34.619,1106.4713],[0.0531,34.6056,1107.1172],[0.0504,34.6002,1103.1194],[0.0458,34.5981,1102.4031],[0.0421,34.5943,1101.5564],[0.0402,34.5889,1101.3845],[0.0325,34.582,1100.0255],[0.032,34.5765,1106.5811],[0.026,34.5622,1093.7377],[0.0192,34.549,1090.6266],[0.0154,34.5447,1089.3896],[0.0126,34.5352,1088.6132],[0.0127,34.5294,1087.634],[0.0103,34.5237,1093.0076],[-0.0047,34.5095,1082.8365],[-0.0065,34.5053,1086.303],[-0.0138,34.5005,1079.4388],[-0.0169,34.4737,1077.7253],[-0.0198,34.4673,1072.2742],[-0.0165,34.4601,1078.4908],[-0.0186,34.4476,1074.4003],[-0.012,34.4425,1077.1884],[0.007,34.4395,1086.485],[0.0184,34.4314,1081.6016],[0.0685,34.4173,1065.9108],[0.0831,34.4151,1061.6548],[0.0848,34.4207,1061.7781],[0.0904,34.4194,1060.0753],[0.1194,34.403,1052.6058],[0.1345,34.3877,1049.5179],[0.1707,34.3626,1045.769],[0.18,34.3548,1044.5392],[0.1882,34.3398,1041.3362],[0.292,34.3287,1042.4944],[0.4242,34.4045,1039.6609],[0.4268,34.4088,1049.926]]]]}}