{"type":"Feature","properties":{"GID_2":"DZA.43.13_1","GID_0":"DZA","country":"Algeria","GID_1":"DZA.43_1","province":"Tiaret","NL_NAME_1":"ولايةتيارت","county":"Guertoufa","VARNAME_2":"NA","NL_NAME_2":"NA","TYPE_2":"Commune","ENGTYPE_2":"Commune","CC_2":"1422","HASC_2":"DZ.TR.GU","name":"Guertoufa.county"},
"geometry":{"type": "MultiPolygon","coordinates": [[[[1.136,35.5415,780.5521],[1.1229,35.5441,717.9346],[1.1189,35.5415,807.4081],[1.1217,35.5376,747.9418],[1.1222,35.5291,667.407],[1.1177,35.5279,679.006],[1.1131,35.5296,718.364],[1.1087,35.5291,785.0777],[1.1073,35.5246,759.3687],[1.1107,35.5151,704.8724],[1.1108,35.5086,696.5582],[1.1062,35.5092,734.4175],[1.1018,35.5061,679.9468],[1.0975,35.5087,679.1339],[1.0935,35.4959,723.1204],[1.0943,35.4891,723.682],[1.0978,35.4826,664.1867],[1.1093,35.4729,600.5399],[1.1107,35.4649,624.2714],[1.1087,35.4577,590.0241],[1.1035,35.4544,597.0439],[1.1017,35.4495,607.7748],[1.1042,35.4452,620.9839],[1.109,35.4416,636.4653],[1.1206,35.4399,670.2009],[1.1245,35.4373,700.8953],[1.1263,35.4414,663.256],[1.1347,35.434,750.6654],[1.144,35.4312,796.9825],[1.1565,35.4305,735.1533],[1.1611,35.4276,719.1722],[1.1585,35.4195,765.0698],[1.1641,35.4094,838.5968],[1.17,35.392,1005.416],[1.1786,35.3846,1120.7587],[1.1807,35.3793,1031.5258],[1.1784,35.3727,991.2844],[1.1783,35.3645,904.0879],[1.184,35.3594,1036.8267],[1.1968,35.3541,873.321],[1.2114,35.3548,959.3584],[1.2216,35.3657,996.5978],[1.2263,35.3658,960.4318],[1.2368,35.3586,856.5214],[1.2425,35.3582,866.6412],[1.2503,35.3649,935.38],[1.2667,35.3705,1176.9852],[1.2699,35.3662,1136.7765],[1.2714,35.3607,1119.8336],[1.2804,35.3581,1048.3691],[1.2834,35.3549,953.2104],[1.2869,35.3661,1052.5981],[1.2859,35.3718,1087.5811],[1.2812,35.3812,1176.1868],[1.2849,35.385,1183.0381],[1.2998,35.3865,1118.754],[1.3049,35.3972,1113.7369],[1.298,35.4057,902.588],[1.2976,35.4135,865.9999],[1.2852,35.4217,833.4553],[1.2694,35.4241,779.4087],[1.2577,35.4323,750.9283],[1.2384,35.4355,719.5995],[1.2316,35.4394,698.984],[1.2288,35.4439,687.4818],[1.2338,35.4476,715.8433],[1.2117,35.4551,654.841],[1.2054,35.4613,641.3484],[1.2002,35.4638,655.3705],[1.194,35.4689,643.395],[1.1929,35.4822,641.4981],[1.1912,35.4866,608.4531],[1.1729,35.5053,528.364],[1.1769,35.5145,523.1036],[1.1817,35.5173,563.4557],[1.1747,35.5297,576.4348],[1.1624,35.5365,840.826],[1.1574,35.5359,848.4543],[1.152,35.5374,838.6458],[1.1423,35.5439,863.6566],[1.136,35.5415,780.5521]]]]}}