{"type": "Feature","bbox": [0.016,35.6863,0.1548,35.7894],"geometry": {"type": "MultiPolygon","coordinates": [[[[0.1548,35.7016,32.0162],[0.1477,35.7204,24.5217],[0.1475,35.7308,23.4969],[0.14,35.7481,24.501],[0.1333,35.7737,33.8859],[0.1062,35.777,25.7641],[0.0945,35.7803,25.504],[0.0825,35.7801,24.3891],[0.0777,35.7827,26.6519],[0.0768,35.7882,31.4031],[0.0727,35.7894,34.3223],[0.0595,35.7849,29.6558],[0.0195,35.7873,48.9245],[0.0173,35.7822,35.0967],[0.0211,35.7761,25.5949],[0.0178,35.7617,15.3663],[0.016,35.7426,8.4285],[0.0203,35.7425,8.735],[0.0374,35.748,9.1821],[0.0412,35.744,11.0619],[0.0526,35.7478,10.2672],[0.0586,35.7339,11.0442],[0.0722,35.7293,11.9578],[0.0869,35.7278,16.6937],[0.0908,35.7247,13.6337],[0.105,35.702,18.6083],[0.1054,35.696,19.9296],[0.1117,35.6932,21.7041],[0.1285,35.6929,26.5349],[0.134,35.6912,30.3347],[0.1369,35.6863,34.7862],[0.1548,35.7016,32.0162]]]]}
,"properties": {"GID_2": "DZA.30.10_1","GID_0": "DZA","country": "Algeria","GID_1": "DZA.30_1","province": "Mostaganem","NL_NAME_1": "ولايةمستغانم","county": "Hassaine|BeniYahi","VARNAME_2": "ElHessiane","NL_NAME_2": "NA","TYPE_2": "Commune","ENGTYPE_2": "Commune","CC_2": "2732","HASC_2": "DZ.MG.HB","name": "Hassaine_Beni_Yahi.county","area_km2": 76.57566,"hist_schema_id": "Elevation0-9000","hist_area_km2": {"0": 11.42599,"25": 64.99487,"50": 0.1548}}}