{"type": "Feature","bbox": [7.2842,35.8068,8.4097,36.4692],"geometry": {"type": "MultiPolygon","coordinates": [[[[7.6844,35.8832,842.2396],[7.707,35.8869,767.5201],[7.7178,35.8947,740.3168],[7.7196,35.9106,737.2758],[7.7263,35.9288,769.7583],[7.7298,35.9343,773.3038],[7.7412,35.9453,753.3568],[7.743,35.938,762.3107],[7.748,35.9362,748.0853],[7.7587,35.9379,739.0554],[7.7647,35.9314,732.1179],[7.7697,35.9286,728.5582],[7.7789,35.9383,719.5671],[7.8004,35.9104,670.1826],[7.8049,35.9017,676.3333],[7.8279,35.8893,745.8349],[7.8308,35.8949,758.9421],[7.8412,35.8912,740.1384],[7.8647,35.8784,695.867],[7.8844,35.8938,674.9578],[7.8894,35.89,658.2307],[7.896,35.888,643.386],[7.9072,35.8884,626.7134],[7.9103,35.9003,622.8748],[7.9202,35.9097,608.6142],[7.9314,35.913,609.9341],[7.9386,35.9227,605.6241],[7.9449,35.9261,623.266],[7.9456,35.9328,596.7206],[7.952,35.9301,588.8154],[7.9799,35.9327,575.3544],[7.9834,35.9366,575.1246],[7.9807,35.9407,571.4877],[7.9799,35.9473,568.9543],[7.9869,35.9516,561.5155],[7.988,35.956,560.8979],[7.9939,35.9583,558.9229],[8.0055,35.9595,552.0699],[8.0127,35.9736,546.5677],[8.0376,35.977,534.4518],[8.046,35.9695,530.9547],[8.0651,35.9713,525.4553],[8.0668,35.9656,525.2399],[8.0726,35.9671,522.6008],[8.072,35.9725,521.6552],[8.0769,35.9739,527.2007],[8.0809,35.9713,516.7406],[8.0829,35.9762,513.4763],[8.09,35.975,510.9861],[8.0976,35.9769,516.0895],[8.1027,35.9807,516.7696],[8.1117,35.9842,516.437],[8.114,35.9882,507.0698],[8.1212,35.9929,504.008],[8.1246,35.9884,499.6203],[8.1393,35.9945,499.6151],[8.1459,35.9952,506.0603],[8.1546,35.9888,486.0817],[8.1596,35.9902,490.32],[8.1685,35.9874,482.513],[8.1782,35.9909,480.7705],[8.1896,35.9909,513.3732],[8.1865,35.9958,478.8138],[8.1878,36.0013,482.0261],[8.1944,36.0026,477.0461],[8.2065,35.9928,473.9262],[8.2119,35.9977,467.7592],[8.217,35.9948,483.1666],[8.217,35.9878,469.5248],[8.2191,35.9822,458.4623],[8.2322,35.9771,452.808],[8.2364,35.9734,442.6247],[8.2628,35.9628,434.3328],[8.2676,35.9584,430.9267],[8.2724,35.9581,431.5538],[8.2802,35.9618,429.5861],[8.2864,35.9614,432.3456],[8.2921,35.9577,427.2378],[8.3001,36.0116,1050.0437],[8.2958,36.0348,579.8831],[8.2986,36.0431,629.2672],[8.3033,36.0468,626.5563],[8.3122,36.0602,618.1434],[8.3136,36.0716,616.165],[8.3196,36.0785,767.8624],[8.3231,36.0873,959.6536],[8.3436,36.102,456.173],[8.3413,36.1136,481.5585],[8.3381,36.1204,492.3004],[8.34,36.1277,516.7805],[8.3376,36.1374,530.7075],[8.3348,36.1407,538.1652],[8.3262,36.1454,553.4474],[8.3187,36.1526,568.8238],[8.3163,36.1576,578.5944],[8.3125,36.159,593.5698],[8.3091,36.1737,640.6191],[8.3147,36.1799,674.8887],[8.3257,36.1859,676.5494],[8.3291,36.1895,708.7979],[8.3324,36.194,699.8291],[8.3405,36.2153,731.9497],[8.3461,36.2202,751.7277],[8.3474,36.225,782.1088],[8.3539,36.2339,798.642],[8.3536,36.2537,870.9868],[8.3479,36.2614,932.6473],[8.3379,36.2649,927.8212],[8.3448,36.2726,819.0046],[8.3475,36.2788,730.78],[8.3553,36.2865,693.3331],[8.3681,36.295,657.7071],[8.3725,36.2965,665.5538],[8.3812,36.2964,642.9836],[8.3836,36.3023,617.6644],[8.3886,36.3042,606.3906],[8.3873,36.3086,639.5927],[8.3798,36.3124,656.546],[8.3754,36.321,719.4664],[8.375,36.3292,801.6052],[8.3791,36.337,784.3009],[8.3789,36.3425,823.236],[8.3756,36.3507,839.7592],[8.376,36.3531,832.7357],[8.3934,36.3666,906.5496],[8.3992,36.3756,906.9527],[8.3968,36.3825,833.3976],[8.4001,36.3927,490.9666],[8.3968,36.3966,377.6747],[8.3973,36.3992,348.684],[8.4097,36.4115,243.0614],[8.4087,36.4179,351.6838],[8.4055,36.4224,492.0527],[8.3864,36.4242,499.0388],[8.3753,36.4273,532.4597],[8.3708,36.4298,541.6954],[8.3666,36.4357,530.6578],[8.3556,36.445,427.0983],[8.3435,36.4344,488.9929],[8.3311,36.4313,335.7763],[8.3263,36.432,314.6725],[8.3267,36.4332,301.331],[8.323,36.4345,352.4354],[8.3173,36.4264,322.7334],[8.3155,36.4329,450.8362],[8.3092,36.4334,458.4093],[8.3103,36.4361,460.4044],[8.3088,36.4417,500.4702],[8.2908,36.4428,695.7899],[8.2859,36.4452,733.2778],[8.262,36.4385,940.6727],[8.2496,36.4462,833.8419],[8.2108,36.4471,788.2235],[8.2033,36.4506,782.6508],[8.1969,36.4589,781.7727],[8.1917,36.4609,754.5388],[8.1751,36.4601,651.134],[8.1694,36.4628,714.0264],[8.1663,36.4666,787.7668],[8.1636,36.4578,632.8114],[8.1508,36.4475,395.6361],[8.1268,36.4498,630.3779],[8.1249,36.4546,675.4273],[8.1187,36.4543,777.6205],[8.1127,36.4531,862.71],[8.0952,36.4395,839.1728],[8.0788,36.4379,846.6614],[8.0593,36.414,1072.2498],[8.0567,36.4073,1295.9183],[8.0471,36.4005,1241.3984],[8.0465,36.3963,1311.1365],[8.0438,36.3924,1258.9375],[8.0341,36.3909,1198.9478],[8.0253,36.394,1155.3777],[8.0207,36.398,1218.426],[8.0193,36.4102,1083.3025],[8.0151,36.4134,961.2947],[8.012,36.4263,644.9411],[8.0117,36.4331,572.4427],[8.0141,36.4372,475.9607],[8.0137,36.4467,422.9837],[8.0167,36.4517,346.5934],[8.0229,36.4536,390.4945],[8.0254,36.4573,348.8954],[8.0212,36.4601,342.8527],[8.0088,36.4608,440.3553],[8.0028,36.463,469.8969],[7.9928,36.4692,534.4354],[7.9403,36.4553,483.0654],[7.9217,36.4401,491.9568],[7.9017,36.4356,430.3768],[7.8971,36.4328,453.5966],[7.8876,36.4259,397.7471],[7.8851,36.4203,416.4652],[7.8808,36.4168,510.6489],[7.8754,36.4158,560.6446],[7.8679,36.4065,797.0089],[7.8543,36.4108,628.0526],[7.8376,36.4205,376.3254],[7.8214,36.423,248.9051],[7.8121,36.4066,262.0934],[7.8118,36.3928,326.2795],[7.8155,36.3896,411.0978],[7.8157,36.3847,396.414],[7.8093,36.3754,584.0472],[7.827,36.3607,758.978],[7.8318,36.3513,815.3644],[7.8404,36.3498,864.3796],[7.8394,36.3386,1052.9188],[7.8551,36.3177,1123.8557],[7.8485,36.3099,1121.641],[7.8356,36.3013,1061.6482],[7.8068,36.2992,900.6133],[7.7993,36.2924,1025.4558],[7.7856,36.2941,1048.8187],[7.7797,36.2928,1110.9519],[7.7708,36.2862,1054.7788],[7.7652,36.2847,1042.738],[7.7604,36.2859,907.2311],[7.7432,36.2991,934.1987],[7.7384,36.2968,980.8707],[7.7322,36.2988,924.2278],[7.724,36.2899,955.5208],[7.7263,36.2861,886.8623],[7.7257999999999996,36.2797,979.1128],[7.7154,36.27,1098.4213],[7.6999,36.2614,1108.9919],[7.6952,36.2598,1179.2345],[7.6835,36.2603,1042.0541],[7.6792,36.2568,849.4876],[7.6753,36.2597,824.5875],[7.6649,36.2625,674.2328],[7.6595,36.2546,687.9438],[7.6603,36.2502,773.7572],[7.6565,36.2476,787.4664],[7.6335,36.2399,965.2501],[7.6242,36.2279,1208.075],[7.6226,36.2231,1153.4047],[7.6173,36.2225,1130.8333],[7.6136,36.2256,1241.8896],[7.6114,36.2305,1205.7263],[7.5966,36.2346,1151.9469],[7.5934,36.2316,1122.9948],[7.5876,36.2304,1084.597],[7.5802,36.2306,1060.7988],[7.5663,36.2342,1079.4501],[7.5448,36.2283,1151.2076],[7.5338,36.2269,1134.2948],[7.5205,36.22,1188.4073],[7.5138,36.2197,1149.1567],[7.5012,36.2155,1090.22],[7.4866,36.2166,982.6289],[7.4737,36.2123,941.0411],[7.4604,36.2151,909.2664],[7.4535,36.2076,873.7925],[7.4441,36.2041,838.5557],[7.4152,36.211,786.7837],[7.4087,36.2099,770.3602],[7.3828,36.2139,779.4506],[7.3621,36.22,718.6008],[7.3276,36.2223,677.1699],[7.3145,36.2311,604.8332],[7.3032,36.2259,727.4438],[7.2961,36.2173,748.7637],[7.292,36.208,765.4081],[7.2913,36.2013,818.8179],[7.2842,36.193,793.5776],[7.2881,36.1801,760.6805],[7.2842,36.1777,832.7458],[7.2938,36.1639,657.9257],[7.2904,36.1579,678.3215],[7.2986,36.1514,665.1038],[7.3124,36.1461,671.0303],[7.3188,36.146,672.9545],[7.3216,36.1418,673.0496],[7.3167,36.1421,691.9342],[7.3151,36.1374,766.9695],[7.3205,36.1204,753.3879],[7.3241,36.1159,778.7513],[7.3225,36.1092,845.2687],[7.3234,36.1019,1005.5668],[7.3299,36.1034,983.7841],[7.3291,36.0954,872.4413],[7.3379,36.0853,811.7469],[7.338,36.0774,793.0078],[7.3319,36.0542,757.8802],[7.3362,36.0517,758.5837],[7.343,36.0544,756.6595],[7.3461,36.058,745.9257],[7.3659,36.0489,796.6202],[7.3628,36.0448,795.5672],[7.3633,36.0378,802.4822],[7.367,36.0285,823.8215],[7.3667,36.0238,841.7657],[7.3709,36.0209,840.4875],[7.3684,36.0155,848.2551],[7.3638,36.0125,849.7735],[7.3668,36.0057,862.8244],[7.3868,35.9866,852.6628],[7.3924,35.9681,870.2748],[7.3986,35.9632,850.2737],[7.4023,35.9566,876.391],[7.4074,35.952,867.3805],[7.4197,35.9502,842.6886],[7.4271,35.9475,858.261],[7.4318,35.9435,847.8527],[7.43,35.9297,879.9266],[7.438,35.9141,919.8129],[7.4561,35.9102,890.9952],[7.4842,35.8959,918.978],[7.4991,35.8951,901.9601],[7.5198,35.8837,884.5822],[7.5322,35.881,974.5035],[7.5382,35.8813,935.2273],[7.5567,35.8768,883.0183],[7.5614,35.8711,878.1823],[7.5514,35.8581,927.3921],[7.5529,35.8525,948.9637],[7.5591,35.8504,928.0882],[7.5647,35.8452,909.3315],[7.56,35.831,942.714],[7.5575,35.8269,940.8723],[7.5535,35.8245,938.5289],[7.5553,35.8192,960.0995],[7.5591,35.8149,961.4417],[7.5651,35.8125,987.6129],[7.584,35.8093,967.3344],[7.588,35.8068,971.652],[7.6032,35.8154,961.9761],[7.6278,35.8211,914.1987],[7.6398,35.8211,904.2208],[7.6496,35.8237,886.1758],[7.6672,35.8134,876.82],[7.6872,35.8167,889.5763],[7.6913,35.8205,874.0537],[7.688,35.8256,850.7121],[7.6755,35.8374,844.9075],[7.6728,35.8439,844.209],[7.679,35.8482,828.443],[7.6914,35.8511,815.2921],[7.6889,35.8608,808.541],[7.6827,35.8731,847.7145],[7.6815,35.8792,858.7601],[7.6844,35.8832,842.2396]]]]}
,"properties": {"GID_1": "DZA.40_1","GID_0": "DZA","country": "Algeria","province": "SoukAhras","VARNAME_1": "Souk-Ahras|SouqAhras","NL_NAME_1": "ولايةسوقأهراس","TYPE_1": "Wilaya","ENGTYPE_1": "Province","CC_1": "41","HASC_1": "DZ.SA","ISO_1": "DZ-41","name": "Souk_Ahras.province","area_km2": 4223.407,"hist_schema_id": "Elevation0-9000","hist_area_km2": {"225": 0.495,"250": 1.877,"275": 2.184,"300": 2.901,"325": 4.573,"350": 6.28,"375": 8.345,"400": 10.82,"425": 16.087,"450": 32.308,"475": 39.278,"500": 58.273,"525": 89.513,"550": 119.451,"575": 132.652,"600": 133.133,"625": 138.953,"650": 140.294,"675": 167.921,"700": 173.569,"725": 169.768,"750": 212.431,"775": 225.181,"800": 254.2,"825": 327.893,"850": 363.061,"875": 336.98,"900": 255.415,"925": 212.819,"950": 146.355,"975": 107.037,"1000": 85.461,"1025": 63.449,"1050": 45.618,"1075": 35.88,"1100": 25.579,"1125": 19.59,"1150": 14.308,"1175": 10.82,"1200": 8.479,"1225": 6.77,"1250": 5.248,"1275": 4.821,"1300": 2.65,"1325": 1.812,"1350": 1.282,"1375": 1.06,"1400": 0.479,"1425": 0.051}}}