{"type":"Feature","properties":{"GID_2":"DZA.3.17_1","GID_0":"DZA","country":"Algeria","GID_1":"DZA.3_1","province":"AïnTémouchent","NL_NAME_1":"ولايةعينتموشنت","county":"HassiElGhella","VARNAME_2":"NA","NL_NAME_2":"NA","TYPE_2":"Commune","ENGTYPE_2":"Commune","CC_2":"4620","HASC_2":"DZ.AT.HG","name":"Hassi_El_Ghella.county"},
"geometry":{"type": "MultiPolygon","coordinates": [[[[-1.0626,35.4722,229.5922],[-1.0696,35.4753,226.7854],[-1.0741,35.4803,219.8655],[-1.077,35.4877,198.5432],[-1.0831,35.4892,176.923],[-1.1057,35.4844,124.1924],[-1.1092,35.4638,190.0048],[-1.1152,35.456,111.756],[-1.1212,35.4533,66.0687],[-1.1273,35.4479,33.2855],[-1.1164,35.4408,36.9499],[-1.112,35.4345,39.5737],[-1.0783,35.4305,71.4488],[-1.0528,35.4235,89.7229],[-1.0519,35.4182,88.0984],[-1.0537,35.4122,72.0462],[-1.0513,35.4086,67.0448],[-1.0452,35.4111,68.3353],[-1.0332,35.4045,77.5967],[-1.0278,35.4033,85.5234],[-1.0255,35.3993,89.5532],[-1.0185,35.3959,98.9461],[-1.0113,35.3978,118.0572],[-1.0097,35.4019,122.0691],[-1.0107,35.4072,123.8019],[-1.0169,35.4272,105.0142],[-1.0114,35.4289,107.6267],[-1.0028,35.4276,114.3398],[-1.0027,35.4331,108.9195],[-1.0053,35.4445,85.784],[-1.01,35.4539,81.5388],[-1.0105,35.4594,81.5],[-1.0135,35.4643,81.0],[-1.0175,35.4667,81.0],[-1.0281,35.4689,94.9912],[-1.0475,35.4713,204.0753],[-1.0581,35.4703,208.2113],[-1.0626,35.4722,229.5922]]]]}}