{"type": "Feature","bbox": [-0.7918,35.341,-0.5832,35.5362],"geometry": {"type": "MultiPolygon","coordinates": [[[[-0.7162,35.3419,412.1263],[-0.7113,35.341,391.7483],[-0.6932,35.3433,517.7441],[-0.6834,35.3484,642.9738],[-0.6762,35.3455,680.0667],[-0.6695,35.348,704.2554],[-0.6594,35.355,886.6951],[-0.6484,35.3573,826.3858],[-0.6436,35.36,818.3387],[-0.6375,35.3606,779.3365],[-0.6243,35.3576,851.4366],[-0.619,35.3586,837.8652],[-0.6153,35.3616,873.4103],[-0.6125,35.3701,757.409],[-0.6041,35.3797,514.6573],[-0.6027,35.3853,416.8431],[-0.6195,35.3952,297.0717],[-0.6181,35.3996,345.3043],[-0.6121,35.4103,408.1839],[-0.5964,35.4176,656.6528],[-0.5975,35.4221,681.063],[-0.5832,35.4238,697.5067],[-0.587,35.4445,454.4703],[-0.5916,35.4553,363.3369],[-0.6013,35.46,212.6493],[-0.6015,35.4661,127.2544],[-0.6056,35.4723,111.1577],[-0.6062,35.478,101.5173],[-0.6014,35.4887,100.6966],[-0.6053,35.4921,98.5365],[-0.6149,35.4926,96.0429],[-0.6231,35.5125,94.819],[-0.625,35.5187,95.6915],[-0.6184,35.5293,88.9161],[-0.6193,35.5362,86.94],[-0.6242,35.5358,89.1909],[-0.6452,35.5268,90.4163],[-0.6811,35.5233,85.3874],[-0.6884,35.5209,86.8307],[-0.6952,35.5221,81.0],[-0.7302,35.5178,82.6405],[-0.7361,35.5156,83.4955],[-0.738,35.5077,84.1829],[-0.7442,35.5041,85.5758],[-0.7402,35.5004,86.5578],[-0.7347,35.5001,87.6665],[-0.7243,35.4763,95.7828],[-0.7193,35.474,96.483],[-0.7185,35.4635,102.2419],[-0.7123,35.4585,105.7941],[-0.7123,35.4536,108.1802],[-0.7064,35.4377,116.6243],[-0.7057,35.4324,118.9596],[-0.7084,35.4253,122.5401],[-0.7112,35.421,123.9536],[-0.7266,35.4104,135.5249],[-0.7289,35.4154,132.1262],[-0.7283,35.4222,123.2697],[-0.7299,35.4276,118.3478],[-0.7346,35.4258,119.5993],[-0.7394,35.4209,124.1412],[-0.7343,35.4102,134.9765],[-0.7384,35.4073,137.541],[-0.7874,35.3962,138.7471],[-0.7918,35.3934,142.04],[-0.7882,35.3864,149.5927],[-0.7805,35.3773,160.585],[-0.7735,35.374,164.846],[-0.7698,35.3692,169.4741],[-0.7652,35.3672,183.781],[-0.7605,35.3702,208.2927],[-0.7555,35.3686,251.2316],[-0.7522,35.3651,316.2048],[-0.7511,35.3605,327.1683],[-0.737,35.3476,476.3474],[-0.7301,35.3465,533.9888],[-0.7243,35.3432,535.7587],[-0.7184,35.3462,395.2615],[-0.7162,35.3419,412.1263]]]]}
,"properties": {"GID_2": "DZA.3.27_1","GID_0": "DZA","country": "Algeria","GID_1": "DZA.3_1","province": "AïnTémouchent","NL_NAME_1": "ولايةعينتموشنت","county": "Tamzoura","VARNAME_2": "Tamzougha","NL_NAME_2": "NA","TYPE_2": "Commune","ENGTYPE_2": "Commune","CC_2": "4610","HASC_2": "DZ.AT.TA","name": "Tamzoura.county","area_km2": 231.2174,"hist_schema_id": "Elevation0-9000","hist_area_km2": {"75": 8.0419,"100": 66.1873,"125": 29.1586,"150": 29.8442,"175": 8.8996,"200": 5.0292,"225": 4.96,"250": 5.1503,"275": 4.9257,"300": 5.1332,"325": 5.1334,"350": 4.8914,"375": 5.3579,"400": 5.3752,"425": 4.7186,"450": 4.5804,"475": 4.1659,"500": 3.3881,"525": 3.561,"550": 2.9558,"575": 2.904,"600": 2.1435,"625": 2.2126,"650": 2.3337,"675": 2.3856,"700": 1.9362,"725": 1.6078,"750": 1.2622,"775": 0.7954,"800": 0.7608,"825": 0.6052,"850": 0.3285,"875": 0.3285,"900": 0.1556}}}