{"type": "Feature","bbox": [5.4579,34.8054,5.6984,35.1543],"geometry": {"type": "MultiPolygon","coordinates": [[[[5.4579,35.0471,260.0712],[5.462,35.0405,244.7614],[5.5105,34.8736,178.4338],[5.5273,34.806,396.5205],[5.5326,34.8072,360.0395],[5.5417,34.8054,441.5043],[5.5476,34.8116,357.4526],[5.5666,34.808,340.9759],[5.5853,34.8102,365.3577],[5.5898,34.8134,314.6484],[5.5877,34.8178,325.0328],[5.5904,34.828,325.4627],[5.5937,34.832,354.2675],[5.6054,34.8387,248.8691],[5.6124,34.8522,334.3539],[5.6255,34.865,257.1658],[5.6281,34.8701,295.2781],[5.6367,34.8789,316.3016],[5.6552,34.8937,259.1185],[5.6703,34.9029,316.6544],[5.6869,34.9119,282.253],[5.6984,34.9157,228.1222],[5.6957,34.9203,209.306],[5.6867,34.9232,197.13],[5.6703,34.9202,209.3698],[5.6651,34.9239,197.4203],[5.6628,34.9286,199.1945],[5.6641,34.9342,195.8478],[5.6602,34.9391,198.8856],[5.6603,34.9506,207.4482],[5.6585,34.9607,206.9585],[5.653,34.9611,209.9604],[5.6399,34.9702,216.0424],[5.6315,34.9789,224.2321],[5.6305,34.9974,231.5836],[5.6261,35.0122,242.6178],[5.6186,35.0245,247.6492],[5.625,35.0468,299.555],[5.6301,35.0481,321.4402],[5.6416,35.0476,354.9055],[5.6485,35.0522,412.8857],[5.6477,35.0582,406.9263],[5.6301,35.0711,398.3073],[5.6369,35.0856,392.5097],[5.6318,35.0879,394.363],[5.6279,35.093,394.2557],[5.6296,35.1035,410.9707],[5.6259,35.1062,408.4111],[5.6293,35.1092,406.1798],[5.6276,35.1482,418.8124],[5.6325,35.1543,432.1584],[5.6282,35.1536,411.7598],[5.6186,35.1468,389.7168],[5.613,35.1468,387.7625],[5.6082,35.143,383.7665],[5.6047,35.1367,388.4576],[5.5817,35.1243,381.0],[5.5851,35.1127,337.7662],[5.5867,35.0925,318.481],[5.5734,35.0797,312.5421],[5.5511,35.0696,329.0808],[5.5372,35.0655,309.0232],[5.5083,35.0654,280.7341],[5.503,35.0621,268.3972],[5.5001,35.057,259.5074],[5.4916,35.0487,273.7479],[5.4844,35.0475,282.4091],[5.4661,35.0488,361.6242],[5.4579,35.0471,260.0712]]]]}
,"properties": {"GID_2": "DZA.9.17_1","GID_0": "DZA","country": "Algeria","GID_1": "DZA.9_1","province": "Biskra","NL_NAME_1": "ولايةبسكرة","county": "ElOuitaya","VARNAME_2": "ElOutaya","NL_NAME_2": "NA","TYPE_2": "Commune","ENGTYPE_2": "Commune","CC_2": "719","HASC_2": "DZ.BS.EO","name": "El_Ouitaya.county","area_km2": 406.1696,"hist_schema_id": "Elevation0-9000","hist_area_km2": {"175": 37.2519,"200": 134.93,"225": 93.1309,"250": 44.6823,"275": 22.0916,"300": 16.8441,"325": 11.3558,"350": 11.3003,"375": 12.5121,"400": 14.9709,"425": 2.6044,"450": 1.2325,"475": 0.9546,"500": 0.7637,"525": 0.5901,"550": 0.3124,"575": 0.4339,"600": 0.2083}}}