{"type":"Feature","properties":{"GID_2":"DZA.47.65_1","GID_0":"DZA","country":"Algeria","GID_1":"DZA.47_1","province":"TiziOuzou","NL_NAME_1":"ولايةغليزان","county":"Yakourene","VARNAME_2":"Yakouren","NL_NAME_2":"NA","TYPE_2":"Commune","ENGTYPE_2":"Commune","CC_2":"1520","HASC_2":"DZ.TO.YK","name":"Yakourene.county"},
"geometry":{"type": "MultiPolygon","coordinates": [[[[4.539,36.7416,526.7383],[4.5316,36.7486,452.1165],[4.5281,36.755,361.8593],[4.5221,36.7574,371.2332],[4.5166,36.7648,351.0576],[4.4952,36.77,296.2444],[4.4859,36.7702,282.073],[4.4745,36.774,232.9503],[4.4643,36.785,259.9404],[4.4583,36.7815,230.7349],[4.4467,36.784,308.692],[4.433,36.783,477.5961],[4.4184,36.7793,723.7849],[4.42,36.7707,754.9097],[4.425,36.7667,812.9886],[4.4309,36.7648,724.3615],[4.4342,36.7595,687.1323],[4.4314,36.7546,730.0276],[4.434,36.751,718.113],[4.4272,36.7494,831.4192],[4.4148,36.7412,973.0426],[4.4021,36.7391,932.1153],[4.3932,36.7319,794.9409],[4.396,36.7272,715.7297],[4.4024,36.7269,660.3203],[4.4233,36.7145,807.1163],[4.4242,36.708,765.1082],[4.4229,36.7019,697.579],[4.4252,36.6963,588.3155],[4.4342,36.6999,611.3986],[4.4407,36.6992,617.3931],[4.4529,36.6946,758.3833],[4.463,36.6882,978.8849],[4.4933,36.6978,1211.139],[4.4997,36.6965,1179.8438],[4.5036,36.6982,1108.7927],[4.5021,36.7034,1139.7708],[4.5045,36.7082,1203.9138],[4.5084,36.7115,1272.9707],[4.5192,36.7153,1264.0122],[4.521,36.73,928.8263],[4.5243,36.7366,832.0944],[4.5344,36.7374,612.2476],[4.539,36.7416,526.7383]]]]}}