{"type":"Feature","properties":{"GID_2":"DZA.6.32_1","GID_0":"DZA","country":"Algeria","GID_1":"DZA.6_1","province":"Batna","NL_NAME_1":"ولايةباتنة","county":"Lemsane","VARNAME_2":"Lemcen","NL_NAME_2":"NA","TYPE_2":"Commune","ENGTYPE_2":"Commune","CC_2":"527","HASC_2":"DZ.BT.LE","name":"Lemsane.county"},
"geometry":{"type": "MultiPolygon","coordinates": [[[[5.8905,35.6175,1088.0471],[5.8454,35.6555,899.6516],[5.8157,35.6683,874.7568],[5.8025,35.6649,868.8299],[5.7999,35.6705,873.3683],[5.7945,35.666,870.025],[5.7814,35.6677,876.8671],[5.7399,35.663,869.0347],[5.728,35.6612,906.8582],[5.7123,35.6538,878.0373],[5.7127,35.6423,860.468],[5.7156,35.6381,851.2055],[5.7304,35.625,941.5967],[5.7323,35.618,1233.2838],[5.738,35.6166,1333.2988],[5.767,35.6213,1283.4901],[5.7915,35.621,1136.8091],[5.8048,35.6167,1250.657],[5.8285,35.6201,1050.0129],[5.8341,35.617,1120.4731],[5.8385,35.612,1186.4325],[5.8488,35.61,1409.2205],[5.8502,35.6154,1285.4574],[5.8548,35.6142,1272.6403],[5.8579,35.6103,1271.9163],[5.8905,35.6175,1088.0471]]]]}}