{"type":"Feature","properties":{"GID_2":"DZA.24.3_1","GID_0":"DZA","country":"Algeria","GID_1":"DZA.24_1","province":"Khenchela","NL_NAME_1":"ولايةخنشلة","county":"Baghai","VARNAME_2":"NA","NL_NAME_2":"NA","TYPE_2":"Commune","ENGTYPE_2":"Commune","CC_2":"4004","HASC_2":"DZ.KH.BG","name":"Baghai.county"},
"geometry":{"type": "MultiPolygon","coordinates": [[[[7.2923,35.5026,1037.0266],[7.2896,35.5076,1005.7063],[7.2766,35.5179,956.285],[7.2687,35.5164,955.2429],[7.2601,35.5216,934.3997],[7.2533,35.5352,915.2271],[7.2078,35.5468,876.9771],[7.21,35.5508,871.7864],[7.2088,35.5557,868.1451],[7.1989,35.5677,861.3615],[7.1166,35.5919,839.2624],[7.0872,35.5461,860.4674],[7.0924,35.5434,861.8629],[7.1112,35.5387,868.5657],[7.1084,35.53,873.1275],[7.1086,35.5186,887.9321],[7.1227,35.5027,930.1694],[7.1332,35.495,949.9824],[7.14,35.4926,944.172],[7.1475,35.4801,1014.6251],[7.1514,35.4666,1018.6222],[7.1604,35.4598,1015.3439],[7.1623,35.4534,1038.02],[7.1668,35.4516,1059.8125],[7.1711,35.441,1120.0651],[7.1808,35.4446,1078.5819],[7.1839,35.4488,1060.8956],[7.189,35.4519,1042.802],[7.1998,35.4534,1033.054],[7.2141,35.4616,1000.2561],[7.2204,35.4633,991.0139],[7.226,35.4674,985.4268],[7.2264,35.472,976.259],[7.2359,35.479,1083.5791],[7.2421,35.4815,1071.3857],[7.2559,35.4834,1033.2163],[7.2678,35.4741,1139.5858],[7.2702,35.4811,1199.1283],[7.2775,35.4905,1128.5637],[7.2866,35.5002,1119.2021],[7.2923,35.5026,1037.0266]]]]}}