{"type": "Feature","bbox": [6.0828,36.4962,6.2108,36.6024],"geometry": {"type": "MultiPolygon","coordinates": [[[[6.1063,36.6012,557.5901],[6.109,36.5827,778.0837],[6.1217,36.5735,948.7994],[6.118,36.5679,1029.8105],[6.088,36.5616,1219.4531],[6.0828,36.5468,946.5854],[6.0862,36.5411,834.1525],[6.0986,36.5393,729.4075],[6.0996,36.5338,675.1891],[6.0916,36.5263,591.578],[6.0898,36.5221,556.8655],[6.0915,36.513,373.589],[6.1023,36.5074,392.9081],[6.1153,36.5084,334.7062],[6.1191,36.5056,359.5681],[6.1169,36.4988,203.1705],[6.1218,36.4962,197.0],[6.1311,36.4977,197.0],[6.1354,36.4999,197.0],[6.1556,36.4997,197.0],[6.1604,36.501,197.0],[6.1662,36.5028,216.7798],[6.1736,36.5111,197.0],[6.1991,36.5156,197.0],[6.2108,36.5227,200.651],[6.1975,36.5337,239.6929],[6.1951,36.5393,381.2282],[6.1951,36.5512,433.8292],[6.1916,36.5556,522.5482],[6.1866,36.5679,709.7322],[6.185,36.5806,952.7498],[6.181,36.5851,944.2686],[6.1754,36.5827,1022.8615],[6.1615,36.5847,1123.1858],[6.1484,36.5899,1077.7756],[6.1369,36.5904,744.7772],[6.1323,36.5922,679.2554],[6.1296,36.5966,636.9379],[6.1295,36.6024,508.2469],[6.1233,36.601,534.2595],[6.1063,36.6012,557.5901]]]]}
,"properties": {"GID_2": "DZA.29.28_1","GID_0": "DZA","country": "Algeria","GID_1": "DZA.29_1","province": "Mila","NL_NAME_1": "ولايةميلة","county": "TerraiBainnane","VARNAME_2": "TerraiBainem","NL_NAME_2": "NA","TYPE_2": "Commune","ENGTYPE_2": "Commune","CC_2": "4323","HASC_2": "DZ.ML.TB","name": "Terrai_Bainnane.county","area_km2": 82.01727,"hist_schema_id": "Elevation0-9000","hist_area_km2": {"200": 6.39048,"225": 1.87439,"250": 1.95954,"275": 2.07875,"300": 1.32901,"325": 1.61866,"350": 1.85716,"375": 1.55047,"400": 1.99344,"425": 2.26602,"450": 2.24891,"475": 1.84005,"500": 2.23175,"525": 2.40183,"550": 2.74242,"575": 3.40686,"600": 4.63354,"625": 2.87852,"650": 2.36738,"675": 2.06082,"700": 2.1629,"725": 2.35022,"750": 2.21398,"775": 2.23093,"800": 1.63489,"825": 1.73704,"850": 1.82212,"875": 1.9072,"900": 2.12853,"925": 2.14554,"950": 1.70283,"975": 1.63472,"1000": 1.34528,"1025": 1.58361,"1050": 1.54949,"1075": 1.02168,"1100": 1.05573,"1125": 0.76628,"1150": 0.45982,"1175": 0.42575,"1200": 0.28951,"1225": 0.11921}}}