{"type":"Feature","properties":{"GID_2":"DZA.16.35_1","GID_0":"DZA","country":"Algeria","GID_1":"DZA.16_1","province":"Djelfa","NL_NAME_1":"ولايةالجلفة","county":"Zaafrane","VARNAME_2":"NA","NL_NAME_2":"NA","TYPE_2":"Commune","ENGTYPE_2":"Commune","CC_2":"1728","HASC_2":"DZ.DJ.ZF","name":"Zaafrane.county"},
"geometry":{"type": "MultiPolygon","coordinates": [[[[3.0869,34.6383,1285.4883],[3.084,34.6625,1407.6682],[3.0729,34.6905,1160.7852],[3.0711,34.7084,1120.064],[3.061,34.7082,1107.2883],[3.0488,34.7113,1075.1447],[3.0367,34.7118,1065.8542],[3.0176,34.724,1032.4602],[3.0101,34.7263,1012.9974],[3.0176,34.736,1018.6118],[3.0185,34.7408,1034.4281],[3.013,34.746,1003.8292],[3.0166,34.7494,1012.7258],[3.0329,34.7462,1047.114],[3.0304,34.752,1025.7607],[3.0405,34.7551,1051.4634],[3.0466,34.7593,1065.2339],[3.0537,34.7681,1041.8823],[3.0424,34.7747,1075.4077],[3.0436,34.7833,1092.9652],[3.0475,34.7901,1093.5006],[3.0363,34.7949,1054.3601],[3.0274,34.8013,1035.3325],[3.014,34.8154,972.364],[3.0121,34.8234,948.518],[3.0005,34.8289,926.0912],[2.9906,34.8372,907.9794],[2.959,34.8763,861.6582],[2.9383,34.9166,846.1578],[2.9089,34.9347,837.4032],[2.7619,34.9599,832.688],[2.7514,34.9819,856.4975],[2.7265,34.9955,874.8482],[2.6932,35.0048,927.2291],[2.6799,35.0255,986.5112],[2.6871,35.0468,950.0083],[2.6517,35.0362,1095.9441],[2.6331,35.0331,994.1011],[2.6034,35.0077,937.3598],[2.5915,35.0062,876.4503],[2.5465,35.0086,910.3903],[2.5234,35.0008,914.3287],[2.5012,34.9893,961.9112],[2.4983,34.9834,885.2563],[2.4749,34.8817,872.0177],[2.5237,34.8768,895.2119],[2.5491,34.8705,891.972],[2.5955,34.8637,869.5357],[2.6395,34.8606,866.0253],[2.698,34.8491,836.4176],[2.7261,34.8728,834.4398],[2.7432,34.8716,835.4973],[2.7675,34.8361,860.1497],[2.7721,34.8324,861.0153],[2.7763,34.8258,865.1654],[2.7709,34.8201,871.3158],[2.7718,34.8104,880.5795],[2.7689,34.8005,885.2933],[2.7767,34.7879,893.8474],[2.7737,34.7827,897.5325],[2.777,34.7776,903.5881],[2.7805,34.766,911.6897],[2.7829,34.7606,915.8824],[2.7921,34.7524,924.1732],[2.7923,34.7456,927.5089],[2.7977,34.7437,933.9958],[2.8107,34.7331,943.5133],[2.8223,34.737,941.5562],[2.843,34.7302,953.2827],[2.8452,34.7249,961.7451],[2.8479,34.7026,1005.6487],[2.8435,34.689,1011.7164],[2.8584,34.6826,1065.6809],[2.861,34.6715,1065.2671],[2.8632,34.6662,1065.1235],[2.8667,34.6629,1094.137],[2.8668,34.6583,1104.8055],[2.8628,34.6552,1109.3912],[2.8591,34.6417,1085.7609],[2.8647,34.6411,1057.8708],[2.8734,34.6357,1077.9045],[2.88,34.6267,1101.6606],[2.8796,34.608,1169.2208],[2.8715,34.5887,1226.3666],[2.869,34.573,1294.9894],[2.8624,34.5559,1369.8188],[2.8884,34.5567,1406.4611],[2.9196,34.5478,1249.6624],[2.9293,34.5474,1221.8657],[2.9392,34.5448,1254.9034],[2.9515,34.54,1286.3081],[2.9603,34.5423,1306.4231],[2.9822,34.5582,1369.5015],[3.0009,34.5753,1293.2867],[3.0158,34.596,1257.1208],[3.0341,34.6011,1237.2168],[3.0467,34.613,1201.921],[3.0869,34.6383,1285.4883]]]]}}