{"type": "Feature","bbox": [6.181,36.5227,6.2832,36.6159],"geometry": {"type": "MultiPolygon","coordinates": [[[[6.181,36.5851,944.2686],[6.185,36.5806,952.7498],[6.1866,36.5679,709.7322],[6.1916,36.5556,522.5482],[6.1951,36.5512,433.8292],[6.1951,36.5393,381.2282],[6.1975,36.5337,239.6929],[6.2108,36.5227,200.651],[6.2141,36.5269,230.4894],[6.2198,36.5303,197.0],[6.2266,36.5295,197.0],[6.2347,36.5345,197.0],[6.2412,36.5344,197.0],[6.2481,36.5365,197.0],[6.2524,36.5398,197.0],[6.265,36.5425,197.0],[6.2752,36.549,197.0],[6.274,36.5546,197.0],[6.2794,36.5646,197.0],[6.2768,36.5731,142.3803],[6.2809,36.5924,180.6792],[6.2797,36.5983,135.7543],[6.2832,36.6036,90.0745],[6.2818,36.6097,104.5365],[6.2825,36.6159,127.7766],[6.2593,36.611,266.3278],[6.2518,36.6021,519.8386],[6.2457,36.601,537.9919],[6.2467,36.5935,673.0309],[6.2449,36.5865,774.6074],[6.2417,36.5818,839.8204],[6.2247,36.5792,1123.4017],[6.206,36.5809,1215.8068],[6.1892,36.5857,1020.6606],[6.181,36.5851,944.2686]]]]}
,"properties": {"GID_2": "DZA.29.9_1","GID_0": "DZA","country": "Algeria","GID_1": "DZA.29_1","province": "Mila","NL_NAME_1": "ولايةميلة","county": "Cheraga","VARNAME_2": "Shiragha","NL_NAME_2": "NA","TYPE_2": "Commune","ENGTYPE_2": "Commune","CC_2": "4332","HASC_2": "DZ.AL.CH","name": "Cheraga.county","area_km2": 49.96301,"hist_schema_id": "Elevation0-9000","hist_area_km2": {"75": 0.49356,"100": 0.715,"125": 1.00433,"150": 0.85116,"175": 0.64685,"200": 5.05848,"225": 1.73709,"250": 1.70303,"275": 1.65193,"300": 1.63497,"325": 1.77122,"350": 1.37946,"375": 1.4135,"400": 1.54977,"425": 1.9414,"450": 1.53276,"475": 1.72006,"500": 1.58376,"525": 1.68596,"550": 1.49861,"575": 1.6178,"600": 1.39644,"625": 1.43045,"650": 1.22605,"675": 1.19199,"700": 1.05576,"725": 1.07276,"750": 0.9195,"775": 0.93651,"800": 0.90245,"825": 0.69812,"850": 0.69811,"875": 0.74918,"900": 0.51082,"925": 0.51081,"950": 0.40864,"975": 0.40864,"1000": 0.44269,"1025": 0.35755,"1050": 0.44267,"1075": 0.27242,"1100": 0.25539,"1125": 0.20431,"1150": 0.20431,"1175": 0.13621,"1200": 0.15323,"1225": 0.13621,"1250": 0.05108}}}