{"type":"Feature","properties":{"GID_2":"DZA.40.6_1","GID_0":"DZA","country":"Algeria","GID_1":"DZA.40_1","province":"SoukAhras","NL_NAME_1":"ولايةسوقأهراس","county":"Hanencha","VARNAME_2":"Hanancha","NL_NAME_2":"NA","TYPE_2":"Commune","ENGTYPE_2":"Commune","CC_2":"4103","HASC_2":"DZ.SA.HN","name":"Hanencha.county"},
"geometry":{"type": "MultiPolygon","coordinates": [[[[7.6649,36.2625,674.2328],[7.6595,36.2546,687.9438],[7.6603,36.2502,773.7572],[7.6565,36.2476,787.4664],[7.6335,36.2399,965.2501],[7.6242,36.2279,1208.075],[7.6226,36.2231,1153.4047],[7.6251,36.2182,1017.4319],[7.6304,36.2144,1015.7058],[7.633,36.2104,973.1383],[7.6372,36.2078,910.4019],[7.6439,36.2076,877.1816],[7.656,36.2014,831.6276],[7.6617,36.2041,824.4198],[7.6719,36.2037,807.5859],[7.6761,36.2051,805.928],[7.6803,36.2095,798.2582],[7.6867,36.2087,791.9116],[7.6963,36.2119,787.2977],[7.7083,36.2084,770.8571],[7.7442,36.2113,828.8362],[7.749,36.211,943.5652],[7.7542,36.2079,980.866],[7.7638,36.2077,1030.8704],[7.8006,36.2232,1066.3904],[7.8133,36.2199,913.0699],[7.8167,36.2129,842.3416],[7.8231,36.2094,798.6509],[7.8432,36.2118,731.3484],[7.8479,36.2154,722.851],[7.8725,36.223,696.3317],[7.8817,36.2172,767.9044],[7.896,36.2208,787.0454],[7.9125,36.2299,759.8564],[7.926,36.2351,714.0635],[7.9387,36.237,582.3922],[7.95,36.2469,557.1541],[7.9455,36.2516,584.4788],[7.9223,36.2554,555.7557],[7.9184,36.2656,619.6719],[7.9234,36.2696,607.9637],[7.925,36.2765,638.5118],[7.9238,36.2823,650.5721],[7.9143,36.2858,797.2687],[7.9053,36.2913,870.68],[7.8931,36.2939,918.4172],[7.8595,36.2966,1187.6407],[7.8477,36.3027,1197.4552],[7.8068,36.2992,900.6133],[7.7993,36.2924,1025.4558],[7.7856,36.2941,1048.8187],[7.7797,36.2928,1110.9519],[7.7708,36.2862,1054.7788],[7.7652,36.2847,1042.738],[7.7604,36.2859,907.2311],[7.7432,36.2991,934.1987],[7.7384,36.2968,980.8707],[7.7322,36.2988,924.2278],[7.724,36.2899,955.5208],[7.7263,36.2861,886.8623],[7.7257999999999996,36.2797,979.1128],[7.7201,36.2737,1110.9763],[7.7095,36.2662,1000.9845],[7.6952,36.2598,1179.2345],[7.6835,36.2603,1042.0541],[7.6792,36.2568,849.4876],[7.6753,36.2597,824.5875],[7.6649,36.2625,674.2328]]]]}}