{"type": "Feature","bbox": [4.847,36.491,4.9391,36.5352],"geometry": {"type": "MultiPolygon","coordinates": [[[[4.8611,36.4942,446.057],[4.8939,36.493,456.5466],[4.8984,36.491,444.557],[4.9098,36.492,515.9273],[4.9137,36.4954,472.2929],[4.9229,36.4978,459.7103],[4.9345,36.4962,459.509],[4.935,36.5074,656.3185],[4.9391,36.5154,922.8484],[4.9334,36.5174,872.3865],[4.9196,36.5175,897.8471],[4.9197,36.5228,770.099],[4.9114,36.5253,641.2324],[4.9092,36.5348,466.4937],[4.8792,36.5324,869.9014],[4.8733,36.5352,916.7888],[4.8583,36.5338,972.875],[4.866,36.5174,655.9102],[4.861,36.5146,697.371],[4.8546,36.5146,899.4952],[4.847,36.5053,818.1925],[4.8592,36.5012,520.8939],[4.8611,36.4942,446.057]]]]}
,"properties": {"GID_2": "DZA.37.18_1","GID_0": "DZA","country": "Algeria","GID_1": "DZA.37_1","province": "Sétif","NL_NAME_1": "ولايةسطيف","county": "Beni-Mouhli","VARNAME_2": "BeniMouhli","NL_NAME_2": "NA","TYPE_2": "Commune","ENGTYPE_2": "Commune","CC_2": "1946","HASC_2": "DZ.SF.BM","name": "Beni-Mouhli.county","area_km2": 27.09503,"hist_schema_id": "Elevation0-9000","hist_area_km2": {"425": 0.30681,"450": 0.69884,"475": 0.71586,"500": 0.90329,"525": 0.88621,"550": 0.93732,"575": 1.27814,"600": 1.44853,"625": 1.17584,"650": 1.38034,"675": 1.29513,"700": 1.56779,"725": 1.29507,"750": 1.65293,"775": 1.36324,"800": 1.60178,"825": 1.39729,"850": 1.38024,"875": 1.46542,"900": 1.27797,"925": 1.295,"950": 0.76675,"975": 0.49411,"1000": 0.28965,"1025": 0.18742,"1050": 0.03407}}}