{"type":"Feature","properties":{"GID_2":"DZA.27.28_1","GID_0":"DZA","country":"Algeria","GID_1":"DZA.27_1","province":"Mascara","NL_NAME_1":"ولايةمعسكر","county":"Makhda","VARNAME_2":"Makda","NL_NAME_2":"NA","TYPE_2":"Commune","ENGTYPE_2":"Commune","CC_2":"2915","HASC_2":"DZ.MC.MK","name":"Makhda.county"},
"geometry":{"type": "MultiPolygon","coordinates": [[[[0.3621,35.2119,895.9887],[0.363,35.2164,916.7632],[0.3658,35.2198,950.4675],[0.3528,35.2275,877.3495],[0.3468,35.225,852.812],[0.3243,35.2287,793.1979],[0.3161,35.2246,770.539],[0.2976,35.2258,718.8712],[0.2845,35.2277,668.056],[0.2789,35.2323,759.185],[0.2737,35.2329,822.6515],[0.2679,35.2368,770.7791],[0.2539,35.241,676.5117],[0.2364,35.2423,697.2645],[0.2273,35.2371,587.9534],[0.2219,35.2358,572.6153],[0.2234,35.2233,577.5358],[0.2137,35.2226,547.5519],[0.2156,35.2183,540.6271],[0.1954,35.1822,556.6556],[0.1944,35.1772,563.2501],[0.1971,35.1723,584.46],[0.206,35.1658,596.9226],[0.2095,35.1553,619.9856],[0.218,35.1472,629.3561],[0.2195,35.1402,646.249],[0.2224,35.1371,652.5299],[0.2352,35.1353,703.2765],[0.2477,35.1395,743.7119],[0.2584,35.1411,766.7496],[0.2615,35.1374,792.6984],[0.279,35.1393,887.5939],[0.2932,35.1443,887.3588],[0.2931,35.1511,943.1161],[0.3433,35.1581,999.5317],[0.3432,35.1658,972.7839],[0.3484,35.1722,959.3637],[0.3486,35.1779,936.6786],[0.3439,35.1909,924.296],[0.3486,35.1948,935.396],[0.3554,35.194,941.6401],[0.3545,35.1989,920.8762],[0.3511,35.2026,924.6453],[0.3485,35.209,853.1085],[0.3621,35.2119,895.9887]]]]}}