{"type":"Feature","properties":{"GID_2":"DZA.28.8_1","GID_0":"DZA","country":"Algeria","GID_1":"DZA.28_1","province":"Médéa","NL_NAME_1":"ولايةالمدية","county":"BeniSlimane","VARNAME_2":"NA","NL_NAME_2":"NA","TYPE_2":"Commune","ENGTYPE_2":"Commune","CC_2":"2646","HASC_2":"DZ.MD.BS","name":"Beni_Slimane.county"},
"geometry":{"type": "MultiPolygon","coordinates": [[[[3.3867,36.2732,484.6291],[3.3664,36.2736,606.3939],[3.3569,36.268,623.8679],[3.3551,36.2641,609.9475],[3.3472,36.2564,569.8374],[3.3229,36.2483,589.2557],[3.2992,36.248,647.7568],[3.292,36.2514,678.0073],[3.2871,36.2652,724.8574],[3.2796,36.2707,787.1567],[3.2771,36.2658,788.2975],[3.2556,36.2623,719.6378],[3.2453,36.2576,702.3132],[3.2403,36.2465,686.436],[3.2379,36.2282,657.4121],[3.2396,36.2214,653.4061],[3.2495,36.2238,637.3013],[3.2545,36.2229,632.8722],[3.2557,36.2123,647.5068],[3.259,36.2068,686.2884],[3.264,36.2034,682.2676],[3.2671,36.1941,710.6866],[3.268,36.1896,718.3729],[3.264,36.1752,774.7338],[3.2673,36.1694,755.6934],[3.2846,36.1636,796.2118],[3.294,36.163,864.3846],[3.318,36.1658,785.4847],[3.3286,36.1638,810.2878],[3.3408,36.166,708.1705],[3.3415,36.1715,683.0414],[3.3372,36.1819,646.6181],[3.3396,36.1868,658.955],[3.3461,36.1896,609.4907],[3.3394,36.1935,618.9033],[3.3398,36.1982,627.19],[3.3381,36.2038,594.8473],[3.3392,36.2092,597.8904],[3.3468,36.2208,559.796],[3.3562,36.2284,544.5278],[3.3607,36.228,539.9713],[3.368,36.2365,544.9097],[3.37,36.2432,514.2036],[3.3741,36.2479,516.3159],[3.3837,36.2525,511.0245],[3.3879,36.262,492.6428],[3.3867,36.2732,484.6291]]]]}}