{"type":"Feature","properties":{"GID_2":"DZA.15.8_1","GID_0":"DZA","country":"Algeria","GID_1":"DZA.15_1","province":"Constantine","NL_NAME_1":"قسنطينة","county":"ElKhroub","VARNAME_2":"al-Khurub","NL_NAME_2":"NA","TYPE_2":"Commune","ENGTYPE_2":"Commune","CC_2":"2506","HASC_2":"DZ.CO.EK","name":"El_Khroub.county"},
"geometry":{"type": "MultiPolygon","coordinates": [[[[6.538,36.2228,747.4799],[6.5375,36.2185,719.4966],[6.5423,36.2131,737.0449],[6.5402,36.2092,752.3342],[6.5295,36.206,765.962],[6.5316,36.2017,795.5906],[6.5426,36.1948,815.5098],[6.5443,36.1891,842.135],[6.5451,36.1833,855.0688],[6.5435,36.1776,885.3881],[6.5378,36.1708,940.6033],[6.5549,36.1587,964.0449],[6.5658,36.1572,958.3065],[6.5712,36.1586,918.4346],[6.5743,36.1552,904.2136],[6.5844,36.1532,843.5769],[6.5896,36.1491,836.88],[6.5963,36.147,866.2558],[6.6033,36.1583,915.1625],[6.6056,36.1723,884.9546],[6.6109,36.1731,956.6717],[6.6131,36.164,897.4473],[6.6315,36.1757,949.1573],[6.6441,36.1816,912.9886],[6.6571,36.1861,809.6152],[6.6669,36.187,776.935],[6.6772,36.1938,732.6898],[6.6855,36.1923,648.524],[6.693,36.1963,673.0459],[6.6994,36.2111,687.2521],[6.7006,36.2178,646.4281],[6.7058,36.221,641.7205],[6.7227,36.2379,655.0297],[6.7347,36.2416,633.6437],[6.7373,36.2455,631.238],[6.7327,36.2462,626.4648],[6.7305,36.2501,640.5907],[6.7361,36.2596,696.2953],[6.7597,36.2813,773.6032],[6.772,36.2861,796.7009],[6.7796,36.2935,850.3544],[6.782,36.2981,884.922],[6.782,36.3047,854.7172],[6.7767,36.3086,808.0881],[6.7703,36.3181,776.3596],[6.7637,36.3392,830.6702],[6.7621,36.357,776.7279],[6.7517,36.3531,722.3011],[6.7457,36.3545,735.3893],[6.7508,36.3689,922.6996],[6.7448,36.3757,940.9642],[6.7436,36.3817,974.5937],[6.7452,36.387,1071.6023],[6.7498,36.3931,1115.8015],[6.7453,36.3977,1102.7434],[6.753,36.4107,1104.9771],[6.7538,36.416,1080.7665],[6.7425,36.4106,1105.4634],[6.727,36.3945,1154.1534],[6.6998,36.3856,1050.2085],[6.6893,36.3804,928.5634],[6.6865,36.3766,939.661],[6.691,36.3665,763.8187],[6.6846,36.3581,707.2481],[6.6823,36.3495,724.714],[6.6884,36.3334,771.7747],[6.7012,36.3227,628.5714],[6.6993,36.3144,632.5723],[6.6932,36.306,593.1402],[6.6879,36.3038,584.4437],[6.6808,36.3049,599.5664],[6.6757,36.308,572.6708],[6.6563,36.2925,670.8033],[6.6571,36.2879,678.7731],[6.6603,36.2833,641.6484],[6.6607,36.2733,629.984],[6.6458,36.2809,658.402],[6.6349,36.2897,683.2188],[6.6242,36.2901,665.869],[6.6361,36.2779,667.1348],[6.6419,36.2742,640.4655],[6.6409,36.2678,663.9083],[6.6366,36.2641,655.173],[6.6282,36.2617,669.6261],[6.6148,36.2837,701.7354],[6.6101,36.2879,703.9778],[6.6038,36.2894,711.5463],[6.5911,36.2878,752.6025],[6.5738,36.2619,796.7072],[6.5699,36.2439,806.5868],[6.5725,36.2365,782.1711],[6.5693,36.2294,808.4512],[6.5594,36.2188,831.0088],[6.5444,36.2227,784.5985],[6.538,36.2228,747.4799]]]]}}