{"type":"Feature","properties":{"GID_2":"DZA.19.14_1","GID_0":"DZA","country":"Algeria","GID_1":"DZA.19_1","province":"ElTarf","NL_NAME_1":"ولايةالطارف","county":"Echatt","VARNAME_2":"NA","NL_NAME_2":"NA","TYPE_2":"Commune-Cotiere","ENGTYPE_2":"Commune-Cotiere","CC_2":"3618","HASC_2":"DZ.ET.EC","name":"Echatt.county"},
"geometry":{"type": "MultiPolygon","coordinates": [[[[7.778,36.8199,5.9783],[7.7782,36.8146,7.4322],[7.7765,36.81,8.7826],[7.7812,36.8064,8.4709],[7.7803,36.8019,8.5871],[7.7728,36.7936,8.5715],[7.7735,36.7811,9.3153],[7.793,36.7732,7.1468],[7.8032,36.7785,4.8939],[7.8163,36.7782,4.9363],[7.8271,36.7815,3.9133],[7.8375,36.7774,5.7008],[7.841,36.7805,5.3667],[7.8525,36.7817,3.9876],[7.8755,36.7758,3.8461],[7.8734,36.786,3.5879],[7.8708,36.7896,3.1944],[7.8793,36.7965,2.4723],[7.8844,36.8065,1.6522],[7.9017,36.8111,0.9901],[7.9036,36.8169,1.0116],[7.8998,36.8216,1.2503],[7.9031,36.8244,1.3963],[7.9058,36.8407,14.0652],[7.901,36.8435,1.9508],[7.8471,36.8428,1.5098],[7.8172,36.8476,1.2911],[7.8213,36.8425,1.694],[7.8271,36.8392,0.799],[7.8302,36.8219,1.0622],[7.8138,36.8141,3.159],[7.803,36.8182,4.1376],[7.7847,36.8218,4.7954],[7.778,36.8199,5.9783]]]]}}