{"type":"Feature","properties":{"GID_2":"DZA.14.34_1","GID_0":"DZA","country":"Algeria","GID_1":"DZA.14_1","province":"Chlef","NL_NAME_1":"ولايةالشلف","county":"Tenes","VARNAME_2":"Tanas","NL_NAME_2":"NA","TYPE_2":"Commune-Cotiere","ENGTYPE_2":"Commune-Cotiere","CC_2":"202","HASC_2":"DZ.CH.TN","name":"Tenes.county"},
"geometry":{"type": "MultiPolygon","coordinates": [[[[1.417,36.5353,104.1186],[1.4112,36.5385,13.6035],[1.3933,36.5376,0.0],[1.3893,36.5409,4.6526],[1.3886,36.5463,5.3878],[1.3847,36.5514,21.43],[1.367,36.5507,0.0],[1.3622,36.553,21.3402],[1.3409,36.5499,78.7814],[1.3372,36.5434,21.1813],[1.3317,36.5387,60.2087],[1.3294,36.5332,4.3414],[1.3186,36.5252,0.0],[1.3152,36.5181,1.3895],[1.3098,36.5153,3.1311],[1.2842,36.5073,0.0],[1.2656,36.5066,14.4116],[1.2529,36.5039,1.7098],[1.2303,36.5046,5.7098],[1.224,36.5063,2.2484],[1.2203,36.5028,9.1101],[1.2182,36.4967,59.2372],[1.2119,36.4879,96.9267],[1.21,36.4776,190.042],[1.2109,36.4714,149.7462],[1.2165,36.4611,236.4012],[1.2231,36.4651,314.1419],[1.2276,36.4701,445.9362],[1.2342,36.4724,464.8073],[1.2442,36.4711,402.9508],[1.2563,36.4729,379.3774],[1.2943,36.4895,380.148],[1.3002,36.4887,341.9889],[1.3085,36.4827,152.8453],[1.3184,36.4861,165.1084],[1.3238,36.4856,135.1387],[1.3288,36.4826,173.8445],[1.3326,36.4775,177.6779],[1.3528,36.4759,363.1383],[1.3722,36.4781,625.1575],[1.3872,36.4762,641.4164],[1.3948,36.4771,533.5386],[1.3992,36.4794,504.8419],[1.3994,36.4931,460.2386],[1.4011,36.4981,490.2331],[1.4114,36.5066,423.1427],[1.413,36.5125,451.6934],[1.4098,36.5156,526.8354],[1.4171,36.5273,272.0808],[1.417,36.5353,104.1186]]]]}}