{"type":"Feature","properties":{"GID_2":"DZA.8.25_1","GID_0":"DZA","country":"Algeria","GID_1":"DZA.8_1","province":"Béjaïa","NL_NAME_1":"بجاية","county":"Ighil-Ali","VARNAME_2":"IghilAli","NL_NAME_2":"NA","TYPE_2":"Commune","ENGTYPE_2":"Commune","CC_2":"617","HASC_2":"DZ.BJ.IA","name":"Ighil-Ali.county"},
"geometry":{"type": "MultiPolygon","coordinates": [[[[4.4861,36.3628,461.31],[4.4841,36.3553,531.8003],[4.4805,36.3493,630.6769],[4.4577,36.3468,525.9312],[4.447,36.3372,693.1008],[4.4576,36.3234,997.9579],[4.4548,36.3189,780.4983],[4.4544,36.3097,1010.9618],[4.458,36.3052,1027.3458],[4.4546,36.2996,887.3506],[4.4423,36.2951,587.5912],[4.4387,36.2876,722.6704],[4.4438,36.2808,746.6944],[4.4329,36.2752,769.0565],[4.4322,36.2618,529.5779],[4.4129,36.251,432.9627],[4.4014,36.2526,407.758],[4.3923,36.2472,423.3631],[4.3952,36.2423,399.5516],[4.3943,36.2372,384.1579],[4.398,36.224,405.9855],[4.4095,36.2185,448.2247],[4.4297,36.2215,691.4514],[4.4644,36.2218,801.4422],[4.47,36.2251,839.5714],[4.4775,36.2251,901.7165],[4.4958,36.2297,970.9947],[4.5067,36.2283,1035.4452],[4.5247,36.2332,1082.9402],[4.5206,36.237,1115.5027],[4.5198,36.2422,936.1564],[4.5251,36.2488,1108.7932],[4.5326,36.2513,1133.1255],[4.5395,36.2512,1166.4651],[4.5555,36.2473,1150.9792],[4.5704,36.2574,1206.1638],[4.5883,36.2553,1225.4584],[4.6,36.2581,1225.8186],[4.6082,36.2566,1249.9622],[4.6139,36.2581,1202.5142],[4.618,36.2612,1149.9906],[4.6223,36.2681,1183.6155],[4.6189,36.2734,924.4164],[4.6072,36.2731,807.7811],[4.6008,36.2784,788.9089],[4.5994,36.2894,649.8099],[4.6053,36.3014,646.7578],[4.6062,36.3111,571.9581],[4.6049,36.3207,592.0249],[4.6127,36.3284,1009.5283],[4.6209,36.342,645.6802],[4.6151,36.3516,620.7437],[4.6088,36.3517,685.3885],[4.5941,36.3461,494.9465],[4.5911,36.3505,390.5032],[4.5855,36.3516,504.1403],[4.5713,36.3449,760.1394],[4.5609,36.3431,623.9526],[4.5533,36.3542,460.6923],[4.5389,36.3532,427.1543],[4.5279,36.3499,654.1923],[4.518,36.3499,701.6429],[4.5049,36.3535,597.6948],[4.4924,36.3611,404.423],[4.4861,36.3628,461.31]]]]}}