{"type": "Feature","bbox": [6.3071,35.8452,6.4889,36.0334],"geometry": {"type": "MultiPolygon","coordinates": [[[[6.4515,35.8465,793.8139],[6.4576,35.8557,789.746],[6.4782,35.8996,788.7467],[6.478,35.907,819.5431],[6.4709,35.9212,1043.1045],[6.4854,35.9322,1107.4434],[6.4889,35.9495,1177.0281],[6.4879,35.9542,1437.1465],[6.4768,35.9612,1461.7739],[6.4672,35.9725,1251.1282],[6.462,35.9866,1124.9191],[6.4616,35.9926,1019.7753],[6.4553,35.9966,1063.4504],[6.4522,36.0012,905.4742],[6.4376,36.0083,920.4882],[6.4147,36.0224,899.7366],[6.4059,36.0334,874.8981],[6.3771,36.0135,926.1516],[6.3649,35.9964,960.1779],[6.3601,35.9931,932.5842],[6.3444,35.976,1023.0439],[6.3312,35.9823,1010.4464],[6.3189,35.9842,1074.3804],[6.3133,35.9837,1136.3882],[6.3071,35.9793,1049.9353],[6.3082,35.9702,1001.3839],[6.3151,35.9517,918.8264],[6.3162,35.9386,866.1674],[6.333,35.8804,862.7128],[6.3317,35.8748,854.3474],[6.3505,35.8785,981.2041],[6.353,35.874,1106.127],[6.3525,35.8617,926.5247],[6.3547,35.8572,859.7639],[6.4197,35.8452,799.1039],[6.4515,35.8465,793.8139]]]]}
,"properties": {"GID_2": "DZA.34.28_1","GID_0": "DZA","country": "Algeria","GID_1": "DZA.34_1","province": "OumelBouaghi","NL_NAME_1": "ولايةأمالبواقي","county": "SoukNaamane","VARNAME_2": "Shamūrah","NL_NAME_2": "NA","TYPE_2": "Commune","ENGTYPE_2": "Commune","CC_2": "417","HASC_2": "DZ.OB.SN","name": "Souk_Naamane.county","area_km2": 227.1464,"hist_schema_id": "Elevation0-9000","hist_area_km2": {"775": 1.6319,"800": 59.4523,"825": 24.3146,"850": 18.956,"875": 13.9239,"900": 13.0099,"925": 12.8194,"950": 12.081,"975": 12.6816,"1000": 12.9391,"1025": 10.4333,"1050": 8.7002,"1075": 6.3835,"1100": 4.5131,"1125": 3.3462,"1150": 2.9515,"1175": 2.6598,"1200": 1.7675,"1225": 1.2012,"1250": 0.7379,"1275": 0.6521,"1300": 0.5319,"1325": 0.5319,"1350": 0.2231,"1375": 0.2574,"1400": 0.0858,"1425": 0.103,"1450": 0.1373,"1475": 0.1201}}}