{"type":"Feature","properties":{"GID_2":"DZA.32.18_1","GID_0":"DZA","country":"Algeria","GID_1":"DZA.32_1","province":"Oran","NL_NAME_1":"ولايةوهران","county":"HassiMefsoukh","VARNAME_2":"NA","NL_NAME_2":"NA","TYPE_2":"Commune","ENGTYPE_2":"Commune","CC_2":"3121","HASC_2":"DZ.OR.HM","name":"Hassi_Mefsoukh.county"},
"geometry":{"type": "MultiPolygon","coordinates": [[[[-0.3574,35.8002,107.7113],[-0.3644,35.8031,113.0361],[-0.3866,35.8172,144.9771],[-0.397,35.8063,174.6665],[-0.3917,35.7899,141.7143],[-0.3762,35.7686,89.7492],[-0.3641,35.7631,83.7374],[-0.3583,35.7623,85.0059],[-0.3487,35.7551,103.9944],[-0.3388,35.7535,134.2263],[-0.3056,35.7382,133.431],[-0.2863,35.7563,97.5604],[-0.3511,35.7743,84.8763],[-0.3573,35.7783,92.8164],[-0.3574,35.8002,107.7113]]]]}}