{"type": "Feature","bbox": [4.6961,36.5819,4.812,36.6497],"geometry": {"type": "MultiPolygon","coordinates": [[[[4.8065,36.5928,519.0128],[4.8093,36.6142,245.64],[4.812,36.6202,170.6229],[4.8073,36.6264,103.2797],[4.8112,36.6447,48.8485],[4.7963,36.6493,55.0075],[4.7897,36.6497,54.5488],[4.786,36.6467,55.8255],[4.785,36.6388,56.6397],[4.779,36.6385,61.1048],[4.7741,36.6408,61.7112],[4.7647,36.6373,62.2838],[4.7618,36.6332,67.0921],[4.7558,36.6314,66.4549],[4.7431,36.635,70.7077],[4.7353,36.6254,116.2292],[4.7239,36.6229,78.6634],[4.7181,36.6261,116.0381],[4.7123,36.6241,84.9097],[4.7019,36.6053,273.5412],[4.6961,36.6004,214.5773],[4.7095,36.5987,569.8976],[4.7229,36.5929,542.822],[4.7325,36.5914,790.6785],[4.7351,36.5826,437.667],[4.75,36.5924,899.6196],[4.7524,36.5888,1052.4913],[4.7591,36.5897,1085.498],[4.7648,36.587,1063.5559],[4.7673,36.5819,1021.9739],[4.7782,36.5874,1010.5652],[4.7858,36.5869,791.8818],[4.7921,36.5844,701.5985],[4.7993,36.5874,662.1649],[4.8065,36.5928,519.0128]]]]}
,"properties": {"GID_2": "DZA.8.45_1","GID_0": "DZA","country": "Algeria","GID_1": "DZA.8_1","province": "Béjaïa","NL_NAME_1": "بجاية","county": "Timezrit","VARNAME_2": "Timzrit","NL_NAME_2": "NA","TYPE_2": "Commune","ENGTYPE_2": "Commune","CC_2": "607","HASC_2": "DZ.BJ.TM","name": "Timezrit.county","area_km2": 46.88642,"hist_schema_id": "Elevation0-9000","hist_area_km2": {"50": 3.99795,"75": 4.32174,"100": 1.61649,"125": 1.54847,"150": 1.2422,"175": 1.27627,"200": 1.24225,"225": 1.25929,"250": 1.51459,"275": 1.49758,"300": 1.25935,"325": 1.03813,"350": 1.03813,"375": 0.93604,"400": 0.68076,"425": 0.79991,"450": 0.91905,"475": 0.64674,"500": 0.86802,"525": 0.93612,"550": 0.85103,"575": 1.00423,"600": 0.8851,"625": 1.08936,"650": 0.93619,"675": 1.12343,"700": 1.15747,"725": 1.07236,"750": 0.93619,"775": 0.81704,"800": 0.78299,"825": 0.66385,"850": 0.54469,"875": 0.78299,"900": 0.61278,"925": 0.74895,"950": 0.52768,"975": 0.64684,"1000": 0.69793,"1025": 0.64687,"1050": 0.85117,"1075": 0.40857,"1100": 0.3575,"1125": 0.10214}}}