{"type": "Feature","bbox": [3.0452,36.3072,3.214,36.4391],"geometry": {"type": "MultiPolygon","coordinates": [[[[3.0655,36.4281,367.1858],[3.0486,36.4391,355.0081],[3.0452,36.4362,367.8002],[3.0548,36.4276,418.1628],[3.0519,36.4039,456.2917],[3.0526,36.3871,458.0969],[3.0498,36.3819,436.3878],[3.054,36.3787,522.5937],[3.0595,36.3693,571.2769],[3.0666,36.3615,703.3346],[3.066,36.3516,885.4767],[3.0635,36.3464,980.6278],[3.0639,36.3414,1103.0208],[3.0709,36.34,1090.3406],[3.0832,36.3422,1102.9149],[3.0954,36.3478,1129.959],[3.0998,36.3484,1154.9036],[3.1041,36.348,1157.5796],[3.1104,36.3408,1070.4204],[3.1203,36.3434,1169.795],[3.1251,36.3426,1024.1907],[3.1243,36.3383,1099.7188],[3.1199,36.3345,1142.6324],[3.1193,36.3141,1031.6145],[3.1225,36.3072,1007.6441],[3.1325,36.3107,946.9053],[3.1443,36.3111,708.7305],[3.1497,36.3098,670.9622],[3.1691,36.3123,645.6794],[3.1765,36.3153,632.2433],[3.1815,36.324,753.4229],[3.187,36.325,684.8797],[3.1993,36.3315,696.5718],[3.2054,36.3435,897.9994],[3.2048,36.3487,918.405],[3.202,36.3525,908.7795],[3.214,36.3568,883.756],[3.2134,36.3655,839.9816],[3.2112,36.3711,690.0541],[3.2129,36.3762,607.2667],[3.2073,36.3773,637.8541],[3.2033,36.3812,720.2567],[3.2018,36.3856,732.9332],[3.208,36.3967,769.373],[3.1769,36.3967,984.1066],[3.1704,36.3986,1003.4809],[3.1627,36.4109,1060.1921],[3.1454,36.4067,962.9531],[3.1356,36.3986,684.7175],[3.1305,36.4011,717.8066],[3.1226,36.4156,640.2742],[3.117,36.4198,551.7319],[3.1018,36.4246,465.9475],[3.0861,36.4202,455.439],[3.0835,36.4152,462.7534],[3.0767,36.4098,602.5718],[3.0666,36.4049,781.2215],[3.0674,36.4124,770.3264],[3.0655,36.4281,367.1858]]]]}
,"properties": {"GID_2": "DZA.28.6_1","GID_0": "DZA","country": "Algeria","GID_1": "DZA.28_1","province": "Médéa","NL_NAME_1": "ولايةالمدية","county": "Baata","VARNAME_2": "NA","NL_NAME_2": "NA","TYPE_2": "Commune","ENGTYPE_2": "Commune","CC_2": "2624","HASC_2": "DZ.MD.BA","name": "Baata.county","area_km2": 122.71528,"hist_schema_id": "Elevation0-9000","hist_area_km2": {"325": 0.10235,"350": 0.28999,"375": 0.29001,"400": 0.18765,"425": 0.25591,"450": 0.47773,"475": 0.61423,"500": 0.66546,"525": 0.80199,"550": 1.16039,"575": 1.29698,"600": 1.72373,"625": 2.40692,"650": 2.81688,"675": 3.36322,"700": 4.37051,"725": 4.71232,"750": 5.10488,"775": 5.97541,"800": 6.48786,"825": 6.74378,"850": 6.24862,"875": 6.4366,"900": 6.70958,"925": 7.56323,"950": 6.18027,"975": 6.62409,"1000": 5.95835,"1025": 5.82208,"1050": 4.90003,"1075": 4.60974,"1100": 3.48295,"1125": 2.62927,"1150": 2.11704,"1175": 1.2805,"1200": 1.26335,"1225": 0.6829,"1250": 0.34143,"1275": 0.01707}}}