{"type": "Feature","bbox": [2.3194,36.2657,2.468,36.3474],"geometry": {"type": "MultiPolygon","coordinates": [[[[2.3766,36.3273,383.2958],[2.3795,36.3151,331.8959],[2.3744,36.3129,337.5962],[2.3455,36.3143,385.7378],[2.3362,36.3122,453.2537],[2.3313,36.3094,441.5524],[2.3276,36.3034,446.2641],[2.3194,36.2984,491.7686],[2.3256,36.2934,578.7186],[2.3274,36.2865,629.4167],[2.3231,36.2828,748.1752],[2.3307,36.2767,739.5799],[2.34,36.2744,758.5184],[2.3633,36.2726,742.8329],[2.3815,36.2659,695.5615],[2.387,36.2657,690.9164],[2.416,36.2725,732.5572],[2.4521,36.2856,755.5513],[2.4674,36.2895,752.2891],[2.468,36.3001,648.1021],[2.4533,36.3238,388.9131],[2.4535,36.3305,329.6672],[2.4308,36.3474,328.5922],[2.4109,36.3343,341.9649],[2.4053,36.3357,402.4063],[2.4,36.3346,417.1931],[2.3967,36.3304,393.7701],[2.3915,36.3309,429.6767],[2.3845,36.3364,497.0172],[2.3824,36.3273,396.8386],[2.3766,36.3273,383.2958]]]]}
,"properties": {"GID_2": "DZA.2.25_1","GID_0": "DZA","country": "Algeria","GID_1": "DZA.2_1","province": "AïnDefla","NL_NAME_1": "ولايةعينالدفلى","county": "Hoceinia","VARNAME_2": "ElHoceinia","NL_NAME_2": "NA","TYPE_2": "Commune","ENGTYPE_2": "Commune","CC_2": "4427","HASC_2": "DZ.AD.HO","name": "Hoceinia.county","area_km2": 71.39012,"hist_schema_id": "Elevation0-9000","hist_area_km2": {"275": 1.34925,"300": 2.61339,"325": 4.64649,"350": 7.58541,"375": 10.38802,"400": 8.91931,"425": 5.89524,"450": 5.33131,"475": 3.87911,"500": 3.45204,"525": 2.58065,"550": 2.39267,"575": 2.11927,"600": 1.93132,"625": 1.62369,"650": 1.65789,"675": 1.43572,"700": 1.41866,"725": 1.17937,"750": 0.71786,"775": 0.27345}}}