{"type": "Feature","bbox": [1.5785,35.5373,1.7291,35.6913],"geometry": {"type": "MultiPolygon","coordinates": [[[[1.7081,35.5717,809.8747],[1.7179,35.5808,852.3744],[1.7196,35.5852,868.7542],[1.7188,35.5919,930.9052],[1.7229,35.5983,982.5107],[1.7228,35.6038,996.1163],[1.7195,35.608,993.7469],[1.7194,35.614,955.7054],[1.7236,35.6311,886.7281],[1.7291,35.6333,957.0963],[1.7096,35.6391,819.436],[1.7054,35.6417,796.9097],[1.6948,35.651,794.3024],[1.6671,35.67,798.9691],[1.6583,35.6726,783.4348],[1.6513,35.6815,837.244],[1.6296,35.6846,735.2302],[1.6072,35.6913,713.6171],[1.6039,35.6861,655.815],[1.6052,35.6719,784.1177],[1.6014,35.6671,896.0927],[1.6032,35.6553,1159.1323],[1.5972,35.6496,1034.6226],[1.5919,35.6397,1034.7991],[1.5802,35.6288,918.9186],[1.5785,35.6243,814.7493],[1.5838,35.6222,793.8],[1.588,35.6179,730.5454],[1.5886,35.6111,754.1616],[1.5983,35.6061,705.088],[1.6012,35.5998,705.1187],[1.5988,35.5886,771.9893],[1.6028,35.5844,809.7297],[1.6016,35.5778,723.7617],[1.6309,35.5598,814.535],[1.6366,35.5461,796.0318],[1.6502,35.5426,832.5382],[1.6608,35.5442,861.7808],[1.6663,35.5419,894.1816],[1.6802,35.5405,940.4801],[1.6832,35.5373,930.9669],[1.6979,35.5467,942.123],[1.6991,35.5556,893.3569],[1.6926,35.569,800.2579],[1.6939,35.5742,787.4345],[1.7081,35.5717,809.8747]]]]}
,"properties": {"GID_2": "DZA.46.1_1","GID_0": "DZA","country": "Algeria","GID_1": "DZA.46_1","province": "Tissemsilt","NL_NAME_1": "ولايةتسمسيلت","county": "Ammari","VARNAME_2": "NA","NL_NAME_2": "NA","TYPE_2": "Commune","ENGTYPE_2": "Commune","CC_2": "3813","HASC_2": "DZ.TS.AM","name": "Ammari.county","area_km2": 140.8409,"hist_schema_id": "Elevation0-9000","hist_area_km2": {"650": 0.31,"675": 1.4298,"700": 4.9802,"725": 9.1862,"750": 18.1846,"775": 21.1319,"800": 19.5808,"825": 15.9447,"850": 12.3083,"875": 8.8951,"900": 7.2745,"925": 5.5163,"950": 6.5519,"975": 3.1711,"1000": 2.602,"1025": 1.499,"1050": 1.0855,"1075": 0.672,"1100": 0.3446,"1125": 0.0689,"1150": 0.0689,"1175": 0.0345}}}