{"type":"Feature","properties":{"GID_2":"DZA.47.53_1","GID_0":"DZA","country":"Algeria","GID_1":"DZA.47_1","province":"TiziOuzou","NL_NAME_1":"ولايةغليزان","county":"Ouaguenoun","VARNAME_2":"NA","NL_NAME_2":"NA","TYPE_2":"Commune","ENGTYPE_2":"Commune","CC_2":"1524","HASC_2":"DZ.TO.OG","name":"Ouaguenoun.county"},
"geometry":{"type": "MultiPolygon","coordinates": [[[[4.1707,36.7303,160.2281],[4.1746,36.7251,178.6252],[4.1787,36.7288,166.5386],[4.1846,36.73,126.5208],[4.1974,36.7272,106.8966],[4.2033,36.7288,114.7707],[4.2096,36.7343,190.5847],[4.2254,36.754,245.371],[4.2336,36.7529,231.9193],[4.2372,36.7575,213.3798],[4.2194,36.7656,146.6171],[4.2174,36.7707,188.7362],[4.2095,36.7777,164.6655],[4.2033,36.7791,186.2221],[4.1875,36.7765,178.5656],[4.163,36.7879,237.9931],[4.1505,36.7907,190.5039],[4.1411,36.7912,157.2115],[4.1317,36.789,150.3094],[4.1185,36.782,113.37],[4.1243,36.7724,286.0628],[4.1301,36.7665,554.5345],[4.1374,36.764,761.8193],[4.1441,36.754,550.8242],[4.1499,36.754,404.5605],[4.1552,36.7502,248.9588],[4.1588,36.7449,189.7615],[4.1641,36.7461,186.8431],[4.1655,36.741,162.9603],[4.1688,36.7378,144.382],[4.1707,36.7303,160.2281]]]]}}