{"type":"Feature","properties":{"GID_2":"DZA.37.15_1","GID_0":"DZA","country":"Algeria","GID_1":"DZA.37_1","province":"Sétif","NL_NAME_1":"ولايةسطيف","county":"BeidhaBordj","VARNAME_2":"NA","NL_NAME_2":"NA","TYPE_2":"Commune","ENGTYPE_2":"Commune","CC_2":"1929","HASC_2":"DZ.SF.BB","name":"Beidha_Bordj.county"},
"geometry":{"type": "MultiPolygon","coordinates": [[[[5.7504,35.9111,874.0],[5.7316,35.9089,881.0054],[5.71,35.9023,884.8843],[5.6958,35.9006,887.5595],[5.6926,35.9183,932.3683],[5.6787,35.9228,973.4339],[5.663,35.9135,928.0032],[5.6579,35.9169,939.5939],[5.653,35.9158,956.827],[5.645,35.9027,966.0536],[5.6331,35.9094,906.694],[5.6296,35.9041,904.8986],[5.6326,35.891,897.8543],[5.6279,35.8834,902.1455],[5.6224,35.8816,895.0],[5.6196,35.8733,898.9312],[5.6095,35.8606,914.7467],[5.5998,35.8555,920.3217],[5.5879,35.844,955.1975],[5.582,35.8405,938.1661],[5.5824,35.8359,938.8637],[5.5789,35.8305,944.5507],[5.5811,35.8186,989.1173],[5.5848,35.8162,1000.405],[5.6145,35.8165,978.6433],[5.6136,35.8101,1001.3161],[5.6185,35.8068,1020.7411],[5.623,35.7909,1236.5376],[5.655,35.778,1256.8141],[5.6672,35.765,1370.5474],[5.6738,35.7662,1313.1162],[5.682,35.7624,1207.0184],[5.692,35.754,1418.4371],[5.6994,35.7534,1451.675],[5.7046,35.7576,1406.6276],[5.7085,35.7636,1425.7522],[5.7187,35.7689,1332.4351],[5.722,35.773,1297.2441],[5.7191,35.7851,1148.5458],[5.725,35.7923,1114.4539],[5.7339,35.7919,1130.4116],[5.7393,35.7936,1146.9587],[5.7427,35.8067,1194.7675],[5.7404,35.8131,1241.9436],[5.7316,35.8227,1427.4961],[5.7266,35.8218,1345.6658],[5.7218,35.8184,1200.802],[5.7167,35.8182,1179.5735],[5.7013,35.8216,1119.0691],[5.6948,35.8202,1019.3035],[5.687,35.8232,995.1068],[5.6821,35.8276,978.8843],[5.6845,35.8551,929.8839],[5.688,35.8636,915.0214],[5.7035,35.8741,907.0764],[5.7128,35.8772,911.1968],[5.7117,35.8814,909.0667],[5.726,35.8916,907.4674],[5.7484,35.8972,887.8694],[5.7547,35.902,880.4481],[5.7561,35.908,874.0],[5.7504,35.9111,874.0]]]]}}