{"type": "Feature","bbox": [3.1877,35.1633,3.5944,35.5204],"geometry": {"type": "MultiPolygon","coordinates": [[[[3.4081,35.5198,757.8367],[3.4029,35.5204,758.2125],[3.3876,35.5171,757.0995],[3.3459,35.5058,757.6936],[3.2763,35.4801,737.9983],[3.2013,35.4704,705.8008],[3.2208,35.4225,718.3674],[3.225,35.4088,726.7441],[3.23,35.365,754.8861],[3.1934,35.3365,760.2081],[3.1877,35.3306,760.7073],[3.2285,35.2924,809.8032],[3.2358,35.2635,907.1961],[3.2349,35.2421,980.539],[3.2455,35.2131,996.5042],[3.2482,35.1838,882.9406],[3.2777,35.1995,877.5101],[3.3863,35.1852,775.6287],[3.3938,35.1864,771.9574],[3.4184,35.1829,754.654],[3.4397,35.1633,754.0],[3.5944,35.264,754.0],[3.5911,35.2694,754.0],[3.5388,35.3276,942.4403],[3.4754,35.3603,957.1452],[3.4526,35.4322,896.9368],[3.4081,35.5198,757.8367]]]]}
,"properties": {"GID_2": "DZA.16.22_1","GID_0": "DZA","country": "Algeria","GID_1": "DZA.16_1","province": "Djelfa","NL_NAME_1": "ولايةالجلفة","county": "HadSahary","VARNAME_2": "NA","NL_NAME_2": "NA","TYPE_2": "Commune","ENGTYPE_2": "Commune","CC_2": "1720","HASC_2": "DZ.DJ.HS","name": "Had_Sahary.county","area_km2": 868.3737,"hist_schema_id": "Elevation0-9000","hist_area_km2": {"700": 7.0114,"725": 46.5487,"750": 149.1353,"775": 122.1167,"800": 112.9905,"825": 88.279,"850": 65.3213,"875": 61.3843,"900": 43.9365,"925": 31.3246,"950": 25.4602,"975": 19.2279,"1000": 15.9551,"1025": 16.2315,"1050": 15.0709,"1075": 11.4202,"1100": 8.7378,"1125": 6.8344,"1150": 5.0002,"1175": 3.2874,"1200": 2.4224,"1225": 1.7477,"1250": 1.6785,"1275": 1.7824,"1300": 1.3152,"1325": 1.6441,"1350": 1.6614,"1375": 0.7096,"1400": 0.1385}}}