{"type": "Feature","bbox": [8.1186,36.4991,8.2701,36.6272],"geometry": {"type": "MultiPolygon","coordinates": [[[[8.2584,36.537,672.6995],[8.2606,36.5407,720.236],[8.2701,36.549,916.7552],[8.2518,36.5674,589.0854],[8.2459,36.5793,418.9196],[8.241,36.5833,368.1871],[8.2372,36.5932,286.7315],[8.2281,36.595,274.2793],[8.2236,36.5988,238.6439],[8.2114,36.6017,179.8568],[8.2093,36.6118,157.2659],[8.2049,36.6153,147.6919],[8.2008,36.6117,165.2114],[8.1961,36.6114,160.2298],[8.1814,36.6215,379.4572],[8.1767,36.6272,373.6811],[8.1701,36.6247,371.8816],[8.162,36.6248,357.9708],[8.1559,36.6269,378.1176],[8.1503,36.6183,393.2633],[8.1242,36.6051,307.4302],[8.1202,36.6005,410.3337],[8.1186,36.5954,538.3803],[8.1221,36.5898,539.6175],[8.1276,36.5884,450.0124],[8.1336,36.5772,466.0815],[8.1385,36.5751,433.9441],[8.1425,36.5652,649.8503],[8.1385,36.5503,646.8118],[8.1391,36.545,541.1992],[8.1457,36.5345,397.1979],[8.1468,36.5282,311.1935],[8.1569,36.5158,570.5443],[8.1584,36.5104,515.1265],[8.1561,36.4993,274.5934],[8.1621,36.4991,281.7409],[8.1679,36.501,300.7972],[8.1729,36.5052,303.5891],[8.1766,36.5132,324.7407],[8.1816,36.5142,354.4668],[8.1945,36.5089,417.0649],[8.2223,36.5164,529.0197],[8.2247,36.5204,553.1273],[8.2426,36.5266,601.8964],[8.2481,36.5301,621.9017],[8.2508,36.534,641.4775],[8.2584,36.537,672.6995]]]]}
,"properties": {"GID_2": "DZA.19.2_1","GID_0": "DZA","country": "Algeria","GID_1": "DZA.19_1","province": "ElTarf","NL_NAME_1": "ولايةالطارف","county": "AinKerma","VARNAME_2": "NA","NL_NAME_2": "NA","TYPE_2": "Commune","ENGTYPE_2": "Commune","CC_2": "3621","HASC_2": "DZ.ET.AK","name": "Ain_Kerma.county","area_km2": 110.48638,"hist_schema_id": "Elevation0-9000","hist_area_km2": {"150": 0.22124,"175": 1.05524,"200": 2.12761,"225": 2.99584,"250": 3.81304,"275": 4.95387,"300": 5.73713,"325": 7.09933,"350": 8.20685,"375": 8.66677,"400": 7.44202,"425": 6.72728,"450": 6.93204,"475": 5.82507,"500": 5.21213,"525": 4.41145,"550": 3.90076,"575": 3.04908,"600": 3.06613,"625": 2.67426,"650": 2.35071,"675": 2.3847,"700": 2.00994,"725": 1.82259,"750": 1.27753,"775": 1.14129,"800": 0.68136,"825": 0.88575,"850": 0.64727,"875": 0.57912,"900": 0.73242,"925": 0.95384,"950": 0.59614,"975": 0.30658}}}