{"type":"Feature","properties":{"GID_2":"DZA.2.10_1","GID_0":"DZA","country":"Algeria","GID_1":"DZA.2_1","province":"AïnDefla","NL_NAME_1":"ولايةعينالدفلى","county":"Belaas","VARNAME_2":"NA","NL_NAME_2":"NA","TYPE_2":"Commune","ENGTYPE_2":"Commune","CC_2":"4436","HASC_2":"DZ.AD.BL","name":"Belaas.county"},
"geometry":{"type": "MultiPolygon","coordinates": [[[[1.853,35.9427,760.0194],[1.8607,35.9442,712.8631],[1.8664,35.9508,706.7595],[1.8619,35.9574,742.988],[1.856,35.9616,906.1974],[1.8546,35.9685,892.7114],[1.8591,35.9695,973.239],[1.8648,35.9678,957.3035],[1.8747,35.9627,668.6831],[1.8811,35.9653,647.7664],[1.8841,35.9683,634.7336],[1.8708,35.9866,875.6832],[1.8808,35.9917,911.0491],[1.8847,36.003,892.0417],[1.8793,36.0067,857.3058],[1.8773,36.0114,774.939],[1.8765,36.0216,708.0307],[1.8774,36.0278,714.8434],[1.8813,36.033,674.5286],[1.882,36.0446,642.7043],[1.887,36.0529,641.6743],[1.8843,36.0636,588.8567],[1.8791,36.0712,631.4456],[1.87,36.1018,492.3972],[1.867,36.1061,428.3926],[1.8616,36.1063,398.4491],[1.8567,36.1029,463.6005],[1.8602,36.0969,488.7603],[1.8609,36.0819,608.4735],[1.8498,36.0689,490.0048],[1.84,36.0654,408.5026],[1.8281,36.0721,378.9101],[1.8249,36.0782,423.3597],[1.8117,36.0798,376.3844],[1.8056,36.0781,448.6884],[1.7987,36.0554,594.6748],[1.7933,36.0493,666.5862],[1.7878,36.0468,673.4253],[1.7746,36.049,615.5001],[1.7659,36.0439,744.7723],[1.7618,36.0496,746.7642],[1.7538,36.0459,704.8271],[1.7476,36.0453,633.1011],[1.7512,36.04,734.8137],[1.751,36.03,888.5495],[1.7469,36.027,859.0226],[1.7402,36.0278,759.053],[1.7351,36.0323,753.0447],[1.7288,36.0335,733.7919],[1.7212,36.0325,721.8722],[1.7084,36.0188,833.1141],[1.7081,36.0133,918.8061],[1.7058,36.0085,906.0231],[1.7021,36.0055,804.5881],[1.7099,35.9885,700.4816],[1.716,35.9894,717.2169],[1.7213,35.9839,847.2476],[1.7214,35.9794,988.1947],[1.7322,35.9827,983.1927],[1.7345,35.9775,832.346],[1.7435,35.9693,855.8726],[1.751,35.9696,891.2781],[1.7623,35.9674,948.0876],[1.7654,35.9724,796.5387],[1.7768,35.9775,890.6292],[1.7818,35.9821,747.163],[1.7926,35.9746,644.4047],[1.7954,35.9801,675.0543],[1.8054,35.9813,790.5082],[1.8101,35.9794,815.0588],[1.8097,35.9693,868.967],[1.8139,35.9644,926.5135],[1.8274,35.963,1081.6233],[1.8331,35.9592,1055.7388],[1.8385,35.9608,1087.1111],[1.8424,35.9513,1059.9185],[1.8485,35.9481,920.4355],[1.853,35.9427,760.0194]]]]}}