{"type": "Feature","bbox": [4.9695,35.8467,5.1274,36.0284],"geometry": {"type": "MultiPolygon","coordinates": [[[[4.9757999999999996,35.9465,1351.4229],[4.9836,35.9443,1385.8904],[4.9894,35.9405,1400.0244],[4.9928,35.9343,1476.0486],[4.9934,35.9285,1508.1981],[4.9874,35.9212,1462.4304],[4.9823,35.9194,1437.3452],[4.9773,35.9208,1449.8528],[4.9695,35.9113,1429.2036],[4.9695,35.9047,1273.448],[4.9743,35.9022,1368.2521],[4.9803,35.9016,1409.08],[4.983,35.8967,1439.1326],[4.9833,35.8912,1351.7532],[4.9876,35.8858,1359.6196],[5.0049,35.8735,1421.6919],[5.0056,35.8662,1519.9441],[5.0125,35.862,1451.5221],[5.0138,35.8564,1632.5728],[5.0129,35.8505,1711.049],[5.0266,35.8496,1788.3286],[5.0361,35.8467,1733.4722],[5.0419,35.8473,1711.2018],[5.0479,35.8513,1481.3369],[5.0502,35.8612,1368.783],[5.054,35.8636,1397.5691],[5.0478,35.8678,1419.8289],[5.0522,35.8729,1301.7362],[5.0442,35.8871,1416.4092],[5.0423,35.8939,1387.3975],[5.055,35.9038,1184.446],[5.0591,35.9105,1158.7599],[5.062,35.9202,1126.0853],[5.0603,35.9317,1092.1575],[5.061,35.937,1080.2517],[5.0702,35.9377,1079.6187],[5.0838,35.9468,1098.1205],[5.0925,35.946,1106.215],[5.0979,35.9513,1116.2078],[5.1027,35.9506,1127.1968],[5.1181,35.9427,1132.2687],[5.1229,35.9418,1138.2994],[5.1274,35.9512,1165.3672],[5.1191,35.9692,1090.7854],[5.0943,35.9802,1042.3961],[5.0901,35.9897,1026.8472],[5.0921,35.9945,1013.5084],[5.0896,35.999,997.4984],[5.0841,35.9988,992.6605],[5.0797,35.9959,1001.4143],[5.0756,35.9972,1015.1926],[5.0766,36.0052,992.2444],[5.0712,36.0077,991.8041],[5.0662,36.0037,1006.8066],[5.0591,36.0033,1025.8213],[5.0498,36.0071,1027.1238],[5.0496,36.0129,1004.7983],[5.0473,36.0166,1000.1394],[5.0503,36.0246,993.106],[5.0471,36.0284,987.8557],[5.0382999999999996,36.0243,1008.3572],[5.0317,36.024,1021.5298],[5.023,36.0182,1020.7043],[5.0181,36.0169,1018.5403],[5.0115,36.01,1015.2448],[5.0006,36.0066,1030.4939],[4.9925,35.999,996.1682],[4.9925,35.9896,1013.3995],[4.9902,35.9835,1023.4482],[4.9739,35.972,1074.6895],[4.9711,35.9595,1141.9385],[4.9724,35.9544,1197.2671],[4.9757,35.9515,1261.5031],[4.9757999999999996,35.9465,1351.4229]]]]}
,"properties": {"GID_2": "DZA.11.28_1","GID_0": "DZA","country": "Algeria","GID_1": "DZA.11_1","province": "BordjBouArréridj","NL_NAME_1": "ولايةبرجبوعريريج","county": "RasElOued","VARNAME_2": "Rā's-al-Wād","NL_NAME_2": "NA","TYPE_2": "Commune","ENGTYPE_2": "Commune","CC_2": "3402","HASC_2": "DZ.BB.RO","name": "Ras_El_Oued.county","area_km2": 140.5301,"hist_schema_id": "Elevation0-9000","hist_area_km2": {"975": 0.0514,"1000": 6.8611,"1025": 18.1492,"1050": 18.4103,"1075": 17.419,"1100": 11.6193,"1125": 8.1703,"1150": 5.5446,"1175": 3.1931,"1200": 2.1459,"1225": 2.2145,"1250": 1.8712,"1275": 1.4421,"1300": 1.614,"1325": 2.0607,"1350": 2.7135,"1375": 3.4693,"1400": 4.1395,"1425": 7.8839,"1450": 7.5402,"1475": 6.183,"1500": 3.2291,"1525": 1.6835,"1550": 0.4468,"1575": 0.4983,"1600": 0.4296,"1625": 0.3609,"1650": 0.2062,"1675": 0.3781,"1700": 0.1719,"1725": 0.2062,"1750": 0.0687,"1775": 0.0859,"1800": 0.0344,"1825": 0.0344}}}