{"type": "Feature","bbox": [2.5437,34.1127,2.8838,34.4108],"geometry": {"type": "MultiPolygon","coordinates": [[[[2.6838,34.1127,1151.9532],[2.7206,34.1228,1128.2229],[2.7907,34.1524,1154.7428],[2.8211,34.1437,1223.6143],[2.8117,34.1595,1179.1711],[2.8098,34.1662,1166.4321],[2.8127,34.179,1155.0349],[2.8272,34.1904,1142.1005],[2.8214,34.1987,1134.6589],[2.8322,34.2034,1131.8984],[2.8359,34.2085,1126.264],[2.8371,34.2186,1116.431],[2.8409,34.2246,1113.3027],[2.8577,34.2419,1096.9319],[2.8627,34.2505,1092.0717],[2.8677,34.2551,1093.9337],[2.8838,34.2643,1082.3823],[2.8771,34.2648,1083.8635],[2.8734,34.2695,1085.0198],[2.8605,34.2759,1088.1521],[2.8501,34.2757,1092.9563],[2.8359,34.2848,1096.0665],[2.8252,34.2805,1097.6234],[2.8095,34.2811,1102.2043],[2.7939,34.2887,1105.5242],[2.789,34.2883,1106.4882],[2.778,34.2923,1109.8221],[2.7803,34.306,1115.0991],[2.7794,34.3179,1123.4794],[2.791,34.3333,1138.6827],[2.8027,34.3417,1150.5802],[2.8017,34.3489,1162.2678],[2.7923,34.3606,1183.3026],[2.7926,34.3854,1218.0406],[2.789,34.3965,1235.6896],[2.7745,34.3995,1244.4395],[2.7541,34.3963,1218.7083],[2.7305,34.4099,1228.8926],[2.7048,34.4108,1214.3727],[2.699,34.4097,1213.7625],[2.684,34.4045,1209.8269],[2.68,34.3991,1200.1472],[2.674,34.3949,1225.8499],[2.6524,34.3961,1206.1812],[2.6394,34.386,1248.3472],[2.5437,34.3323,1173.6881],[2.6165,34.3111,1172.4832],[2.6252,34.3109,1170.4709],[2.645,34.3068,1163.6437],[2.6313,34.2134,1264.1377],[2.6838,34.1127,1151.9532]]]]}
,"properties": {"GID_2": "DZA.16.15_1","GID_0": "DZA","country": "Algeria","GID_1": "DZA.16_1","province": "Djelfa","NL_NAME_1": "ولايةالجلفة","county": "Douis","VARNAME_2": "NA","NL_NAME_2": "NA","TYPE_2": "Commune","ENGTYPE_2": "Commune","CC_2": "1715","HASC_2": "DZ.DJ.DO","name": "Douis.county","area_km2": 513.0804,"hist_schema_id": "Elevation0-9000","hist_area_km2": {"1075": 2.3305,"1100": 16.0335,"1125": 80.4957,"1150": 136.7565,"1175": 134.6616,"1200": 98.2951,"1225": 39.1979,"1250": 5.2044,"1275": 0.1052}}}