{"type":"Feature","properties":{"GID_2":"DZA.34.6_1","GID_0":"DZA","country":"Algeria","GID_1":"DZA.34_1","province":"OumelBouaghi","NL_NAME_1":"ولايةأمالبواقي","county":"AinM'Lila","VARNAME_2":"AinMlila|`AynMalīlah","NL_NAME_2":"NA","TYPE_2":"Commune","ENGTYPE_2":"Commune","CC_2":"403","HASC_2":"DZ.OB.AM","name":"Ain_M'Lila.county"},
"geometry":{"type": "MultiPolygon","coordinates": [[[[6.5415,36.1111,967.6143],[6.5167,36.0904,884.8309],[6.5137,36.0855,811.2466],[6.5153,36.0731,800.9519],[6.5102,36.0693,816.9788],[6.5091,36.0616,839.7222],[6.5046,36.0562,867.4055],[6.5062,36.0517,884.2917],[6.504,36.0464,864.6333],[6.4967,36.0424,849.6886],[6.4909,36.0357,847.8595],[6.4879,36.0294,856.8823],[6.4771,36.0221,925.5529],[6.4828,36.009,1178.9963],[6.4712,35.9978,993.2004],[6.4616,35.9926,1019.7753],[6.462,35.9866,1124.9191],[6.4672,35.9725,1251.1282],[6.4815,35.9576,1376.8862],[6.4939,35.9507,1126.3027],[6.5214,35.9299,879.1071],[6.528,35.9271,845.209],[6.5341,35.9297,846.8219],[6.5442,35.9269,834.2886],[6.556,35.9328,814.1255],[6.5634,35.9343,840.8126],[6.5705,35.9387,829.2778],[6.5828,35.9409,833.9691],[6.5885,35.9441,818.9083],[6.6019,35.9417,821.1839],[6.6177,35.9352,791.5687],[6.6159,35.9412,790.5683],[6.6128,35.9445,789.5518],[6.6136,35.9499,782.2558],[6.6094,35.9618,777.7153],[6.6155,35.9622,777.913],[6.6198,35.9715,774.4655],[6.6177,35.9772,772.4872],[6.6273,35.981,774.6225],[6.6303,35.9963,769.9219],[6.6145,35.9982,771.3683],[6.6117,36.0022,770.5916],[6.6375,36.006,766.0692],[6.6409,36.0111,765.2399],[6.6404,36.0196,764.9426],[6.6389,36.0278,763.9648],[6.6303,36.0344,762.3225],[6.6173,36.0491,759.6799],[6.6065,36.0559,759.079],[6.6249,36.0613,761.7806],[6.6241,36.0693,776.2662],[6.6311,36.0739,964.3459],[6.637,36.0753,975.2694],[6.6468,36.0807,995.1275],[6.6652,36.1014,1088.01],[6.6709,36.1053,1061.3247],[6.647,36.1143,933.0336],[6.6397,36.1157,986.6382],[6.6346,36.1072,932.7073],[6.6298,36.1037,964.5509],[6.6216,36.1009,997.3812],[6.6183,36.1049,949.5015],[6.6066,36.103,769.2163],[6.5969,36.1066,756.6114],[6.589,36.1171,776.291],[6.5682,36.1227,805.7383],[6.566,36.1153,795.6201],[6.5699,36.1121,789.3691],[6.5766,36.1107,789.4276],[6.5821,36.1063,778.0104],[6.5863,36.1009,773.8166],[6.5854,36.0942,783.2898],[6.5753,36.0988,792.6558],[6.5685,36.1068,803.3565],[6.565,36.1031,808.5182],[6.5578,36.1036,811.8826],[6.5489,36.1111,853.6304],[6.5415,36.1111,967.6143]]]]}}