{"type": "Feature","bbox": [5.9105,36.4264,6.0889,36.5198],"geometry": {"type": "MultiPolygon","coordinates": [[[[6.0458,36.4916,224.466],[6.0256,36.4953,228.4136],[6.013,36.5021,298.2777],[6.0085,36.5023,244.3893],[6.0041,36.4988,240.2052],[5.9992,36.4996,245.6137],[5.9945,36.5017,256.3771],[5.986,36.5093,279.8109],[5.9814,36.5065,336.7502],[5.9755,36.5083,267.853],[5.9678,36.5071,348.2481],[5.964,36.5113,309.1279],[5.9598,36.5121,318.7237],[5.9587,36.5167,333.4669],[5.9555,36.5198,328.6357],[5.9432,36.5164,321.5663],[5.9358,36.5165,305.5518],[5.93,36.5138,323.3114],[5.9239,36.5061,569.9861],[5.9138,36.5064,642.5471],[5.9109,36.5023,672.9117],[5.9105,36.498,606.8779],[5.9134,36.4815,359.9416],[5.9162,36.4743,326.187],[5.9144,36.47,371.0461],[5.9286,36.4695,436.7375],[5.9396,36.4649,575.8925],[5.9489,36.4665,683.8022],[5.9671,36.4594,828.1367],[5.97,36.4559,896.9913],[5.9576,36.4508,776.8052],[5.963,36.4409,1048.8413],[5.9702,36.4341,746.4175],[5.9823,36.4341,723.7139],[5.9943,36.4368,589.6556],[6.0289,36.4368,493.3686],[6.0657,36.4264,309.5312],[6.0709,36.4283,300.1351],[6.0759,36.4329,291.3774],[6.0815,36.4334,285.7032],[6.0882,36.4368,276.1359],[6.0889,36.4443,270.1098],[6.0816,36.4531,321.8256],[6.0738,36.4664,500.4641],[6.0768,36.4827,332.8259],[6.0756,36.4886,305.0706],[6.065,36.4904,212.8561],[6.0588,36.4884,216.4894],[6.0458,36.4916,224.466]]]]}
,"properties": {"GID_2": "DZA.29.22_1","GID_0": "DZA","country": "Algeria","GID_1": "DZA.29_1","province": "Mila","NL_NAME_1": "ولايةميلة","county": "Rouached","VARNAME_2": "Ruwashad","NL_NAME_2": "NA","TYPE_2": "Commune","ENGTYPE_2": "Commune","CC_2": "4315","HASC_2": "DZ.ML.RO","name": "Rouached.county","area_km2": 97.33729,"hist_schema_id": "Elevation0-9000","hist_area_km2": {"200": 0.17046,"225": 2.25001,"250": 1.94313,"275": 3.0683,"300": 4.43252,"325": 5.72844,"350": 5.54107,"375": 5.6261,"400": 5.21684,"425": 5.11465,"450": 5.5752,"475": 5.11491,"500": 5.26819,"525": 5.2683,"550": 4.62035,"575": 4.12597,"600": 3.93856,"625": 3.10318,"650": 2.42116,"675": 2.09733,"700": 1.53477,"725": 1.33017,"750": 1.4496,"775": 1.34726,"800": 1.31316,"825": 1.41546,"850": 1.21083,"875": 1.22785,"900": 1.1767,"925": 1.2108,"950": 1.00616,"975": 0.78447,"1000": 0.83561,"1025": 0.42634,"1050": 0.22172,"1075": 0.10234,"1100": 0.08528,"1125": 0.03411}}}