{"type":"Feature","properties":{"GID_2":"DZA.48.28_1","GID_0":"DZA","country":"Algeria","GID_1":"DZA.48_1","province":"Tlemcen","NL_NAME_1":"تلمسان","county":"Ghazaouet","VARNAME_2":"Ghazawāt","NL_NAME_2":"NA","TYPE_2":"Commune-Cotiere","ENGTYPE_2":"Commune-Cotiere","CC_2":"1307","HASC_2":"DZ.TL.GH","name":"Ghazaouet.county"},
"geometry":{"type": "MultiPolygon","coordinates": [[[[-1.8256,35.1143,109.9316],[-1.8459,35.1072,0.0],[-1.8536,35.1077,14.885],[-1.8656,35.1014,0.7477],[-1.8724,35.1005,0.0],[-1.8757,35.0973,0.0],[-1.8811,35.096,8.0616],[-1.885,35.0915,7.9083],[-1.8956,35.0909,101.7327],[-1.8859,35.0743,148.3029],[-1.8679,35.0704,167.1859],[-1.8602,35.0656,162.2475],[-1.8572,35.0601,215.646],[-1.8529,35.0566,175.6103],[-1.8463,35.0581,131.8791],[-1.839,35.0649,155.8647],[-1.8318,35.0664,113.2345],[-1.8286,35.0717,40.2573],[-1.821,35.0696,46.1263],[-1.8198,35.0638,70.9099],[-1.8055,35.0587,84.9885],[-1.8086,35.0698,223.7965],[-1.8114,35.0752,189.9332],[-1.8162,35.0791,185.9639],[-1.827,35.1037,90.3672],[-1.8278,35.1085,135.2305],[-1.8256,35.1143,109.9316]]]]}}