{"type": "Feature","bbox": [7.3952,35.2708,7.6019,35.4061],"geometry": {"type": "MultiPolygon","coordinates": [[[[7.3952,35.3887,1131.6102],[7.4015,35.3848,1111.4974],[7.3954,35.3733,1084.5797],[7.4053,35.3653,1077.1998],[7.4113,35.3572,1078.2534],[7.4084,35.3534,1111.3696],[7.4108,35.3498,1122.5776],[7.3995,35.3378,1125.8379],[7.4033,35.3218,1146.0254],[7.4025,35.3115,1218.7611],[7.4041,35.301,1384.2603],[7.3986,35.2963,1388.0956],[7.4034,35.2846,1314.4192],[7.4077,35.2804,1305.553],[7.4261,35.2708,1346.7067],[7.4318,35.2716,1337.9716],[7.4427,35.2791,1331.4358],[7.4567,35.293,1268.1943],[7.4693,35.3085,1255.9049],[7.494,35.3089,1286.6448],[7.5255,35.3209,1294.2808],[7.5476,35.3328,1215.1558],[7.5779,35.3406,1301.897],[7.5936,35.3415,1328.2003],[7.5978,35.3454,1283.755],[7.6019,35.3545,1270.5085],[7.5924,35.3614,1167.95],[7.5856,35.3688,1154.6213],[7.5811,35.3715,1120.188],[7.5699,35.3744,1104.7441],[7.5622,35.3745,1099.323],[7.5382999999999996,35.3694,1089.249],[7.5162,35.3609,1105.8146],[7.4999,35.3644,1073.0227],[7.499,35.3747,1058.4207],[7.4941,35.3873,1037.9974],[7.4822,35.4012,1013.549],[7.4737,35.4061,1003.486],[7.4627,35.4003,1012.5891],[7.4536,35.4023,1020.0417],[7.4455,35.4018,1025.9075],[7.4402,35.3992,1039.0256],[7.4325,35.3996,1046.4214],[7.407,35.3944,1092.6724],[7.3952,35.3887,1131.6102]]]]}
,"properties": {"GID_2": "DZA.42.2_1","GID_0": "DZA","country": "Algeria","GID_1": "DZA.42_1","province": "Tébessa","NL_NAME_1": "ولايةتبسة","county": "Bedjene","VARNAME_2": "NA","NL_NAME_2": "NA","TYPE_2": "Commune","ENGTYPE_2": "Commune","CC_2": "1226","HASC_2": "DZ.TB.BJ","name": "Bedjene.county","area_km2": 142.7473,"hist_schema_id": "Elevation0-9000","hist_area_km2": {"1000": 0.6567,"1025": 7.363,"1050": 15.7316,"1075": 18.7425,"1100": 17.1536,"1125": 14.5439,"1150": 12.1239,"1175": 12.9202,"1200": 11.382,"1225": 9.0479,"1250": 7.855,"1275": 6.2288,"1300": 4.845,"1325": 2.613,"1350": 1.1768,"1375": 0.3115,"1400": 0.0519}}}