{"type": "Feature","bbox": [2.4766,35.4457,2.7994,35.7246],"geometry": {"type": "MultiPolygon","coordinates": [[[[2.7455,35.5359,644.1296],[2.7254,35.5316,654.725],[2.7046,35.5394,659.6019],[2.6905,35.5505,661.382],[2.686,35.5584,657.1512],[2.6842,35.567,654.0443],[2.6862,35.5732,649.494],[2.693,35.5798,648.3532],[2.6834,35.5946,648.4406],[2.6862,35.6004,646.8385],[2.6917,35.604,646.4247],[2.7045,35.6044,646.3604],[2.7143,35.6098,645.019],[2.7193,35.6108,644.6523],[2.725,35.6089,644.0812],[2.7316,35.6097,643.9349],[2.7451,35.6194,642.0865],[2.7554,35.6292,641.0686],[2.7626,35.6302,640.3705],[2.7676,35.6333,640.3033],[2.7709,35.6375,639.4771],[2.7872,35.6485,638.5549],[2.7924,35.6623,637.0781],[2.7994,35.6726,635.9067],[2.7954,35.6756,635.8118],[2.7795,35.684,636.2125],[2.7667,35.6866,636.256],[2.753,35.6741,637.3721],[2.7284,35.6619,643.0624],[2.7023,35.6464,647.6603],[2.6972,35.6483,649.6406],[2.69,35.654,655.204],[2.6848,35.6624,659.2537],[2.67,35.6769,666.4258],[2.6639,35.6875,674.2487],[2.6513,35.6979,681.8475],[2.631,35.7104,696.2787],[2.6303,35.7173,710.3408],[2.6137,35.7246,721.5615],[2.5999,35.7229,721.5529],[2.5854,35.7126,732.2631],[2.5666,35.7097,743.0966],[2.561,35.7071,745.9099],[2.555,35.706,753.947],[2.5442,35.7084,776.3251],[2.5367,35.7057,780.6814],[2.5096,35.705,873.7551],[2.5023,35.7031,827.0853],[2.5056,35.6972,790.5024],[2.5046,35.6912,777.328],[2.5138,35.6817,757.0363],[2.5292,35.6793,741.2488],[2.5568,35.6718,717.4072],[2.5687,35.6622,704.7593],[2.5611,35.6539,709.7062],[2.55,35.6467,718.9432],[2.5346,35.6325,735.2625],[2.5193,35.6234,711.2574],[2.5135,35.6159,721.8356],[2.5045,35.5925,685.6177],[2.4967,35.5812,680.3583],[2.4825,35.5913,691.7017],[2.4766,35.5784,685.1476],[2.4793,35.533,716.5679],[2.4925,35.5102,683.844],[2.4979,35.5068,678.7953],[2.5015,35.5011,672.2752],[2.5061,35.4991,671.6079],[2.5144,35.5056,669.8157],[2.5141,35.512,670.8513],[2.5158,35.5173,671.0422],[2.5355,35.4936,673.5483],[2.559,35.4862,676.7643],[2.5695,35.48,680.6823],[2.5923,35.4657,700.5536],[2.6075,35.451,723.9514],[2.6418,35.4457,713.7711],[2.6788,35.4586,715.1595],[2.7034,35.4697,700.6219],[2.7103,35.4788,705.049],[2.7455,35.5359,644.1296]]]]}
,"properties": {"GID_2": "DZA.28.17_1","GID_0": "DZA","country": "Algeria","GID_1": "DZA.28_1","province": "Médéa","NL_NAME_1": "ولايةالمدية","county": "Chahbounia","VARNAME_2": "NA","NL_NAME_2": "NA","TYPE_2": "Commune","ENGTYPE_2": "Commune","CC_2": "2638","HASC_2": "DZ.MD.CB","name": "Chahbounia.county","area_km2": 498.29,"hist_schema_id": "Elevation0-9000","hist_area_km2": {"625": 7.8197,"650": 131.9629,"675": 218.6182,"700": 92.0186,"725": 23.11,"750": 16.8401,"775": 5.751,"800": 1.5324,"825": 0.4304,"850": 0.1377,"875": 0.0689}}}