{"type": "Feature","bbox": [-0.6214,35.524,-0.5209,35.6564],"geometry": {"type": "MultiPolygon","coordinates": [[[[-0.6214,35.524,116.4552],[-0.6047,35.5293,133.3382],[-0.5852,35.5383,108.2282],[-0.5804,35.5357,98.5],[-0.5749,35.5353,101.3127],[-0.5683,35.5379,101.661],[-0.562,35.543,111.8956],[-0.5597,35.5478,106.0593],[-0.5498,35.5522,111.5744],[-0.5438,35.5487,106.549],[-0.5341,35.555,102.0004],[-0.5218,35.5491,106.6746],[-0.5209,35.5548,104.3796],[-0.5362,35.5653,98.7649],[-0.5337,35.5701,97.6223],[-0.5274,35.5723,100.5507],[-0.5244,35.5756,96.6854],[-0.5302,35.5803,108.7035],[-0.5446,35.5852,150.9779],[-0.5353,35.5922,172.1276],[-0.5331,35.5991,179.4866],[-0.5425,35.6231,120.2477],[-0.5349,35.6351,109.6482],[-0.5482,35.6373,91.9911],[-0.5687,35.6461,93.0377],[-0.5713,35.6426,94.5805],[-0.5781,35.6411,93.587],[-0.5858,35.6418,93.0406],[-0.5924,35.6564,89.9331],[-0.5982,35.6535,90.4613],[-0.6034,35.6485,92.3625],[-0.6035,35.6413,89.9259],[-0.6016,35.6366,90.5316],[-0.6031,35.6325,89.7169],[-0.5971,35.6261,90.01],[-0.6088,35.6188,89.0727],[-0.6117,35.6116,87.9115],[-0.6063,35.6091,82.5281],[-0.5957,35.6082,82.2101],[-0.5822,35.6045,84.3398],[-0.5787,35.6019,85.0238],[-0.5779,35.596,86.7291],[-0.5746,35.5914,86.8244],[-0.5914,35.5745,86.2787],[-0.5914,35.5699,86.387],[-0.5887,35.5651,85.6159],[-0.5982,35.5582,88.6924],[-0.6155,35.5417,87.8076],[-0.6193,35.5362,86.94],[-0.6184,35.5293,88.9161],[-0.6214,35.524,116.4552]]]]}
,"properties": {"GID_2": "DZA.32.13_1","GID_0": "DZA","country": "Algeria","GID_1": "DZA.32_1","province": "Oran","NL_NAME_1": "ولايةوهران","county": "ElKerma","VARNAME_2": "ElKarma","NL_NAME_2": "NA","TYPE_2": "Commune","ENGTYPE_2": "Commune","CC_2": "3117","HASC_2": "DZ.OR.EK","name": "El_Kerma.county","area_km2": 63.94983,"hist_schema_id": "Elevation0-9000","hist_area_km2": {"75": 8.31258,"100": 38.89421,"125": 11.12252,"150": 3.3966,"175": 2.05152,"200": 0.1724}}}