{"type": "Feature","bbox": [4.3829,34.9041,4.7488,35.0789],"geometry": {"type": "MultiPolygon","coordinates": [[[[4.7488,35.0787,546.1388],[4.7099,35.0766,566.9829],[4.6991,35.0789,575.1753],[4.64,35.0739,656.2046],[4.5864,35.076,669.7823],[4.489,35.0718,882.5834],[4.4514,35.0611,946.3153],[4.4358,35.0535,981.4971],[4.4296,35.0521,995.5582],[4.3996,35.0241,1246.4518],[4.4087,35.0006,1378.5405],[4.4055,34.9916,1276.7352],[4.3966,34.976,1146.2769],[4.3858,34.9629,1131.3824],[4.3829,34.9571,1118.6198],[4.389,34.9553,996.6211],[4.3967,34.9576,1043.2484],[4.4599,34.9876,1131.7036],[4.4706,34.9752,775.7315],[4.4788,34.973,746.9262],[4.5009,34.9694,749.8526],[4.5463,34.9667,1075.9258],[4.5353,34.958,956.2758],[4.5294,34.9489,948.2148],[4.5182,34.9444,987.3229],[4.5139,34.9398,896.5807],[4.5338,34.9382,787.5445],[4.5451,34.9275,717.0534],[4.5492,34.9144,676.4718],[4.5671,34.9041,645.2256],[4.6304,34.9136,633.11],[4.6818,34.9093,764.2852],[4.7147,34.9184,626.6405],[4.7151,34.925,622.157],[4.7098,34.9281,620.1289],[4.7062,34.9335,617.8426],[4.7103,34.9438,649.8828],[4.7217,34.9584,684.0504],[4.7195,34.9677,688.0785],[4.7018,35.0131,573.581],[4.7149,35.0252,567.3694],[4.7181,35.0384,567.0945],[4.7264,35.0468,559.5116],[4.7317,35.0491,560.255],[4.7377,35.0478,549.5804],[4.7455,35.0555,549.2114],[4.7463,35.0608,553.5185],[4.7431,35.0652,538.3674],[4.7477,35.0671,550.6578],[4.7488,35.0787,546.1388]]]]}
,"properties": {"GID_2": "DZA.26.7_1","GID_0": "DZA","country": "Algeria","GID_1": "DZA.26_1","province": "M'Sila","NL_NAME_1": "ولايةالمسيلة","county": "BenSrour","VARNAME_2": "NA","NL_NAME_2": "NA","TYPE_2": "Commune","ENGTYPE_2": "Commune","CC_2": "2824","HASC_2": "DZ.MS.BS","name": "Ben_Srour.county","area_km2": 427.17,"hist_schema_id": "Elevation0-9000","hist_area_km2": {"525": 0.1909,"550": 5.9179,"575": 19.597,"600": 45.1542,"625": 66.5805,"650": 40.806,"675": 35.8454,"700": 29.7462,"725": 22.3336,"750": 21.3102,"775": 12.5216,"800": 9.778,"825": 8.5105,"850": 6.5824,"875": 6.1478,"900": 6.5292,"925": 6.3729,"950": 6.9281,"975": 8.0559,"1000": 7.6565,"1025": 7.8134,"1050": 8.613,"1075": 8.7522,"1100": 8.0406,"1125": 7.2939,"1150": 5.6265,"1175": 4.6886,"1200": 3.2995,"1225": 2.5006,"1250": 1.9623,"1275": 1.1983,"1300": 0.4689,"1325": 0.1389,"1350": 0.1042,"1375": 0.0521,"1400": 0.0521}}}