{"type":"Feature","properties":{"GID_2":"DZA.35.15_1","GID_0":"DZA","country":"Algeria","GID_1":"DZA.35_1","province":"Relizane","NL_NAME_1":"ولايةغليزان","county":"HadEchkalla","VARNAME_2":"HadChekkala","NL_NAME_2":"NA","TYPE_2":"Commune","ENGTYPE_2":"Commune","CC_2":"4834","HASC_2":"DZ.RE.HE","name":"Had_Echkalla.county"},
"geometry":{"type": "MultiPolygon","coordinates": [[[[1.0768,35.7036,308.0271],[1.0726,35.6976,352.7174],[1.0609,35.6932,435.995],[1.0478,35.6807,609.9485],[1.039,35.6681,561.6124],[1.0327,35.669,540.6061],[1.0323,35.663,596.9115],[1.0378,35.6632,592.5236],[1.0445,35.6566,563.9395],[1.0482,35.6444,576.3027],[1.0515,35.6413,656.9814],[1.0567,35.6411,722.0533],[1.0629,35.6506,532.0138],[1.0701,35.6421,673.626],[1.0717,35.6375,752.6194],[1.0875,35.6407,659.9622],[1.1061,35.6506,677.6385],[1.1179,35.6334,434.3918],[1.1233,35.6323,395.2383],[1.1237,35.6223,563.9216],[1.1292,35.6215,583.9503],[1.1344,35.624,632.4895],[1.1609,35.6263,627.042],[1.1708,35.6356,430.334],[1.1765,35.6455,393.9256],[1.1814,35.6506,516.0318],[1.1807,35.6554,456.7335],[1.1889,35.6628,573.04],[1.219,35.664,647.9194],[1.2257,35.6794,390.6151],[1.2296,35.6817,371.5011],[1.247,35.6858,419.677],[1.2574,35.6864,425.7194],[1.2733,35.7017,618.8227],[1.2779,35.7041,588.9471],[1.2801,35.7162,645.5366],[1.2777,35.7204,717.245],[1.2691,35.7258,826.264],[1.2542,35.7221,791.7794],[1.2512,35.7173,767.6732],[1.246,35.7161,709.147],[1.2406,35.7172,624.8825],[1.2404,35.7217,610.3401],[1.2356,35.7269,618.8075],[1.2177,35.7406,870.1553],[1.2054,35.7401,785.6158],[1.1992,35.7376,723.4139],[1.1823,35.7351,596.3815],[1.1551,35.7373,418.6272],[1.1498,35.7369,426.2488],[1.1419,35.7328,370.2229],[1.1265,35.7321,252.2146],[1.1205,35.7294,241.2505],[1.1116,35.7175,234.1336],[1.0874,35.7048,281.39],[1.0768,35.7036,308.0271]]]]}}