{"type":"Feature","properties":{"GID_2":"DZA.17.17_1","GID_0":"DZA","country":"Algeria","GID_1":"DZA.17_1","province":"ElBayadh","NL_NAME_1":"ولايةالبيض","county":"Rogassa","VARNAME_2":"NA","NL_NAME_2":"NA","TYPE_2":"Commune","ENGTYPE_2":"Commune","CC_2":"3202","HASC_2":"DZ.EB.RO","name":"Rogassa.county"},
"geometry":{"type": "MultiPolygon","coordinates": [[[[0.5953,34.0708,989.8055],[0.6394,34.0452,1035.1697],[0.6531,34.0417,1055.3331],[0.6734,34.0265,1066.1039],[0.719,34.002,1076.563],[0.7337,33.9885,1082.5743],[0.7621,33.9529,1094.3638],[0.8119,33.9069,1112.3657],[0.8398,33.8757,1099.7656],[0.847,33.8621,1103.0653],[0.8584,33.8507,1124.4174],[0.8538,33.8417,1117.4823],[0.8557,33.8355,1119.6244],[0.864,33.8278,1127.6742],[0.8677,33.8199,1129.7216],[0.8764,33.8116,1138.2693],[0.8804,33.8099,1138.5239],[0.8825,33.8047,1145.4094],[0.882,33.7903,1189.1276],[0.8872,33.778,1204.1332],[0.8942,33.7695,1210.9452],[0.9068,33.7598,1221.426],[0.9109,33.7412,1232.7889],[0.9152,33.7367,1231.0212],[0.9145,33.7256,1234.3424],[0.908,33.7066,1248.1918],[0.9034,33.7026,1246.8617],[0.8977,33.6816,1267.7356],[0.9099,33.6587,1292.8688],[0.9149,33.6404,1314.849],[0.9227,33.6309,1360.4974],[0.9494,33.6543,1344.4504],[0.9626,33.6689,1337.3047],[0.9582,33.675,1297.5892],[0.9512,33.6916,1267.9318],[0.9512,33.6968,1259.514],[0.9616,33.7289,1226.9397],[1.013,33.762,1252.2373],[1.0032,33.7986,1215.092],[0.9983,33.8099,1208.3086],[0.9979,33.8163,1206.9104],[1.0046,33.8791,1188.2351],[1.0209,33.9162,1164.7296],[1.0287,33.9558,1142.7274],[1.0311,33.9762,1144.0756],[1.0282,33.9897,1148.9431],[1.0226,33.9947,1146.4619],[1.0102,34.0007,1140.0455],[1.0112,34.0099,1131.4159],[1.0216,34.0516,1108.7153],[1.0196,34.0638,1104.0897],[1.0132,34.1877,1015.0909],[1.0282,34.2918,1039.9746],[1.0376,34.3393,995.4771],[1.0441,34.3838,987.9623],[0.901,34.4082,988.4459],[0.7488,34.4307,987.7148],[0.7246,34.4419,986.4164],[0.714,34.4375,987.8351],[0.7008,34.4277,986.0],[0.6708,34.4114,986.5612],[0.6631,34.4031,986.3557],[0.6378,34.3839,990.009],[0.6095,34.3711,988.1996],[0.5887,34.3566,986.2783],[0.5834,34.355,987.2272],[0.5786,34.3496,987.8212],[0.5709,34.3479,986.6484],[0.5563,34.3403,986.381],[0.5342,34.3326,986.849],[0.5227,34.3269,986.9725],[0.5179,34.3219,986.2879],[0.5132,34.3199,988.3033],[0.5088,34.3201,989.0877],[0.5117,34.309,986.7957],[0.537,34.2498,987.3867],[0.546,34.2165,985.9297],[0.548,34.2029,984.8267],[0.5473,34.1886,995.781],[0.5488,34.1796,999.0258],[0.5409,34.1446,993.7234],[0.5582,34.1294,987.2981],[0.5683,34.1235,990.3116],[0.5734,34.1175,992.4008],[0.5821,34.0989,991.2844],[0.5855,34.0874,988.5644],[0.5953,34.0708,989.8055]]]]}}