{"type": "Feature","bbox": [2.5731,36.0626,2.7159,36.2107],"geometry": {"type": "MultiPolygon","coordinates": [[[[2.5731,36.0936,486.9078],[2.5826,36.0838,569.0974],[2.5876,36.0723,612.9103],[2.6077,36.0666,730.6054],[2.6147,36.0626,685.0544],[2.6238,36.0737,580.3746],[2.6328,36.0771,556.8701],[2.638,36.0811,489.3836],[2.6417,36.0861,455.7294],[2.6356,36.0884,468.6354],[2.6303,36.0949,439.6859],[2.6342,36.1042,434.9543],[2.6314,36.1082,447.0859],[2.6312,36.1131,436.1926],[2.6343,36.1161,454.8253],[2.6389,36.1177,469.1087],[2.6486,36.1198,465.4399],[2.6544,36.1187,456.6411],[2.6617,36.1227,466.0561],[2.6666,36.1281,490.8243],[2.677,36.1287,483.5759],[2.6857,36.1327,513.2866],[2.6929,36.1321,526.6927],[2.703,36.1614,730.2347],[2.7159,36.1813,755.6035],[2.706,36.1916,945.8668],[2.7109,36.2049,899.3198],[2.7065,36.21,854.5989],[2.6942,36.2107,664.6194],[2.6893,36.2062,677.2485],[2.689,36.1997,743.387],[2.6792,36.1955,689.934],[2.6733,36.1978,597.3574],[2.6669,36.1976,712.2875],[2.6671,36.1911,866.6247],[2.6631,36.187,876.7704],[2.6577,36.1832,843.7818],[2.6413,36.1762,733.0011],[2.6395,36.1713,705.6251],[2.636,36.1677,668.6834],[2.6231,36.1638,681.3649],[2.6221,36.1577,639.5428],[2.6163,36.1489,601.0676],[2.6182,36.1423,556.2037],[2.6132,36.1382,546.6597],[2.6076,36.1298,474.5725],[2.5969,36.1271,423.0],[2.593,36.125,423.8591],[2.5902,36.1203,425.1954],[2.5901,36.1152,427.5894],[2.5919,36.1099,425.3943],[2.587,36.0992,524.8424],[2.5874,36.0929,567.8208],[2.5731,36.0936,486.9078]]]]}
,"properties": {"GID_2": "DZA.28.12_1","GID_0": "DZA","country": "Algeria","GID_1": "DZA.28_1","province": "Médéa","NL_NAME_1": "ولايةالمدية","county": "Bouaichoune","VARNAME_2": "NA","NL_NAME_2": "NA","TYPE_2": "Commune","ENGTYPE_2": "Commune","CC_2": "2659","HASC_2": "DZ.MD.BO","name": "Bouaichoune.county","area_km2": 80.52824,"hist_schema_id": "Elevation0-9000","hist_area_km2": {"425": 6.06386,"450": 3.30598,"475": 3.30582,"500": 4.04215,"525": 5.20681,"550": 5.56622,"575": 5.70281,"600": 5.20614,"625": 4.77764,"650": 4.77752,"675": 3.69859,"700": 3.56117,"725": 3.38944,"750": 3.68022,"775": 3.79981,"800": 3.08068,"825": 2.75537,"850": 2.43016,"875": 1.93385,"900": 1.76269,"925": 1.33479,"950": 1.14652}}}