{"type": "Feature","bbox": [4.367,36.4797,4.4451,36.5433],"geometry": {"type": "MultiPolygon","coordinates": [[[[4.4126,36.487,1684.2185],[4.418,36.4907,1720.2332],[4.4386,36.4914,1511.4161],[4.4429,36.4937,1493.0712],[4.4451,36.4983,1475.229],[4.4358,36.5126,971.5151],[4.435,36.5168,892.9432],[4.4262,36.5211,746.4791],[4.4188,36.5283,690.0931],[4.4182,36.5341,627.8665],[4.4134,36.5433,544.1052],[4.4086,36.5373,574.9715],[4.389,36.5301,658.91],[4.3791,36.5174,742.3928],[4.3704,36.5137,818.1719],[4.367,36.5098,837.4282],[4.3683,36.5045,909.1646],[4.3785,36.5016,1316.7002],[4.3827,36.4925,1402.6414],[4.3827,36.4797,1785.1067],[4.3956,36.4822,1768.2512],[4.4008,36.4806,1796.2849],[4.4053,36.4815,1796.5173],[4.4126,36.487,1684.2185]]]]}
,"properties": {"GID_2": "DZA.47.40_1","GID_0": "DZA","country": "Algeria","GID_1": "DZA.47_1","province": "TiziOuzou","NL_NAME_1": "ولايةغليزان","county": "Illilten","VARNAME_2": "NA","NL_NAME_2": "NA","TYPE_2": "Commune","ENGTYPE_2": "Commune","CC_2": "1533","HASC_2": "DZ.TO.IL","name": "Illilten.county","area_km2": 26.75568,"hist_schema_id": "Elevation0-9000","hist_area_km2": {"525": 0.06814,"550": 0.10221,"575": 0.22146,"600": 0.17036,"625": 0.30665,"650": 0.30666,"675": 0.30667,"700": 0.47706,"725": 0.64743,"750": 0.66448,"775": 0.69858,"800": 0.63043,"825": 0.74971,"850": 0.59638,"875": 0.68158,"900": 0.6816,"925": 0.7668,"950": 0.73273,"975": 0.74978,"1000": 0.56235,"1025": 0.56236,"1050": 0.57941,"1075": 0.73278,"1100": 0.57941,"1125": 0.68167,"1150": 0.57944,"1175": 0.57943,"1200": 0.52832,"1225": 0.78396,"1250": 0.59649,"1275": 0.69876,"1300": 0.51129,"1325": 0.6647,"1350": 0.66469,"1375": 0.61358,"1400": 0.74992,"1425": 0.61359,"1450": 0.54541,"1475": 0.52838,"1500": 0.49429,"1525": 0.44317,"1550": 0.35795,"1575": 0.32386,"1600": 0.32386,"1625": 0.30682,"1650": 0.34091,"1675": 0.30682,"1700": 0.46024,"1725": 0.40911,"1750": 0.30684,"1775": 0.34094,"1800": 0.25571,"1825": 0.10228,"1850": 0.06819}}}