{"type": "Feature","bbox": [-1.1879,34.9307,-1.0242,35.1586],"geometry": {"type": "MultiPolygon","coordinates": [[[[-1.1601,35.1561,633.993],[-1.1611,35.1481,527.0587],[-1.1657,35.1348,437.9744],[-1.1584,35.1273,403.5588],[-1.1573,35.1228,370.3926],[-1.1703,35.1042,305.1539],[-1.1746,35.1022,307.4871],[-1.179,35.1025,297.7875],[-1.1844,35.099,284.6829],[-1.1879,35.0909,272.1589],[-1.1785,35.0746,327.3302],[-1.1665,35.0596,420.3088],[-1.1591,35.053,484.516],[-1.1583,35.0423,544.3968],[-1.1298,35.0257,650.1107],[-1.1415,35.0174,630.2597],[-1.1545,34.9944,892.3132],[-1.1688,34.981,804.8732],[-1.16,34.9641,809.2791],[-1.16,34.9556,878.3848],[-1.1577,34.9491,813.2769],[-1.1438,34.9442,903.0198],[-1.1334,34.9479,848.1112],[-1.1125,34.9478,741.9366],[-1.0916,34.9411,650.8325],[-1.0779,34.9307,557.2646],[-1.0696,34.9359,552.7728],[-1.0629,34.9443,523.874],[-1.0556,34.9479,505.9926],[-1.0302,34.9539,476.7205],[-1.0242,34.9657,478.2944],[-1.0266,34.9706,486.8649],[-1.025,34.9783,465.9197],[-1.0293,34.9886,447.1086],[-1.0335,34.9897,443.5378],[-1.0313,34.9952,440.5211],[-1.0387,35.0064,418.7423],[-1.0398,35.0177,415.2846],[-1.0451,35.0219,441.1915],[-1.0453,35.0292,405.1786],[-1.0541,35.0304,391.6121],[-1.06,35.0393,415.9985],[-1.0615,35.051,389.6363],[-1.0559,35.0583,371.309],[-1.062,35.0598,366.9149],[-1.0638,35.0642,364.28],[-1.0682,35.0679,365.2666],[-1.0666,35.0724,388.9439],[-1.0608,35.0756,424.4342],[-1.0581,35.0809,363.529],[-1.064,35.0846,373.5527],[-1.0552,35.0912,370.4574],[-1.0456,35.0936,418.3639],[-1.0414,35.0976,382.8633],[-1.0458,35.1078,465.2668],[-1.045,35.1187,435.8839],[-1.049,35.1237,420.9624],[-1.0676,35.1229,380.2517],[-1.0678,35.1276,387.6304],[-1.0781,35.1333,459.2749],[-1.0894,35.1341,437.4861],[-1.1003,35.1326,538.7388],[-1.1063,35.1345,578.5511],[-1.1189,35.1457,518.4396],[-1.1287,35.1473,470.6969],[-1.1282,35.1561,472.8197],[-1.1486,35.1586,581.1331],[-1.1601,35.1561,633.993]]]]}
,"properties": {"GID_2": "DZA.48.44_1","GID_0": "DZA","country": "Algeria","GID_1": "DZA.48_1","province": "Tlemcen","NL_NAME_1": "تلمسان","county": "SidiAbdelli","VARNAME_2": "Sīdī`Abdallāh","NL_NAME_2": "NA","TYPE_2": "Commune","ENGTYPE_2": "Commune","CC_2": "1334","HASC_2": "DZ.TL.SA","name": "Sidi_Abdelli.county","area_km2": 230.7887,"hist_schema_id": "Elevation0-9000","hist_area_km2": {"275": 1.2838,"300": 2.585,"325": 2.6024,"350": 16.9836,"375": 15.0926,"400": 16.9321,"425": 17.4531,"450": 20.5262,"475": 16.2605,"500": 14.4065,"525": 14.5478,"550": 13.248,"575": 19.9381,"600": 16.4329,"625": 11.1537,"650": 5.9072,"675": 4.604,"700": 4.7779,"725": 4.0829,"750": 3.3532,"775": 2.5019,"800": 2.1717,"825": 1.7025,"850": 1.1466,"875": 0.608,"900": 0.3127,"925": 0.1564,"950": 0.0174}}}