{"type":"Feature","properties":{"GID_2":"DZA.16.25_1","GID_0":"DZA","country":"Algeria","GID_1":"DZA.16_1","province":"Djelfa","NL_NAME_1":"ولايةالجلفة","county":"HassiFedoul","VARNAME_2":"HassiFdoul","NL_NAME_2":"NA","TYPE_2":"Commune","ENGTYPE_2":"Commune","CC_2":"1733","HASC_2":"DZ.DJ.HF","name":"Hassi_Fedoul.county"},
"geometry":{"type": "MultiPolygon","coordinates": [[[[2.2551,35.5552,828.5483],[2.2504,35.5537,839.069],[2.1652,35.5581,862.8502],[2.1196,35.5483,862.4785],[2.0792,35.5422,857.4098],[2.0554,35.5353,845.1478],[2.0265,35.5373,848.351],[2.0166,35.5303,844.0498],[2.0138,35.5063,840.7725],[2.0146,35.4949,837.3169],[2.0183,35.4927,837.3674],[2.0295,35.4754,833.8545],[2.0393,35.4671,830.9869],[2.0447,35.4683,830.7679],[2.0511,35.4658,833.1172],[2.0976,35.4378,823.3326],[2.272,35.3386,767.9598],[2.3009,35.3328,753.3345],[2.3104,35.3227,740.3815],[2.3158,35.3211,736.8263],[2.3309,35.3276,733.7311],[2.3417,35.3302,732.5075],[2.3485,35.3386,733.9941],[2.3652,35.3462,725.8652],[2.3631,35.3521,726.8615],[2.3944,35.3992,715.3318],[2.3972,35.4052,710.2532],[2.388,35.4677,741.8566],[2.3146,35.4614,772.2903],[2.2854,35.4623,789.3443],[2.2772,35.4761,773.759],[2.2689,35.51,788.1121],[2.2551,35.5552,828.5483]]]]}}