{"type":"Feature","properties":{"GID_2":"DZA.11.11_1","GID_0":"DZA","country":"Algeria","GID_1":"DZA.11_1","province":"BordjBouArréridj","NL_NAME_1":"ولايةبرجبوعريريج","county":"ElAch","VARNAME_2":"ElEuch","NL_NAME_2":"NA","TYPE_2":"Commune","ENGTYPE_2":"Commune","CC_2":"3427","HASC_2":"DZ.BB.EA","name":"El_Ach.county"},
"geometry":{"type": "MultiPolygon","coordinates": [[[[4.6802,35.9953,857.8978],[4.6732,35.9966,857.0797],[4.6639,35.988,837.3109],[4.6593,35.9882,806.1597],[4.6552,35.9911,842.7679],[4.6508,35.99,837.4792],[4.6376,35.9933,862.6097],[4.632,35.99,876.4654],[4.6351,35.9856,850.2028],[4.6258,35.9798,877.5656],[4.6198,35.978,916.2729],[4.595,35.9795,943.5182],[4.5792,35.973,1005.353],[4.5754,35.9695,1033.4938],[4.568,35.9681,1011.6098],[4.5614,35.9687,994.8864],[4.551,35.9737,988.0035],[4.5483,35.9703,953.7249],[4.5474,35.9652,936.4778],[4.5549,35.9557,925.6888],[4.5546,35.9513,907.8365],[4.5453,35.9535,929.9382],[4.5345,35.9471,968.8173],[4.5299,35.9366,996.3557],[4.5263,35.9323,982.5836],[4.5292,35.9288,959.3943],[4.5247,35.9245,962.5469],[4.5112,35.9281,1026.6888],[4.5051,35.9261,1071.9617],[4.4995,35.9202,1095.8688],[4.4939,35.9176,999.1082],[4.4818,35.9168,1106.0869],[4.4637,35.91,1062.6064],[4.4584,35.9094,1079.6509],[4.4536,35.9057,1053.6088],[4.4589,35.899,1032.4059],[4.4607,35.8889,865.6152],[4.4444,35.8711,698.7694],[4.4391,35.869,699.0637],[4.44,35.8587,756.7316],[4.4178,35.8532,695.2761],[4.4148,35.8486,628.4086],[4.4146,35.8418,630.7437],[4.4189,35.8262,617.67],[4.4436,35.8227,616.4401],[4.4582,35.8224,623.8385],[4.4693,35.8193,617.1793],[4.4803,35.8126,590.2993],[4.4943,35.8092,578.136],[4.4984,35.8115,579.0267],[4.5305,35.8197,616.7995],[4.551,35.8131,548.659],[4.55,35.8216,580.0083],[4.5453,35.8261,615.2645],[4.5428,35.8318,647.3993],[4.5468,35.8351,688.0922],[4.5459,35.8402,708.0271],[4.5381,35.8485,690.3665],[4.5663,35.8658,746.9553],[4.5924,35.871,649.3778],[4.6007,35.8741,646.2302],[4.6062,35.8655,641.7569],[4.5995,35.8545,711.1337],[4.5811,35.8321,677.7169],[4.5907,35.8135,620.4646],[4.5911,35.8085,651.5688],[4.6115,35.8028,654.5819],[4.6204,35.8093,666.2515],[4.6251,35.8188,756.4983],[4.6348,35.8193,826.4703],[4.64,35.8217,810.0847],[4.6433,35.8259,837.6583],[4.6445,35.831,891.096],[4.654,35.8368,1204.8534],[4.666,35.8407,1329.5035],[4.6719,35.8392,1303.2056],[4.6827,35.8411,1467.2671],[4.713,35.8599,1598.1348],[4.7278,35.8546,1741.0597],[4.7324,35.8505,1809.0828],[4.7388,35.8507,1809.2273],[4.7507,35.8616,1745.39],[4.7461,35.8681,1682.3384],[4.7432,35.8804,1377.2981],[4.7387,35.8887,1145.2908],[4.7406,35.9125,1174.6222],[4.7369,35.9171,1137.8406],[4.7355,35.9321,901.7328],[4.7332,35.9365,879.0892],[4.7341,35.9406,871.235],[4.7379,35.9461,861.5368],[4.7433,35.9508,916.0189],[4.7409,35.955,896.8404],[4.745,35.9601,869.0276],[4.7238,35.9636,842.5872],[4.7177,35.9671,834.4854],[4.7117,35.9684,788.6298],[4.7027,35.9632,787.8063],[4.6973,35.9628,778.2128],[4.695,35.9678,795.5834],[4.6972,35.9751,832.7678],[4.6956,35.98,839.5624],[4.691,35.9875,834.0178],[4.6802,35.9953,857.8978]]]]}}