{"type": "Feature","bbox": [-0.7432,35.2259,-0.601,35.3606],"geometry": {"type": "MultiPolygon","coordinates": [[[[-0.7162,35.3419,412.1263],[-0.7166,35.3341,396.7088],[-0.7236,35.3296,443.6417],[-0.7252,35.3223,554.7777],[-0.7252,35.31,547.8807],[-0.7212,35.301,570.662],[-0.7305,35.2994,690.2841],[-0.7309,35.2937,669.9913],[-0.7357,35.2872,661.3516],[-0.7432,35.2808,711.8121],[-0.726,35.2595,524.5202],[-0.7074,35.2479,499.5989],[-0.7054,35.2416,473.4373],[-0.6894,35.2511,457.3553],[-0.6843,35.2467,453.913],[-0.6786,35.2446,452.8408],[-0.6742,35.2506,447.5897],[-0.6687,35.2485,451.5705],[-0.6615,35.2388,464.7495],[-0.6469,35.2259,478.3295],[-0.6365,35.2262,475.321],[-0.6305,35.2371,471.9604],[-0.6215,35.2355,467.3676],[-0.6151,35.2398,472.257],[-0.601,35.2571,449.4456],[-0.611,35.2583,455.4252],[-0.6205,35.2626,452.132],[-0.6201,35.2679,443.3753],[-0.6161,35.2731,425.1865],[-0.6098,35.2762,441.9349],[-0.6062,35.28,436.2719],[-0.6087,35.2858,430.7162],[-0.6142,35.2906,444.4398],[-0.6143,35.2975,448.3139],[-0.626,35.3054,490.3217],[-0.6334,35.3144,520.1046],[-0.6349,35.3201,594.5664],[-0.6288,35.3227,611.4937],[-0.6122,35.3245,529.9534],[-0.6072,35.3296,506.0232],[-0.6067,35.3352,592.1223],[-0.6092,35.3391,673.1223],[-0.6097,35.3447,707.3459],[-0.619,35.3586,837.8652],[-0.6243,35.3576,851.4366],[-0.6375,35.3606,779.3365],[-0.6436,35.36,818.3387],[-0.6484,35.3573,826.3858],[-0.6594,35.355,886.6951],[-0.6695,35.348,704.2554],[-0.6762,35.3455,680.0667],[-0.6834,35.3484,642.9738],[-0.6932,35.3433,517.7441],[-0.7113,35.341,391.7483],[-0.7162,35.3419,412.1263]]]]}
,"properties": {"GID_2": "DZA.38.4_1","GID_0": "DZA","country": "Algeria","GID_1": "DZA.38_1","province": "SidiBelAbbès","NL_NAME_1": "ولايةسيديبلعباس","county": "AinThrid","VARNAME_2": "NA","NL_NAME_2": "NA","TYPE_2": "Commune","ENGTYPE_2": "Commune","CC_2": "2215","HASC_2": "DZ.SB.AH","name": "Ain_Thrid.county","area_km2": 123.489,"hist_schema_id": "Elevation0-9000","hist_area_km2": {"300": 0.03459,"325": 0.27673,"350": 0.31133,"375": 0.74375,"400": 1.02051,"425": 5.03586,"450": 22.72917,"475": 20.75445,"500": 15.26334,"525": 14.17265,"550": 11.61048,"575": 8.27014,"600": 6.74731,"625": 4.84415,"650": 2.83694,"675": 2.12756,"700": 2.00631,"725": 1.15872,"750": 0.91655,"775": 0.93382,"800": 0.70898,"825": 0.51876,"850": 0.36313,"875": 0.08646,"900": 0.01729}}}