{"type": "Feature","bbox": [3.6676,34.826,4.1076,35.0854],"geometry": {"type": "MultiPolygon","coordinates": [[[[4.1076,34.8627,991.3597],[4.1003,34.8824,1039.7766],[4.0671,34.9346,1228.6757],[3.9368,34.9448,1113.4594],[3.913,34.9716,1010.9459],[3.9026,34.9971,1070.5269],[3.8761,35.0101,1013.7346],[3.9084,35.0274,1021.3336],[3.9093,35.0331,1007.1607],[3.8926,35.0572,1018.8232],[3.8831,35.0763,1004.6731],[3.8813,35.0854,961.0946],[3.8451,35.0272,994.7928],[3.8231,35.0099,1011.3627],[3.8311,34.989,972.4111],[3.8392,34.9812,975.2522],[3.8404,34.9764,982.2035],[3.7929,34.9486,999.0454],[3.7858,34.9633,1002.2613],[3.7681,34.9528,1028.2018],[3.7632,34.9571,1055.2522],[3.7243,34.9685,1129.7925],[3.7069,34.9783,1354.8047],[3.699,34.9311,1151.9448],[3.6676,34.8847,1107.0819],[3.7004,34.8955,1053.4708],[3.7138,34.8763,1131.4268],[3.7879,34.8794,1137.4982],[3.7951,34.862,1305.1718],[3.8322,34.8294,1360.0292],[3.8528,34.826,1190.2649],[3.8921,34.8321,1213.944],[3.9075,34.8516,1151.0134],[3.9957,34.9067,1306.0999],[4.049,34.9057,1058.2278],[4.092,34.8732,1020.1316],[4.0885,34.8696,1002.8779],[4.0931,34.8605,993.0901],[4.0972,34.8574,988.9247],[4.1029,34.8553,981.7181],[4.1076,34.8627,991.3597]]]]}
,"properties": {"GID_2": "DZA.26.43_1","GID_0": "DZA","country": "Algeria","GID_1": "DZA.26_1","province": "M'Sila","NL_NAME_1": "ولايةالمسيلة","county": "Slim","VARNAME_2": "NA","NL_NAME_2": "NA","TYPE_2": "Commune","ENGTYPE_2": "Commune","CC_2": "2843","HASC_2": "DZ.MS.SL","name": "Slim.county","area_km2": 390.9984,"hist_schema_id": "Elevation0-9000","hist_area_km2": {"975": 38.3468,"1000": 46.8363,"1025": 48.1135,"1050": 54.6259,"1075": 50.4241,"1100": 40.2023,"1125": 33.6665,"1150": 28.3462,"1175": 20.9549,"1200": 13.0436,"1225": 7.5663,"1250": 3.6008,"1275": 2.3312,"1300": 1.5308,"1325": 1.0438,"1350": 0.2436,"1375": 0.0696,"1400": 0.0522}}}