{"type": "Feature","bbox": [2.1461,33.8976,2.4951,34.1725],"geometry": {"type": "MultiPolygon","coordinates": [[[[2.1461,34.1013,1459.0282],[2.1885,34.058,1325.7985],[2.2077,34.0466,1322.4794],[2.215,34.0484,1310.2634],[2.2203,34.0473,1322.9114],[2.2387,34.0269,1324.7189],[2.2505,34.0217,1249.913],[2.266,33.9895,1229.3989],[2.2681,33.9768,1085.4681],[2.268,33.9653,1079.8129],[2.2787,33.9488,1360.6282],[2.2836,33.9319,1359.6577],[2.2851,33.9195,1300.2505],[2.2898,33.9163,1314.6421],[2.3348,33.9012,1038.3716],[2.3845,33.9005,980.8893],[2.4094,33.8976,953.5682],[2.4308,33.8982,935.3276],[2.44,33.9016,933.2854],[2.4561,33.9129,915.7012],[2.463,33.9256,921.0789],[2.465,33.9464,934.1061],[2.4647,33.9907,979.2823],[2.4679,33.9962,974.2737],[2.4629,33.9985,1003.6483],[2.4587,33.9973,990.9324],[2.4537,33.9983,1013.8569],[2.447,34.0066,1001.4731],[2.4526,34.0293,1022.6257],[2.4589,34.0372,1031.2767],[2.4622,34.0535,1049.4526],[2.4677,34.0547,1051.3414],[2.4714,34.06,1051.4459],[2.4761,34.0597,1053.3745],[2.4806,34.0633,1056.1482],[2.4874,34.0652,1066.6145],[2.492,34.0968,1101.9214],[2.4849,34.1148,1124.5066],[2.4876,34.1202,1126.6174],[2.4947,34.1271,1135.0212],[2.4951,34.1319,1141.9658],[2.4872,34.1413,1153.4397],[2.4812,34.1425,1174.663],[2.4763,34.1415,1183.3647],[2.4688,34.1493,1196.3807],[2.4421,34.1349,1199.6521],[2.4078,34.108,1123.0009],[2.3951,34.0849,1092.2166],[2.3868,34.0782,1078.6804],[2.3855,34.084,1091.0933],[2.3804,34.0892,1105.3622],[2.3743,34.0926,1144.9615],[2.3737,34.0992,1119.3689],[2.3674,34.1045,1136.6951],[2.3679,34.1147,1204.0942],[2.3639,34.1234,1158.9872],[2.3599,34.1258,1174.6455],[2.3529,34.1235,1181.8481],[2.3463,34.1261,1191.3591],[2.3365,34.1259,1217.3544],[2.3318,34.1305,1234.8335],[2.3062,34.139,1264.8232],[2.2912,34.1348,1274.8406],[2.2848,34.1348,1292.8964],[2.2816,34.1389,1294.8604],[2.2778,34.1504,1313.7656],[2.2731,34.1525,1317.8567],[2.2677,34.1524,1320.886],[2.2218,34.1725,1405.807],[2.2196,34.167,1379.0417],[2.1995,34.1623,1399.5067],[2.1671,34.1481,1393.2681],[2.1545,34.1245,1416.6571],[2.1461,34.1013,1459.0282]]]]}
,"properties": {"GID_2": "DZA.25.17_1","GID_0": "DZA","country": "Algeria","GID_1": "DZA.25_1","province": "Laghouat","NL_NAME_1": "ولايةالأغواط","county": "OuedM'Zi","VARNAME_2": "OuedMzi","NL_NAME_2": "NA","TYPE_2": "Commune","ENGTYPE_2": "Commune","CC_2": "322","HASC_2": "DZ.LG.OZ","name": "Oued_M'Zi.county","area_km2": 581.462,"hist_schema_id": "Elevation0-9000","hist_area_km2": {"900": 0.0352,"925": 13.3879,"950": 18.4008,"975": 18.6795,"1000": 22.807,"1025": 37.4793,"1050": 41.148,"1075": 49.4328,"1100": 41.0091,"1125": 32.8178,"1150": 31.0759,"1175": 32.6375,"1200": 32.9387,"1225": 33.5153,"1250": 37.9022,"1275": 36.651,"1300": 24.9185,"1325": 14.8203,"1350": 15.8525,"1375": 17.7099,"1400": 14.6388,"1425": 9.0039,"1450": 1.4748,"1475": 0.8604,"1500": 0.6321,"1525": 0.8955,"1550": 0.439,"1575": 0.281,"1600": 0.0176}}}