{"type": "Feature","bbox": [4.2685,36.7691,4.4152,36.8691],"geometry": {"type": "MultiPolygon","coordinates": [[[[4.412,36.835,1068.8929],[4.406,36.8389,931.4725],[4.3987,36.8393,852.1541],[4.3924,36.8375,837.3276],[4.3854,36.8302,637.1663],[4.3805,36.8294,485.2488],[4.3652,36.8374,246.6361],[4.3607,36.8415,209.1772],[4.3398,36.8442,365.3705],[4.3301,36.8437,340.2358],[4.3249,36.8455,415.1621],[4.3163,36.8532,495.4081],[4.3108,36.8628,690.0848],[4.2949,36.866,517.4069],[4.2887,36.8691,424.825],[4.2806,36.8666,264.9784],[4.2801,36.856,301.933],[4.2685,36.8448,527.9979],[4.2772,36.8383,557.0199],[4.2835,36.8371,558.8641],[4.2912,36.8295,663.6185],[4.2907,36.8217,804.0427],[4.2857,36.8188,796.6403],[4.2894,36.8144,706.9659],[4.2937,36.811,625.4552],[4.3058,36.8073,472.7033],[4.3108,36.8079,490.4971],[4.3206,36.7981,524.9845],[4.3296,36.7923,415.3743],[4.3329,36.7809,295.8944],[4.3311,36.7691,165.4287],[4.3427,36.7698,170.7738],[4.3568,36.7818,209.0594],[4.3689,36.7852,351.1829],[4.3795,36.792,329.5297],[4.3921,36.8044,514.325],[4.4152,36.8187,1230.783],[4.412,36.835,1068.8929]]]]}
,"properties": {"GID_2": "DZA.47.3_1","GID_0": "DZA","country": "Algeria","GID_1": "DZA.47_1","province": "TiziOuzou","NL_NAME_1": "ولايةغليزان","county": "Aghrib","VARNAME_2": "Aghrib","NL_NAME_2": "NA","TYPE_2": "Commune","ENGTYPE_2": "Commune","CC_2": "1553","HASC_2": "DZ.TO.AR","name": "Aghrib.county","area_km2": 65.07304,"hist_schema_id": "Elevation0-9000","hist_area_km2": {"150": 0.01698,"175": 0.35666,"200": 0.50945,"225": 0.62824,"250": 0.91686,"275": 1.13761,"300": 1.2903,"325": 1.85032,"350": 2.05391,"375": 2.29142,"400": 2.25735,"425": 2.73256,"450": 3.12266,"475": 3.34339,"500": 3.54706,"525": 4.05625,"550": 4.14106,"575": 4.07311,"600": 4.24288,"625": 3.80166,"650": 3.46221,"675": 2.98696,"700": 2.39308,"725": 1.49363,"750": 1.22209,"775": 1.34091,"800": 1.03537,"825": 0.66195,"850": 0.47521,"875": 0.57703,"900": 0.57701,"925": 0.39034,"950": 0.42429,"975": 0.33944,"1000": 0.10183,"1025": 0.28852,"1050": 0.15274,"1075": 0.13577,"1100": 0.18669,"1125": 0.20367,"1150": 0.05092,"1175": 0.08486,"1200": 0.08486,"1225": 0.03395}}}