{"type":"Feature","properties":{"ISO3166-1-Alpha-3":"DZA","country":"Algeria","fill":"#00F","id":"2206","name":"Tissemsilt"},
"geometry":{"type": "Polygon","coordinates": [[[1.68613,35.91876,552.9862],[1.67466,35.9207,617.9744],[1.63848,35.93429,563.1678],[1.61213,35.94721,700.9225],[1.60608,35.95176,548.2318],[1.60221,35.9561,644.9866],[1.59973,35.9606,614.9082],[1.59678,35.97072,655.0087],[1.5957,35.97605,836.9991],[1.59337,35.9816,674.1294],[1.58743,35.98804,531.6345],[1.56231,36.00483,495.117],[1.55332,36.00566,505.0195],[1.54836,36.00395,600.9439],[1.54635,36.00139,533.032],[1.54542,35.99987,515.8517],[1.54433,35.9976,545.4052],[1.53513,35.98514,608.1477],[1.51854,35.97274,787.261],[1.51482,35.96757,796.6104],[1.51265,35.94835,599.1604],[1.50924,35.94101,621.8863],[1.5049,35.93522,573.6056],[1.49854,35.93137,634.4609],[1.45508,35.91838,738.4291],[1.44795,35.91427,647.3348],[1.44749,35.90835,806.1512],[1.45121,35.90132,919.4996],[1.454,35.89316,855.7552],[1.45105,35.88654,863.0103],[1.41969,35.87078,735.0828],[1.41054,35.86476,575.7782],[1.4079,35.85864,566.5048],[1.40728,35.85352,601.8253],[1.41162,35.84156,519.7016],[1.40418,35.81652,655.761],[1.37721,35.78805,575.319],[1.36181,35.77652,863.7009],[1.34786,35.76983,1050.9041],[1.33375,35.76877,849.2106],[1.3061,35.77733,515.6878],[1.29199,35.77973,501.886],[1.27572,35.77549,704.217],[1.26781,35.76443,883.0859],[1.26362,35.74945,758.5891],[1.26347,35.71751,999.5628],[1.26114,35.69966,614.4119],[1.24559,35.64733,736.2649],[1.26967,35.62266,706.8543],[1.27975,35.61907,596.7726],[1.29246,35.61765,437.2072],[1.30316,35.62351,503.9217],[1.30967,35.63328,549.5991],[1.3184,35.66304,729.2239],[1.32445,35.67731,615.0412],[1.33375,35.68805,797.146],[1.34646,35.68981,746.4836],[1.35933,35.6865,772.5485],[1.3738,35.68066,930.1733],[1.40015,35.67663,823.3442],[1.45648,35.65571,804.789],[1.46919,35.64803,740.6565],[1.47756,35.63979,806.7751],[1.48196,35.62901,836.634],[1.48583,35.6063,587.2623],[1.49234,35.59488,629.9348],[1.50149,35.59359,679.1078],[1.51529,35.59666,654.9681],[1.53441,35.60284,686.5269],[1.55906,35.6061,819.15],[1.57627,35.59679,698.0433],[1.60903,35.56605,750.6793],[1.63461,35.55047,836.8066],[1.65807,35.54793,867.3798],[1.67187,35.55395,878.2944],[1.68334,35.57416,782.0807],[1.69202,35.58049,791.1134],[1.69977,35.57886,824.9485],[1.70634,35.57284,805.2055],[1.71161,35.56382,856.8194],[1.71719,35.55876,947.4494],[1.72866,35.55364,863.4091],[1.74494,35.55194,844.1084],[1.85883,35.55587,818.5171],[1.94901,35.57235,830.4736],[2.05019,35.57535,862.775],[2.06042,35.57147,861.0663],[2.06554,35.5615,858.9662],[2.06647,35.55163,860.6491],[2.07019,35.54429,856.9308],[2.0798,35.54403,859.7258],[2.11334,35.55494,850.5309],[2.15974,35.56026,866.7511],[2.24971,35.55961,828.3197],[2.26103,35.60558,787.6848],[2.25452,35.61519,758.2626],[2.24243,35.62576,732.4916],[2.20672,35.63767,760.5881],[2.18951,35.64713,790.2755],[2.16951,35.66682,857.1318],[2.16036,35.68408,847.6253],[2.15819,35.69823,850.4039],[2.16269,35.70898,870.2286],[2.17385,35.71852,828.0306],[2.18982,35.72361,813.951],[2.20765,35.72614,799.24],[2.22584,35.73291,808.2291],[2.24196,35.74412,843.5009],[2.31178,35.86696,1489.9253],[2.24367,35.88773,1080.4656],[2.19633,35.91156,885.3375],[2.17168,35.9176,827.123],[2.14559,35.91827,958.2691],[2.09892,35.91125,1279.1716],[2.04569,35.91282,1195.4873],[2.00875,35.91791,1144.2368],[1.9872,35.91192,1180.9839],[1.97614,35.90184,872.9863],[1.97164,35.8875,1005.6987],[1.96451,35.87983,1157.4722],[1.94715,35.8774,1260.7415],[1.89873,35.88765,941.7305],[1.884,35.88463,1078.2748],[1.86581,35.86585,878.6273],[1.85356,35.8605,950.8779],[1.8424,35.86523,812.2922],[1.83465,35.87517,880.4439],[1.80468,35.90106,882.3894],[1.71269,35.92341,574.5053],[1.68613,35.91876,552.9862]]]}}