{"type": "Feature","bbox": [2.7357,36.4443,2.8694,36.516],"geometry": {"type": "MultiPolygon","coordinates": [[[[2.7936,36.5156,116.0393],[2.7541,36.5034,87.5574],[2.7357,36.5033,66.7094],[2.7425,36.4888,80.4531],[2.7501,36.4816,83.1385],[2.7523,36.4701,98.3401],[2.7576,36.4644,109.6689],[2.7746,36.4637,131.6762],[2.7806,36.4611,158.1159],[2.797,36.4625,174.8221],[2.8019,36.4663,192.0771],[2.8085,36.4655,212.4356],[2.8227,36.4684,249.226],[2.8372,36.464,321.5658],[2.8425,36.4593,369.2596],[2.8405,36.4486,412.4364],[2.8428,36.445,432.7585],[2.8495,36.4464,534.7446],[2.8608,36.4443,663.0789],[2.8694,36.4471,967.1616],[2.8554,36.4535,814.9542],[2.8552,36.4612,577.5125],[2.864,36.4718,438.5251],[2.8649,36.478,336.9373],[2.8636,36.4837,297.706],[2.8597,36.4884,247.376],[2.8497,36.4928,209.9748],[2.8377,36.5142,149.9575],[2.8254,36.5109,153.3583],[2.8096,36.5099,143.5742],[2.8038,36.5107,137.632],[2.8016,36.516,126.3193],[2.7936,36.5156,116.0393]]]]}
,"properties": {"GID_2": "DZA.10.5_1","GID_0": "DZA","country": "Algeria","GID_1": "DZA.10_1","province": "Blida","NL_NAME_1": "البليدة","county": "Blida","VARNAME_2": "Blīdah","NL_NAME_2": "NA","TYPE_2": "Chef-Lieu-Wilaya","ENGTYPE_2": "Chef-Lieu-Wilaya","CC_2": "901","HASC_2": "DZ.BL.BL","name": "Blida.county","area_km2": 53.0157,"hist_schema_id": "Elevation0-9000","hist_area_km2": {"75": 3.46013,"100": 3.5114,"125": 7.38043,"150": 8.84659,"175": 8.48894,"200": 6.78465,"225": 4.1256,"250": 1.96061,"275": 0.98884,"300": 0.61375,"325": 0.57967,"350": 0.46033,"375": 0.54559,"400": 0.3751,"425": 0.39217,"450": 0.49448,"475": 0.39219,"500": 0.35807,"525": 0.34104,"550": 0.39219,"575": 0.3581,"600": 0.28989,"625": 0.30695,"650": 0.2558,"675": 0.20465,"700": 0.20465,"725": 0.17055,"750": 0.11938,"775": 0.13644,"800": 0.11938,"825": 0.13644,"850": 0.06822,"875": 0.06822,"900": 0.05116,"925": 0.01705,"950": 0.01706}}}