{"type": "Feature","bbox": [0.1068,35.1536,0.2539,35.2953],"geometry": {"type": "MultiPolygon","coordinates": [[[[0.2095,35.1553,619.9856],[0.206,35.1658,596.9226],[0.1971,35.1723,584.46],[0.1944,35.1772,563.2501],[0.1954,35.1822,556.6556],[0.2156,35.2183,540.6271],[0.2137,35.2226,547.5519],[0.2234,35.2233,577.5358],[0.2219,35.2358,572.6153],[0.2273,35.2371,587.9534],[0.2364,35.2423,697.2645],[0.2539,35.241,676.5117],[0.252,35.2462,664.2559],[0.2407,35.2526,632.8615],[0.2262,35.2647,598.2936],[0.2149,35.2658,627.4517],[0.2035,35.2721,519.723],[0.2051,35.2802,513.2207],[0.1845,35.2953,478.3727],[0.1624,35.2855,474.3373],[0.1579,35.2773,478.3365],[0.1305,35.268,481.5158],[0.1304,35.2605,497.0561],[0.1387,35.2551,509.5314],[0.1201,35.2388,544.2617],[0.1165,35.2238,496.3676],[0.1129,35.2173,487.8051],[0.1136,35.2107,491.0704],[0.1068,35.1808,499.9991],[0.1068,35.174,502.2951],[0.1225,35.1695,512.1023],[0.1567,35.1685,532.7544],[0.1648,35.1702,538.0363],[0.1695,35.1734,541.2939],[0.1822,35.1732,555.3214],[0.1888,35.1706,561.602],[0.2003,35.1605,591.2827],[0.2056,35.1536,607.2143],[0.2095,35.1553,619.9856]]]]}
,"properties": {"GID_2": "DZA.27.23_1","GID_0": "DZA","country": "Algeria","GID_1": "DZA.27_1","province": "Mascara","NL_NAME_1": "ولايةمعسكر","county": "Ghriss","VARNAME_2": "NA","NL_NAME_2": "NA","TYPE_2": "Commune","ENGTYPE_2": "Commune","CC_2": "2912","HASC_2": "DZ.MC.GR","name": "Ghriss.county","area_km2": 110.32688,"hist_schema_id": "Elevation0-9000","hist_area_km2": {"475": 9.98757,"500": 43.88688,"525": 32.15125,"550": 14.56837,"575": 4.64113,"600": 2.56347,"625": 1.05635,"650": 0.58873,"675": 0.51947,"700": 0.29437,"725": 0.06926}}}