{"type": "Feature","bbox": [4.0691,35.7614,5.1959,36.4276],"geometry": {"type": "MultiPolygon","coordinates": [[[[5.0374,35.8354,1586.6371],[5.0354,35.841,1646.4581],[5.0361,35.8467,1733.4722],[5.0419,35.8473,1711.2018],[5.0479,35.8513,1481.3369],[5.0823,35.8428,1409.0701],[5.0998,35.8435,1458.9253],[5.1322,35.8522,1578.1052],[5.1336,35.8566,1529.0365],[5.1241,35.8623,1363.1453],[5.1216,35.8754,1304.9182],[5.1244,35.8864,1219.9791],[5.1171,35.8987,1162.6613],[5.1287,35.9005,1208.4702],[5.1302,35.906,1245.9443],[5.1294,35.9233,1255.6929],[5.1249,35.9273,1203.9397],[5.1165,35.9302,1138.8789],[5.1274,35.9512,1165.3672],[5.1191,35.9692,1090.7854],[5.1193,35.9749,1082.6221],[5.1237,35.9812,1052.3367],[5.1281,35.9829,1047.934],[5.1283,35.988,1069.3545],[5.1237,35.991,1028.4335],[5.13,35.9982,999.1221],[5.1366,36.0009,997.0963],[5.1635,36.0246,1177.8676],[5.1764,36.0237,1186.7971],[5.1802,36.0297,1033.8845],[5.185,36.0431,941.1585],[5.1871,36.0536,921.1016],[5.1848,36.058,926.6937],[5.1887,36.0717,907.5539],[5.1959,36.0788,885.9437],[5.1879,36.0866,896.7805],[5.1917,36.0909,868.6212],[5.1875,36.0934,867.7622],[5.185,36.0975,868.5663],[5.174,36.1018,866.4424],[5.1557,36.1159,861.1876],[5.164,36.122,865.3838],[5.1642,36.128,851.5],[5.166,36.132,851.5],[5.1714,36.1336,851.5],[5.1733,36.1389,851.5],[5.1671,36.1473,851.5],[5.1663,36.1527,851.5],[5.161,36.163,863.2759],[5.1618,36.1688,853.0298],[5.1593,36.1743,856.0924],[5.1591,36.1792,887.855],[5.1645,36.1882,909.3455],[5.1638,36.1948,943.3035],[5.1598,36.2006,908.6016],[5.1498,36.1998,856.3429],[5.1492,36.2076,827.8348],[5.1366,36.2166,831.7627],[5.124,36.2117,791.6271],[5.115,36.2229,785.6323],[5.11,36.2265,796.0099],[5.108,36.234,823.4045],[5.1052,36.2379,792.1225],[5.0888,36.2443,771.2429],[5.0842,36.2486,793.073],[5.0804,36.2549,782.8248],[5.0834,36.2589,747.5247],[5.078,36.2669,780.7398],[5.0819,36.2695,741.781],[5.0767,36.2853,781.0659],[5.0649,36.2868,964.0877],[5.0607,36.2914,1054.6731],[5.0555,36.2929,1131.4517],[5.0523,36.2974,1254.2126],[5.05,36.3074,1320.1725],[5.024,36.307,1356.3673],[4.9944,36.3231,1323.8914],[4.9833,36.3224,1422.2986],[4.9793,36.3189,1418.2764],[4.9793,36.3145,1227.6993],[4.9755,36.3092,1227.5897],[4.9698,36.306399999999996,1234.6367],[4.9446,36.2996,1237.7899],[4.9197,36.303,1284.3368],[4.9068,36.3018,1324.1472],[4.8972,36.2964,1464.8027],[4.8791,36.2952,1393.6937],[4.8622,36.298,1205.8945],[4.8528,36.3015,1369.5365],[4.8328,36.2934,975.7275],[4.8255,36.2924,1022.5364],[4.8166,36.2939,1071.36],[4.8118,36.2918,1122.2339],[4.8069,36.3029,913.9188],[4.8017,36.3095,800.7729],[4.7829,36.3163,614.8368],[4.7751,36.3312,527.5043],[4.7776,36.3394,443.3076],[4.7819,36.3432,421.05],[4.7824,36.3511,441.22],[4.7887,36.3534,590.9028],[4.7917,36.3597,607.4259],[4.7927,36.3957,566.7996],[4.7893,36.4031,557.8199],[4.7729,36.4131,734.864],[4.7674,36.4145,644.7021],[4.7636,36.4193,507.0182],[4.7624,36.4247,551.4727],[4.7515,36.4255,477.3302],[4.7447,36.4276,443.0296],[4.7304,36.4275,316.7678],[4.7242,36.4011,536.8643],[4.7219,36.3961,559.2762],[4.7147,36.3877,894.6946],[4.7094,36.3853,1034.9468],[4.7046,36.3867,1095.7449],[4.7004,36.3858,1103.3643],[4.6964,36.3817,856.5452],[4.6854,36.3751,736.9827],[4.6799,36.3745,618.2042],[4.6783,36.37,694.6874],[4.6745,36.3675,693.3356],[4.6586,36.3596,573.6695],[4.6527,36.3603,501.122],[4.6275,36.3576,424.5849],[4.6151,36.3516,620.7437],[4.6209,36.342,645.6802],[4.6127,36.3284,1009.5283],[4.6049,36.3207,592.0249],[4.6062,36.3111,571.9581],[4.6053,36.3014,646.7578],[4.5994,36.2894,649.8099],[4.6008,36.2784,788.9089],[4.6072,36.2731,807.7811],[4.6189,36.2734,924.4164],[4.6223,36.2681,1183.6155],[4.618,36.2612,1149.9906],[4.6139,36.2581,1202.5142],[4.6082,36.2566,1249.9622],[4.5939,36.2576,1203.3931],[4.5883,36.2553,1225.4584],[4.5704,36.2574,1206.1638],[4.5555,36.2473,1150.9792],[4.5395,36.2512,1166.4651],[4.5326,36.2513,1133.1255],[4.5251,36.2488,1108.7932],[4.5198,36.2422,936.1564],[4.5206,36.237,1115.5027],[4.5247,36.2332,1082.9402],[4.5067,36.2283,1035.4452],[4.4958,36.2297,970.9947],[4.4775,36.2251,901.7165],[4.47,36.2251,839.5714],[4.4644,36.2218,801.4422],[4.4297,36.2215,691.4514],[4.4095,36.2185,448.2247],[4.398,36.224,405.9855],[4.3943,36.2372,384.1579],[4.3952,36.2423,399.5516],[4.3923,36.2472,423.3631],[4.3876,36.2464,376.3163],[4.3814,36.2501,376.003],[4.3785,36.2568,373.9478],[4.375,36.2751,375.4514],[4.3721,36.2795,346.501],[4.3756,36.2869,341.0627],[4.3584,36.2801,390.2937],[4.3456,36.2585,497.6692],[4.3366,36.2504,515.1454],[4.3298,36.2481,524.0037],[4.3206,36.2483,544.5856],[4.3116,36.2445,589.8022],[4.285,36.2487,604.894],[4.2732,36.2537,558.28],[4.2693,36.2516,554.3116],[4.2647,36.2407,607.3981],[4.2572,36.232,647.6508],[4.2409,36.2272,746.6692],[4.2365,36.2241,773.2116],[4.231,36.2066,921.6418],[4.2186,36.2009,1013.8737],[4.2112,36.1942,1125.6072],[4.1977,36.1903,1247.8029],[4.1842,36.1889,1117.092],[4.1746,36.1841,1021.6138],[4.1702,36.1795,945.684],[4.1518,36.1744,887.5226],[4.1552,36.1715,883.6935],[4.1607,36.1711,890.3175],[4.1653,36.1684,894.6481],[4.1568,36.1582,1012.7283],[4.1534,36.1511,997.8017],[4.1535,36.1404,1116.2863],[4.1507,36.1346,1062.5267],[4.1466,36.1314,1037.9657],[4.1562,36.1279,1103.8074],[4.1483,36.1229,1134.6237],[4.1436,36.1175,1213.4031],[4.1419,36.1062,1191.376],[4.1385,36.0992,1072.1384],[4.1427,36.0944,1003.1447],[4.1386,36.084,1083.6117],[4.1206,36.0691,1238.0317],[4.1074,36.0614,1515.8838],[4.1059,36.057,1443.2607],[4.0992,36.05,1460.4119],[4.0941,36.0473,1420.3795],[4.076,36.0455,1189.7487],[4.0713,36.0435,1142.9805],[4.0691,36.0386,1026.5675],[4.0832,36.0322,1168.2227],[4.091,36.021,1085.8473],[4.089,35.9986,951.6165],[4.1105,35.9974,1260.1162],[4.1242,35.9941,1245.8107],[4.1279,35.9973,1421.3164],[4.138,35.9982,1423.2319],[4.1446,36.0087,1344.1045],[4.1411,36.0147,1494.054],[4.1455,36.0187,1535.0894],[4.1701,36.0232,1781.9839],[4.1843,36.0224,1751.0775],[4.1997,36.0241,1597.1523],[4.2191,36.022,1532.4399],[4.2303,36.0173,1346.5939],[4.237,36.0117,1210.7938],[4.2372,36.0073,1208.2371],[4.2409,36.0034,1113.9747],[4.245,36.0013,1053.5771],[4.2566,36.0071,1065.9551],[4.2695,35.9992,999.033],[4.2743,35.9991,1028.0131],[4.277,36.0028,1037.7463],[4.2813,36.0005,1033.6652],[4.284,36.0054,1061.3799],[4.2929,35.9979,1015.3907],[4.2916,35.9919,1014.4005],[4.2963,35.9929,1067.5482],[4.3005,35.9908,1060.9487],[4.3162,35.9897,1155.4103],[4.3292,35.9844,1203.064],[4.3404,35.9866,1223.0576],[4.3451,35.9853,1164.1025],[4.3506,35.987,1282.2268],[4.3646,35.9865,1369.3901],[4.375,35.995,1357.511],[4.3865,35.995,1201.1306],[4.3911,36.0041,1407.3047],[4.3955,36.007,1428.0721],[4.407,36.0105,1464.5912],[4.4159,36.0076,1525.7556],[4.422,36.0109,1587.4873],[4.4251,36.0161,1716.9751],[4.4405,36.0241,1802.205],[4.4431,36.0303,1846.041],[4.4521,36.0354,1755.0544],[4.4671,36.038,1738.9905],[4.4713,36.0411,1676.1642],[4.4766,36.0415,1674.9946],[4.4913,36.0372,1676.7452],[4.4925,36.0312,1704.272],[4.491,36.0166,1507.5735],[4.4941,36.0125,1501.9443],[4.5076,35.9787,1090.4883],[4.5061,35.973,1074.9353],[4.5012,35.97,1056.9517],[4.5015,35.9651,1055.0664],[4.5129,35.9571,1028.8987],[4.5134,35.9512,1014.9851],[4.5204,35.9427,994.1108],[4.522,35.936,975.538],[4.5292,35.9288,959.3943],[4.5247,35.9245,962.5469],[4.5112,35.9281,1026.6888],[4.5051,35.9261,1071.9617],[4.4995,35.9202,1095.8688],[4.4939,35.9176,999.1082],[4.4818,35.9168,1106.0869],[4.4637,35.91,1062.6064],[4.4584,35.9094,1079.6509],[4.4536,35.9057,1053.6088],[4.4589,35.899,1032.4059],[4.4607,35.8889,865.6152],[4.4444,35.8711,698.7694],[4.4391,35.869,699.0637],[4.44,35.8587,756.7316],[4.4178,35.8532,695.2761],[4.4148,35.8486,628.4086],[4.4146,35.8418,630.7437],[4.4189,35.8262,617.67],[4.4436,35.8227,616.4401],[4.4582,35.8224,623.8385],[4.4693,35.8193,617.1793],[4.4803,35.8126,590.2993],[4.4943,35.8092,578.136],[4.4984,35.8115,579.0267],[4.5305,35.8197,616.7995],[4.551,35.8131,548.659],[4.55,35.8216,580.0083],[4.5453,35.8261,615.2645],[4.5428,35.8318,647.3993],[4.5468,35.8351,688.0922],[4.5459,35.8402,708.0271],[4.5381,35.8485,690.3665],[4.5663,35.8658,746.9553],[4.5924,35.871,649.3778],[4.6007,35.8741,646.2302],[4.6062,35.8655,641.7569],[4.5995,35.8545,711.1337],[4.5811,35.8321,677.7169],[4.5907,35.8135,620.4646],[4.5911,35.8085,651.5688],[4.6115,35.8028,654.5819],[4.6204,35.8093,666.2515],[4.6251,35.8188,756.4983],[4.6348,35.8193,826.4703],[4.64,35.8217,810.0847],[4.6433,35.8259,837.6583],[4.6445,35.831,891.096],[4.654,35.8368,1204.8534],[4.666,35.8407,1329.5035],[4.6719,35.8392,1303.2056],[4.6827,35.8411,1467.2671],[4.713,35.8599,1598.1348],[4.7278,35.8546,1741.0597],[4.7324,35.8505,1809.0828],[4.7388,35.8507,1809.2273],[4.7507,35.8616,1745.39],[4.7629,35.8622,1796.3878],[4.7731,35.8668,1742.5093],[4.7821,35.8688,1754.5155],[4.8129,35.8683,1760.2511],[4.8228,35.8628,1735.7297],[4.8311,35.8694,1688.679],[4.8324,35.8749,1691.2296],[4.838,35.8771,1670.3418],[4.8446,35.877,1648.0386],[4.8483,35.8713,1618.7471],[4.862,35.8627,1724.2136],[4.8688,35.853,1623.8082],[4.8753,35.8478,1610.0334],[4.8789,35.8406,1584.5439],[4.8833,35.8375,1584.1438],[4.8856,35.8323,1638.1163],[4.8906,35.8303,1618.5248],[4.9031,35.8121,1803.6672],[4.9071,35.8144,1727.7706],[4.9152,35.8146,1581.1195],[4.9327,35.8112,1715.1151],[4.9375,35.8132,1686.8534],[4.9381,35.8175,1729.7882],[4.941,35.8205,1677.6958],[4.9534,35.8156,1690.0511],[4.9585,35.8111,1637.3491],[4.9585,35.7977,1394.4408],[4.9621,35.775,900.4697],[4.9659,35.7674,882.5542],[4.9762,35.7614,850.4113],[4.9783,35.7682,907.9374],[4.9892,35.7713,853.5474],[4.991,35.7648,832.7268],[4.9972,35.7658,825.4165],[5.0327,35.7834,1059.4497],[5.0346,35.7892,1206.9779],[5.0377,35.7923,1196.2341],[5.0382999999999996,35.7988,1332.671],[5.0364,35.8072,1318.5077],[5.0379,35.8147,1398.7766],[5.0341,35.8213,1395.7286],[5.0347,35.8293,1559.6738],[5.0374,35.8354,1586.6371]]],
[[[5.0859,36.2632,749.618],[5.0834,36.2589,747.5247],[5.0885,36.2579,753.9996],[5.092,36.2626,800.5068],[5.0859,36.2632,749.618]]]]}
,"properties": {"GID_1": "DZA.11_1","GID_0": "DZA","country": "Algeria","province": "BordjBouArréridj","VARNAME_1": "Borjbouarirej|BordiBouArreridj","NL_NAME_1": "ولايةبرجبوعريريج","TYPE_1": "Wilaya","ENGTYPE_1": "Province","CC_1": "34","HASC_1": "DZ.BB","ISO_1": "NA","name": "Bordj_Bou_Arréridj.province","area_km2": 3934.85,"hist_schema_id": "Elevation0-9000","hist_area_km2": {"300": 0.819,"325": 2.082,"350": 3.159,"375": 4.8,"400": 6.543,"425": 7.809,"450": 9.314,"475": 13.267,"500": 18.108,"525": 23.054,"550": 29.39,"575": 36.41,"600": 44.541,"625": 51.674,"650": 64.151,"675": 69.984,"700": 70.827,"725": 77.215,"750": 91.988,"775": 98.424,"800": 111.902,"825": 133.479,"850": 178.834,"875": 188.818,"900": 204.798,"925": 258.7,"950": 257.268,"975": 260.141,"1000": 224.105,"1025": 202.873,"1050": 176.675,"1075": 131.543,"1100": 103.786,"1125": 89.547,"1150": 76.885,"1175": 64.958,"1200": 56.403,"1225": 48.087,"1250": 43.873,"1275": 40.089,"1300": 39.244,"1325": 35.031,"1350": 33.357,"1375": 33.829,"1400": 32.839,"1425": 34.266,"1450": 30.081,"1475": 25.085,"1500": 17.464,"1525": 13.704,"1550": 11.317,"1575": 9.325,"1600": 9.034,"1625": 7.814,"1650": 6.097,"1675": 5.65,"1700": 4.105,"1725": 3.401,"1750": 2.302,"1775": 1.924,"1800": 1.391,"1825": 0.928,"1850": 0.343}}}