{"type": "Feature","bbox": [4.1474,36.8369,4.2887,36.9079],"geometry": {"type": "MultiPolygon","coordinates": [[[[4.2887,36.8691,424.825],[4.2878,36.8747,437.7305],[4.2834,36.8769,475.4923],[4.2754,36.8856,319.4182],[4.2644,36.8901,245.7068],[4.2712,36.9013,11.4559],[4.2626,36.9052,38.4867],[4.2421,36.9037,47.5984],[4.2311,36.8982,13.4582],[4.2215,36.8971,0.0],[4.2122,36.893,6.2909],[4.204,36.893,9.0715],[4.1943,36.8956,7.0257],[4.1851,36.8954,17.0796],[4.1583,36.9079,5.3427],[4.1515,36.9064,18.5581],[4.1475,36.901,26.0527],[4.1474,36.8947,13.5201],[4.1506,36.8885,23.0576],[4.1511,36.8792,68.8904],[4.1529,36.8747,155.0121],[4.1591,36.871,231.1563],[4.1853,36.8467,813.1296],[4.1943,36.8417,828.3734],[4.2124,36.8392,851.6016],[4.2257,36.841,870.2092],[4.2296,36.8369,910.736],[4.2415,36.8404,861.105],[4.2574,36.8381,693.5522],[4.2685,36.8448,527.9979],[4.2801,36.856,301.933],[4.2806,36.8666,264.9784],[4.2887,36.8691,424.825]]]]}
,"properties": {"GID_2": "DZA.47.39_1","GID_0": "DZA","country": "Algeria","GID_1": "DZA.47_1","province": "TiziOuzou","NL_NAME_1": "ولايةغليزان","county": "Iflissen","VARNAME_2": "NA","NL_NAME_2": "NA","TYPE_2": "Commune-Cotiere","ENGTYPE_2": "Commune-Cotiere","CC_2": "1554","HASC_2": "DZ.TO.IF","name": "Iflissen.county","area_km2": 66.84425,"hist_schema_id": "Elevation0-9000","hist_area_km2": {"0": 0.54258,"25": 1.59383,"50": 1.88212,"75": 2.03474,"100": 2.6283,"125": 2.56056,"150": 3.01844,"175": 3.01852,"200": 3.42564,"225": 3.35792,"250": 2.86623,"275": 2.81542,"300": 2.56108,"325": 2.32369,"350": 2.52727,"375": 2.1033,"400": 2.25598,"425": 2.23905,"450": 2.18822,"475": 2.00166,"500": 1.84905,"525": 1.64551,"550": 1.5268,"575": 1.3402,"600": 1.42508,"625": 1.39115,"650": 1.25546,"675": 1.42515,"700": 1.11977,"725": 1.45912,"750": 1.20465,"775": 1.01802,"800": 0.91624,"825": 0.66174,"850": 0.40723,"875": 0.20362,"900": 0.05091}}}