{"type":"Feature","properties":{"GID_2":"DZA.35.35_1","GID_0":"DZA","country":"Algeria","GID_1":"DZA.35_1","province":"Relizane","NL_NAME_1":"ولايةغليزان","county":"SidiSaada","VARNAME_2":"NA","NL_NAME_2":"NA","TYPE_2":"Commune","ENGTYPE_2":"Commune","CC_2":"4804","HASC_2":"DZ.RE.SS","name":"Sidi_Saada.county"},
"geometry":{"type": "MultiPolygon","coordinates": [[[[0.2576,35.6711,157.3608],[0.2545,35.6652,182.291],[0.2587,35.6609,194.2799],[0.2712,35.6554,209.3044],[0.2829,35.6439,321.1306],[0.2876,35.6421,368.6184],[0.2987,35.6417,383.1921],[0.3063,35.6468,352.8761],[0.312,35.645,370.1642],[0.3198,35.6462,349.0726],[0.3246,35.6494,315.3609],[0.341,35.6551,264.157],[0.3426,35.6596,230.823],[0.3467,35.6618,229.1636],[0.3471,35.6728,212.9437],[0.3489,35.6778,209.1805],[0.3482,35.6833,186.4253],[0.3535,35.6872,187.4453],[0.3493,35.6908,173.0597],[0.3478,35.6966,163.7637],[0.3269,35.6971,150.3354],[0.32,35.699,157.2102],[0.3178,35.705,142.3945],[0.3102,35.7059,143.0253],[0.3003,35.7413,171.4367],[0.3051,35.7457,175.7226],[0.3082,35.7562,174.0337],[0.2973,35.7489,163.7519],[0.2905,35.7466,173.1241],[0.287,35.7399,190.2809],[0.264,35.742,104.0974],[0.2474,35.7384,73.9529],[0.2493,35.7344,73.9828],[0.2434,35.7277,63.1036],[0.2365,35.7132,95.8714],[0.2276,35.7045,77.1756],[0.2344,35.7039,122.8949],[0.2439,35.6995,114.7955],[0.2531,35.6973,124.7528],[0.2552,35.6911,155.3382],[0.262,35.6822,153.6145],[0.2625,35.6765,160.0815],[0.2576,35.6711,157.3608]]]]}}