{"type":"Feature","properties":{"GID_2":"DZA.45.23_1","GID_0":"DZA","country":"Algeria","GID_1":"DZA.45_1","province":"Tipaza","NL_NAME_1":"ولايةتيبازة","county":"SidiGhiles","VARNAME_2":"NA","NL_NAME_2":"NA","TYPE_2":"Commune-Cotiere","ENGTYPE_2":"Commune-Cotiere","CC_2":"4221","HASC_2":"DZ.TP.SG","name":"Sidi_Ghiles.county"},
"geometry":{"type": "MultiPolygon","coordinates": [[[[2.1534,36.5925,6.4714],[2.1467,36.5926,0.0],[2.1297,36.5869,13.4317],[2.1144,36.5838,0.0],[2.1082,36.5848,3.7898],[2.087,36.5793,5.6436],[2.0857,36.5697,80.305],[2.08,36.5574,271.5621],[2.0755,36.5584,218.0922],[2.0709,36.5555,137.0228],[2.069,36.5371,281.8143],[2.0706,36.5317,160.9034],[2.082,36.5382,371.9092],[2.1024,36.537,516.3142],[2.1053,36.534,518.772],[2.1106,36.5322,547.56],[2.1183,36.5324,480.3495],[2.1237,36.5308,518.6674],[2.1327,36.5317,472.6482],[2.1383,36.5284,493.2819],[2.1464,36.5266,453.1218],[2.1433,36.5311,485.865],[2.1384,36.5454,265.0386],[2.1405,36.5522,315.6893],[2.1461,36.557,245.728],[2.1532,36.5601,231.6688],[2.1569,36.566,113.7259],[2.1566,36.5784,76.31],[2.1534,36.5925,6.4714]]]]}}