{"type":"Feature","properties":{"GID_2":"DZA.11.33_1","GID_0":"DZA","country":"Algeria","GID_1":"DZA.11_1","province":"BordjBouArréridj","NL_NAME_1":"ولايةبرجبوعريريج","county":"Tesmart","VARNAME_2":"NA","NL_NAME_2":"NA","TYPE_2":"Commune","ENGTYPE_2":"Commune","CC_2":"3429","HASC_2":"DZ.BB.TE","name":"Tesmart.county"},
"geometry":{"type": "MultiPolygon","coordinates": [[[[4.8732,36.2971,1330.6787],[4.8622,36.298,1205.8945],[4.8528,36.3015,1369.5365],[4.8328,36.2934,975.7275],[4.8255,36.2924,1022.5364],[4.8166,36.2939,1071.36],[4.8118,36.2918,1122.2339],[4.8069,36.3029,913.9188],[4.8017,36.3095,800.7729],[4.7829,36.3163,614.8368],[4.7806,36.3203,552.6007],[4.752,36.3167,521.0136],[4.7484,36.314,505.6664],[4.7542,36.3006,636.0193],[4.76,36.2973,593.5292],[4.7637,36.2917,617.1606],[4.7626,36.2865,584.5801],[4.7586,36.2806,605.6057],[4.7588,36.2747,597.4738],[4.7665,36.2686,584.9213],[4.7763,36.2672,630.0505],[4.7805,36.2646,608.3564],[4.7827,36.2598,657.9644],[4.7822,36.2505,788.8793],[4.7852,36.2472,899.3644],[4.7955,36.2433,1017.8104],[4.8003,36.2432,996.6885],[4.8152,36.2477,896.7097],[4.8202,36.2448,810.3162],[4.8269,36.2437,670.3071],[4.8282,36.2396,669.913],[4.8244,36.2369,705.3094],[4.822,36.2325,689.5704],[4.8345,36.2294,869.4332],[4.8392,36.231,892.3936],[4.8375,36.2433,806.6171],[4.8404,36.2489,677.7267],[4.8287,36.2562,690.0578],[4.8363,36.2653,846.6077],[4.8363,36.2711,1022.8232],[4.8415,36.2751,1098.28],[4.8524,36.2886,1286.7534],[4.8575,36.2912,1250.8687],[4.8626,36.2906,1296.0782],[4.8679,36.2926,1329.4626],[4.8732,36.2971,1330.6787]]]]}}