{"type": "Feature","bbox": [3.717,36.6028,3.8441,36.6565],"geometry": {"type": "MultiPolygon","coordinates": [[[[3.7371,36.6084,235.7546],[3.7473,36.6112,208.9759],[3.748,36.6162,189.6357],[3.7508,36.6201,181.5331],[3.7691,36.6094,238.026],[3.7756,36.613,394.2702],[3.779,36.6191,338.8579],[3.7842,36.6218,373.9114],[3.7924,36.6164,552.3596],[3.804,36.6175,471.8902],[3.8171,36.6123,319.8608],[3.8223,36.6125,343.1291],[3.8332,36.6028,265.5751],[3.8417,36.6074,271.1411],[3.8379,36.6199,343.846],[3.8385,36.6262,259.1562],[3.8441,36.6311,230.5073],[3.8414,36.6357,279.0546],[3.8337,36.6378,437.0381],[3.8288,36.641,352.7406],[3.8251,36.6363,374.2424],[3.8189,36.6355,407.0201],[3.8043,36.6358,521.3081],[3.7975,36.6378,492.2115],[3.7883,36.6421,396.6505],[3.7912,36.6523,495.4398],[3.785,36.6565,578.6917],[3.7814,36.6519,452.6219],[3.7754,36.6511,448.1419],[3.77,36.6467,284.1458],[3.7619,36.6498,248.9789],[3.7446,36.6499,194.9113],[3.7374,36.6496,175.282],[3.733,36.647,155.305],[3.722,36.648,97.8648],[3.717,36.6468,94.6893],[3.7219,36.6319,124.272],[3.7257,36.6285,139.8505],[3.7298,36.6187,172.7536],[3.7371,36.6084,235.7546]]]]}
,"properties": {"GID_2": "DZA.47.45_1","GID_0": "DZA","country": "Algeria","GID_1": "DZA.47_1","province": "TiziOuzou","NL_NAME_1": "ولايةغليزان","county": "M'Kira","VARNAME_2": "Mkira|Makirah","NL_NAME_2": "NA","TYPE_2": "Commune","ENGTYPE_2": "Commune","CC_2": "1526","HASC_2": "DZ.TO.MK","name": "M'Kira.county","area_km2": 35.73137,"hist_schema_id": "Elevation0-9000","hist_area_km2": {"100": 0.34024,"125": 0.62947,"150": 1.68436,"175": 2.16087,"200": 2.43312,"225": 2.39917,"250": 2.80754,"275": 1.92275,"300": 2.10991,"325": 2.73952,"350": 2.46722,"375": 2.41614,"400": 2.45016,"425": 2.5352,"450": 2.10983,"475": 1.87159,"500": 1.32712,"525": 0.90178,"550": 0.32329,"575": 0.08508,"600": 0.01701}}}