{"type": "Feature","bbox": [-1.002,35.5408,-0.7966,35.6738],"geometry": {"type": "MultiPolygon","coordinates": [[[[-0.9587,35.5408,81.8475],[-0.9424,35.5427,81.0],[-0.9258,35.5533,81.0],[-0.9121,35.5589,81.5217],[-0.894,35.5611,83.1101],[-0.8561,35.5575,81.0],[-0.8371,35.5577,82.6807],[-0.8264,35.5532,81.4774],[-0.8202,35.5528,81.0821],[-0.8136,35.5642,81.9026],[-0.8029,35.5675,84.2785],[-0.8043,35.5743,88.2893],[-0.8033,35.5823,94.678],[-0.7966,35.5947,112.1029],[-0.8034,35.602,196.3251],[-0.8081,35.6109,278.5225],[-0.8092,35.6232,328.0586],[-0.8119,35.6284,284.4581],[-0.8107,35.6436,364.5355],[-0.8126,35.6513,453.1927],[-0.8174,35.6573,464.8821],[-0.8293,35.6627,527.5283],[-0.8347,35.6668,566.7137],[-0.8497,35.6687,527.4362],[-0.8591,35.6738,383.5003],[-0.8638,35.6726,433.098],[-0.8743,35.6655,407.6481],[-0.8905,35.6491,379.3177],[-0.8979,35.6475,369.5732],[-0.9061,35.6429,408.6179],[-0.9145,35.6375,386.486],[-0.9177,35.6332,369.8739],[-0.9155,35.6275,354.0122],[-0.9055,35.6155,319.64],[-0.9062,35.6093,313.9337],[-0.9236,35.6039,272.549],[-0.9358,35.6034,275.6285],[-0.9422,35.5948,256.0359],[-0.9499,35.5927,218.7521],[-0.9583,35.5876,215.9829],[-0.9691,35.587,218.5655],[-0.9798,35.5832,196.04],[-0.9906,35.5837,196.0161],[-0.9948,35.5824,171.053],[-0.9984,35.5651,196.9576],[-1.002,35.5584,205.2953],[-0.9967,35.5583,202.0668],[-0.9698,35.5657,221.8787],[-0.9632,35.5656,193.3044],[-0.9565,35.5566,106.257],[-0.9587,35.5408,81.8475]]]]}
,"properties": {"GID_2": "DZA.32.10_1","GID_0": "DZA","country": "Algeria","GID_1": "DZA.32_1","province": "Oran","NL_NAME_1": "ولايةوهران","county": "Boutlelis","VARNAME_2": "Būtlīlis","NL_NAME_2": "NA","TYPE_2": "Commune","ENGTYPE_2": "Commune","CC_2": "3124","HASC_2": "DZ.OR.BL","name": "Boutlelis.county","area_km2": 139.4665,"hist_schema_id": "Elevation0-9000","hist_area_km2": {"75": 17.4201,"100": 14.2964,"125": 6.8977,"150": 5.6558,"175": 6.173,"200": 6.7418,"225": 9.6905,"250": 9.4312,"275": 5.7579,"300": 5.3439,"325": 5.3605,"350": 7.7727,"375": 9.8742,"400": 6.6516,"425": 6.0483,"450": 4.8936,"475": 3.6183,"500": 3.0496,"525": 1.6711,"550": 1.7227,"575": 1.3953}}}