{"type": "Feature","bbox": [2.9437,33.8038,3.1887,34.0005],"geometry": {"type": "MultiPolygon","coordinates": [[[[3.1573,33.9946,739.9882],[3.1493,34.0005,760.2959],[3.1436,33.9989,764.2399],[3.0992,33.9732,798.5513],[3.0924,33.9743,787.9785],[3.0864,33.9799,793.6578],[3.0776,33.9735,806.2513],[3.0721,33.973,811.1138],[3.0667,33.9763,824.5781],[3.0577,33.9788,829.2699],[3.0457,33.9752,844.966],[3.0385,33.9779,856.0044],[3.0331,33.9763,869.5753],[3.0286,33.9719,908.4528],[3.0362,33.9588,929.0004],[3.0413,33.9531,889.6793],[3.0362,33.931,846.6295],[3.0314,33.9272,853.4501],[3.0324,33.9177,870.1776],[3.0226,33.9056,896.1022],[3.0074,33.8923,862.9859],[2.9856,33.8766,849.1393],[2.9437,33.8502,821.1785],[2.9528,33.8325,772.666],[2.9519,33.8262,772.1359],[2.9483,33.8214,764.7826],[2.9482,33.8146,748.5099],[2.9539,33.8117,745.9957],[2.9975,33.8143,738.2425],[3.012,33.8062,736.1524],[3.0288,33.8038,730.2664],[3.0568,33.8059,727.2814],[3.0674,33.8082,725.1399],[3.0691,33.8126,724.937],[3.0671,33.8176,722.9517],[3.0859,33.833,718.5789],[3.0918,33.8334,718.3321],[3.0983,33.8368,715.9513],[3.1121,33.8372,712.9471],[3.1233,33.8438,710.2557],[3.1299,33.8426,708.572],[3.1345,33.8373,708.0202],[3.1887,33.8642,722.1528],[3.1878,33.87,712.0173],[3.1709,33.9131,725.2503],[3.1594,33.936,750.7455],[3.1492,33.9471,737.3868],[3.138,33.9838,815.0387],[3.1495,33.9884,769.9218],[3.1573,33.9946,739.9882]]]]}
,"properties": {"GID_2": "DZA.25.5_1","GID_0": "DZA","country": "Algeria","GID_1": "DZA.25_1","province": "Laghouat","NL_NAME_1": "ولايةالأغواط","county": "ElAssafia","VARNAME_2": "NA","NL_NAME_2": "NA","TYPE_2": "Commune","ENGTYPE_2": "Commune","CC_2": "320","HASC_2": "DZ.LG.EA","name": "El_Assafia.county","area_km2": 266.5935,"hist_schema_id": "Elevation0-9000","hist_area_km2": {"700": 4.7893,"725": 67.2036,"750": 67.9716,"775": 51.2701,"800": 43.4651,"825": 21.1814,"850": 7.5112,"875": 2.6384,"900": 0.5452,"925": 0.0176}}}