{"type":"Feature","properties":{"GID_2":"DZA.31.3_1","GID_0":"DZA","country":"Algeria","GID_1":"DZA.31_1","province":"Naâma","NL_NAME_1":"ولايةالنعامة","county":"Assela","VARNAME_2":"Asla","NL_NAME_2":"NA","TYPE_2":"Commune","ENGTYPE_2":"Commune","CC_2":"4507","HASC_2":"DZ.NA.AL","name":"Assela.county"},
"geometry":{"type": "MultiPolygon","coordinates": [[[[-0.0087,32.9229,1096.7018],[0.0,32.9484,1105.7513],[0.0144,32.9781,1473.6008],[0.0153,32.9844,1482.5056],[0.0115,32.9882,1382.0891],[0.0006,32.9943,1139.8884],[-0.0054,32.9935,1084.236],[-0.0146,32.9995,1068.7395],[-0.0043,33.0056,1096.7722],[-0.0013,33.0111,1101.4902],[0.025,33.039,1120.697],[0.0244,33.0622,1137.2412],[0.0234,33.0743,1152.4974],[0.0127,33.0822,1142.1748],[0.002,33.087,1161.4277],[0.0006,33.0915,1172.4783],[-0.0043,33.0918,1162.0034],[-0.0119,33.1028,1155.5797],[-0.0163,33.1163,1210.5645],[-0.0784,33.1005,1172.8959],[-0.1475,33.11,1134.8058],[-0.2332,33.0889,1187.6493],[-0.3067,33.0653,1239.6897],[-0.3045,33.0616,1233.4604],[-0.2931,33.0547,1224.2671],[-0.2877,33.0475,1208.8379],[-0.2838,33.0453,1202.3502],[-0.267,33.0436,1196.222],[-0.2603,33.0335,1186.8544],[-0.2558,33.03,1188.9242],[-0.2503,33.0178,1169.5521],[-0.2436,33.014,1172.485],[-0.245,33.0096,1167.4282],[-0.2418,33.0047,1161.0974],[-0.2422,33.0002,1157.3816],[-0.2244,32.9881,1205.6643],[-0.2438,32.9448,1217.8969],[-0.2578,32.9294,1181.3916],[-0.2793,32.9156,1193.0676],[-0.2796,32.9097,1146.5332],[-0.2918,32.9086,1138.3621],[-0.2966,32.9067,1140.6333],[-0.2978,32.8968,1144.9935],[-0.3059,32.8826,1185.627],[-0.3,32.8783,1137.071],[-0.2969,32.8725,1114.4355],[-0.2959,32.8667,1093.2682],[-0.2977,32.8554,1092.0116],[-0.2734,32.856,1102.766],[-0.2651,32.8544,1105.4382],[-0.2577,32.8474,1116.1993],[-0.2399,32.807,1194.8727],[-0.2523,32.7883,1240.2278],[-0.2567,32.7685,1327.4802],[-0.2616,32.7583,1215.9604],[-0.2718,32.7447,1130.5726],[-0.2996,32.6903,1002.7917],[-0.293,32.6522,1077.8594],[-0.3642,32.6397,945.8795],[-0.3689,32.6375,945.4233],[-0.3776,32.5245,1459.4896],[-0.3622,32.4529,933.9969],[-0.3603,32.4245,1294.729],[-0.341,32.3868,880.5197],[-0.1505,32.3319,917.0865],[-0.0778,32.4353,845.8625],[-0.0672,32.453,827.7522],[-0.017,32.5571,826.7967],[-0.0383,32.6502,890.9625],[-0.0265,32.6756,872.1403],[-0.0199,32.7083,870.102],[-0.0233,32.7135,876.2297],[-0.0669,32.7526,976.3058],[-0.0552,32.7969,1097.4999],[-0.0937,32.8148,1850.1536],[-0.0821,32.8868,1433.2538],[-0.0361,32.9075,1068.7642],[-0.0087,32.9229,1096.7018]]]]}}