{"type": "Feature","bbox": [3.855,36.8178,3.9686,36.9233],"geometry": {"type": "MultiPolygon","coordinates": [[[[3.9518,36.8978,0.2972],[3.9267,36.9053,20.6068],[3.9183,36.91,2.0135],[3.9173,36.9151,0.0],[3.9207,36.9214,3.3769],[3.9079,36.9183,7.5042],[3.8929,36.9233,15.398],[3.8778,36.9196,4.8633],[3.8683,36.913,3.9981],[3.8617,36.9129,0.0],[3.855,36.9104,0.4809],[3.8551,36.8933,6.1546],[3.8671,36.8853,4.4066],[3.871,36.881,7.3008],[3.8743,36.8765,12.4408],[3.875,36.8674,8.6187],[3.885,36.8694,45.161],[3.897,36.8676,68.415],[3.9023,36.8689,112.1264],[3.9181,36.8689,238.3035],[3.9183,36.8739,282.6855],[3.9289,36.8651,328.625],[3.9312,36.8599,334.7904],[3.9328,36.8469,413.3347],[3.9364,36.8428,473.0799],[3.943,36.8394,500.0695],[3.941,36.8341,482.3822],[3.9421,36.8297,452.9552],[3.9524,36.8243,453.0447],[3.9566,36.8178,493.186],[3.9609,36.8257,475.6292],[3.9603,36.8322,350.6601],[3.9622,36.8373,259.2541],[3.9686,36.8457,159.8092],[3.9657,36.8569,100.0488],[3.9555,36.867,79.2079],[3.9539,36.8773,51.6399],[3.9555,36.8836,36.4403],[3.9521,36.8916,32.5892],[3.9518,36.8978,0.2972]]]]}
,"properties": {"GID_2": "DZA.13.13_1","GID_0": "DZA","country": "Algeria","GID_1": "DZA.13_1","province": "Boumerdès","NL_NAME_1": "ولايةبومرداس","county": "Dellys","VARNAME_2": "Dalīs","NL_NAME_2": "NA","TYPE_2": "Commune-Cotiere","ENGTYPE_2": "Commune-Cotiere","CC_2": "3523","HASC_2": "DZ.BM.DE","name": "Dellys.county","area_km2": 51.55533,"hist_schema_id": "Elevation0-9000","hist_area_km2": {"0": 3.05194,"25": 3.7302,"50": 4.20493,"75": 3.96786,"100": 3.69676,"125": 3.57819,"150": 3.62923,"175": 3.68015,"200": 3.37493,"225": 3.23919,"250": 3.56154,"275": 3.20544,"300": 2.62895,"325": 1.73016,"350": 0.9669,"375": 0.72959,"400": 0.59391,"425": 0.66181,"450": 0.66182,"475": 0.35636,"500": 0.2885,"525": 0.01697}}}