{"type": "Feature","bbox": [2.3932,34.3084,2.6524,34.5271],"geometry": {"type": "MultiPolygon","coordinates": [[[[2.5437,34.3323,1173.6881],[2.6394,34.386,1248.3472],[2.6524,34.3961,1206.1812],[2.6515,34.4005,1216.0096],[2.631,34.4155,1137.8313],[2.6097,34.4183,1110.7518],[2.6125,34.4376,1102.3336],[2.6181,34.4452,1109.3805],[2.6397,34.4558,1149.3231],[2.6446,34.4728,1148.0103],[2.6198,34.4649,1133.4814],[2.6113,34.4796,1126.6949],[2.5828,34.4932,1212.0859],[2.5779,34.4979,1267.803],[2.5838,34.5049,1227.9661],[2.5869,34.5114,1127.0498],[2.5866,34.517,1111.7454],[2.5886,34.5216,1099.0425],[2.5872,34.5271,1095.5029],[2.4767,34.5232,1046.1406],[2.4731,34.5175,1062.9906],[2.4593,34.4711,1133.1488],[2.4562,34.467,1147.6836],[2.4039,34.4533,1151.6348],[2.3932,34.4471,1160.5691],[2.4168,34.41,1093.3333],[2.4518,34.317,1253.6782],[2.4493,34.3084,1297.2383],[2.5238,34.3175,1237.6984],[2.5437,34.3323,1173.6881]]]]}
,"properties": {"GID_2": "DZA.16.17_1","GID_0": "DZA","country": "Algeria","GID_1": "DZA.16_1","province": "Djelfa","NL_NAME_1": "ولايةالجلفة","county": "ElIdrissia","VARNAME_2": "al-Idrīsīyah","NL_NAME_2": "NA","TYPE_2": "Commune","ENGTYPE_2": "Commune","CC_2": "1714","HASC_2": "DZ.DJ.EI","name": "El_Idrissia.county","area_km2": 356.4966,"hist_schema_id": "Elevation0-9000","hist_area_km2": {"1000": 0.297,"1025": 4.3678,"1050": 52.8549,"1075": 96.6012,"1100": 82.2647,"1125": 53.854,"1150": 24.147,"1175": 14.9647,"1200": 11.377,"1225": 6.8955,"1250": 4.3224,"1275": 3.273,"1300": 1.1899,"1325": 0.0874}}}