{"type":"Feature","properties":{"GID_2":"DZA.6.25_1","GID_0":"DZA","country":"Algeria","GID_1":"DZA.6_1","province":"Batna","NL_NAME_1":"ولايةباتنة","county":"Hidoussa","VARNAME_2":"NA","NL_NAME_2":"NA","TYPE_2":"Commune","ENGTYPE_2":"Commune","CC_2":"546","HASC_2":"DZ.BT.HI","name":"Hidoussa.county"},
"geometry":{"type": "MultiPolygon","coordinates": [[[[5.9539,35.4491,1049.7478],[5.9505,35.4538,1154.7916],[5.9526,35.4584,1161.1223],[5.9513,35.4627,1181.0862],[5.9538,35.4673,1176.798],[5.9593,35.4697,1182.5388],[5.9628,35.4744,1155.9669],[5.9633,35.4787,1183.6168],[5.958,35.4884,1304.9149],[5.9546,35.4916,1319.2867],[5.9523,35.5022,1612.3671],[5.9479,35.5099,1481.8135],[5.947,35.5165,1529.5223],[5.9504,35.5235,1614.5126],[5.9648,35.5317,1685.8271],[5.9681,35.5356,1684.2361],[5.9609,35.558,1908.8667],[5.9654,35.5617,1808.9336],[5.9704,35.5613,1782.2592],[5.9769,35.5632,1738.8433],[5.9921,35.5708,1780.0487],[5.993,35.5768,1752.8076],[5.9999,35.5846,1965.5055],[5.9942,35.5915,1873.6898],[5.9913,35.6017,1684.1558],[5.9827,35.6104,1613.8817],[5.9776,35.6129,1545.6848],[5.9743,35.6288,1147.1808],[5.9635,35.6281,1186.1149],[5.9615,35.6224,1283.7163],[5.9621,35.6131,1270.2778],[5.9717,35.6052,1333.7592],[5.9591,35.6032,1225.5535],[5.9493,35.6061,1155.1414],[5.9445,35.6036,1239.4299],[5.9429,35.5981,1218.7655],[5.9484,35.5878,1354.5825],[5.9417,35.5879,1260.2561],[5.9384,35.5916,1235.0034],[5.9254,35.5977,1169.8865],[5.919,35.6025,1135.275],[5.9134,35.6013,1182.8663],[5.9098,35.5976,1288.7644],[5.9064,35.5894,1397.1967],[5.9013,35.5888,1389.0955],[5.8998,35.5837,1509.4594],[5.9035,35.5727,1675.9159],[5.8892,35.5662,1906.9933],[5.8684,35.5635,2007.0828],[5.8719,35.5551,1978.7937],[5.876,35.5501,1877.2267],[5.8844,35.5462,1791.6736],[5.8896,35.5416,1855.6292],[5.8828,35.5319,1658.6749],[5.8819,35.5241,1595.1383],[5.8674,35.5134,1523.626],[5.8666,35.4943,1730.8392],[5.8733,35.4848,1417.8871],[5.8661,35.4732,1371.074],[5.8569,35.4655,1285.9933],[5.8543,35.4603,1181.8318],[5.8641,35.4517,1171.4496],[5.8597,35.4485,1235.1681],[5.8522,35.4464,1168.8668],[5.8464,35.4414,1105.3506],[5.8436,35.4365,1033.9722],[5.8553,35.4339,1030.5616],[5.8864,35.4358,1025.3116],[5.8956,35.4378,1025.8942],[5.9001,35.4358,1014.3787],[5.9002,35.4301,987.367],[5.9268,35.4322,997.0074],[5.9315,35.4328,998.8314],[5.9358,35.4382,1015.6844],[5.9539,35.4491,1049.7478]]]]}}