{"type":"Feature","properties":{"GID_2":"DZA.39.30_1","GID_0":"DZA","country":"Algeria","GID_1":"DZA.39_1","province":"Skikda","NL_NAME_1":"سكيكدة","county":"OuledHebbaba","VARNAME_2":"OuledHebaba","NL_NAME_2":"NA","TYPE_2":"Commune","ENGTYPE_2":"Commune","CC_2":"2118","HASC_2":"DZ.SK.OH","name":"Ouled_Hebbaba.county"},
"geometry":{"type": "MultiPolygon","coordinates": [[[[6.9485,36.4203,682.1266],[6.9524,36.4238,717.6349],[6.9446,36.4291,772.7144],[6.9416,36.4335,736.0917],[6.942,36.4383,814.6309],[6.9458,36.4484,950.9685],[6.9501,36.4495,940.5668],[6.9471,36.4602,886.649],[6.9476,36.4645,847.8253],[6.9553,36.4774,989.2649],[6.9811,36.4809,906.6669],[6.9918,36.4803,887.1445],[6.9969,36.478,870.8576],[7.0069,36.4808,776.5103],[7.0147,36.481,814.4005],[7.0459,36.4904,737.7672],[7.0463,36.4962,787.1908],[7.0514,36.4989,782.5966],[7.0815,36.5011,1127.181],[7.0855,36.5069,1184.4081],[7.0875,36.52,966.1571],[7.0685,36.5347,726.0419],[7.0657,36.5312,692.7629],[7.0608,36.5304,654.2063],[7.0468,36.5348,585.9517],[7.0388,36.5354,551.9331],[7.0231,36.5409,960.9819],[7.004,36.5436,609.386],[6.9935,36.5409,435.0205],[6.9869,36.5325,299.7957],[6.9573,36.5365,262.8176],[6.9494,36.5388,283.1705],[6.9434,36.5447,229.6382],[6.9357,36.5477,257.0278],[6.9316,36.5511,268.2586],[6.9308,36.5553,219.1922],[6.935,36.56,248.3247],[6.9281,36.563,240.6287],[6.9207,36.564,443.7182],[6.907,36.561,557.293],[6.8849,36.5639,671.4116],[6.8786,36.5618,699.6796],[6.8736,36.5498,664.3351],[6.8644,36.5453,559.6367],[6.8564,36.5383,443.2101],[6.8538,36.5335,322.1478],[6.8495,36.5307,294.8071],[6.8392,36.5297,303.506],[6.8338,36.527,349.1815],[6.8307,36.5205,401.5738],[6.8346,36.501,481.3627],[6.8385,36.4968,475.8399],[6.838,36.4855,522.2263],[6.8355,36.4811,593.942],[6.8337,36.4698,722.2761],[6.8171,36.4583,913.0164],[6.8207,36.448,1034.2432],[6.8283,36.4492,1001.8832],[6.8324,36.4517,1015.8531],[6.8438,36.4505,983.9021],[6.8553,36.4535,980.0023],[6.8692,36.453,930.0179],[6.8795,36.4369,883.6529],[6.8846,36.4342,839.9798],[6.8897,36.4283,797.4296],[6.8945,36.4272,764.7681],[6.905,36.4299,747.2408],[6.9154,36.4289,759.9348],[6.9205,36.4299,769.9142],[6.9251,36.4239,742.5338],[6.9307,36.4221,693.2044],[6.9412,36.4246,690.7745],[6.9485,36.4203,682.1266]]]]}}