{"type": "Feature","bbox": [2.3334,36.3249,2.4308,36.37],"geometry": {"type": "MultiPolygon","coordinates": [[[[2.4212,36.3689,343.8874],[2.4151,36.37,292.9973],[2.4067,36.3671,288.6349],[2.4006,36.3671,301.5342],[2.391,36.3627,308.7322],[2.3567,36.366,369.2993],[2.3429,36.3691,389.5017],[2.3389,36.3585,654.8665],[2.3339,36.3567,668.3496],[2.3334,36.3514,745.8373],[2.3378,36.3481,749.1382],[2.3417,36.3349,661.1432],[2.3483,36.3324,597.299],[2.345,36.326,509.2509],[2.3507,36.3249,488.4452],[2.3569,36.3283,488.0113],[2.3824,36.3273,396.8386],[2.3845,36.3364,497.0172],[2.3915,36.3309,429.6767],[2.3967,36.3304,393.7701],[2.4,36.3346,417.1931],[2.4053,36.3357,402.4063],[2.4109,36.3343,341.9649],[2.4308,36.3474,328.5922],[2.4268,36.3671,354.6525],[2.4212,36.3689,343.8874]]]]}
,"properties": {"GID_2": "DZA.2.1_1","GID_0": "DZA","country": "Algeria","GID_1": "DZA.2_1","province": "AïnDefla","NL_NAME_1": "ولايةعينالدفلى","county": "AinBenian","VARNAME_2": "NA","NL_NAME_2": "NA","TYPE_2": "Commune-Cotiere","ENGTYPE_2": "Commune-Cotiere","CC_2": "4426","HASC_2": "DZ.AD.AN","name": "Ain_Benian.county","area_km2": 30.41365,"hist_schema_id": "Elevation0-9000","hist_area_km2": {"300": 0.61465,"325": 1.36596,"350": 2.03192,"375": 2.25397,"400": 2.9201,"425": 2.88601,"450": 2.83485,"475": 2.71531,"500": 2.4079,"525": 2.88606,"550": 1.8444,"575": 1.4516,"600": 0.99048,"625": 0.70016,"650": 0.68307,"675": 0.39276,"700": 0.37568,"725": 0.37568,"750": 0.47815,"775": 0.17077,"800": 0.03415}}}