{"type": "Feature","bbox": [-0.845,34.3854,-0.6016,34.6719],"geometry": {"type": "MultiPolygon","coordinates": [[[[-0.782,34.6496,1009.5002],[-0.7925,34.6375,1018.0916],[-0.799,34.6391,998.6183],[-0.8154,34.6107,1007.5359],[-0.8194,34.6078,1008.9743],[-0.8186,34.6021,1015.4795],[-0.8248,34.5918,1023.6536],[-0.8298,34.5865,1026.4899],[-0.8334,34.579,1036.0266],[-0.8427,34.5745,1047.0503],[-0.845,34.5705,1041.2899],[-0.8373,34.5567,1069.1049],[-0.8325,34.557,1080.1633],[-0.828,34.5495,1089.0571],[-0.8119,34.5399,1134.9873],[-0.7987,34.5248,1121.8042],[-0.7888,34.5046,1113.0552],[-0.7815,34.5064,1113.7246],[-0.767,34.5138,1119.2662],[-0.7616,34.5141,1126.4878],[-0.736,34.5135,1135.1699],[-0.7183,34.5084,1161.4136],[-0.717,34.5024,1154.4438],[-0.7047,34.48,1145.6841],[-0.7084,34.4751,1142.3683],[-0.7102,34.4698,1134.7734],[-0.7121,34.454,1160.2715],[-0.7164,34.4495,1171.9637],[-0.7263,34.4454,1188.9277],[-0.7417,34.4332,1181.8254],[-0.7351,34.4301,1192.9861],[-0.7255,34.4194,1203.2281],[-0.7158,34.4142,1189.5367],[-0.6972,34.4061,1178.6735],[-0.6805,34.3966,1199.2948],[-0.6726,34.3962,1206.7897],[-0.6684,34.3913,1230.5138],[-0.666,34.3854,1223.2389],[-0.6594,34.3854,1213.9707],[-0.6469,34.3891,1200.5557],[-0.6441,34.3925,1200.6891],[-0.6397,34.4051,1188.3656],[-0.6278,34.4244,1186.6763],[-0.6259,34.4301,1187.8673],[-0.6309,34.4347,1182.6915],[-0.6069,34.4531,1155.7946],[-0.6016,34.4694,1146.8878],[-0.6034,34.4766,1137.5538],[-0.603,34.4952,1121.2616],[-0.6108,34.5073,1122.5326],[-0.6174,34.5304,1132.825],[-0.6402,34.551,1172.9338],[-0.6747,34.5386,1175.8813],[-0.6829,34.5334,1197.921],[-0.6871,34.5325,1204.453],[-0.6964,34.5347,1200.9237],[-0.7131,34.5337,1175.3783],[-0.7379,34.5369,1162.2739],[-0.7269,34.5544,1188.1466],[-0.7121,34.572,1216.9121],[-0.7057,34.5837,1225.2085],[-0.6873,34.599,1262.5269],[-0.6717,34.62,1277.015],[-0.6584,34.6335,1274.9652],[-0.6674,34.6415,1330.4259],[-0.6736,34.6547,1387.5676],[-0.6733,34.6597,1412.9774],[-0.67,34.665,1426.6801],[-0.6805,34.6685,1356.2076],[-0.7092,34.6719,1348.7478],[-0.7106,34.6669,1380.3549],[-0.7186,34.6592,1390.9692],[-0.7178,34.6546,1357.3619],[-0.7305,34.6425,1323.8621],[-0.744,34.6436,1359.3344],[-0.7544,34.6392,1231.297],[-0.782,34.6496,1009.5002]]]]}
,"properties": {"GID_2": "DZA.38.27_1","GID_0": "DZA","country": "Algeria","GID_1": "DZA.38_1","province": "SidiBelAbbès","NL_NAME_1": "ولايةسيديبلعباس","county": "OuedSebaa","VARNAME_2": "OuedSbaa","NL_NAME_2": "NA","TYPE_2": "Commune","ENGTYPE_2": "Commune","CC_2": "2237","HASC_2": "DZ.SB.OB","name": "Oued_Sebaa.county","area_km2": 314.8614,"hist_schema_id": "Elevation0-9000","hist_area_km2": {"1000": 1.6051,"1025": 6.1077,"1050": 9.6519,"1075": 8.1866,"1100": 8.7464,"1125": 25.7119,"1150": 64.702,"1175": 72.8806,"1200": 37.2101,"1225": 12.5892,"1250": 9.4426,"1275": 14.5715,"1300": 14.8137,"1325": 12.2291,"1350": 10.1692,"1375": 4.9183,"1400": 1.0464,"1425": 0.279}}}