{"type":"Feature","properties":{"GID_2":"DZA.10.14_1","GID_0":"DZA","country":"Algeria","GID_1":"DZA.10_1","province":"Blida","NL_NAME_1":"البليدة","county":"El-Affroun","VARNAME_2":"ElAffroun|al-`Afru-n","NL_NAME_2":"NA","TYPE_2":"Commune","ENGTYPE_2":"Commune","CC_2":"907","HASC_2":"DZ.BL.EA","name":"El-Affroun.county"},
"geometry":{"type": "MultiPolygon","coordinates": [[[[2.6484,36.4313,146.4611],[2.6505,36.4488,114.5199],[2.6533,36.455,111.8782],[2.6516,36.461,106.439],[2.6558,36.4792,89.9449],[2.6472,36.49,82.4976],[2.6383,36.4973,75.8327],[2.637,36.5138,68.3328],[2.6289,36.5148,68.1951],[2.6066,36.5128,69.1823],[2.6066,36.5082,71.3114],[2.618,36.5029,76.0266],[2.6167,36.4987,77.8032],[2.6234,36.4902,81.1175],[2.625,36.485,84.4296],[2.6217,36.4796,85.7156],[2.6203,36.4717,92.5767],[2.6033,36.4634,149.9094],[2.6024,36.4579,140.2831],[2.594,36.4556,105.7503],[2.5975,36.4528,108.2216],[2.5951,36.4467,123.2832],[2.5818,36.445,120.8043],[2.5804,36.4396,134.0341],[2.5762,36.4383,124.7448],[2.5701,36.4392,135.6084],[2.5672,36.4355,129.3355],[2.5758,36.4283,267.5914],[2.5845,36.4263,420.6344],[2.5933,36.4189,527.2883],[2.5945,36.4131,577.2315],[2.5838,36.3947,656.0657],[2.586,36.388,532.3299],[2.5757,36.3821,493.3384],[2.5754,36.3762,252.7841],[2.5971,36.3805,287.3805],[2.5997,36.384,213.4181],[2.6155,36.3898,200.7916],[2.6238,36.3956,177.7014],[2.6319,36.3985,218.6197],[2.63,36.403,185.0531],[2.6337,36.4075,207.3492],[2.6403,36.423,154.1331],[2.6484,36.4313,146.4611]]]]}}