{"type": "Feature","bbox": [3.3396,35.6513,3.6002,35.8975],"geometry": {"type": "MultiPolygon","coordinates": [[[[3.5785,35.8395,691.5987],[3.6002,35.8412,669.7687],[3.6001,35.85,672.0291],[3.575,35.8562,704.1761],[3.5804,35.868899999999996,738.6601],[3.5978,35.8806,737.9057],[3.5854,35.8975,922.3519],[3.5794,35.8921,1012.9015],[3.5612,35.889,1022.6072],[3.5465,35.8886,1107.9012],[3.5341,35.8842,1097.6161],[3.5262,35.8841,1105.9072],[3.5121,35.8894,1073.8939],[3.496,35.889,1037.0751],[3.4915,35.8904,1005.3793],[3.4867,35.8942,934.8607],[3.4728,35.897,926.8172],[3.4654,35.8947,938.8536],[3.4536,35.8875,944.0576],[3.4278,35.8796,863.584],[3.3551,35.8796,1004.0223],[3.3495,35.8805,973.7169],[3.3435,35.8836,895.4984],[3.3398,35.881,884.3587],[3.3396,35.8761,873.4296],[3.3422,35.871,849.6102],[3.3508,35.8627,830.0474],[3.3623,35.8478,800.2631],[3.3695,35.8349,795.7702],[3.3745,35.8293,776.4432],[3.3801,35.8249,773.8821],[3.3981,35.817,742.3763],[3.4022,35.8136,740.0204],[3.4177,35.8136,713.7227],[3.4238,35.8037,710.7385],[3.4239,35.7984,707.9659],[3.4406,35.7953,699.1754],[3.4478,35.7891,692.0416],[3.4538,35.7748,681.7287],[3.4534,35.768,683.9161],[3.4574,35.7644,676.5134],[3.467,35.7617,675.1053],[3.4615,35.7474,697.8293],[3.4705,35.7376,710.5389],[3.5128,35.6775,652.536],[3.5439,35.6513,665.0669],[3.5364,35.7317,658.0033],[3.5328,35.7495,673.5551],[3.5361,35.7623,647.7139],[3.5425,35.7655,643.209],[3.5392,35.769,646.4547],[3.5283,35.7708,649.3459],[3.5132,35.7827,664.9647],[3.5145,35.7912,666.2515],[3.5205,35.805,681.3147],[3.5176,35.8087,689.1783],[3.5063,35.814,708.8887],[3.5122,35.8152,698.644],[3.5279,35.8138,696.0451],[3.5357,35.8158,695.1484],[3.5426,35.8205,698.5938],[3.5529,35.832,693.7415],[3.5663,35.8418,708.7538],[3.5785,35.8395,691.5987]]]]}
,"properties": {"GID_2": "DZA.28.2_1","GID_0": "DZA","country": "Algeria","GID_1": "DZA.28_1","province": "Médéa","NL_NAME_1": "ولايةالمدية","county": "AinOuksir","VARNAME_2": "NA","NL_NAME_2": "NA","TYPE_2": "Commune","ENGTYPE_2": "Commune","CC_2": "2641","HASC_2": "DZ.MD.AO","name": "Ain_Ouksir.county","area_km2": 243.6228,"hist_schema_id": "Elevation0-9000","hist_area_km2": {"650": 29.5584,"675": 31.8622,"700": 26.4344,"725": 29.0374,"750": 32.6064,"775": 25.4176,"800": 16.479,"825": 15.8416,"850": 12.8339,"875": 6.5969,"900": 4.518,"925": 4.2602,"950": 2.8516,"975": 1.9583,"1000": 1.357,"1025": 0.9448,"1050": 0.4294,"1075": 0.2577,"1100": 0.3092,"1125": 0.0687}}}