{"type":"Feature","properties":{"GID_2":"DZA.3.6_1","GID_0":"DZA","country":"Algeria","GID_1":"DZA.3_1","province":"AïnTémouchent","NL_NAME_1":"ولايةعينتموشنت","county":"Aoubellil","VARNAME_2":"Ougbellil","NL_NAME_2":"NA","TYPE_2":"Commune","ENGTYPE_2":"Commune","CC_2":"4613","HASC_2":"DZ.AT.AO","name":"Aoubellil.county"},
"geometry":{"type": "MultiPolygon","coordinates": [[[[-1.0678,35.1276,387.6304],[-1.0676,35.1229,380.2517],[-1.049,35.1237,420.9624],[-1.045,35.1187,435.8839],[-1.0458,35.1078,465.2668],[-1.0414,35.0976,382.8633],[-1.0456,35.0936,418.3639],[-1.0358,35.0907,407.0222],[-1.0246,35.0934,427.0509],[-1.0134,35.091,435.3451],[-1.0074,35.0935,480.9983],[-1.0028,35.0935,487.5378],[-0.9865,35.1094,499.6975],[-0.9763,35.1127,544.6394],[-0.971,35.1122,545.5018],[-0.9654,35.1153,563.2983],[-0.9621,35.123,570.4338],[-0.9617,35.1392,675.2283],[-0.9528,35.1459,686.1074],[-0.9464,35.1599,633.8794],[-0.9475,35.1642,625.6338],[-0.9536,35.1692,589.0206],[-0.9576,35.1821,548.4996],[-0.9691,35.1903,464.1697],[-0.9746,35.1901,461.6204],[-0.9801,35.1932,435.5964],[-1.0013,35.1984,403.3399],[-1.0043,35.1754,446.4921],[-1.0151,35.172,506.3145],[-1.0231,35.1733,486.2261],[-1.0342,35.1726,476.2169],[-1.0445,35.17,496.0269],[-1.0486,35.1671,524.5482],[-1.0551,35.156,490.4813],[-1.0635,35.1461,454.5284],[-1.0678,35.1276,387.6304]]]]}}