{"type": "Feature","bbox": [5.8316,36.0012,6.0071,36.1758],"geometry": {"type": "MultiPolygon","coordinates": [[[[5.9165,36.1758,986.2784],[5.9113,36.1729,965.7621],[5.9055,36.1729,975.965],[5.8987,36.1671,959.0394],[5.8939,36.165,928.2894],[5.8956,36.154,910.2578],[5.8947,36.149,906.5819],[5.8771,36.1451,942.1444],[5.8819,36.1314,924.6498],[5.8816,36.1179,916.0892],[5.869,36.1111,916.7602],[5.8559,36.1005,916.8466],[5.8567,36.0946,909.6835],[5.8525,36.0877,915.2466],[5.8462,36.0852,921.4376],[5.835,36.073,935.8885],[5.8316,36.0687,937.6307],[5.8322,36.0636,942.319],[5.8404,36.0544,969.2685],[5.8483,36.0339,941.4149],[5.8544,36.0288,936.8793],[5.8609,36.0294,970.194],[5.8677,36.0268,961.1467],[5.8754,36.0262,952.5922],[5.893,36.0283,988.6284],[5.9079,36.0231,983.8002],[5.9288,36.0237,1017.8186],[5.9805,36.0107,986.1752],[5.9869,36.0044,968.5961],[5.9935,36.0012,991.3353],[6.0071,36.0118,969.9586],[5.9999,36.0293,909.6447],[6.003,36.0346,898.3755],[6.0031,36.0414,886.022],[5.9993,36.0454,880.957],[5.9962,36.0561,869.5979],[6.0002,36.0612,865.6572],[5.9987,36.0669,863.565],[5.9918,36.0767,861.5548],[5.9899,36.0842,857.6795],[5.9952,36.0914,855.4529],[5.9895,36.096,856.1398],[5.9651,36.1045,870.735],[5.9478,36.1072,876.9374],[5.9267,36.1079,887.589],[5.9172,36.1108,895.1741],[5.9218,36.1424,902.694],[5.9192,36.1461,888.1833],[5.9165,36.1758,986.2784]]]]}
,"properties": {"GID_2": "DZA.37.33_1","GID_0": "DZA","country": "Algeria","GID_1": "DZA.37_1","province": "Sétif","NL_NAME_1": "ولايةسطيف","county": "ElOueldja","VARNAME_2": "NA","NL_NAME_2": "NA","TYPE_2": "Commune","ENGTYPE_2": "Commune","CC_2": "1959","HASC_2": "DZ.SF.EJ","name": "El_Oueldja.county","area_km2": 152.0586,"hist_schema_id": "Elevation0-9000","hist_area_km2": {"850": 1.9875,"875": 28.3953,"900": 55.0362,"925": 27.8105,"950": 16.5933,"975": 11.915,"1000": 5.4692,"1025": 2.829,"1050": 0.7371,"1075": 0.5485,"1100": 0.3085,"1125": 0.1885,"1150": 0.2228,"1175": 0.0171}}}