{"type": "Feature","bbox": [5.8326,36.5403,5.9627,36.6257],"geometry": {"type": "MultiPolygon","coordinates": [[[[5.8326,36.5513,919.0769],[5.838,36.5474,938.4565],[5.8404,36.5428,833.2914],[5.8578,36.5403,859.6881],[5.8643,36.5511,1160.2559],[5.8686,36.5544,1158.1948],[5.8868,36.5537,1330.6688],[5.8968,36.557,1252.0234],[5.9125,36.5573,1209.7675],[5.9189,36.5572,1184.187],[5.9242,36.5545,1220.8732],[5.9304,36.5564,1176.2968],[5.9357,36.5634,927.032],[5.9464,36.569,929.0836],[5.9536,36.5788,1232.9619],[5.9627,36.5856,1347.4966],[5.9573,36.5907,1312.9268],[5.9289,36.5966,1472.3174],[5.9252,36.6018,1467.322],[5.9235,36.6147,1357.3004],[5.9179,36.6257,1354.6281],[5.8979,36.6239,662.1337],[5.8811,36.6199,471.1778],[5.8712,36.6156,495.2156],[5.866,36.616,503.7206],[5.8609,36.6188,522.9365],[5.8552,36.6179,270.1717],[5.8504,36.6148,293.1198],[5.8491,36.6007,283.4051],[5.8439,36.5948,287.3566],[5.8393,36.584,421.5529],[5.8391,36.5762,498.7628],[5.8448,36.5636,672.4656],[5.8399,36.5582,759.3527],[5.8346,36.5551,881.59],[5.8326,36.5513,919.0769]]]]}
,"properties": {"GID_2": "DZA.23.8_1","GID_0": "DZA","country": "Algeria","GID_1": "DZA.23_1","province": "Jijel","NL_NAME_1": "ولايةجيجل","county": "Djemila","VARNAME_2": "Djmila","NL_NAME_2": "NA","TYPE_2": "Commune","ENGTYPE_2": "Commune","CC_2": "1817","HASC_2": "DZ.JJ.DJ","name": "Djemila.county","area_km2": 64.81429,"hist_schema_id": "Elevation0-9000","hist_area_km2": {"225": 0.03404,"250": 0.05107,"275": 0.27234,"300": 0.44256,"325": 0.66384,"350": 0.6809,"375": 0.97025,"400": 0.90217,"425": 1.08945,"450": 1.19158,"475": 1.19158,"500": 1.29374,"525": 1.53207,"550": 1.37886,"575": 1.48102,"600": 1.73645,"625": 1.82159,"650": 1.85564,"675": 1.73655,"700": 2.02598,"725": 1.94085,"750": 1.92389,"775": 2.11119,"800": 1.71971,"825": 1.88999,"850": 2.38369,"875": 2.34975,"900": 2.21367,"925": 2.19657,"950": 1.78785,"975": 1.54946,"1000": 1.60052,"1025": 1.29401,"1050": 1.49833,"1075": 1.31106,"1100": 1.37913,"1125": 1.65151,"1150": 1.5154,"1175": 1.32812,"1200": 1.17483,"1225": 1.0896,"1250": 0.93634,"1275": 0.54476,"1300": 0.68096,"1325": 0.54473,"1350": 0.57874,"1375": 0.61278,"1400": 0.62978,"1425": 0.64678,"1450": 0.56165,"1475": 0.42552,"1500": 0.30636,"1525": 0.05106,"1550": 0.03404}}}