{"type": "Feature","bbox": [5.5893,33.4833,6.0677,33.6648],"geometry": {"type": "MultiPolygon","coordinates": [[[[6.064,33.6314,10.9876],[5.9721,33.6223,30.0586],[5.8136,33.6598,71.6218],[5.6047,33.6648,166.8346],[5.5893,33.5894,141.7795],[5.7476,33.5302,84.9514],[5.7393,33.4833,103.5804],[5.9171,33.4958,53.8543],[5.99,33.5127,37.3846],[6.0092,33.5255,37.3327],[6.0138,33.5309,35.0915],[6.022,33.5302,35.9401],[6.0299,33.5261,34.8484],[6.0677,33.5316,25.0027],[6.058,33.5427,24.4084],[6.0379,33.5565,30.2597],[6.0249,33.5716,19.8817],[6.0192,33.5824,22.2951],[6.0197,33.5931,16.3049],[6.0231,33.6039,19.3913],[6.0265,33.6084,13.9312],[6.0319,33.6111,13.6503],[6.0466,33.6122,12.4992],[6.0593,33.6181,11.6253],[6.0638,33.6215,12.0293],[6.0655,33.6258,11.2855],[6.064,33.6314,10.9876]]]]}
,"properties": {"GID_2": "DZA.18.4_1","GID_0": "DZA","country": "Algeria","GID_1": "DZA.18_1","province": "ElOued","NL_NAME_1": "ولايةالوادي","county": "Djamaa","VARNAME_2": "Jama`a","NL_NAME_2": "NA","TYPE_2": "Commune","ENGTYPE_2": "Commune","CC_2": "3928","HASC_2": "DZ.EO.DJ","name": "Djamaa.county","area_km2": 593.3232,"hist_schema_id": "Elevation0-9000","hist_area_km2": {"0": 3.2838,"25": 61.3461,"50": 86.5975,"75": 223.6673,"100": 56.1225,"125": 77.5698,"150": 77.4623,"175": 7.2737}}}