{"type": "Feature","bbox": [7.5229,35.8068,7.7123,36.0033],"geometry": {"type": "MultiPolygon","coordinates": [[[[7.7123,35.8912,752.332],[7.7067,35.8924,762.3734],[7.7035,35.8965,775.2846],[7.6963,35.9155,754.9211],[7.6913,35.9203,768.6356],[7.6676,35.9267,789.2513],[7.6629,35.9316,806.8545],[7.6617,35.9369,826.1949],[7.647,35.9423,873.9642],[7.641,35.9469,898.6033],[7.6346,35.958,1006.4296],[7.6302,35.9596,1074.5818],[7.6205,35.9598,1127.8661],[7.6159,35.9621,1086.0786],[7.6126,35.967,1055.4382],[7.6115,35.9794,941.0392],[7.5945,35.9923,906.8636],[7.5835,35.9955,901.4667],[7.5783,36.0033,883.8954],[7.5733,36.0002,883.9193],[7.5656,35.9989,876.783],[7.5534,35.9888,849.7491],[7.5427,35.9859,836.5354],[7.5382999999999996,35.9818,828.3904],[7.5237,35.953,814.4547],[7.5267,35.9492,814.921],[7.5417,35.9425,821.3188],[7.5495,35.9347,825.2454],[7.5514,35.9294,826.3781],[7.5492,35.9185,831.4312],[7.5406,35.9159,835.6733],[7.5282,35.9064,846.8812],[7.5238,35.9057,847.6647],[7.5229,35.9008,862.9442],[7.5247,35.8944,876.4567],[7.5382,35.8813,935.2273],[7.5567,35.8768,883.0183],[7.5614,35.8711,878.1823],[7.5514,35.8581,927.3921],[7.5529,35.8525,948.9637],[7.5591,35.8504,928.0882],[7.5647,35.8452,909.3315],[7.56,35.831,942.714],[7.5575,35.8269,940.8723],[7.5535,35.8245,938.5289],[7.5553,35.8192,960.0995],[7.5591,35.8149,961.4417],[7.5651,35.8125,987.6129],[7.584,35.8093,967.3344],[7.588,35.8068,971.652],[7.6032,35.8154,961.9761],[7.6278,35.8211,914.1987],[7.6398,35.8211,904.2208],[7.6496,35.8237,886.1758],[7.6672,35.8134,876.82],[7.6872,35.8167,889.5763],[7.6913,35.8205,874.0537],[7.688,35.8256,850.7121],[7.6755,35.8374,844.9075],[7.6728,35.8439,844.209],[7.679,35.8482,828.443],[7.6914,35.8511,815.2921],[7.6815,35.8792,858.7601],[7.6844,35.8832,842.2396],[7.707,35.8869,767.5201],[7.7123,35.8912,752.332]]]]}
,"properties": {"GID_2": "DZA.40.23_1","GID_0": "DZA","country": "Algeria","GID_1": "DZA.40_1","province": "SoukAhras","NL_NAME_1": "ولايةسوقأهراس","county": "Terraguelt","VARNAME_2": "NA","NL_NAME_2": "NA","TYPE_2": "Commune","ENGTYPE_2": "Commune","CC_2": "4125","HASC_2": "DZ.SA.TE","name": "Terraguelt.county","area_km2": 218.9321,"hist_schema_id": "Elevation0-9000","hist_area_km2": {"750": 0.4465,"775": 4.2761,"800": 6.7491,"825": 29.8743,"850": 52.4819,"875": 58.6097,"900": 32.7543,"925": 15.4771,"950": 10.7052,"975": 4.8456,"1000": 1.1334,"1025": 0.515,"1050": 0.429,"1075": 0.2059,"1100": 0.2231,"1125": 0.1716,"1150": 0.0343}}}