{"type": "Feature","bbox": [6.1416,35.931,6.3248,36.0962],"geometry": {"type": "MultiPolygon","coordinates": [[[[6.1728,36.088,865.1182],[6.1728,36.0831,863.7063],[6.1779,36.0814,870.3231],[6.1821,36.0779,901.7897],[6.1821,36.0655,909.6509],[6.1771,36.0573,924.4117],[6.1601,36.04,1016.9651],[6.1682,36.0259,882.0396],[6.1632,36.0195,880.7566],[6.1416,36.0003,1024.5283],[6.1463,35.9808,1165.1311],[6.1571,35.9585,955.6929],[6.1669,35.9427,937.8891],[6.1693,35.9343,915.9557],[6.1736,35.9316,895.5696],[6.1852,35.931,882.4031],[6.1882,35.9368,894.0662],[6.1909,35.9489,913.8412],[6.2032,35.9639,959.742],[6.2086,35.9655,956.3571],[6.2814,35.9708,1000.8591],[6.3031,35.9548,955.2866],[6.3151,35.9517,918.8264],[6.3082,35.9702,1001.3839],[6.3071,35.9793,1049.9353],[6.3133,35.9837,1136.3882],[6.3236,35.9829,1102.3274],[6.3248,36.0048,893.2983],[6.32,36.0171,855.7396],[6.3164,36.0216,847.4033],[6.3188,36.0275,842.0745],[6.3129,36.0477,805.1909],[6.31,36.0545,816.9764],[6.3059,36.059,827.1641],[6.2565,36.0852,801.2423],[6.252,36.0882,851.5956],[6.2502,36.0932,810.046],[6.2456,36.0956,816.4927],[6.2403,36.0962,822.7786],[6.2348,36.0924,839.7781],[6.2248,36.0953,861.4932],[6.2188,36.095,873.2046],[6.2046,36.089,892.648],[6.1864,36.0915,871.5341],[6.1728,36.088,865.1182]]]]}
,"properties": {"GID_2": "DZA.29.11_1","GID_0": "DZA","country": "Algeria","GID_1": "DZA.29_1","province": "Mila","NL_NAME_1": "ولايةميلة","county": "ElMechira","VARNAME_2": "ElMchira","NL_NAME_2": "NA","TYPE_2": "Commune","ENGTYPE_2": "Commune","CC_2": "4326","HASC_2": "DZ.ML.EM","name": "El_Mechira.county","area_km2": 192.2918,"hist_schema_id": "Elevation0-9000","hist_area_km2": {"775": 2.3136,"800": 16.0591,"825": 26.8467,"850": 28.2047,"875": 24.8272,"900": 22.3799,"925": 21.1177,"950": 16.8656,"975": 11.9239,"1000": 8.544,"1025": 3.8257,"1050": 2.7791,"1075": 2.2988,"1100": 1.5096,"1125": 1.1494,"1150": 0.6691,"1175": 0.549,"1200": 0.2573,"1225": 0.1372,"1250": 0.0343}}}