{"type":"Feature","properties":{"GID_2":"DZA.12.40_1","GID_0":"DZA","country":"Algeria","GID_1":"DZA.12_1","province":"Bouira","NL_NAME_1":"ولايةالبويرة","county":"Saharidj","VARNAME_2":"NA","NL_NAME_2":"NA","TYPE_2":"Commune","ENGTYPE_2":"Commune","CC_2":"1030","HASC_2":"DZ.BU.SA","name":"Saharidj.county"},
"geometry":{"type": "MultiPolygon","coordinates": [[[[4.3263,36.467,1571.4307],[4.3072,36.4664,1676.8206],[4.2972,36.4617,1876.0385],[4.2619,36.4612,1782.4146],[4.2477,36.4582,1805.8445],[4.2424,36.4594,1846.0909],[4.2372,36.4724,1556.7743],[4.2304,36.4816,1620.4899],[4.2276,36.4787,1642.6116],[4.1905,36.4639,1797.6743],[4.1849,36.4608,1695.9739],[4.1874,36.4574,1446.3605],[4.1915,36.4378,894.9299],[4.1901,36.4311,855.1765],[4.1906,36.4117,622.4662],[4.1784,36.3927,534.7692],[4.2162,36.3825,639.5549],[4.2263,36.3822,573.4097],[4.2453,36.3829,664.4631],[4.2561,36.3855,689.8802],[4.2675,36.3903,678.106],[4.2781,36.3912,494.5777],[4.2829,36.3936,466.6972],[4.2838,36.3979,476.7733],[4.2896,36.4071,530.6357],[4.295,36.4116,566.4507],[4.3109,36.4173,698.6514],[4.3139,36.4215,722.402],[4.3166,36.4334,830.0641],[4.3148,36.4515,1158.2306],[4.3239,36.4613,1405.1794],[4.3263,36.467,1571.4307]]]]}}