{"type":"Feature","properties":{"GID_2":"DZA.41.3_1","GID_0":"DZA","country":"Algeria","GID_1":"DZA.41_1","province":"Tamanghasset","NL_NAME_1":"ولايةتمنراست","county":"Idles","VARNAME_2":"NA","NL_NAME_2":"NA","TYPE_2":"Commune","ENGTYPE_2":"Commune","CC_2":"1105","HASC_2":"DZ.TM.ID","name":"Idles.county"},
"geometry":{"type": "MultiPolygon","coordinates": [[[[6.5854,25.5524,1149.1118],[6.4129,26.0,1060.1031],[6.4106,26.0111,1057.6436],[6.3547,26.1577,712.3402],[6.3358,26.1642,744.2859],[6.3303,26.1746,730.502],[6.3237,26.1747,718.2138],[6.3165,26.1773,740.1117],[6.3125,26.1945,746.769],[6.3137,26.1994,727.5272],[6.3108,26.203,668.513],[6.2988,26.2022,748.0299],[6.2893,26.206,642.2812],[6.2873,26.2275,628.1736],[6.2897,26.2349,654.2024],[6.2889,26.2404,624.4181],[6.2843,26.2441,704.3774],[6.2744,26.2446,678.0283],[6.2705,26.2466,681.7109],[6.2608,26.2564,679.3698],[6.2561,26.2538,645.9241],[6.2443,26.2425,681.7399],[6.238,26.2464,639.7112],[6.2307,26.2553,606.501],[6.2109,26.258,661.3936],[6.2017,26.2655,742.88],[6.1892,26.2706,801.1085],[6.18,26.2806,746.4688],[6.1759,26.2933,706.2674],[6.1677,26.306,614.2775],[6.1603,26.3084,585.3102],[6.1541,26.3126,628.4421],[6.1441,26.3251,589.9293],[6.1417,26.3325,647.8162],[6.1461,26.3415,560.1796],[6.1499,26.3439,558.8073],[6.1584,26.3651,547.4368],[6.167,26.3683,540.0652],[6.1784,26.3826,561.165],[6.1785,26.3879,624.6112],[6.1725,26.4028,636.2863],[6.1646,26.4101,532.1794],[6.1661,26.4154,528.1385],[6.1834,26.4214,522.706],[6.1854,26.4253,522.7456],[6.1861,26.4364,519.0457],[6.1909,26.4502,516.001],[6.1939,26.4541,514.7997],[6.2046,26.4594,512.4213],[6.225,26.4596,508.9412],[6.2372,26.4658,506.4204],[6.2419,26.4696,505.6516],[6.2531,26.4869,502.9252],[6.2578,26.4915,502.0273],[6.27,26.5012,504.1552],[6.2867,26.5088,518.9925],[6.2912,26.5144,496.6759],[6.3,26.5314,495.2969],[6.314,26.5355,496.7162],[6.3185,26.5408,492.5451],[6.3177,26.5485,492.1197],[6.3084,26.5617,502.0165],[6.3096,26.5789,501.8937],[6.2976,26.5919,486.8452],[6.296,26.5986,487.9896],[6.2973,26.605,485.5076],[6.3047,26.6146,483.3018],[6.2912,26.6244,491.3494],[6.2536,26.6594,493.9046],[6.2308,26.6749,504.3173],[6.0317,26.8499,482.3155],[6.0126,26.8658,474.749],[6.003,26.8712,470.3934],[5.7665,27.072,628.6777],[5.7757,27.1728,491.2082],[5.7778,27.4129,519.5211],[5.4717,27.3796,569.4198],[5.3364,27.2589,481.5343],[5.3317,27.2471,483.4384],[5.3248,27.2366,485.1507],[5.3001,27.2151,490.028],[5.2974,27.208,490.5091],[5.3002,27.1897,490.8669],[5.3057,27.1737,492.5158],[5.316,27.157,494.5644],[5.3185,27.1408,496.8778],[5.3166,27.1202,499.9403],[5.3123,27.1025,504.3063],[5.3116,27.0893,503.2704],[5.3078,27.07,506.6779],[5.2897,27.0371,510.5428],[5.2833,27.0128,514.6782],[5.2793,27.0085,515.0936],[5.2632,26.9979,517.2192],[5.2562,26.9838,518.5892],[5.2463,26.971,522.0559],[5.2317,26.929,528.8925],[5.2257999999999996,26.9177,532.1122],[5.2199,26.9107,531.6211],[5.2046,26.8991,533.2815],[5.1507,26.8754,545.7822],[5.1335,26.862,552.7644],[5.1372,26.8169,596.4689],[5.1361,26.8008,648.9537],[5.127,26.7771,659.6516],[5.1074,26.7491,636.8761],[5.007,26.631,641.8082],[4.9891,26.6259,645.199],[4.9684,26.6157,751.149],[4.9611,26.6089,686.0959],[4.9595,26.6047,656.8069],[4.9602,26.5897,679.8768],[4.9562,26.5777,641.8161],[4.9463,26.5317,646.7052],[4.9382,26.5128,670.3342],[4.9368,26.5001,713.4237],[4.9313,26.4817,803.8775],[4.9038,26.4528,809.053],[4.9268,26.4452,736.6177],[4.9252,26.4244,916.7275],[4.9216,26.4067,849.865],[4.9113,26.3719,806.7648],[4.9096,26.354,754.9861],[4.9009,26.338,875.6482],[4.8978,26.2982,1029.2916],[4.8917,26.2626,966.6384],[4.8799,26.173,1057.0227],[4.8787,26.1367,1201.0648],[4.8852,26.121,751.2325],[4.9737,26.0227,705.8519],[4.996,25.9928,707.8951],[5.0231,25.9665,703.7074],[5.1875,25.785,723.4228],[5.2013,25.7717,776.5375],[5.2097,25.756,897.6583],[5.1856,25.5222,749.6163],[5.1793,25.5052,747.2122],[5.1529,25.4785,753.0174],[5.1344,25.4465,758.4306],[5.1023,25.4009,766.7947],[5.0909,25.3861,769.7996],[5.0768,25.3728,772.8116],[5.0733,25.3569,777.3983],[5.0822,25.3213,785.6045],[5.0942,25.2869,794.6177],[5.1006,25.2698,799.3513],[5.1108,25.2543,805.496],[5.1252,25.2419,810.796],[5.1434,25.2343,817.7537],[5.1567,25.2224,821.8934],[5.1837,25.1739,839.7425],[5.2042,25.1431,857.6488],[5.2156,25.1282,868.5131],[5.2314,25.1175,872.8947],[5.2433,25.1038,886.1332],[5.2711,25.0784,912.9528],[5.2828,25.0638,927.1355],[5.2901,25.0463,950.8862],[5.3062,25.0401,962.069],[5.3275,25.0377,1361.5172],[5.3305,25.0229,1031.8481],[5.3055,24.8616,1002.2806],[5.304,24.8436,999.8011],[5.3235,24.7926,1026.0885],[5.3277,24.775,1045.4604],[5.3346,24.7581,1053.5251],[5.3385,24.7404,1079.3007],[5.3395,24.7042,1164.9656],[5.3557,24.6714,1081.3829],[5.3554,24.6536,1053.8568],[5.347,24.6369,1045.0139],[5.3524,24.6204,1048.756],[5.3572,24.5845,1066.5459],[5.3658,24.5681,1077.6516],[5.3839,24.5624,1091.024],[5.4014,24.5542,1101.4048],[5.4151,24.5412,1114.4219],[5.4234,24.5248,1130.1042],[5.4354,24.5105,1146.7617],[5.4539,24.5037,1168.3298],[5.4619,24.4887,1222.3762],[5.4454,24.4181,1317.6704],[5.4445,24.4001,1628.642],[5.4469,24.3822,1610.3729],[5.4838,24.2048,1593.2483],[5.4854,24.1868,1741.1763],[5.4761,24.1708,1442.793],[5.4575,24.1651,1400.1653],[5.4513,24.148,1384.5339],[5.4642,24.0602,1287.1843],[5.4625,24.0423,1277.9803],[5.4576,24.0248,1264.3077],[5.4565,24.0068,1260.6006],[5.4478,23.9724,1229.6584],[5.4528,23.9547,1219.0768],[5.4627,23.8832,1203.2302],[5.4692,23.8661,1154.186],[5.4733,23.8486,1138.7305],[5.4668,23.8318,1148.0439],[5.443,23.7137,1170.543],[5.4608,23.6975,1187.676],[5.4801,23.6963,1205.4562],[5.498,23.6887,1213.0266],[5.5132,23.6556,1287.4282],[5.5233,23.6391,1268.458],[5.5349,23.6304,1280.3329],[5.5395,23.6287,1282.5555],[5.5487,23.6288,1286.234],[5.5614,23.6305,1301.4565],[5.5676,23.6334,1303.2227],[5.5688,23.6286,1307.6591],[5.5648,23.6267,1320.9437],[5.5717,23.6198,1323.3904],[5.572,23.6069,1341.7966],[5.5684,23.6017,1363.042],[5.5639,23.6012,1351.4432],[5.5617,23.5961,1359.1923],[5.5628,23.5883,1376.2568],[5.5679,23.584,1372.0938],[5.5731,23.5764,1381.4644],[5.5793,23.5629,1392.6448],[5.5903,23.5587,1417.2727],[5.5954,23.5431,1418.4076],[5.6004,23.54,1424.6265],[5.6161,23.542,1439.024],[5.6214,23.5359,1460.4427],[5.6217,23.53,1462.0826],[5.6263,23.5145,1485.8116],[5.6327,23.5136,1541.3234],[5.6411,23.4885,1578.6423],[5.6472,23.4804,1577.8783],[5.6514,23.4708,1615.3215],[5.6633,23.4588,1631.1614],[5.6693,23.4492,1689.1224],[5.676,23.4417,1656.96],[5.679,23.4447,1662.299],[5.6836,23.4436,1727.892],[5.6903,23.4366,1738.4047],[5.6987,23.4382,1713.0394],[5.7234,23.4246,1800.8806],[5.7288,23.4245,1833.7382],[5.7288,23.4289,1805.6143],[5.7328,23.427,1916.3383],[5.741,23.4312,1928.1017],[5.7557,23.4256,1929.9041],[5.7583,23.4205,1939.3065],[5.7654,23.4151,1952.9764],[5.7655,23.4053,1962.174],[5.7702,23.3988,1966.8844],[5.7719,23.3913,1976.4718],[5.7707,23.3858,1978.6073],[5.7752,23.3597,2005.6255],[5.7836,23.3516,2024.7356],[5.7915,23.3352,2059.8994],[5.8114,23.3258,2155.6655],[5.8295,23.3325,2205.5544],[5.8431,23.3212,2206.0564],[5.8541,23.308,2326.3894],[5.8719,23.3134,2317.2246],[5.8872,23.3242,2275.1318],[5.892,23.3403,2269.709],[5.9226,23.3554,2151.4434],[5.9306,23.3718,2118.9519],[5.9365,23.3888,2105.7893],[5.9482,23.403,2080.637],[5.9585,23.437,2018.3196],[5.9536,23.4534,2010.2087],[5.9444,23.4691,1996.6221],[5.9587,23.4933,1971.3353],[5.9562,23.5112,1962.6157],[5.9597,23.5286,1954.3021],[5.9605,23.5443,1942.828],[5.974,23.5719,1927.9763],[5.9715,23.5898,1888.061],[5.9813,23.6039,1907.3889],[6.0175,23.5913,1913.5632],[6.0737,23.5754,2196.8062],[6.1065,23.595,1925.4023],[6.2539,23.6439,2010.5887],[6.3106,23.6578,1885.8595],[6.3474,23.6694,2034.152],[6.4114,23.7096,1818.3152],[6.43,23.7077,1797.1079],[6.4432,23.7153,1783.0472],[6.4754,23.717,1771.8958],[6.4736,23.7304,1774.374],[6.4814,23.7447,1739.4126],[6.495,23.748,1718.8713],[6.5099,23.7484,1644.376],[6.5375,23.7736,1607.4692],[6.5663,23.7888,1324.9001],[6.5766,23.7996,1309.1017],[6.5799,23.8352,1282.527],[6.5755,23.871,1262.9108],[6.5818,23.8833,1280.7916],[6.7192,23.894,1363.2664],[6.7373,23.8976,1557.2388],[6.7453,23.913,1471.9783],[6.7636,23.9658,1262.1691],[7.0192,24.0224,1618.853],[7.0194,24.0377,1552.5928],[7.0267,24.0696,1524.3599],[7.0429,24.0772,1490.3939],[7.0601,24.0824,1455.0778],[7.0964,24.0906,1400.1238],[7.1069,24.1054,1404.3459],[7.1207,24.1383,1359.5144],[7.1348,24.1506,1343.7012],[7.1539,24.1537,1347.2357],[7.1648,24.1442,1323.0276],[7.1826,24.1429,1321.2266],[7.197,24.1473,1301.7588],[7.2295,24.1499,1274.5093],[7.2448,24.1555,1259.7104],[7.2521,24.1694,1255.5278],[7.2699,24.177,1246.5165],[7.2884,24.1829,1225.0137],[7.3079,24.1845,1213.6169],[7.326,24.1899,1205.5715],[7.3378,24.2001,1197.212],[7.3531,24.2024,1188.932],[7.3699,24.1982,1210.5073],[7.3742,24.2103,1215.697],[7.3908,24.2176,1165.1091],[7.4085,24.2208,1157.7476],[7.4102,24.2384,1151.7622],[7.424,24.2504,1138.7646],[7.4407,24.2443,1129.6079],[7.4589,24.24,1121.9363],[7.4773,24.2434,1116.4918],[7.4932,24.2539,1109.6044],[7.514,24.2785,1097.3284],[7.5284,24.408,1207.061],[7.5315,24.424,1260.2958],[7.3088,24.7477,1162.9816],[7.2734,24.758,1175.8105],[7.2564,24.7598,1188.6837],[7.2159,24.7567,1181.5458],[7.1939,24.7491,1182.4672],[7.1636,24.7523,1180.5271],[7.1182,24.7616,1148.0885],[7.0384,24.8085,1116.7115],[7.0152,24.8315,1107.1743],[7.0052,24.8486,1099.5151],[7.0006,24.8511,1097.8357],[6.9981,24.8548,1096.5834],[6.9874,24.8848,1098.7827],[6.9471,24.957,1071.7976],[6.9316,24.9777,1067.442],[6.923,24.9944,1065.5839],[6.9167,24.9983,1064.7903],[6.9097,25.0077,1064.1266],[6.8989,25.035,1064.905],[6.8947,25.0399,1063.2804],[6.8801,25.0694,1053.17],[6.8664,25.0842,1054.5955],[6.8527,25.1034,1059.9497],[6.8415,25.1329,1061.9797],[6.8249,25.196,1091.2219],[6.8108,25.2324,1081.0033],[6.7963,25.259,1087.2971],[6.785,25.2772,1096.7473],[6.7482,25.328,1093.9716],[6.7326,25.3397,1093.9037],[6.7067,25.3793,1082.3469],[6.6884,25.4023,1083.5685],[6.657,25.452,1082.1453],[6.6525,25.4571,1081.7798],[6.6432,25.4632,1089.08],[6.6354,25.4661,1082.636],[6.6149,25.4903,1060.896],[6.5836,25.5167,1036.7936],[6.5854,25.5524,1149.1118]]]]}}