{"type": "Feature","bbox": [-0.656,34.4694,-0.4003,34.6703],"geometry": {"type": "MultiPolygon","coordinates": [[[[-0.4003,34.6225,1010.5863],[-0.416,34.6235,1087.7454],[-0.4335,34.6123,1063.9421],[-0.4487,34.6095,1050.3118],[-0.4768,34.614,1104.1289],[-0.4854,34.6223,1035.6857],[-0.5129,34.6402,1082.3987],[-0.5252,34.6393,1112.7212],[-0.5304,34.6428,1122.1],[-0.5476,34.6418,1158.0665],[-0.5592,34.6468,1174.1993],[-0.5663,34.6571,1220.8427],[-0.5672,34.6661,1246.1217],[-0.5702,34.6693,1259.1528],[-0.5752,34.6703,1234.5295],[-0.5936,34.6616,1290.5256],[-0.6047,34.6477,1262.6389],[-0.6109,34.6316,1213.2021],[-0.6334,34.6191,1257.9819],[-0.6433,34.6175,1267.5367],[-0.6474,34.6152,1269.2684],[-0.6494,34.6099,1260.3474],[-0.6536,34.6055,1264.9668],[-0.656,34.5938,1249.2004],[-0.6532,34.5808,1228.3857],[-0.6448,34.5657,1187.5157],[-0.6444,34.5602,1178.5187],[-0.6402,34.551,1172.9338],[-0.6363,34.5464,1157.0691],[-0.6253,34.5388,1145.7656],[-0.6174,34.5304,1132.825],[-0.6154,34.526,1121.5994],[-0.6108,34.5073,1122.5326],[-0.603,34.4952,1121.2616],[-0.6034,34.4766,1137.5538],[-0.6016,34.4694,1146.8878],[-0.5951,34.4731,1158.5999],[-0.5904,34.4824,1144.1423],[-0.5866,34.4862,1151.3361],[-0.5807,34.4906,1140.4977],[-0.573,34.4923,1132.1166],[-0.5704,34.4986,1133.2072],[-0.5594,34.5028,1140.307],[-0.5384,34.4966,1144.7761],[-0.5263,34.4863,1165.2338],[-0.5098,34.4825,1195.1788],[-0.4996,34.4777,1233.075],[-0.4837,34.4746,1225.6083],[-0.4777,34.4756,1233.7094],[-0.4683,34.4872,1240.6147],[-0.4509,34.499,1200.3708],[-0.4449,34.5061,1184.2223],[-0.4467,34.5352,1141.9084],[-0.444,34.541,1126.3674],[-0.4428,34.5496,1120.1333],[-0.4475,34.5588,1103.3735],[-0.4321,34.5728,1074.8723],[-0.4279,34.5777,1068.79],[-0.4257,34.5835,1063.6533],[-0.4136,34.596,1046.9103],[-0.406,34.6117,1030.4355],[-0.4019,34.6168,1029.9165],[-0.4003,34.6225,1010.5863]]]]}
,"properties": {"GID_2": "DZA.38.38_1","GID_0": "DZA","country": "Algeria","GID_1": "DZA.38_1","province": "SidiBelAbbès","NL_NAME_1": "ولايةسيديبلعباس","county": "SidiChouab","VARNAME_2": "SidiChaib","NL_NAME_2": "NA","TYPE_2": "Commune","ENGTYPE_2": "Commune","CC_2": "2235","HASC_2": "DZ.SB.SC","name": "Sidi_Chouab.county","area_km2": 299.8248,"hist_schema_id": "Elevation0-9000","hist_area_km2": {"1000": 0.0523,"1025": 1.1865,"1050": 8.6381,"1075": 25.8317,"1100": 48.3249,"1125": 61.6079,"1150": 48.16,"1175": 34.695,"1200": 27.5155,"1225": 21.8218,"1250": 15.7628,"1275": 5.5479,"1300": 0.6802}}}