{"type": "Feature","bbox": [1.3992,36.4453,1.5322,36.5415],"geometry": {"type": "MultiPolygon","coordinates": [[[[1.5306,36.539,21.7923],[1.5243,36.5415,13.8103],[1.5189,36.5329,4.901],[1.5131,36.53,10.8957],[1.4895,36.5278,1.9394],[1.4718,36.5322,0.0],[1.4664,36.5402,13.1338],[1.4586,36.5415,70.3137],[1.4387,36.5365,1.366],[1.4305,36.539,2.3043],[1.4234,36.5383,46.0325],[1.417,36.5353,104.1186],[1.4171,36.5273,272.0808],[1.4098,36.5156,526.8354],[1.413,36.5125,451.6934],[1.4114,36.5066,423.1427],[1.4011,36.4981,490.2331],[1.3994,36.4931,460.2386],[1.3992,36.4794,504.8419],[1.4039,36.476,366.3714],[1.4096,36.4745,284.9768],[1.4154,36.4766,249.0827],[1.4205,36.4814,211.6419],[1.4239,36.476,281.8553],[1.4222,36.4658,352.1565],[1.4242,36.4596,480.9811],[1.4278,36.4557,604.6047],[1.4345,36.4558,709.6881],[1.4377,36.4468,945.6403],[1.4548,36.4453,1047.2634],[1.4726,36.4487,1044.3904],[1.4768,36.4507,1017.4605],[1.4802,36.4709,495.4222],[1.4834,36.4739,391.2042],[1.496,36.4807,342.6942],[1.5019,36.4808,244.5791],[1.5071,36.4776,371.4947],[1.5134,36.4788,352.0695],[1.5161,36.4825,368.4215],[1.509,36.4915,461.8026],[1.5121,36.5019,338.0823],[1.5101,36.5077,383.7693],[1.513,36.5137,309.1483],[1.5286,36.5208,247.7601],[1.5322,36.5266,245.4337],[1.5306,36.539,21.7923]]]]}
,"properties": {"GID_2": "DZA.14.21_1","GID_0": "DZA","country": "Algeria","GID_1": "DZA.14_1","province": "Chlef","NL_NAME_1": "ولايةالشلف","county": "OuedGoussine","VARNAME_2": "OuedGhoussine","NL_NAME_2": "NA","TYPE_2": "Commune-Cotiere","ENGTYPE_2": "Commune-Cotiere","CC_2": "216","HASC_2": "DZ.CH.OG","name": "Oued_Goussine.county","area_km2": 78.36845,"hist_schema_id": "Elevation0-9000","hist_area_km2": {"0": 0.937,"25": 1.82297,"50": 2.55567,"75": 2.8625,"100": 3.10113,"125": 3.37388,"150": 3.64659,"175": 3.69782,"200": 3.98776,"225": 4.00483,"250": 4.36292,"275": 3.90295,"300": 3.78384,"325": 3.71579,"350": 3.2385,"375": 3.03407,"400": 2.94888,"425": 2.42048,"450": 2.26718,"475": 2.06268,"500": 1.80702,"525": 1.75591,"550": 1.27858,"575": 1.36384,"600": 1.19345,"625": 1.0059,"650": 0.8866,"675": 0.98889,"700": 0.56272,"725": 0.34104,"750": 0.46042,"775": 0.47746,"800": 0.44337,"825": 0.46043,"850": 0.56275,"875": 0.51158,"900": 0.40929,"925": 0.32402,"950": 0.40929,"975": 0.34108,"1000": 0.34108,"1025": 0.23876,"1050": 0.17055,"1075": 0.15349,"1100": 0.11938,"1125": 0.03411}}}