{"type":"Feature","properties":{"GID_2":"DZA.27.16_1","GID_0":"DZA","country":"Algeria","GID_1":"DZA.27_1","province":"Mascara","NL_NAME_1":"ولايةمعسكر","county":"ElKeurt","VARNAME_2":"NA","NL_NAME_2":"NA","TYPE_2":"Commune","ENGTYPE_2":"Commune","CC_2":"2940","HASC_2":"DZ.MC.EK","name":"El_Keurt.county"},
"geometry":{"type": "MultiPolygon","coordinates": [[[[0.0956,35.4126,574.0488],[0.09,35.4164,537.1195],[0.077,35.4214,455.5251],[0.0736,35.425,451.168],[0.0658,35.4289,352.6148],[0.0532,35.4193,339.6003],[0.048,35.4192,309.1517],[0.0455,35.4153,339.1542],[0.0404,35.4121,372.8739],[0.024,35.4037,538.6294],[0.0253,35.3982,551.1644],[0.0239,35.3847,646.3023],[0.0257,35.3795,523.7811],[0.0238,35.3659,435.5942],[0.0271,35.3628,474.0024],[0.0319,35.3613,539.1883],[0.0453,35.3623,669.5602],[0.0505,35.3644,656.1903],[0.0653,35.3568,522.0706],[0.0701,35.3515,477.3681],[0.0864,35.3558,473.9615],[0.099,35.3532,464.1362],[0.107,35.3621,488.7122],[0.1094,35.3794,522.7926],[0.0971,35.4003,593.8676],[0.0973,35.4068,567.7764],[0.0956,35.4126,574.0488]]]]}}