{"type": "Feature","bbox": [5.592,36.4247,5.7106,36.5282],"geometry": {"type": "MultiPolygon","coordinates": [[[[5.6694,36.5282,1600.1896],[5.6573,36.511,1259.77],[5.6447,36.5012,1006.2031],[5.6247,36.4922,783.474],[5.6218,36.4884,758.1757],[5.6207,36.4818,730.0906],[5.6244,36.4624,634.8138],[5.6225,36.4559,732.2003],[5.6185,36.4525,883.3451],[5.6137,36.4514,826.2986],[5.6015,36.4541,869.1753],[5.592,36.4413,636.6092],[5.5971,36.4398,601.6689],[5.6088,36.4398,602.2693],[5.6123,36.4371,623.4791],[5.6223,36.4338,588.6372],[5.6373,36.4321,580.2129],[5.6459,36.4289,630.2173],[5.6501,36.4247,593.6262],[5.6554,36.4258,556.7874],[5.6619,36.4328,537.7878],[5.6763,36.4351,530.3318],[5.7033,36.4305,530.4915],[5.7106,36.4339,505.6793],[5.7043,36.4367,535.8885],[5.6988,36.4452,547.3124],[5.6956,36.4615,618.5864],[5.6919,36.4654,663.6663],[5.689,36.4774,877.5576],[5.678,36.4981,1334.7705],[5.6769,36.5173,1518.7982],[5.6694,36.5282,1600.1896]]]]}
,"properties": {"GID_2": "DZA.37.17_1","GID_0": "DZA","country": "Algeria","GID_1": "DZA.37_1","province": "Sétif","NL_NAME_1": "ولايةسطيف","county": "Beni-Aziz","VARNAME_2": "BeniAziz","NL_NAME_2": "NA","TYPE_2": "Commune","ENGTYPE_2": "Commune","CC_2": "1903","HASC_2": "DZ.SF.BZ","name": "Beni-Aziz.county","area_km2": 55.55236,"hist_schema_id": "Elevation0-9000","hist_area_km2": {"525": 0.80172,"550": 1.97867,"575": 3.25779,"600": 3.83762,"625": 4.04221,"650": 3.63275,"675": 3.22324,"700": 3.1719,"725": 2.93303,"750": 2.02915,"775": 1.82448,"800": 1.96087,"825": 1.90968,"850": 1.56858,"875": 1.21047,"900": 1.02291,"925": 0.97174,"950": 0.85241,"975": 0.92058,"1000": 0.73304,"1025": 0.83532,"1050": 0.73301,"1075": 0.69892,"1100": 0.78414,"1125": 0.81822,"1150": 0.8523,"1175": 0.51137,"1200": 0.375,"1225": 0.35794,"1250": 0.35794,"1275": 0.37498,"1300": 0.35794,"1325": 0.37497,"1350": 0.51131,"1375": 0.57948,"1400": 0.49425,"1425": 0.54539,"1450": 0.64763,"1475": 0.47718,"1500": 0.49424,"1525": 0.54534,"1550": 0.59646,"1575": 0.42602,"1600": 0.42603,"1625": 0.28968,"1650": 0.20447}}}