{"type": "Feature","bbox": [3.6281,36.2343,3.7657,36.4385],"geometry": {"type": "MultiPolygon","coordinates": [[[[3.7657,36.4165,813.0927],[3.7605,36.4219,902.0499],[3.7478,36.424,862.5487],[3.7188,36.4372,806.8239],[3.7119,36.4385,677.4696],[3.7077,36.4366,589.1849],[3.6979,36.4372,516.8765],[3.6933,36.4364,478.5567],[3.6886,36.433,431.7753],[3.6847,36.4292,404.831],[3.6922,36.4081,490.472],[3.6866,36.3944,558.3799],[3.6807,36.3919,654.7478],[3.6714,36.3836,839.9533],[3.6714,36.3793,922.6271],[3.6765,36.3764,890.0178],[3.6802,36.3721,877.2821],[3.6768,36.3684,804.3174],[3.6754,36.3618,717.77],[3.6704,36.357,764.2247],[3.6652,36.3554,784.9813],[3.6472,36.3529,822.5446],[3.6336,36.3549,770.7092],[3.6295,36.3514,780.4117],[3.6308,36.345,742.4875],[3.6455,36.3216,745.7925],[3.6371,36.3185,709.5762],[3.6408,36.3092,732.0383],[3.6384,36.3035,751.998],[3.6281,36.2937,740.9907],[3.6298,36.289,735.9794],[3.6465,36.2826,702.968],[3.6517,36.2781,687.2741],[3.6624,36.2731,690.0198],[3.6652,36.2672,705.3052],[3.6774,36.262,699.906],[3.6789,36.2564,697.2502],[3.6862,36.2516,701.9762],[3.6918,36.2543,686.9498],[3.7023,36.2631,677.0],[3.709,36.2636,677.0],[3.7166,36.261,678.9393],[3.7258,36.251,686.0084],[3.731,36.2482,680.8904],[3.7286,36.2444,697.8939],[3.7334,36.2407,693.7695],[3.7363,36.2343,698.0847],[3.7478,36.2422,765.9391],[3.7434,36.2513,738.464],[3.7435,36.2579,719.3524],[3.7363,36.2717,685.6179],[3.735,36.2827,631.5499],[3.7281,36.289,638.9235],[3.708,36.2918,744.7792],[3.7036,36.2934,745.0912],[3.6999,36.2971,704.9723],[3.6988,36.3021,663.8319],[3.7012,36.3075,633.5145],[3.6978,36.3111,652.2786],[3.6969,36.3162,654.0734],[3.6963,36.3211,656.5403],[3.6991,36.3317,677.0655],[3.697,36.3355,700.8909],[3.7063,36.339,707.3452],[3.7098,36.3438,734.0887],[3.7149,36.3469,720.266],[3.7248,36.3493,656.1909],[3.7219,36.3556,687.3881],[3.732,36.3607,709.6603],[3.7367,36.3661,693.9749],[3.7531,36.3727,695.8959],[3.7568,36.377,683.8031],[3.7591,36.3888,689.7885],[3.7562,36.3997,661.0359],[3.7621,36.4052,682.2933],[3.7657,36.4165,813.0927]]]]}
,"properties": {"GID_2": "DZA.12.4_1","GID_0": "DZA","country": "Algeria","GID_1": "DZA.12_1","province": "Bouira","NL_NAME_1": "ولايةالبويرة","county": "Ain-Bessem","VARNAME_2": "AinBessam","NL_NAME_2": "NA","TYPE_2": "Commune","ENGTYPE_2": "Commune","CC_2": "1035","HASC_2": "DZ.BU.AB","name": "Ain-Bessem.county","area_km2": 127.17993,"hist_schema_id": "Elevation0-9000","hist_area_km2": {"400": 0.06824,"425": 0.20472,"450": 0.27297,"475": 0.46064,"500": 0.46065,"525": 0.46066,"550": 0.87017,"575": 0.97253,"600": 1.19436,"625": 2.18475,"650": 7.22427,"675": 19.56068,"700": 22.94553,"725": 20.13992,"750": 15.62676,"775": 11.96845,"800": 9.18493,"825": 5.03525,"850": 3.17432,"875": 2.09901,"900": 1.3992,"925": 0.66541,"950": 0.46061,"975": 0.29001,"1000": 0.18765,"1025": 0.06824}}}