{"type": "Feature","bbox": [3.6225,34.7306,4.092,34.9067],"geometry": {"type": "MultiPolygon","coordinates": [[[[3.8913,34.7665,1232.2444],[3.9925,34.7375,1259.6948],[4.0052,34.7306,1240.1857],[4.0126,34.7406,1124.4258],[4.0649,34.7485,1033.4755],[4.0713,34.7856,1003.2529],[4.0715,34.8048,980.3825],[4.0669,34.8368,1076.8733],[4.092,34.8732,1020.1316],[4.049,34.9057,1058.2278],[3.9957,34.9067,1306.0999],[3.9075,34.8516,1151.0134],[3.8921,34.8321,1213.944],[3.8528,34.826,1190.2649],[3.8322,34.8294,1360.0292],[3.7951,34.862,1305.1718],[3.7879,34.8794,1137.4982],[3.7138,34.8763,1131.4268],[3.7004,34.8955,1053.4708],[3.6676,34.8847,1107.0819],[3.6262,34.8595,1212.3943],[3.6355,34.8549,1176.468],[3.6264,34.8489,1174.0886],[3.6225,34.8439,1166.7498],[3.6301,34.8407,1145.7944],[3.6353,34.8272,1185.8171],[3.6395,34.8224,1214.2822],[3.6496,34.7999,1261.1353],[3.6386,34.8021,1266.377],[3.6409,34.7906,1210.0458],[3.6571,34.7887,1160.4679],[3.6986,34.8071,1200.3279],[3.7077,34.8083,1172.4441],[3.727,34.7903,1130.251],[3.8081,34.7798,1242.7122],[3.8225,34.7811,1205.322],[3.8913,34.7665,1232.2444]]]]}
,"properties": {"GID_2": "DZA.26.11_1","GID_0": "DZA","country": "Algeria","GID_1": "DZA.26_1","province": "M'Sila","NL_NAME_1": "ولايةالمسيلة","county": "BirFoda","VARNAME_2": "BirFodda","NL_NAME_2": "NA","TYPE_2": "Commune","ENGTYPE_2": "Commune","CC_2": "2836","HASC_2": "DZ.MS.BF","name": "Bir_Foda.county","area_km2": 454.9912,"hist_schema_id": "Elevation0-9000","hist_area_km2": {"975": 3.43,"1000": 14.7463,"1025": 25.5216,"1050": 34.2199,"1075": 53.3239,"1100": 73.8737,"1125": 65.5934,"1150": 57.804,"1175": 44.5089,"1200": 30.3065,"1225": 19.1653,"1250": 13.7856,"1275": 9.1905,"1300": 5.2916,"1325": 2.437,"1350": 1.1316,"1375": 0.4178,"1400": 0.1915,"1425": 0.0522}}}