{"type": "Feature","bbox": [7.2842,36.1295,7.5205,36.2311],"geometry": {"type": "MultiPolygon","coordinates": [[[[7.3145,36.2311,604.8332],[7.3032,36.2259,727.4438],[7.2961,36.2173,748.7637],[7.292,36.208,765.4081],[7.2913,36.2013,818.8179],[7.2842,36.193,793.5776],[7.2881,36.1801,760.6805],[7.2842,36.1777,832.7458],[7.2938,36.1639,657.9257],[7.2904,36.1579,678.3215],[7.2986,36.1514,665.1038],[7.3124,36.1461,671.0303],[7.3188,36.146,672.9545],[7.3216,36.1418,673.0496],[7.3288,36.1395,676.6448],[7.334,36.1399,683.4829],[7.3396,36.1373,716.0898],[7.3407,36.1318,681.2078],[7.3467,36.1323,687.7726],[7.3516,36.1295,686.4933],[7.362,36.1462,828.7317],[7.3688,36.1444,872.6534],[7.372,36.1531,922.6394],[7.3707,36.1584,976.342],[7.3749,36.1656,935.9303],[7.3811,36.1664,966.5136],[7.3839,36.1698,999.7218],[7.3837,36.1741,1022.6724],[7.3862,36.1775,1066.2947],[7.3905,36.1792,1097.9575],[7.4209,36.1753,1209.2036],[7.4325,36.1762,1247.2574],[7.4328,36.1822,1242.0493],[7.4381,36.1833,1233.9583],[7.4442,36.1824,1166.9767],[7.4651,36.1918,1124.5889],[7.4757999999999996,36.1915,1137.1682],[7.4797,36.1872,1224.485],[7.4857,36.1851,1293.1687],[7.4916,36.1831,1282.2438],[7.4985,36.1837,1284.8595],[7.5187,36.1918,1338.5404],[7.5196,36.1965,1250.4932],[7.5166,36.2017,1198.3015],[7.52,36.2066,1146.2932],[7.5205,36.22,1188.4073],[7.5138,36.2197,1149.1567],[7.5012,36.2155,1090.22],[7.4866,36.2166,982.6289],[7.4737,36.2123,941.0411],[7.4604,36.2151,909.2664],[7.4535,36.2076,873.7925],[7.4441,36.2041,838.5557],[7.4152,36.211,786.7837],[7.4087,36.2099,770.3602],[7.3828,36.2139,779.4506],[7.3621,36.22,718.6008],[7.3276,36.2223,677.1699],[7.3145,36.2311,604.8332]]]]}
,"properties": {"GID_2": "DZA.40.1_1","GID_0": "DZA","country": "Algeria","GID_1": "DZA.40_1","province": "SoukAhras","NL_NAME_1": "ولايةسوقأهراس","county": "AinSoltane","VARNAME_2": "NA","NL_NAME_2": "NA","TYPE_2": "Commune","ENGTYPE_2": "Commune","CC_2": "4118","HASC_2": "DZ.SA.AS","name": "Ain_Soltane.county","area_km2": 110.35486,"hist_schema_id": "Elevation0-9000","hist_area_km2": {"600": 0.68417,"625": 2.06991,"650": 3.4392,"675": 4.6719,"700": 5.10012,"725": 4.94583,"750": 5.80148,"775": 5.95571,"800": 5.20253,"825": 4.80862,"850": 4.14112,"875": 4.51753,"900": 4.34635,"925": 4.94511,"950": 5.68101,"975": 4.92807,"1000": 5.16767,"1025": 5.08202,"1050": 5.08208,"1075": 4.99646,"1100": 4.63713,"1125": 4.00402,"1150": 3.07996,"1175": 2.20729,"1200": 1.88213,"1225": 1.35182,"1250": 0.77006,"1275": 0.44491,"1300": 0.20534,"1325": 0.17111,"1350": 0.03422}}}