{"type":"Feature","properties":{"GID_2":"DZA.29.13_1","GID_0":"DZA","country":"Algeria","GID_1":"DZA.29_1","province":"Mila","NL_NAME_1":"ولايةميلة","county":"Ferdjioua","VARNAME_2":"Farjiwah","NL_NAME_2":"NA","TYPE_2":"Commune","ENGTYPE_2":"Commune","CC_2":"4302","HASC_2":"DZ.ML.FE","name":"Ferdjioua.county"},
"geometry":{"type": "MultiPolygon","coordinates": [[[[5.9091,36.3613,929.8365],[5.9132,36.3595,836.4004],[5.9366,36.3574,610.7537],[5.9434,36.353,785.0155],[5.9599,36.35,705.9249],[5.9668,36.3441,873.1047],[5.9732,36.3414,868.9027],[5.9807,36.3412,850.899],[5.9838,36.356,646.6074],[5.9896,36.3553,679.9657],[5.9918,36.3601,778.5333],[5.9586,36.3682,605.6877],[5.9581,36.3731,670.0075],[5.9664,36.3822,780.2502],[5.9622,36.3946,695.5507],[5.9655,36.4004,583.5079],[5.9744,36.4052,472.2523],[5.976,36.4101,461.1552],[5.9799,36.4144,470.8699],[5.9849,36.4157,484.2261],[5.9767,36.4232,575.2971],[5.9757,36.4341,714.0295],[5.9702,36.4341,746.4175],[5.963,36.4409,1048.8413],[5.9576,36.4508,776.8052],[5.97,36.4559,896.9913],[5.9671,36.4594,828.1367],[5.9489,36.4665,683.8022],[5.9396,36.4649,575.8925],[5.9286,36.4695,436.7375],[5.9144,36.47,371.0461],[5.9111,36.4665,402.8026],[5.9069,36.4659,362.0142],[5.905,36.4616,356.0032],[5.8981,36.4542,367.7444],[5.8938,36.453,368.4945],[5.8924,36.4479,438.0771],[5.8975,36.4462,464.0438],[5.8999,36.4422,457.7591],[5.8971,36.4289,470.263],[5.9026,36.408,487.9743],[5.9005,36.3858,563.6202],[5.9125,36.3741,756.2328],[5.9153,36.3687,873.2585],[5.9091,36.3613,929.8365]]]]}}