{"type": "Feature","bbox": [4.1046,36.7765,4.2033,36.8323],"geometry": {"type": "MultiPolygon","coordinates": [[[[4.1185,36.782,113.37],[4.1317,36.789,150.3094],[4.1411,36.7912,157.2115],[4.163,36.7879,237.9931],[4.1875,36.7765,178.5656],[4.2033,36.7791,186.2221],[4.1993,36.7839,192.7776],[4.1903,36.7899,253.4226],[4.1876,36.7951,238.832],[4.1865,36.8171,430.1011],[4.1887,36.8228,491.3454],[4.1747,36.8321,748.0146],[4.1482,36.8301,694.949],[4.1266,36.8323,663.3552],[4.1241,36.8283,736.1434],[4.1121,36.8253,707.049],[4.112,36.8067,379.7213],[4.1102,36.7948,271.7003],[4.1061,36.7898,184.802],[4.1046,36.785,133.8712],[4.1066,36.7804,101.116],[4.1185,36.782,113.37]]]]}
,"properties": {"GID_2": "DZA.47.28_1","GID_0": "DZA","country": "Algeria","GID_1": "DZA.47_1","province": "TiziOuzou","NL_NAME_1": "ولايةغليزان","county": "Boudjima","VARNAME_2": "Bujima","NL_NAME_2": "NA","TYPE_2": "Commune","ENGTYPE_2": "Commune","CC_2": "1555","HASC_2": "DZ.TO.BJ","name": "Boudjima.county","area_km2": 34.90241,"hist_schema_id": "Elevation0-9000","hist_area_km2": {"100": 0.10189,"125": 0.39055,"150": 0.69617,"175": 1.05272,"200": 2.00363,"225": 3.03934,"250": 2.90335,"275": 2.25804,"300": 2.22402,"325": 1.73162,"350": 1.6976,"375": 1.64661,"400": 1.52774,"425": 1.34097,"450": 1.3749,"475": 1.40883,"500": 1.22208,"525": 1.03535,"550": 1.17112,"575": 1.12018,"600": 0.95044,"625": 0.76373,"650": 0.83161,"675": 0.86555,"700": 0.8146,"725": 0.49216,"750": 0.2376}}}