{"type":"Feature","properties":{"GID_2":"DZA.30.28_1","GID_0":"DZA","country":"Algeria","GID_1":"DZA.30_1","province":"Mostaganem","NL_NAME_1":"ولايةمستغانم","county":"Souaflia","VARNAME_2":"NA","NL_NAME_2":"NA","TYPE_2":"Commune","ENGTYPE_2":"Commune","CC_2":"2724","HASC_2":"DZ.MG.SO","name":"Souaflia.county"},
"geometry":{"type": "MultiPolygon","coordinates": [[[[0.349,35.8289,418.2806],[0.348,35.8336,393.745],[0.3436,35.8371,350.0363],[0.3438,35.8449,345.8279],[0.3475,35.8535,342.1434],[0.348,35.8589,320.281],[0.3534,35.8589,354.9427],[0.3502,35.8635,325.952],[0.348,35.8733,295.0819],[0.3577,35.8794,294.1899],[0.368,35.8821,308.3521],[0.3762,35.8952,309.4261],[0.37,35.8939,313.3481],[0.3642,35.895,310.7092],[0.3537,35.8942,266.2072],[0.3344,35.8893,258.7217],[0.3303,35.895,243.9274],[0.2886,35.8927,232.5461],[0.2872,35.8879,250.9622],[0.2913,35.8776,277.9371],[0.2909,35.8719,236.2778],[0.3007,35.8645,382.9117],[0.2744,35.833,284.1789],[0.2682,35.8288,264.5834],[0.265,35.8201,235.6555],[0.26,35.8127,213.426],[0.279,35.8033,157.9777],[0.2844,35.7986,150.1606],[0.2922,35.806,182.1422],[0.3024,35.807,264.1592],[0.3047,35.8127,256.6315],[0.3258,35.8161,355.4385],[0.3268,35.8203,348.6796],[0.3354,35.8305,350.6646],[0.3413,35.8317,378.1454],[0.349,35.8289,418.2806]]]]}}