{"type":"Feature","properties":{"GID_2":"DZA.26.20_1","GID_0":"DZA","country":"Algeria","GID_1":"DZA.26_1","province":"M'Sila","NL_NAME_1":"ولايةالمسيلة","county":"KhatoutiSedEldjir","VARNAME_2":"KhettoutiSedElDjir","NL_NAME_2":"NA","TYPE_2":"Commune","ENGTYPE_2":"Commune","CC_2":"2832","HASC_2":"DZ.MS.KS","name":"Khatouti_Sed_Eldjir.county"},
"geometry":{"type": "MultiPolygon","coordinates": [[[[4.2332,35.5175,420.2146],[4.2475,35.5356,413.5904],[4.2537,35.5392,416.1056],[4.285,35.5506,418.8518],[4.3118,35.5634,425.3304],[4.3361,35.5712,422.5534],[4.3413,35.6018,424.9182],[4.3202,35.6269,436.5164],[4.3371,35.6365,449.2621],[4.3315,35.6416,436.1348],[4.3296,35.6461,435.8557],[4.3181,35.654,439.6645],[4.3164,35.6595,441.4387],[4.3109,35.6632,442.4092],[4.3105,35.6737,446.4524],[4.3129,35.6799,448.803],[4.3109,35.6854,450.2548],[4.3124,35.6923,454.2473],[4.3015,35.7168,466.4394],[4.3035,35.7266,473.6908],[4.3205,35.7427,498.2263],[4.3226,35.7487,491.5322],[4.2989,35.7592,501.1273],[4.2534,35.7752,518.056],[4.2099,35.7872,523.235],[4.1923,35.802,533.1273],[4.1874,35.8194,552.6214],[4.1752,35.8193,553.6688],[4.1559,35.8324,579.7812],[4.1509,35.8385,598.9344],[4.1339,35.8388,590.2374],[4.1597,35.7975,537.4835],[4.1581,35.7909,532.8106],[4.145,35.7713,516.3021],[4.1411,35.7608,509.3719],[4.1412,35.7547,503.2341],[4.1445,35.7455,497.5819],[4.159,35.7301,487.6362],[4.1613,35.7256,485.9509],[4.164,35.7046,472.4354],[4.171,35.6961,467.4239],[4.1984,35.6863,459.4724],[4.2129,35.6747,456.1264],[4.2205,35.6653,452.5104],[4.2145,35.663,451.6148],[4.1899,35.6718,459.1708],[4.1848,35.6741,461.7586],[4.1824,35.6802,463.5619],[4.1773,35.6846,465.3518],[4.1726,35.6827,469.8399],[4.1702,35.6542,488.9283],[4.1276,35.6236,479.8578],[4.0528,35.5736,564.9487],[4.0768,35.5773,542.1494],[4.1095,35.5774,510.1929],[4.1618,35.5984,492.7198],[4.1783,35.6014,500.8307],[4.1874,35.5877,479.556],[4.2102,35.5823,455.3574],[4.2222,35.5778,452.5467],[4.2241,35.5685,447.6174],[4.2114,35.5443,434.7685],[4.21,35.5386,435.5221],[4.2332,35.5175,420.2146]]]]}}