{"type": "Feature","bbox": [3.7739,33.9714,4.2927,34.4389],"geometry": {"type": "MultiPolygon","coordinates": [[[[4.1719,34.2205,450.872],[4.1666,34.222,454.413],[4.1538,34.2168,472.8853],[4.1399,34.2285,479.9111],[4.1384,34.2347,498.8714],[4.1398,34.24,505.7079],[4.1384,34.2442,510.0457],[4.1325,34.2459,498.558],[4.1207,34.2452,510.1759],[4.1179,34.2488,520.2376],[4.1204,34.254,519.5129],[4.1164,34.2576,521.1206],[4.1107,34.258,524.4682],[4.1175,34.266,544.0719],[4.1139,34.2705,542.5439],[4.1126,34.2758,549.7865],[4.1071,34.2784,549.0211],[4.1026,34.2829,562.523],[4.0961,34.2855,565.7757],[4.0953,34.2922,581.8461],[4.0922,34.2957,574.4147],[4.0754,34.302,589.1757],[4.063,34.3045,597.6978],[4.0644,34.3086,626.6477],[4.0619,34.3139,627.6367],[4.0548,34.3176,661.4766],[4.056,34.3223,631.5822],[4.052,34.3243,649.5628],[4.0472,34.3229,631.9205],[4.043,34.3262,649.7745],[4.0358,34.3244,642.1649],[4.0249,34.3266,655.1936],[4.0071,34.3332,673.5851],[4.0,34.3401,689.2668],[3.9954,34.3421,692.738],[3.9929,34.3465,700.128],[3.9742,34.3629,742.1204],[3.9809,34.4135,961.6469],[3.9875,34.4389,1156.3008],[3.9612,34.413,1175.3174],[3.9533,34.4062,1141.6289],[3.9489,34.4046,1183.5524],[3.9353,34.3913,1178.6687],[3.9257,34.3895,1150.6763],[3.9223,34.3855,1159.163],[3.9161,34.383,1158.0111],[3.903,34.3723,1159.8771],[3.8971,34.3744,1156.676],[3.8933,34.3713,1166.3444],[3.8838,34.3727,1153.2559],[3.8797,34.3712,1088.3832],[3.8754,34.3687,1105.7676],[3.874,34.364,1090.1094],[3.8692,34.3628,1120.7025],[3.8444,34.3486,1156.7679],[3.7905,34.3129,1101.3958],[3.7785,34.3065,1148.9509],[3.7739,34.3057,1211.3647],[3.7756,34.2889,1041.8713],[3.8163,34.2481,870.2599],[3.815,34.2431,870.0809],[3.8424,34.1854,713.6802],[3.865,34.1792,704.1086],[3.8847,34.1544,658.1721],[3.89,34.1151,612.3288],[3.9109,34.0905,563.0123],[3.9147,34.0829,556.4788],[3.9249,34.0409,593.021],[3.9388,34.0359,601.1546],[3.8977,33.9919,638.1568],[3.8807,33.9714,639.8776],[4.0627,34.0267,613.7476],[4.2927,34.1259,479.739],[4.2862,34.1338,487.5007],[4.2809,34.1374,488.0428],[4.2599,34.1445,491.6652],[4.2376,34.156,518.8682],[4.1968,34.1475,522.5616],[4.1916,34.1505,516.9154],[4.182,34.1665,493.587],[4.175,34.174,483.1797],[4.1732,34.1793,480.6554],[4.1694,34.1812,475.8968],[4.1646,34.1809,474.0971],[4.1533,34.1893,463.0098],[4.1502,34.1944,470.6176],[4.1535,34.1995,470.2666],[4.16,34.2039,458.7098],[4.1727,34.2074,477.8317],[4.1791,34.2134,460.2995],[4.1776,34.2188,450.2351],[4.1719,34.2205,450.872]]]]}
,"properties": {"GID_2": "DZA.16.6_1","GID_0": "DZA","country": "Algeria","GID_1": "DZA.16_1","province": "Djelfa","NL_NAME_1": "ولايةالجلفة","county": "Amourah","VARNAME_2": "Amoura","NL_NAME_2": "NA","TYPE_2": "Commune","ENGTYPE_2": "Commune","CC_2": "1734","HASC_2": "DZ.DJ.AR","name": "Amourah.county","area_km2": 1051.9166,"hist_schema_id": "Elevation0-9000","hist_area_km2": {"450": 1.5956,"475": 21.0467,"500": 65.2634,"525": 120.3607,"550": 150.1839,"575": 130.7685,"600": 98.3788,"625": 57.3117,"650": 47.48,"675": 40.7118,"700": 37.2016,"725": 34.6238,"750": 33.958,"775": 32.7438,"800": 36.5174,"825": 38.3752,"850": 30.8091,"875": 20.4206,"900": 13.9915,"925": 7.1449,"950": 3.3619,"975": 2.8007,"1000": 4.7611,"1025": 5.8988,"1050": 5.986,"1075": 3.9205,"1100": 2.7477,"1125": 1.5227,"1150": 1.4351,"1175": 0.4726,"1200": 0.0875,"1225": 0.035}}}