{"type":"Feature","properties":{"GID_2":"DZA.2.30_1","GID_0":"DZA","country":"Algeria","GID_1":"DZA.2_1","province":"AïnDefla","NL_NAME_1":"ولايةعينالدفلى","county":"OuedDjemaa","VARNAME_2":"NA","NL_NAME_2":"NA","TYPE_2":"Commune","ENGTYPE_2":"Commune","CC_2":"4415","HASC_2":"DZ.AD.OD","name":"Oued_Djemaa.county"},
"geometry":{"type": "MultiPolygon","coordinates": [[[[2.3195,36.1341,444.1653],[2.3071,36.1286,498.1243],[2.3024,36.1231,435.5819],[2.2942,36.1247,395.972],[2.2724,36.135,382.9906],[2.2699,36.1387,359.718],[2.2572,36.1407,342.986],[2.2557,36.135,369.3049],[2.2669,36.1262,363.3375],[2.2699,36.1202,372.4579],[2.2648,36.1175,376.8499],[2.2548,36.108,430.3695],[2.2618,36.0976,442.0876],[2.2584,36.0915,450.5331],[2.2507,36.0842,481.4761],[2.2499,36.0798,542.8294],[2.2556,36.0801,469.2581],[2.2613,36.0774,484.9169],[2.2611,36.0718,552.5598],[2.2631,36.0679,616.7968],[2.2623,36.0605,722.7661],[2.2658,36.0562,636.874],[2.2856,36.0465,474.8091],[2.2873,36.0419,464.5844],[2.2727,36.0381,557.825],[2.2702,36.0342,628.4194],[2.2742,36.029,736.1521],[2.2738,36.0243,679.3707],[2.2784,36.0198,544.9466],[2.2898,36.0171,563.8076],[2.3057,36.0041,641.6934],[2.3066,35.9976,706.4026],[2.3111,35.9868,948.7673],[2.3203,35.9776,1136.0337],[2.3309,35.971,1147.7166],[2.3384,35.9588,1363.351],[2.3434,35.9548,1249.78],[2.3491,35.953,1223.3167],[2.3558,35.9544,1264.5298],[2.3727,35.9492,1363.8212],[2.3777,35.9528,1481.0587],[2.385,35.9534,1479.2971],[2.3905,35.9515,1440.7653],[2.3951,35.943,1240.7239],[2.4043,35.9456,1301.7223],[2.4237,35.9444,1186.6542],[2.4394,35.9487,1005.3645],[2.4431,35.9519,976.0331],[2.4447,35.9621,944.0955],[2.4474,35.9657,880.2366],[2.456,35.9711,834.8556],[2.4592,35.9763,837.9464],[2.4526,35.9857,781.4808],[2.4527,35.9916,821.2798],[2.4607,36.0097,988.9943],[2.4617,36.0161,1095.1794],[2.4542,36.0235,1267.2161],[2.461,36.0365,938.8038],[2.4599,36.0538,823.5574],[2.4545,36.0557,763.991],[2.4405,36.0522,943.9099],[2.438,36.0573,932.3278],[2.4212,36.0517,920.9834],[2.4103,36.0578,1008.9958],[2.3907,36.0753,627.8613],[2.3796,36.0803,548.8613],[2.3671,36.0753,520.3953],[2.3466,36.0939,489.8944],[2.3493,36.0974,535.4447],[2.362,36.0984,557.4451],[2.3671,36.1006,584.7322],[2.3703,36.1059,618.3535],[2.3703,36.1114,600.2905],[2.367,36.1157,541.9358],[2.3505,36.1256,490.0544],[2.3388,36.1277,492.2923],[2.3345,36.1317,457.9657],[2.327,36.1342,440.3441],[2.3195,36.1341,444.1653]]]]}}