{"type": "Feature","bbox": [-0.7428,34.7486,-0.5723,34.9234],"geometry": {"type": "MultiPolygon","coordinates": [[[[-0.6188,34.7631,970.9945],[-0.6123,34.7744,928.7933],[-0.6204,34.7774,924.7737],[-0.6256,34.7814,918.1962],[-0.6228,34.7876,898.655],[-0.6025,34.8226,818.0928],[-0.5959,34.8228,822.3242],[-0.5869,34.8197,825.3007],[-0.5723,34.8456,788.4557],[-0.6045,34.8611,793.227],[-0.6063,34.8657,792.2492],[-0.6064,34.8726,794.0704],[-0.5999,34.8917,928.0111],[-0.5996,34.8973,795.3579],[-0.6084,34.9031,826.9922],[-0.6199,34.9075,863.2773],[-0.6493,34.9234,1095.0442],[-0.6537,34.9141,1052.2502],[-0.6619,34.9066,914.6053],[-0.6799,34.9032,844.924],[-0.6873,34.8988,817.7499],[-0.6948,34.897,796.1884],[-0.7008,34.898,793.7465],[-0.7139,34.8937,752.0509],[-0.726,34.8935,732.138],[-0.7301,34.8908,735.6144],[-0.7352,34.8684,765.2532],[-0.7335,34.8618,763.7077],[-0.7406,34.8572,761.3931],[-0.7428,34.8526,773.5891],[-0.736,34.8402,786.9862],[-0.7214,34.8341,805.0043],[-0.7002,34.8156,854.9318],[-0.6951,34.8036,869.2744],[-0.6951,34.7885,886.5896],[-0.6896,34.7857,877.4425],[-0.6855,34.7739,899.2649],[-0.6724,34.7594,923.2175],[-0.6708,34.7546,927.2296],[-0.6578,34.7486,951.0381],[-0.6423,34.7591,972.6138],[-0.6188,34.7631,970.9945]]]]}
,"properties": {"GID_2": "DZA.38.24_1","GID_0": "DZA","country": "Algeria","GID_1": "DZA.38_1","province": "SidiBelAbbès","NL_NAME_1": "ولايةسيديبلعباس","county": "Mezaourou","VARNAME_2": "NA","NL_NAME_2": "NA","TYPE_2": "Commune","ENGTYPE_2": "Commune","CC_2": "2206","HASC_2": "DZ.SB.MZ","name": "Mezaourou.county","area_km2": 164.8957,"hist_schema_id": "Elevation0-9000","hist_area_km2": {"725": 0.1913,"750": 1.6697,"775": 6.3494,"800": 23.5757,"825": 28.4665,"850": 31.3921,"875": 25.8601,"900": 17.6142,"925": 11.2271,"950": 8.3024,"975": 4.7158,"1000": 2.5232,"1025": 1.026,"1050": 0.6608,"1075": 0.5912,"1100": 0.4695,"1125": 0.2434,"1150": 0.0174}}}