{"type": "Feature","bbox": [-0.2124,35.1188,-0.0416,35.2677],"geometry": {"type": "MultiPolygon","coordinates": [[[[-0.0416,35.2305,518.453],[-0.0443,35.234,489.1668],[-0.0669,35.2445,385.5511],[-0.0867,35.2487,295.5894],[-0.1081,35.258,439.2425],[-0.1285,35.2628,406.5952],[-0.1304,35.2677,372.2264],[-0.1372,35.2662,381.3115],[-0.1433,35.2668,393.2579],[-0.1963,35.2413,513.4982],[-0.1927,35.2368,551.1835],[-0.1878,35.225,662.2214],[-0.1894,35.2181,625.8079],[-0.2007,35.2177,633.2452],[-0.2065,35.2125,584.1664],[-0.2124,35.2029,510.096],[-0.2071,35.1937,476.6676],[-0.2089,35.1869,445.6951],[-0.208,35.1794,419.9968],[-0.2,35.1781,407.5285],[-0.1935,35.1797,394.4456],[-0.187,35.1784,388.6618],[-0.1815,35.1744,391.3148],[-0.174,35.1547,398.6617],[-0.1701,35.1331,415.672],[-0.1736,35.1215,433.5963],[-0.1699,35.1188,434.8485],[-0.1388,35.1217,432.584],[-0.1266,35.1213,445.1633],[-0.1194,35.132,434.7222],[-0.1111,35.1645,380.063],[-0.0953,35.1684,349.5969],[-0.0927,35.1737,366.1889],[-0.0929,35.1864,339.3599],[-0.0975,35.189,319.723],[-0.0896,35.1923,318.7635],[-0.0871,35.1999,363.963],[-0.0924,35.2037,312.7106],[-0.0886,35.2112,332.4854],[-0.0775,35.2184,316.3429],[-0.0416,35.2305,518.453]]]]}
,"properties": {"GID_2": "DZA.27.4_1","GID_0": "DZA","country": "Algeria","GID_1": "DZA.27_1","province": "Mascara","NL_NAME_1": "ولايةمعسكر","county": "AinFrass","VARNAME_2": "NA","NL_NAME_2": "NA","TYPE_2": "Commune","ENGTYPE_2": "Commune","CC_2": "2925","HASC_2": "DZ.MC.AS","name": "Ain_Frass.county","area_km2": 133.9233,"hist_schema_id": "Elevation0-9000","hist_area_km2": {"275": 0.2424,"300": 4.9705,"325": 8.0209,"350": 12.6997,"375": 26.8398,"400": 25.6645,"425": 18.3354,"450": 7.0504,"475": 6.3559,"500": 7.516,"525": 5.2302,"550": 4.243,"575": 3.6543,"600": 1.5068,"625": 0.9353,"650": 0.5889,"675": 0.0693}}}