{"type":"Feature","properties":{"GID_2":"DZA.30.12_1","GID_0":"DZA","country":"Algeria","GID_1":"DZA.30_1","province":"Mostaganem","NL_NAME_1":"ولايةمستغانم","county":"Khadra","VARNAME_2":"NA","NL_NAME_2":"NA","TYPE_2":"Commune-Cotiere","ENGTYPE_2":"Commune-Cotiere","CC_2":"2718","HASC_2":"DZ.MG.KA","name":"Khadra.county"},
"geometry":{"type": "MultiPolygon","coordinates": [[[[0.5929,36.285,1.5204],[0.5591,36.2759,2.837],[0.538,36.2643,0.0],[0.4928,36.246,0.0],[0.4889,36.2419,55.9145],[0.4915,36.2362,22.914],[0.4961,36.2344,21.9678],[0.5037,36.2263,19.0141],[0.5195,36.2223,48.6934],[0.5234,36.2189,31.4838],[0.532,36.2157,92.3028],[0.5357,36.2094,50.1523],[0.5609,36.2039,102.1078],[0.5643,36.2007,81.4562],[0.5731,36.1967,107.584],[0.5801,36.1889,116.4663],[0.5801,36.1825,167.9223],[0.5918,36.1784,217.169],[0.6058,36.1923,214.6606],[0.6162,36.1971,297.1858],[0.6191,36.2105,285.0063],[0.6309,36.2154,258.3939],[0.6346,36.2186,218.1696],[0.6271,36.2199,310.7273],[0.6194,36.2301,250.0637],[0.6071,36.2353,226.2362],[0.6181,36.2453,210.8692],[0.6148,36.2498,205.629],[0.6161,36.2548,195.1226],[0.611,36.2584,179.1645],[0.6126,36.263,170.131],[0.6104,36.2749,133.3615],[0.5929,36.285,1.5204]]]]}}