{"type":"Feature","properties":{"GID_2":"DZA.8.11_1","GID_0":"DZA","country":"Algeria","GID_1":"DZA.8_1","province":"Béjaïa","NL_NAME_1":"بجاية","county":"BeniDejllil","VARNAME_2":"BeniDjellil","NL_NAME_2":"NA","TYPE_2":"Commune","ENGTYPE_2":"Commune","CC_2":"623","HASC_2":"DZ.BJ.BD","name":"Beni_Dejllil.county"},
"geometry":{"type": "MultiPolygon","coordinates": [[[[4.8313,36.5788,321.6102],[4.8185,36.5832,415.7046],[4.8065,36.5928,519.0128],[4.7993,36.5874,662.1649],[4.7921,36.5844,701.5985],[4.7858,36.5869,791.8818],[4.7782,36.5874,1010.5652],[4.7673,36.5819,1021.9739],[4.7639,36.5751,977.0241],[4.7674,36.5704,957.0415],[4.7735,36.5686,850.9053],[4.7724,36.5614,818.5488],[4.762,36.555,1032.299],[4.7723,36.5376,969.1931],[4.7725,36.5329,874.4048],[4.7788,36.5349,958.8405],[4.7874,36.5431,933.0806],[4.8262,36.5442,897.9252],[4.8403,36.5368,948.1731],[4.8402,36.5429,1014.1713],[4.827,36.5602,654.0795],[4.8378,36.5673,376.5953],[4.8285,36.5718,578.2139],[4.8313,36.5788,321.6102]]]]}}