{"type":"Feature","properties":{"GID_2":"DZA.38.49_1","GID_0":"DZA","country":"Algeria","GID_1":"DZA.38_1","province":"SidiBelAbbès","NL_NAME_1":"ولايةسيديبلعباس","county":"Telagh","VARNAME_2":"Talāgh","NL_NAME_2":"NA","TYPE_2":"Commune","ENGTYPE_2":"Commune","CC_2":"2205","HASC_2":"DZ.SB.TL","name":"Telagh.county"},
"geometry":{"type": "MultiPolygon","coordinates": [[[[-0.6068,34.7339,1007.8437],[-0.6073,34.7278,1020.2252],[-0.6024,34.7262,1034.1617],[-0.5941,34.7272,1033.0713],[-0.5832,34.7314,1019.76],[-0.5754,34.7308,1023.3223],[-0.5611,34.7329,1029.3328],[-0.5637,34.7381,1000.2001],[-0.5516,34.7389,993.6398],[-0.5438,34.7367,1036.1128],[-0.5257,34.7426,1042.0995],[-0.5035,34.7559,1034.4445],[-0.4668,34.7629,1040.7968],[-0.4589,34.7632,1046.9971],[-0.4621,34.7771,973.5836],[-0.46,34.7815,963.9542],[-0.4499,34.7923,927.6884],[-0.4484,34.7969,917.6959],[-0.4403,34.8043,895.1472],[-0.4475,34.812,875.8062],[-0.4456,34.8213,853.4545],[-0.4466,34.8303,840.8641],[-0.4582,34.8521,802.726],[-0.4624,34.8543,795.5906],[-0.4716,34.8557,796.0964],[-0.4794,34.8598,787.6103],[-0.5203,34.8446,798.2418],[-0.519,34.8388,812.5356],[-0.5234,34.8384,808.2507],[-0.5432,34.8436,791.3007],[-0.5407,34.8477,782.9302],[-0.524,34.8618,769.3695],[-0.5236,34.8685,760.5964],[-0.5299,34.8788,735.4175],[-0.5379,34.8807,741.2808],[-0.5564,34.8746,745.1595],[-0.5869,34.8197,825.3007],[-0.5959,34.8228,822.3242],[-0.6025,34.8226,818.0928],[-0.6256,34.7814,918.1962],[-0.6204,34.7774,924.7737],[-0.6123,34.7744,928.7933],[-0.6188,34.7631,970.9945],[-0.5947,34.7645,963.3751],[-0.5895,34.7617,947.9905],[-0.5913,34.7552,958.3824],[-0.5962,34.7472,1018.0775],[-0.6068,34.7339,1007.8437]]]]}}