{"type":"Feature","properties":{"GID_2":"DZA.4.15_1","GID_0":"DZA","country":"Algeria","GID_1":"DZA.4_1","province":"Alger","NL_NAME_1":"ولايةالجزائر","county":"LesEucalyptus","VARNAME_2":"NA","NL_NAME_2":"NA","TYPE_2":"Commune","ENGTYPE_2":"Commune","CC_2":"1633","HASC_2":"DZ.AL.LE","name":"Les_Eucalyptus.county"},
"geometry":{"type": "MultiPolygon","coordinates": [[[[3.1328,36.6481,31.6498],[3.1364,36.6436,33.9408],[3.1489,36.6515,30.3943],[3.1782,36.642,36.9614],[3.1833,36.6512,33.0082],[3.2014,36.6543,30.0529],[3.2066,36.6602,27.8294],[3.2061,36.6688,24.9647],[3.2104,36.671,26.75],[3.2005,36.683,20.5166],[3.1933,36.6882,18.2636],[3.1653,36.691,14.7595],[3.1633,36.6971,13.9971],[3.1562,36.7055,17.3894],[3.1513,36.7073,12.8097],[3.1552,36.7104,16.0306],[3.1492,36.7174,34.19],[3.1497,36.7233,47.1274],[3.1461,36.7271,33.0821],[3.129,36.7317,12.1253],[3.1328,36.7185,17.1782],[3.1291,36.7134,9.1674],[3.1238,36.7103,12.3283],[3.1169,36.7033,13.9905],[3.1249,36.6931,14.3142],[3.1251,36.6856,16.3579],[3.1278,36.6802,18.9405],[3.1267,36.6691,25.5053],[3.1328,36.6481,31.6498]]]]}}