{"type": "Feature","bbox": [2.8705,36.5358,2.982,36.6218],"geometry": {"type": "MultiPolygon","coordinates": [[[[2.9543,36.6113,34.2415],[2.9475,36.61,33.7423],[2.9443,36.5985,38.5072],[2.9311,36.6027,35.7703],[2.9255,36.5989,33.8969],[2.9155,36.6036,32.3688],[2.9079,36.6054,27.3665],[2.9039,36.6102,26.4275],[2.8829,36.6218,19.452],[2.8834,36.6153,19.3358],[2.8931,36.6024,21.9954],[2.8959,36.5955,25.1012],[2.8815,36.5995,19.7687],[2.8769,36.593,21.9103],[2.8777,36.5803,39.3552],[2.8753,36.5749,47.0115],[2.875,36.5619,66.0624],[2.8705,36.5491,86.6403],[2.8707,36.5392,103.8791],[2.8776,36.5358,113.6455],[2.8791,36.5415,103.5322],[2.8897,36.5512,83.6534],[2.8928,36.5458,93.6427],[2.8985,36.5471,93.3533],[2.9027,36.5455,95.2021],[2.9082,36.5505,85.6662],[2.9141,36.5526,84.0287],[2.9294,36.5531,79.0271],[2.9358,36.5502,79.5936],[2.9371,36.5459,88.7255],[2.9474,36.5378,86.625],[2.9491,36.5425,78.9835],[2.9657,36.5561,56.4616],[2.982,36.5592,59.219],[2.9645,36.5776,47.8008],[2.9632,36.5897,43.8048],[2.9588,36.5945,42.0776],[2.9586,36.6013,38.7506],[2.9543,36.6113,34.2415]]]]}
,"properties": {"GID_2": "DZA.10.7_1","GID_0": "DZA","country": "Algeria","GID_1": "DZA.10_1","province": "Blida","NL_NAME_1": "البليدة","county": "Boufarik","VARNAME_2": "Būfarik","NL_NAME_2": "NA","TYPE_2": "Commune","ENGTYPE_2": "Commune","CC_2": "916","HASC_2": "DZ.BL.BF","name": "Boufarik.county","area_km2": 51.65991,"hist_schema_id": "Elevation0-9000","hist_area_km2": {"25": 11.93257,"50": 25.99996,"75": 11.9048,"100": 1.82258}}}