{"type": "Feature","bbox": [8.0634,34.7296,8.3196,35.1323],"geometry": {"type": "MultiPolygon","coordinates": [[[[8.2974,34.7316,682.7198],[8.3019,34.7333,677.3817],[8.3134,34.7296,670.74],[8.3196,34.7332,666.7343],[8.3091,34.7381,673.4746],[8.3006,34.7453,684.6462],[8.2953,34.7516,688.2235],[8.284,34.7737,703.9648],[8.2856,34.7939,729.2885],[8.2881,34.8006,741.3591],[8.2872,34.8071,743.335],[8.2827,34.8125,728.9043],[8.2829,34.8271,739.8401],[8.2791,34.8371,749.7211],[8.2757,34.8405,751.7097],[8.2773,34.8456,754.6329],[8.2736,34.8515,762.9357],[8.2747,34.8624,772.726],[8.2634,34.8751,775.9895],[8.2621,34.8828,787.0142],[8.2637,34.8914,794.3619],[8.2577,34.9093,811.6166],[8.254,34.9122,843.2214],[8.2544,34.9139,816.8123],[8.2497,34.9201,830.7134],[8.259,34.9281,1077.8307],[8.2739,34.9338,1066.6069],[8.288,34.9442,1135.6421],[8.2957,34.9459,1136.7843],[8.3027,34.9504,1083.8574],[8.3064,34.9483,1116.3795],[8.3177,34.9505,1047.0208],[8.3169,34.9585,1014.7184],[8.3104,34.9588,1010.3099],[8.2985,34.9646,958.4413],[8.2729,34.9647,929.975],[8.2644,34.9673,916.0706],[8.2525,34.9747,889.0475],[8.259,34.9885,889.22],[8.267,34.9945,893.9468],[8.273,34.9968,896.777],[8.2791,35.0088,904.3817],[8.2719,35.019,910.7094],[8.2713,35.0251,913.6447],[8.2611,35.0297,918.1359],[8.256,35.0346,922.7798],[8.2524,35.0409,927.5582],[8.2511,35.0482,932.101],[8.2458,35.0614,940.3182],[8.242,35.0656,956.5175],[8.2424,35.0711,981.5374],[8.2383,35.0836,957.411],[8.2388,35.0879,961.7771],[8.2282,35.1035,964.3605],[8.2151,35.1124,970.7153],[8.2204,35.1209,981.3496],[8.1693,35.1323,1096.1636],[8.1759,35.1241,1065.7283],[8.1873,35.0988,1027.8873],[8.1787,35.0492,997.9774],[8.1178,35.0252,1080.9811],[8.1036,34.9802,1068.9535],[8.0827,34.9598,1090.2688],[8.0828,34.9529,1093.9431],[8.0897,34.9366,1002.8692],[8.0896,34.9312,990.7515],[8.0807,34.9083,939.8912],[8.0753,34.8728,875.9892],[8.0634,34.8321,827.1953],[8.0659,34.8252,816.7276],[8.0703,34.8191,812.1517],[8.0749,34.815,805.298],[8.0818,34.8124,804.8544],[8.0893,34.8038,797.1663],[8.1019,34.7992,787.8345],[8.109,34.7992,791.0212],[8.1205,34.7909,777.9018],[8.1337,34.7888,775.605],[8.1448,34.7851,766.1084],[8.1597,34.7843,760.8489],[8.1711,34.7816,753.3447],[8.1897,34.7899,742.427],[8.2072,34.7858,737.0862],[8.2109,34.7802,732.1971],[8.2171,34.7767,731.3813],[8.2221,34.7677,725.4528],[8.2263,34.7648,722.5933],[8.2291,34.7603,719.6234],[8.237,34.7542,723.0797],[8.2399,34.7487,711.5793],[8.2459,34.7463,707.4267],[8.2573,34.7458,703.3088],[8.2681,34.74,695.4212],[8.2811,34.7411,688.9129],[8.2877,34.7396,686.0685],[8.2974,34.7316,682.7198]]]]}
,"properties": {"GID_2": "DZA.42.25_1","GID_0": "DZA","country": "Algeria","GID_1": "DZA.42_1","province": "Tébessa","NL_NAME_1": "ولايةتبسة","county": "SafsafElOuesra","VARNAME_2": "NA","NL_NAME_2": "NA","TYPE_2": "Commune","ENGTYPE_2": "Commune","CC_2": "1207","HASC_2": "DZ.TB.SS","name": "Safsaf_El_Ouesra.county","area_km2": 548.9653,"hist_schema_id": "Elevation0-9000","hist_area_km2": {"675": 2.9445,"700": 11.6013,"725": 13.9487,"750": 24.9319,"775": 43.0287,"800": 50.7998,"825": 34.8869,"850": 25.8681,"875": 34.7755,"900": 40.5483,"925": 40.7497,"950": 49.8979,"975": 48.8454,"1000": 36.9097,"1025": 35.6372,"1050": 27.6528,"1075": 16.7461,"1100": 6.8289,"1125": 1.3556,"1150": 0.4345,"1175": 0.4693,"1200": 0.1043}}}