{"type":"Feature","properties":{"GID_2":"DZA.23.20_1","GID_0":"DZA","country":"Algeria","GID_1":"DZA.23_1","province":"Jijel","NL_NAME_1":"ولايةجيجل","county":"OuledRabah","VARNAME_2":"NA","NL_NAME_2":"NA","TYPE_2":"Commune","ENGTYPE_2":"Commune","CC_2":"1827","HASC_2":"DZ.JJ.OR","name":"Ouled_Rabah.county"},
"geometry":{"type": "MultiPolygon","coordinates": [[[[6.1295,36.6024,508.2469],[6.1296,36.5966,636.9379],[6.1323,36.5922,679.2554],[6.1416,36.5896,888.2448],[6.1484,36.5899,1077.7756],[6.1615,36.5847,1123.1858],[6.1754,36.5827,1022.8615],[6.181,36.5851,944.2686],[6.1892,36.5857,1020.6606],[6.206,36.5809,1215.8068],[6.2247,36.5792,1123.4017],[6.237,36.5807,935.2833],[6.2417,36.5818,839.8204],[6.2449,36.5865,774.6074],[6.2467,36.5935,673.0309],[6.2457,36.601,537.9919],[6.2518,36.6021,519.8386],[6.2553,36.6076,390.352],[6.2549,36.62,113.2393],[6.2433,36.6175,186.0352],[6.2389,36.6185,196.5281],[6.2347,36.621,357.9152],[6.2288,36.6301,958.405],[6.2129,36.6293,957.2686],[6.2073,36.6325,948.1027],[6.2103,36.6425,970.6315],[6.2107,36.6516,1008.1794],[6.2089,36.6601,1219.6342],[6.1872,36.6589,1308.8625],[6.1717,36.6647,1069.0076],[6.1619,36.6617,1126.7363],[6.1564,36.6529,1093.441],[6.1462,36.6487,932.365],[6.1414,36.6432,892.6184],[6.1346,36.6414,1004.0676],[6.1213,36.6428,1104.7942],[6.1175,36.6351,1191.9484],[6.1183,36.6223,1205.4073],[6.1255,36.6065,586.3772],[6.1295,36.6024,508.2469]]]]}}