{"type": "Feature","bbox": [4.5573,35.1771,4.8899,35.4508],"geometry": {"type": "MultiPolygon","coordinates": [[[[4.8899,35.3658,393.0834],[4.8724,35.3753,392.0],[4.75,35.4508,392.0],[4.5573,35.3939,393.2875],[4.5645,35.3847,393.1716],[4.5823,35.3705,392.9916],[4.5852,35.3647,393.8011],[4.6,35.3507,393.165],[4.5965,35.3482,396.3917],[4.5967,35.305,438.0342],[4.5942,35.2972,439.0797],[4.5885,35.2939,457.4729],[4.6088,35.2416,772.6896],[4.6002,35.2322,521.3225],[4.6145,35.2357,518.0671],[4.6175,35.2394,531.8983],[4.6203,35.2537,589.7033],[4.6268,35.2517,734.6157],[4.6308,35.2448,539.6005],[4.6397,35.2469,636.4387],[4.645,35.2458,690.5183],[4.6468,35.2415,629.8558],[4.6433,35.2379,607.935],[4.6416,35.2333,529.4933],[4.6503,35.2328,504.748],[4.6528,35.2399,519.4567],[4.6586,35.2405,515.5547],[4.6601,35.2474,616.4924],[4.6651,35.2437,573.7782],[4.6683,35.238,498.019],[4.68,35.1939,535.2477],[4.7051,35.1989,502.4296],[4.7207,35.1989,523.8405],[4.7469,35.1963,466.7576],[4.7467,35.1915,479.3938],[4.7419,35.1771,476.8079],[4.7475,35.1805,488.1147],[4.7591,35.1831,500.8165],[4.7934,35.2063,472.7755],[4.7984,35.2127,468.0177],[4.8253,35.208,500.3268],[4.8535,35.2344,466.6447],[4.8588,35.2539,442.3473],[4.8646,35.259,453.7489],[4.8693,35.266,505.0964],[4.8825,35.347,420.4518],[4.8899,35.3658,393.0834]]]]}
,"properties": {"GID_2": "DZA.26.22_1","GID_0": "DZA","country": "Algeria","GID_1": "DZA.26_1","province": "M'Sila","NL_NAME_1": "ولايةالمسيلة","county": "M'Cif","VARNAME_2": "Mcif","NL_NAME_2": "NA","TYPE_2": "Commune","ENGTYPE_2": "Commune","CC_2": "2808","HASC_2": "DZ.MS.MC","name": "M'Cif.county","area_km2": 585.9194,"hist_schema_id": "Elevation0-9000","hist_area_km2": {"400": 273.4586,"425": 145.8732,"450": 68.9728,"475": 30.9822,"500": 24.6809,"525": 7.5329,"550": 5.8179,"575": 3.8263,"600": 3.6529,"625": 3.6702,"650": 4.4319,"675": 3.2374,"700": 2.6662,"725": 1.8006,"750": 1.9045,"775": 1.5756,"800": 1.0562,"825": 0.5021,"850": 0.1905,"875": 0.0693,"900": 0.0173}}}