{"type": "Feature","bbox": [5.272,33.4185,5.7476,33.7771],"geometry": {"type": "MultiPolygon","coordinates": [[[[5.2802,33.4302,195.0957],[5.4028,33.4257,212.459],[5.7184,33.4185,104.0953],[5.7291,33.4209,96.8784],[5.7476,33.5302,84.9514],[5.5893,33.5894,141.7795],[5.6047,33.6648,166.8346],[5.4436,33.7472,202.2432],[5.2979,33.7771,254.133],[5.2722,33.7406,275.4009],[5.272,33.7341,260.6846],[5.2879,33.6434,260.3823],[5.2878,33.5986,260.8339],[5.2829,33.558,256.0136],[5.2855,33.5499,242.6773],[5.3127,33.4955,236.3048],[5.3149,33.4722,233.5015],[5.3126,33.4669,229.7209],[5.2987,33.4535,215.7541],[5.2802,33.4302,195.0957]]]]}
,"properties": {"GID_2": "DZA.18.14_1","GID_0": "DZA","country": "Algeria","GID_1": "DZA.18_1","province": "ElOued","NL_NAME_1": "ولايةالوادي","county": "M'Rara","VARNAME_2": "Mrara","NL_NAME_2": "NA","TYPE_2": "Commune","ENGTYPE_2": "Commune","CC_2": "3922","HASC_2": "DZ.EO.MR","name": "M'Rara.county","area_km2": 1187.992,"hist_schema_id": "Elevation0-9000","hist_area_km2": {"75": 0.9191,"100": 49.1263,"125": 103.3882,"150": 174.2083,"175": 233.7368,"200": 207.6477,"225": 217.5264,"250": 197.9626,"275": 3.4767}}}