{"type":"Feature","properties":{"GID_2":"DZA.43.30_1","GID_0":"DZA","country":"Algeria","GID_1":"DZA.43_1","province":"Tiaret","NL_NAME_1":"ولايةتيارت","county":"Serghine","VARNAME_2":"NA","NL_NAME_2":"NA","TYPE_2":"Commune","ENGTYPE_2":"Commune","CC_2":"1439","HASC_2":"DZ.TR.SN","name":"Serghine.county"},
"geometry":{"type": "MultiPolygon","coordinates": [[[[2.5257,35.3337,709.3058],[2.5022,35.3109,756.1368],[2.481,35.3127,751.451],[2.4635,35.2843,826.5478],[2.4466,35.2835,857.5753],[2.4351,35.2774,846.6497],[2.4078,35.2519,1063.8334],[2.398,35.2402,969.6638],[2.3923,35.2387,981.5042],[2.3893,35.233,922.4788],[2.3841,35.2293,901.1494],[2.364,35.2185,854.4966],[2.523,35.1322,783.3855],[2.5311,35.1274,792.7609],[2.5335,35.121,795.2803],[2.5377,35.1172,800.9061],[2.5485,35.1149,812.7336],[2.5644,35.1076,816.953],[2.5702,35.0942,813.0216],[2.5848,35.087,814.4312],[2.5942,35.0992,793.4734],[2.627,35.1585,801.9466],[2.6358,35.1698,792.8206],[2.6394,35.1737,782.4043],[2.6543,35.1813,788.5966],[2.6677,35.1835,791.4929],[2.6648,35.1898,778.3462],[2.6566,35.1991,768.0828],[2.6563,35.2065,763.6459],[2.6706,35.2413,786.4524],[2.6408,35.2374,765.3271],[2.6342,35.2386,757.9689],[2.6132,35.2444,745.718],[2.5878,35.26,746.7867],[2.5779,35.2726,728.9533],[2.5683,35.2798,725.4596],[2.5743,35.2901,718.3561],[2.5725,35.2951,717.454],[2.5741,35.3011,717.2874],[2.565,35.308,716.9813],[2.5588,35.3172,713.3029],[2.5406,35.325,711.738],[2.5257,35.3337,709.3058]]]]}}